<?xml version="1.0" encoding="UTF-8"?>
<gpx version="1.1" creator="HWN Route Compare (OpenRouteService)" xmlns="http://www.topografix.com/GPX/1/1">
    <metadata>
        <name>OpenRouteService – Tour A1</name>
    </metadata>
    <trk>
        <name>OpenRouteService – Tour A1</name>
        <trkseg>
            <trkpt lat="51.819268" lon="10.224998"><ele>387</ele></trkpt>
            <trkpt lat="51.819249" lon="10.224987"><ele>382</ele></trkpt>
            <trkpt lat="51.819201" lon="10.225014"><ele>386.3</ele></trkpt>
            <trkpt lat="51.819107" lon="10.225005"><ele>385</ele></trkpt>
            <trkpt lat="51.819083" lon="10.225374"><ele>390.4</ele></trkpt>
            <trkpt lat="51.819108" lon="10.225915"><ele>391.5</ele></trkpt>
            <trkpt lat="51.819086" lon="10.2262"><ele>394</ele></trkpt>
            <trkpt lat="51.819256" lon="10.226246"><ele>402.4</ele></trkpt>
            <trkpt lat="51.819419" lon="10.226374"><ele>403.9</ele></trkpt>
            <trkpt lat="51.819483" lon="10.226486"><ele>404.4</ele></trkpt>
            <trkpt lat="51.819522" lon="10.226622"><ele>404.9</ele></trkpt>
            <trkpt lat="51.819525" lon="10.226905"><ele>405.4</ele></trkpt>
            <trkpt lat="51.819445" lon="10.227202"><ele>405.4</ele></trkpt>
            <trkpt lat="51.819362" lon="10.227401"><ele>406</ele></trkpt>
            <trkpt lat="51.81924" lon="10.227614"><ele>406</ele></trkpt>
            <trkpt lat="51.819166" lon="10.227932"><ele>406.5</ele></trkpt>
            <trkpt lat="51.819149" lon="10.228473"><ele>408.2</ele></trkpt>
            <trkpt lat="51.819283" lon="10.228823"><ele>409.6</ele></trkpt>
            <trkpt lat="51.819358" lon="10.229076"><ele>411.6</ele></trkpt>
            <trkpt lat="51.819546" lon="10.22999"><ele>414.3</ele></trkpt>
            <trkpt lat="51.819604" lon="10.230339"><ele>415</ele></trkpt>
            <trkpt lat="51.819851" lon="10.230937"><ele>415.8</ele></trkpt>
            <trkpt lat="51.820054" lon="10.23132"><ele>413.4</ele></trkpt>
            <trkpt lat="51.820244" lon="10.23162"><ele>409</ele></trkpt>
            <trkpt lat="51.820081" lon="10.23256"><ele>422</ele></trkpt>
            <trkpt lat="51.820049" lon="10.232988"><ele>420.6</ele></trkpt>
            <trkpt lat="51.819949" lon="10.233493"><ele>419.6</ele></trkpt>
            <trkpt lat="51.819931" lon="10.233521"><ele>417</ele></trkpt>
            <trkpt lat="51.819857" lon="10.233616"><ele>417</ele></trkpt>
            <trkpt lat="51.819936" lon="10.233802"><ele>417</ele></trkpt>
            <trkpt lat="51.820018" lon="10.233978"><ele>420.3</ele></trkpt>
            <trkpt lat="51.82017" lon="10.234189"><ele>421</ele></trkpt>
            <trkpt lat="51.82061" lon="10.234793"><ele>421</ele></trkpt>
            <trkpt lat="51.820658" lon="10.234875"><ele>421</ele></trkpt>
            <trkpt lat="51.820691" lon="10.234886"><ele>421</ele></trkpt>
            <trkpt lat="51.820687" lon="10.235775"><ele>420</ele></trkpt>
            <trkpt lat="51.820653" lon="10.236058"><ele>420</ele></trkpt>
            <trkpt lat="51.820585" lon="10.236251"><ele>420</ele></trkpt>
            <trkpt lat="51.82079" lon="10.236582"><ele>426.9</ele></trkpt>
            <trkpt lat="51.821091" lon="10.23683"><ele>427.8</ele></trkpt>
            <trkpt lat="51.821527" lon="10.237094"><ele>427.2</ele></trkpt>
            <trkpt lat="51.82184" lon="10.237404"><ele>432</ele></trkpt>
            <trkpt lat="51.822059" lon="10.237829"><ele>453</ele></trkpt>
            <trkpt lat="51.822297" lon="10.238222"><ele>453.5</ele></trkpt>
            <trkpt lat="51.822369" lon="10.23841"><ele>468</ele></trkpt>
            <trkpt lat="51.822472" lon="10.238688"><ele>468</ele></trkpt>
            <trkpt lat="51.822564" lon="10.23908"><ele>484.6</ele></trkpt>
            <trkpt lat="51.822573" lon="10.239385"><ele>486.3</ele></trkpt>
            <trkpt lat="51.822544" lon="10.239946"><ele>488.2</ele></trkpt>
            <trkpt lat="51.822584" lon="10.240284"><ele>489.3</ele></trkpt>
            <trkpt lat="51.822549" lon="10.240376"><ele>489.5</ele></trkpt>
            <trkpt lat="51.822512" lon="10.240422"><ele>489.6</ele></trkpt>
            <trkpt lat="51.822461" lon="10.240381"><ele>489.8</ele></trkpt>
            <trkpt lat="51.822399" lon="10.240275"><ele>489.2</ele></trkpt>
            <trkpt lat="51.82225" lon="10.239753"><ele>487.4</ele></trkpt>
            <trkpt lat="51.822211" lon="10.239659"><ele>487.5</ele></trkpt>
            <trkpt lat="51.822159" lon="10.239629"><ele>487.6</ele></trkpt>
            <trkpt lat="51.821618" lon="10.239726"><ele>489.5</ele></trkpt>
            <trkpt lat="51.821165" lon="10.239737"><ele>492.7</ele></trkpt>
            <trkpt lat="51.820804" lon="10.239643"><ele>496.1</ele></trkpt>
            <trkpt lat="51.820534" lon="10.239669"><ele>496.6</ele></trkpt>
            <trkpt lat="51.82031" lon="10.239653"><ele>495.9</ele></trkpt>
            <trkpt lat="51.820018" lon="10.239713"><ele>496.1</ele></trkpt>
            <trkpt lat="51.819814" lon="10.23981"><ele>496.1</ele></trkpt>
            <trkpt lat="51.819629" lon="10.239767"><ele>496</ele></trkpt>
            <trkpt lat="51.819358" lon="10.239976"><ele>495.8</ele></trkpt>
            <trkpt lat="51.819112" lon="10.240232"><ele>493</ele></trkpt>
            <trkpt lat="51.818994" lon="10.240452"><ele>501</ele></trkpt>
            <trkpt lat="51.818833" lon="10.240846"><ele>503</ele></trkpt>
            <trkpt lat="51.818755" lon="10.241093"><ele>509</ele></trkpt>
            <trkpt lat="51.818611" lon="10.241609"><ele>518.9</ele></trkpt>
            <trkpt lat="51.818575" lon="10.241854"><ele>520.6</ele></trkpt>
            <trkpt lat="51.818505" lon="10.242097"><ele>526</ele></trkpt>
            <trkpt lat="51.818563" lon="10.242309"><ele>530.9</ele></trkpt>
            <trkpt lat="51.818548" lon="10.242435"><ele>531.5</ele></trkpt>
            <trkpt lat="51.818556" lon="10.242512"><ele>532.1</ele></trkpt>
            <trkpt lat="51.818596" lon="10.242618"><ele>531.9</ele></trkpt>
            <trkpt lat="51.818609" lon="10.242812"><ele>531.7</ele></trkpt>
            <trkpt lat="51.818605" lon="10.242878"><ele>531.4</ele></trkpt>
            <trkpt lat="51.818583" lon="10.242933"><ele>534</ele></trkpt>
            <trkpt lat="51.818901" lon="10.243248"><ele>551.4</ele></trkpt>
            <trkpt lat="51.819209" lon="10.243294"><ele>555.2</ele></trkpt>
            <trkpt lat="51.819296" lon="10.243339"><ele>555.2</ele></trkpt>
            <trkpt lat="51.81942" lon="10.243464"><ele>555</ele></trkpt>
            <trkpt lat="51.819533" lon="10.243715"><ele>554.5</ele></trkpt>
            <trkpt lat="51.819601" lon="10.243983"><ele>554.3</ele></trkpt>
            <trkpt lat="51.819698" lon="10.244159"><ele>554</ele></trkpt>
            <trkpt lat="51.81979" lon="10.244244"><ele>554.9</ele></trkpt>
            <trkpt lat="51.819969" lon="10.244504"><ele>555.1</ele></trkpt>
            <trkpt lat="51.819984" lon="10.244624"><ele>560</ele></trkpt>
            <trkpt lat="51.819933" lon="10.244825"><ele>560.7</ele></trkpt>
            <trkpt lat="51.819964" lon="10.245145"><ele>562</ele></trkpt>
            <trkpt lat="51.819903" lon="10.245251"><ele>562</ele></trkpt>
            <trkpt lat="51.819888" lon="10.245276"><ele>562</ele></trkpt>
            <trkpt lat="51.819748" lon="10.245398"><ele>562</ele></trkpt>
            <trkpt lat="51.819679" lon="10.245541"><ele>562</ele></trkpt>
            <trkpt lat="51.819686" lon="10.245633"><ele>563.8</ele></trkpt>
            <trkpt lat="51.819746" lon="10.245812"><ele>565.2</ele></trkpt>
            <trkpt lat="51.820425" lon="10.247606"><ele>567.5</ele></trkpt>
            <trkpt lat="51.820732" lon="10.248374"><ele>568</ele></trkpt>
            <trkpt lat="51.82078" lon="10.248504"><ele>570.6</ele></trkpt>
            <trkpt lat="51.820966" lon="10.249411"><ele>571.9</ele></trkpt>
            <trkpt lat="51.821054" lon="10.249598"><ele>572</ele></trkpt>
            <trkpt lat="51.821256" lon="10.249801"><ele>572.2</ele></trkpt>
            <trkpt lat="51.821594" lon="10.250084"><ele>572.7</ele></trkpt>
            <trkpt lat="51.821718" lon="10.250154"><ele>573.1</ele></trkpt>
            <trkpt lat="51.82182" lon="10.250166"><ele>577</ele></trkpt>
            <trkpt lat="51.822178" lon="10.250179"><ele>575.8</ele></trkpt>
            <trkpt lat="51.82251" lon="10.250294"><ele>573</ele></trkpt>
            <trkpt lat="51.822595" lon="10.250779"><ele>564.8</ele></trkpt>
            <trkpt lat="51.822643" lon="10.251214"><ele>564.3</ele></trkpt>
            <trkpt lat="51.822707" lon="10.251347"><ele>564.5</ele></trkpt>
            <trkpt lat="51.822853" lon="10.251484"><ele>564.7</ele></trkpt>
            <trkpt lat="51.822924" lon="10.251589"><ele>564.9</ele></trkpt>
            <trkpt lat="51.822981" lon="10.251736"><ele>564.5</ele></trkpt>
            <trkpt lat="51.823039" lon="10.251945"><ele>564.1</ele></trkpt>
            <trkpt lat="51.823071" lon="10.252153"><ele>562.5</ele></trkpt>
            <trkpt lat="51.823087" lon="10.252482"><ele>558.9</ele></trkpt>
            <trkpt lat="51.823038" lon="10.252758"><ele>558.2</ele></trkpt>
            <trkpt lat="51.822902" lon="10.253149"><ele>556.3</ele></trkpt>
            <trkpt lat="51.822466" lon="10.253937"><ele>544.7</ele></trkpt>
            <trkpt lat="51.822392" lon="10.254116"><ele>525</ele></trkpt>
            <trkpt lat="51.82234" lon="10.254286"><ele>521.7</ele></trkpt>
            <trkpt lat="51.822157" lon="10.255086"><ele>518</ele></trkpt>
            <trkpt lat="51.822229" lon="10.256001"><ele>521.4</ele></trkpt>
            <trkpt lat="51.822258" lon="10.256843"><ele>521.8</ele></trkpt>
            <trkpt lat="51.8223" lon="10.25698"><ele>522.2</ele></trkpt>
            <trkpt lat="51.822375" lon="10.257075"><ele>524</ele></trkpt>
            <trkpt lat="51.82239" lon="10.257253"><ele>519</ele></trkpt>
            <trkpt lat="51.822535" lon="10.257639"><ele>518</ele></trkpt>
            <trkpt lat="51.822953" lon="10.258112"><ele>510.2</ele></trkpt>
            <trkpt lat="51.823545" lon="10.259463"><ele>493.8</ele></trkpt>
            <trkpt lat="51.823579" lon="10.259927"><ele>491.1</ele></trkpt>
            <trkpt lat="51.823586" lon="10.260876"><ele>486.8</ele></trkpt>
            <trkpt lat="51.823696" lon="10.261647"><ele>486</ele></trkpt>
            <trkpt lat="51.823776" lon="10.262049"><ele>484</ele></trkpt>
            <trkpt lat="51.823313" lon="10.263919"><ele>496.3</ele></trkpt>
            <trkpt lat="51.82295" lon="10.265098"><ele>496</ele></trkpt>
            <trkpt lat="51.822962" lon="10.26549"><ele>491.2</ele></trkpt>
            <trkpt lat="51.822916" lon="10.266416"><ele>487.9</ele></trkpt>
            <trkpt lat="51.823014" lon="10.267179"><ele>484.7</ele></trkpt>
            <trkpt lat="51.823282" lon="10.267948"><ele>483</ele></trkpt>
            <trkpt lat="51.823388" lon="10.268211"><ele>480.3</ele></trkpt>
            <trkpt lat="51.82341" lon="10.268471"><ele>472.1</ele></trkpt>
            <trkpt lat="51.822886" lon="10.270988"><ele>438.6</ele></trkpt>
            <trkpt lat="51.822826" lon="10.271211"><ele>437.3</ele></trkpt>
            <trkpt lat="51.822843" lon="10.271313"><ele>432</ele></trkpt>
            <trkpt lat="51.822883" lon="10.271374"><ele>432</ele></trkpt>
            <trkpt lat="51.822925" lon="10.271437"><ele>432</ele></trkpt>
            <trkpt lat="51.822845" lon="10.271773"><ele>413.9</ele></trkpt>
            <trkpt lat="51.822846" lon="10.271969"><ele>414.4</ele></trkpt>
            <trkpt lat="51.822871" lon="10.272181"><ele>415.1</ele></trkpt>
            <trkpt lat="51.82294" lon="10.272443"><ele>415.8</ele></trkpt>
            <trkpt lat="51.822946" lon="10.272513"><ele>409</ele></trkpt>
            <trkpt lat="51.822951" lon="10.272568"><ele>409</ele></trkpt>
            <trkpt lat="51.822932" lon="10.272689"><ele>409</ele></trkpt>
            <trkpt lat="51.822913" lon="10.272661"><ele>409</ele></trkpt>
            <trkpt lat="51.822738" lon="10.272408"><ele>410</ele></trkpt>
            <trkpt lat="51.822589" lon="10.272262"><ele>410</ele></trkpt>
            <trkpt lat="51.822399" lon="10.272109"><ele>410</ele></trkpt>
            <trkpt lat="51.822277" lon="10.272019"><ele>410</ele></trkpt>
            <trkpt lat="51.822186" lon="10.272345"><ele>412.5</ele></trkpt>
            <trkpt lat="51.822146" lon="10.272398"><ele>412.8</ele></trkpt>
            <trkpt lat="51.821887" lon="10.272531"><ele>413.2</ele></trkpt>
            <trkpt lat="51.821832" lon="10.272588"><ele>413.2</ele></trkpt>
            <trkpt lat="51.821821" lon="10.272735"><ele>413</ele></trkpt>
            <trkpt lat="51.821912" lon="10.273058"><ele>414</ele></trkpt>
            <trkpt lat="51.821999" lon="10.273175"><ele>417.8</ele></trkpt>
            <trkpt lat="51.822044" lon="10.273278"><ele>417.4</ele></trkpt>
            <trkpt lat="51.822071" lon="10.273414"><ele>418.4</ele></trkpt>
            <trkpt lat="51.822067" lon="10.273565"><ele>418.4</ele></trkpt>
            <trkpt lat="51.821943" lon="10.274803"><ele>421.5</ele></trkpt>
            <trkpt lat="51.82192" lon="10.275187"><ele>423.4</ele></trkpt>
            <trkpt lat="51.821923" lon="10.275582"><ele>427.5</ele></trkpt>
            <trkpt lat="51.821958" lon="10.276054"><ele>430.7</ele></trkpt>
            <trkpt lat="51.822009" lon="10.276491"><ele>432</ele></trkpt>
            <trkpt lat="51.822071" lon="10.276822"><ele>432.3</ele></trkpt>
            <trkpt lat="51.822146" lon="10.277123"><ele>433.6</ele></trkpt>
            <trkpt lat="51.822391" lon="10.277683"><ele>442</ele></trkpt>
            <trkpt lat="51.822405" lon="10.277717"><ele>442</ele></trkpt>
            <trkpt lat="51.822484" lon="10.277904"><ele>434</ele></trkpt>
            <trkpt lat="51.82255" lon="10.278151"><ele>430.2</ele></trkpt>
            <trkpt lat="51.822766" lon="10.279132"><ele>414</ele></trkpt>
            <trkpt lat="51.822795" lon="10.279432"><ele>422.8</ele></trkpt>
            <trkpt lat="51.823095" lon="10.28091"><ele>424.3</ele></trkpt>
            <trkpt lat="51.82316" lon="10.281158"><ele>425.9</ele></trkpt>
            <trkpt lat="51.82324" lon="10.281389"><ele>429</ele></trkpt>
            <trkpt lat="51.82338" lon="10.28173"><ele>427.3</ele></trkpt>
            <trkpt lat="51.823495" lon="10.281959"><ele>409</ele></trkpt>
            <trkpt lat="51.823617" lon="10.282183"><ele>409</ele></trkpt>
            <trkpt lat="51.823821" lon="10.282624"><ele>420</ele></trkpt>
            <trkpt lat="51.823882" lon="10.283267"><ele>420</ele></trkpt>
            <trkpt lat="51.823848" lon="10.283693"><ele>428</ele></trkpt>
            <trkpt lat="51.823901" lon="10.283882"><ele>432</ele></trkpt>
            <trkpt lat="51.823846" lon="10.284108"><ele>435.2</ele></trkpt>
            <trkpt lat="51.823819" lon="10.284573"><ele>441</ele></trkpt>
            <trkpt lat="51.82383" lon="10.284733"><ele>460.6</ele></trkpt>
            <trkpt lat="51.823826" lon="10.286032"><ele>465</ele></trkpt>
            <trkpt lat="51.823844" lon="10.286451"><ele>471.3</ele></trkpt>
            <trkpt lat="51.823871" lon="10.286633"><ele>471</ele></trkpt>
            <trkpt lat="51.824097" lon="10.287455"><ele>474.6</ele></trkpt>
            <trkpt lat="51.824163" lon="10.287742"><ele>476.8</ele></trkpt>
            <trkpt lat="51.824243" lon="10.288231"><ele>477.8</ele></trkpt>
            <trkpt lat="51.824277" lon="10.288342"><ele>478.5</ele></trkpt>
            <trkpt lat="51.824301" lon="10.288366"><ele>479.1</ele></trkpt>
            <trkpt lat="51.824337" lon="10.288366"><ele>479.8</ele></trkpt>
            <trkpt lat="51.824378" lon="10.288332"><ele>479.7</ele></trkpt>
            <trkpt lat="51.824542" lon="10.28771"><ele>479</ele></trkpt>
            <trkpt lat="51.824632" lon="10.28737"><ele>471.2</ele></trkpt>
            <trkpt lat="51.824679" lon="10.287249"><ele>470.6</ele></trkpt>
            <trkpt lat="51.824699" lon="10.287228"><ele>470.2</ele></trkpt>
            <trkpt lat="51.82473" lon="10.287237"><ele>468</ele></trkpt>
            <trkpt lat="51.824735" lon="10.287665"><ele>482.1</ele></trkpt>
            <trkpt lat="51.824692" lon="10.288165"><ele>485.1</ele></trkpt>
            <trkpt lat="51.824697" lon="10.289829"><ele>503.3</ele></trkpt>
            <trkpt lat="51.824761" lon="10.290321"><ele>512</ele></trkpt>
            <trkpt lat="51.824794" lon="10.290717"><ele>515.8</ele></trkpt>
            <trkpt lat="51.824865" lon="10.291111"><ele>517.2</ele></trkpt>
            <trkpt lat="51.825022" lon="10.29167"><ele>521.3</ele></trkpt>
            <trkpt lat="51.825162" lon="10.292053"><ele>534</ele></trkpt>
            <trkpt lat="51.825139" lon="10.291451"><ele>531.7</ele></trkpt>
            <trkpt lat="51.825158" lon="10.290821"><ele>531.3</ele></trkpt>
            <trkpt lat="51.825184" lon="10.290641"><ele>529</ele></trkpt>
            <trkpt lat="51.825217" lon="10.290557"><ele>531.8</ele></trkpt>
            <trkpt lat="51.825316" lon="10.290414"><ele>531.3</ele></trkpt>
            <trkpt lat="51.825887" lon="10.289722"><ele>545</ele></trkpt>
            <trkpt lat="51.825956" lon="10.289588"><ele>541.3</ele></trkpt>
            <trkpt lat="51.826022" lon="10.289379"><ele>541.8</ele></trkpt>
            <trkpt lat="51.826115" lon="10.288939"><ele>540.4</ele></trkpt>
            <trkpt lat="51.826151" lon="10.288845"><ele>536</ele></trkpt>
            <trkpt lat="51.826023" lon="10.288786"><ele>536</ele></trkpt>
            <trkpt lat="51.825927" lon="10.288669"><ele>536</ele></trkpt>
            <trkpt lat="51.825884" lon="10.288558"><ele>536</ele></trkpt>
            <trkpt lat="51.825927" lon="10.288669"><ele>536</ele></trkpt>
            <trkpt lat="51.826023" lon="10.288786"><ele>536</ele></trkpt>
            <trkpt lat="51.826151" lon="10.288845"><ele>536</ele></trkpt>
            <trkpt lat="51.826131" lon="10.28879"><ele>532.4</ele></trkpt>
            <trkpt lat="51.826142" lon="10.28872"><ele>532.7</ele></trkpt>
            <trkpt lat="51.826224" lon="10.288623"><ele>533</ele></trkpt>
            <trkpt lat="51.826372" lon="10.2887"><ele>533.3</ele></trkpt>
            <trkpt lat="51.826405" lon="10.288644"><ele>533.4</ele></trkpt>
            <trkpt lat="51.826448" lon="10.288627"><ele>533.5</ele></trkpt>
            <trkpt lat="51.82651" lon="10.288639"><ele>533.8</ele></trkpt>
            <trkpt lat="51.826525" lon="10.288549"><ele>534</ele></trkpt>
            <trkpt lat="51.826638" lon="10.288492"><ele>534</ele></trkpt>
            <trkpt lat="51.826659" lon="10.288436"><ele>534.1</ele></trkpt>
            <trkpt lat="51.826775" lon="10.288408"><ele>533.7</ele></trkpt>
            <trkpt lat="51.826612" lon="10.288158"><ele>531.1</ele></trkpt>
            <trkpt lat="51.826641" lon="10.288114"><ele>510</ele></trkpt>
            <trkpt lat="51.82686" lon="10.288117"><ele>504.4</ele></trkpt>
            <trkpt lat="51.827046" lon="10.288171"><ele>503.8</ele></trkpt>
            <trkpt lat="51.827161" lon="10.288238"><ele>503.4</ele></trkpt>
            <trkpt lat="51.827558" lon="10.288339"><ele>508</ele></trkpt>
            <trkpt lat="51.82766" lon="10.288192"><ele>495.3</ele></trkpt>
            <trkpt lat="51.827836" lon="10.288026"><ele>489</ele></trkpt>
            <trkpt lat="51.82798" lon="10.287873"><ele>489</ele></trkpt>
            <trkpt lat="51.82806" lon="10.287822"><ele>489</ele></trkpt>
            <trkpt lat="51.828163" lon="10.287704"><ele>489</ele></trkpt>
            <trkpt lat="51.828315" lon="10.287695"><ele>489</ele></trkpt>
            <trkpt lat="51.828304" lon="10.287899"><ele>495.4</ele></trkpt>
            <trkpt lat="51.828254" lon="10.288163"><ele>495.5</ele></trkpt>
            <trkpt lat="51.828002" lon="10.288915"><ele>498.2</ele></trkpt>
            <trkpt lat="51.827926" lon="10.289063"><ele>499.3</ele></trkpt>
            <trkpt lat="51.827848" lon="10.289521"><ele>500</ele></trkpt>
            <trkpt lat="51.827727" lon="10.290032"><ele>503</ele></trkpt>
            <trkpt lat="51.827933" lon="10.289716"><ele>500.6</ele></trkpt>
            <trkpt lat="51.828657" lon="10.288813"><ele>491.5</ele></trkpt>
            <trkpt lat="51.828941" lon="10.288553"><ele>489.2</ele></trkpt>
            <trkpt lat="51.829249" lon="10.288442"><ele>485.9</ele></trkpt>
            <trkpt lat="51.82995" lon="10.288332"><ele>470.2</ele></trkpt>
            <trkpt lat="51.830843" lon="10.288431"><ele>454.3</ele></trkpt>
            <trkpt lat="51.831072" lon="10.288534"><ele>454.8</ele></trkpt>
            <trkpt lat="51.831238" lon="10.28872"><ele>455.3</ele></trkpt>
            <trkpt lat="51.831294" lon="10.28876"><ele>453.6</ele></trkpt>
            <trkpt lat="51.831489" lon="10.28878"><ele>451</ele></trkpt>
            <trkpt lat="51.831627" lon="10.288932"><ele>451</ele></trkpt>
            <trkpt lat="51.831686" lon="10.28906"><ele>432.5</ele></trkpt>
            <trkpt lat="51.831861" lon="10.289208"><ele>432.6</ele></trkpt>
            <trkpt lat="51.831981" lon="10.289172"><ele>433.2</ele></trkpt>
            <trkpt lat="51.832089" lon="10.288972"><ele>433.8</ele></trkpt>
            <trkpt lat="51.832161" lon="10.288726"><ele>434</ele></trkpt>
            <trkpt lat="51.832245" lon="10.288304"><ele>434.4</ele></trkpt>
            <trkpt lat="51.832261" lon="10.288108"><ele>430</ele></trkpt>
            <trkpt lat="51.832297" lon="10.288252"><ele>430</ele></trkpt>
            <trkpt lat="51.832417" lon="10.288531"><ele>432</ele></trkpt>
            <trkpt lat="51.832399" lon="10.289475"><ele>427</ele></trkpt>
            <trkpt lat="51.832399" lon="10.289527"><ele>427</ele></trkpt>
            <trkpt lat="51.832403" lon="10.289637"><ele>427</ele></trkpt>
            <trkpt lat="51.832409" lon="10.28977"><ele>427</ele></trkpt>
            <trkpt lat="51.832417" lon="10.290002"><ele>422</ele></trkpt>
            <trkpt lat="51.832458" lon="10.291128"><ele>415.6</ele></trkpt>
            <trkpt lat="51.832509" lon="10.291482"><ele>414.7</ele></trkpt>
            <trkpt lat="51.832566" lon="10.291689"><ele>414</ele></trkpt>
            <trkpt lat="51.832645" lon="10.291894"><ele>413.4</ele></trkpt>
            <trkpt lat="51.832972" lon="10.292536"><ele>411.4</ele></trkpt>
            <trkpt lat="51.833033" lon="10.292698"><ele>412</ele></trkpt>
            <trkpt lat="51.833064" lon="10.292821"><ele>412</ele></trkpt>
            <trkpt lat="51.833087" lon="10.292934"><ele>413.3</ele></trkpt>
            <trkpt lat="51.833113" lon="10.293338"><ele>416</ele></trkpt>
            <trkpt lat="51.833289" lon="10.293418"><ele>417.4</ele></trkpt>
            <trkpt lat="51.833446" lon="10.293435"><ele>417.8</ele></trkpt>
            <trkpt lat="51.833694" lon="10.293342"><ele>419</ele></trkpt>
            <trkpt lat="51.834458" lon="10.29274"><ele>444</ele></trkpt>
            <trkpt lat="51.834971" lon="10.292444"><ele>448</ele></trkpt>
            <trkpt lat="51.835625" lon="10.292146"><ele>449.3</ele></trkpt>
            <trkpt lat="51.836071" lon="10.29203"><ele>453</ele></trkpt>
            <trkpt lat="51.836587" lon="10.291978"><ele>453</ele></trkpt>
            <trkpt lat="51.837077" lon="10.292054"><ele>452.1</ele></trkpt>
            <trkpt lat="51.837512" lon="10.292215"><ele>452.5</ele></trkpt>
            <trkpt lat="51.837956" lon="10.292319"><ele>452.7</ele></trkpt>
            <trkpt lat="51.83811" lon="10.292308"><ele>452.9</ele></trkpt>
            <trkpt lat="51.838231" lon="10.292223"><ele>453.4</ele></trkpt>
            <trkpt lat="51.838373" lon="10.292081"><ele>453.7</ele></trkpt>
            <trkpt lat="51.838552" lon="10.291597"><ele>454.9</ele></trkpt>
            <trkpt lat="51.838643" lon="10.29142"><ele>456.1</ele></trkpt>
            <trkpt lat="51.839041" lon="10.291113"><ele>457.5</ele></trkpt>
            <trkpt lat="51.8392" lon="10.291013"><ele>458</ele></trkpt>
            <trkpt lat="51.839355" lon="10.290984"><ele>458</ele></trkpt>
            <trkpt lat="51.839721" lon="10.291024"><ele>458.4</ele></trkpt>
            <trkpt lat="51.840129" lon="10.290962"><ele>457</ele></trkpt>
            <trkpt lat="51.840281" lon="10.290997"><ele>457.9</ele></trkpt>
            <trkpt lat="51.840435" lon="10.291079"><ele>458</ele></trkpt>
            <trkpt lat="51.84067" lon="10.291332"><ele>457.9</ele></trkpt>
            <trkpt lat="51.840938" lon="10.291705"><ele>458.8</ele></trkpt>
            <trkpt lat="51.841491" lon="10.292205"><ele>460.6</ele></trkpt>
            <trkpt lat="51.842024" lon="10.292744"><ele>465.4</ele></trkpt>
            <trkpt lat="51.84241" lon="10.293187"><ele>467.7</ele></trkpt>
            <trkpt lat="51.842687" lon="10.293425"><ele>468.3</ele></trkpt>
            <trkpt lat="51.842833" lon="10.293516"><ele>468.5</ele></trkpt>
            <trkpt lat="51.842997" lon="10.293548"><ele>468.2</ele></trkpt>
            <trkpt lat="51.843189" lon="10.293519"><ele>467.7</ele></trkpt>
            <trkpt lat="51.843331" lon="10.293446"><ele>467.4</ele></trkpt>
            <trkpt lat="51.843716" lon="10.293041"><ele>471.3</ele></trkpt>
            <trkpt lat="51.844044" lon="10.292575"><ele>474.9</ele></trkpt>
            <trkpt lat="51.844698" lon="10.291781"><ele>491.9</ele></trkpt>
            <trkpt lat="51.845021" lon="10.291562"><ele>495.5</ele></trkpt>
            <trkpt lat="51.845247" lon="10.291483"><ele>499.7</ele></trkpt>
            <trkpt lat="51.845483" lon="10.291494"><ele>500.4</ele></trkpt>
            <trkpt lat="51.845768" lon="10.291558"><ele>504</ele></trkpt>
            <trkpt lat="51.84589" lon="10.291631"><ele>492.3</ele></trkpt>
            <trkpt lat="51.845939" lon="10.291685"><ele>491.5</ele></trkpt>
            <trkpt lat="51.846215" lon="10.292134"><ele>489.6</ele></trkpt>
            <trkpt lat="51.846417" lon="10.292405"><ele>488.6</ele></trkpt>
            <trkpt lat="51.846541" lon="10.292666"><ele>487.4</ele></trkpt>
            <trkpt lat="51.846584" lon="10.292831"><ele>487</ele></trkpt>
            <trkpt lat="51.846623" lon="10.293054"><ele>486.4</ele></trkpt>
            <trkpt lat="51.846651" lon="10.293374"><ele>483.8</ele></trkpt>
            <trkpt lat="51.846655" lon="10.293618"><ele>482.2</ele></trkpt>
            <trkpt lat="51.84661" lon="10.294726"><ele>483.2</ele></trkpt>
            <trkpt lat="51.846621" lon="10.295024"><ele>484.3</ele></trkpt>
            <trkpt lat="51.846706" lon="10.295671"><ele>485.2</ele></trkpt>
            <trkpt lat="51.846906" lon="10.296569"><ele>485.1</ele></trkpt>
            <trkpt lat="51.847097" lon="10.297009"><ele>484.8</ele></trkpt>
            <trkpt lat="51.847489" lon="10.297526"><ele>485</ele></trkpt>
            <trkpt lat="51.847965" lon="10.297994"><ele>488.9</ele></trkpt>
            <trkpt lat="51.848188" lon="10.298257"><ele>490.2</ele></trkpt>
            <trkpt lat="51.848651" lon="10.298971"><ele>494.4</ele></trkpt>
            <trkpt lat="51.848886" lon="10.299444"><ele>496</ele></trkpt>
            <trkpt lat="51.849098" lon="10.299748"><ele>496</ele></trkpt>
            <trkpt lat="51.849134" lon="10.299806"><ele>496</ele></trkpt>
            <trkpt lat="51.849326" lon="10.299965"><ele>503</ele></trkpt>
            <trkpt lat="51.849375" lon="10.300014"><ele>491.9</ele></trkpt>
            <trkpt lat="51.849402" lon="10.300114"><ele>492.1</ele></trkpt>
            <trkpt lat="51.849449" lon="10.300193"><ele>492.8</ele></trkpt>
            <trkpt lat="51.849496" lon="10.300205"><ele>493.2</ele></trkpt>
            <trkpt lat="51.849521" lon="10.300145"><ele>490</ele></trkpt>
            <trkpt lat="51.849471" lon="10.300113"><ele>490</ele></trkpt>
            <trkpt lat="51.849521" lon="10.300145"><ele>490</ele></trkpt>
            <trkpt lat="51.849496" lon="10.300205"><ele>493.2</ele></trkpt>
            <trkpt lat="51.849449" lon="10.300193"><ele>492.8</ele></trkpt>
            <trkpt lat="51.849402" lon="10.300114"><ele>492.1</ele></trkpt>
            <trkpt lat="51.849375" lon="10.300014"><ele>491.9</ele></trkpt>
            <trkpt lat="51.849326" lon="10.299965"><ele>503</ele></trkpt>
            <trkpt lat="51.849134" lon="10.299806"><ele>496</ele></trkpt>
            <trkpt lat="51.849098" lon="10.299748"><ele>496</ele></trkpt>
            <trkpt lat="51.848886" lon="10.299444"><ele>496</ele></trkpt>
            <trkpt lat="51.848651" lon="10.298971"><ele>494.4</ele></trkpt>
            <trkpt lat="51.848188" lon="10.298257"><ele>490.2</ele></trkpt>
            <trkpt lat="51.847965" lon="10.297994"><ele>488.9</ele></trkpt>
            <trkpt lat="51.847489" lon="10.297526"><ele>485</ele></trkpt>
            <trkpt lat="51.847097" lon="10.297009"><ele>484.8</ele></trkpt>
            <trkpt lat="51.846906" lon="10.296569"><ele>485.1</ele></trkpt>
            <trkpt lat="51.846706" lon="10.295671"><ele>485.2</ele></trkpt>
            <trkpt lat="51.846621" lon="10.295024"><ele>484.3</ele></trkpt>
            <trkpt lat="51.84661" lon="10.294726"><ele>483.2</ele></trkpt>
            <trkpt lat="51.846655" lon="10.293618"><ele>482.2</ele></trkpt>
            <trkpt lat="51.846651" lon="10.293374"><ele>483.8</ele></trkpt>
            <trkpt lat="51.846623" lon="10.293054"><ele>486.4</ele></trkpt>
            <trkpt lat="51.846584" lon="10.292831"><ele>487</ele></trkpt>
            <trkpt lat="51.846541" lon="10.292666"><ele>487.4</ele></trkpt>
            <trkpt lat="51.846417" lon="10.292405"><ele>488.6</ele></trkpt>
            <trkpt lat="51.846215" lon="10.292134"><ele>489.6</ele></trkpt>
            <trkpt lat="51.845939" lon="10.291685"><ele>491.5</ele></trkpt>
            <trkpt lat="51.84589" lon="10.291631"><ele>492.3</ele></trkpt>
            <trkpt lat="51.845768" lon="10.291558"><ele>504</ele></trkpt>
            <trkpt lat="51.845483" lon="10.291494"><ele>500.4</ele></trkpt>
            <trkpt lat="51.845247" lon="10.291483"><ele>499.7</ele></trkpt>
            <trkpt lat="51.845021" lon="10.291562"><ele>495.5</ele></trkpt>
            <trkpt lat="51.844698" lon="10.291781"><ele>491.9</ele></trkpt>
            <trkpt lat="51.844044" lon="10.292575"><ele>474.9</ele></trkpt>
            <trkpt lat="51.843716" lon="10.293041"><ele>471.3</ele></trkpt>
            <trkpt lat="51.843331" lon="10.293446"><ele>467.4</ele></trkpt>
            <trkpt lat="51.843189" lon="10.293519"><ele>467.7</ele></trkpt>
            <trkpt lat="51.842997" lon="10.293548"><ele>468.2</ele></trkpt>
            <trkpt lat="51.842833" lon="10.293516"><ele>468.5</ele></trkpt>
            <trkpt lat="51.842687" lon="10.293425"><ele>468.3</ele></trkpt>
            <trkpt lat="51.84241" lon="10.293187"><ele>467.7</ele></trkpt>
            <trkpt lat="51.842024" lon="10.292744"><ele>465.4</ele></trkpt>
            <trkpt lat="51.841491" lon="10.292205"><ele>460.6</ele></trkpt>
            <trkpt lat="51.840938" lon="10.291705"><ele>458.8</ele></trkpt>
            <trkpt lat="51.84067" lon="10.291332"><ele>457.9</ele></trkpt>
            <trkpt lat="51.840435" lon="10.291079"><ele>458</ele></trkpt>
            <trkpt lat="51.840281" lon="10.290997"><ele>457.9</ele></trkpt>
            <trkpt lat="51.840129" lon="10.290962"><ele>457</ele></trkpt>
            <trkpt lat="51.839721" lon="10.291024"><ele>458.4</ele></trkpt>
            <trkpt lat="51.839355" lon="10.290984"><ele>458</ele></trkpt>
            <trkpt lat="51.8392" lon="10.291013"><ele>458</ele></trkpt>
            <trkpt lat="51.839041" lon="10.291113"><ele>457.5</ele></trkpt>
            <trkpt lat="51.838643" lon="10.29142"><ele>456.1</ele></trkpt>
            <trkpt lat="51.838552" lon="10.291597"><ele>454.9</ele></trkpt>
            <trkpt lat="51.838373" lon="10.292081"><ele>453.7</ele></trkpt>
            <trkpt lat="51.838231" lon="10.292223"><ele>453.4</ele></trkpt>
            <trkpt lat="51.83811" lon="10.292308"><ele>452.9</ele></trkpt>
            <trkpt lat="51.837956" lon="10.292319"><ele>452.7</ele></trkpt>
            <trkpt lat="51.837512" lon="10.292215"><ele>452.5</ele></trkpt>
            <trkpt lat="51.837077" lon="10.292054"><ele>452.1</ele></trkpt>
            <trkpt lat="51.836587" lon="10.291978"><ele>453</ele></trkpt>
            <trkpt lat="51.836071" lon="10.29203"><ele>453</ele></trkpt>
            <trkpt lat="51.835625" lon="10.292146"><ele>449.3</ele></trkpt>
            <trkpt lat="51.834971" lon="10.292444"><ele>448</ele></trkpt>
            <trkpt lat="51.834458" lon="10.29274"><ele>444</ele></trkpt>
            <trkpt lat="51.833694" lon="10.293342"><ele>419</ele></trkpt>
            <trkpt lat="51.833446" lon="10.293435"><ele>417.8</ele></trkpt>
            <trkpt lat="51.833289" lon="10.293418"><ele>417.4</ele></trkpt>
            <trkpt lat="51.833113" lon="10.293338"><ele>416</ele></trkpt>
            <trkpt lat="51.833087" lon="10.292934"><ele>413.3</ele></trkpt>
            <trkpt lat="51.833064" lon="10.292821"><ele>412</ele></trkpt>
            <trkpt lat="51.833033" lon="10.292698"><ele>412</ele></trkpt>
            <trkpt lat="51.832972" lon="10.292536"><ele>411.4</ele></trkpt>
            <trkpt lat="51.832645" lon="10.291894"><ele>413.4</ele></trkpt>
            <trkpt lat="51.832566" lon="10.291689"><ele>414</ele></trkpt>
            <trkpt lat="51.832509" lon="10.291482"><ele>414.7</ele></trkpt>
            <trkpt lat="51.832458" lon="10.291128"><ele>415.6</ele></trkpt>
            <trkpt lat="51.832417" lon="10.290002"><ele>422</ele></trkpt>
            <trkpt lat="51.832409" lon="10.28977"><ele>427</ele></trkpt>
            <trkpt lat="51.832403" lon="10.289637"><ele>427</ele></trkpt>
            <trkpt lat="51.832399" lon="10.289527"><ele>427</ele></trkpt>
            <trkpt lat="51.832399" lon="10.289475"><ele>427</ele></trkpt>
            <trkpt lat="51.832417" lon="10.288531"><ele>432</ele></trkpt>
            <trkpt lat="51.832297" lon="10.288252"><ele>430</ele></trkpt>
            <trkpt lat="51.832261" lon="10.288108"><ele>430</ele></trkpt>
            <trkpt lat="51.832237" lon="10.288097"><ele>427.6</ele></trkpt>
            <trkpt lat="51.832143" lon="10.287878"><ele>428.1</ele></trkpt>
            <trkpt lat="51.831981" lon="10.287636"><ele>428.3</ele></trkpt>
            <trkpt lat="51.831923" lon="10.287515"><ele>428.5</ele></trkpt>
            <trkpt lat="51.8318" lon="10.28661"><ele>419</ele></trkpt>
            <trkpt lat="51.831754" lon="10.286052"><ele>422</ele></trkpt>
            <trkpt lat="51.831674" lon="10.285612"><ele>416.9</ele></trkpt>
            <trkpt lat="51.831339" lon="10.28429"><ele>409.5</ele></trkpt>
            <trkpt lat="51.831228" lon="10.283961"><ele>406.5</ele></trkpt>
            <trkpt lat="51.831122" lon="10.283758"><ele>407.3</ele></trkpt>
            <trkpt lat="51.831011" lon="10.283633"><ele>407</ele></trkpt>
            <trkpt lat="51.830929" lon="10.283584"><ele>400</ele></trkpt>
            <trkpt lat="51.830696" lon="10.283496"><ele>401.5</ele></trkpt>
            <trkpt lat="51.830332" lon="10.283562"><ele>400.6</ele></trkpt>
            <trkpt lat="51.830055" lon="10.283675"><ele>397.7</ele></trkpt>
            <trkpt lat="51.82956" lon="10.283626"><ele>396.7</ele></trkpt>
            <trkpt lat="51.829063" lon="10.283352"><ele>394</ele></trkpt>
            <trkpt lat="51.828924" lon="10.283164"><ele>393.5</ele></trkpt>
            <trkpt lat="51.828843" lon="10.283099"><ele>393.9</ele></trkpt>
            <trkpt lat="51.828793" lon="10.283119"><ele>394.2</ele></trkpt>
            <trkpt lat="51.828698" lon="10.2833"><ele>391</ele></trkpt>
            <trkpt lat="51.828641" lon="10.283455"><ele>392.6</ele></trkpt>
            <trkpt lat="51.82846" lon="10.283811"><ele>392.5</ele></trkpt>
            <trkpt lat="51.828399" lon="10.283976"><ele>393</ele></trkpt>
            <trkpt lat="51.82829" lon="10.284136"><ele>396</ele></trkpt>
            <trkpt lat="51.828076" lon="10.284274"><ele>398.5</ele></trkpt>
            <trkpt lat="51.828208" lon="10.284025"><ele>398.2</ele></trkpt>
            <trkpt lat="51.828019" lon="10.284153"><ele>398</ele></trkpt>
            <trkpt lat="51.828157" lon="10.28392"><ele>397.7</ele></trkpt>
            <trkpt lat="51.82808" lon="10.28396"><ele>397.5</ele></trkpt>
            <trkpt lat="51.828131" lon="10.283877"><ele>397.4</ele></trkpt>
            <trkpt lat="51.828077" lon="10.283704"><ele>396</ele></trkpt>
            <trkpt lat="51.827914" lon="10.283842"><ele>396</ele></trkpt>
            <trkpt lat="51.827706" lon="10.283978"><ele>396</ele></trkpt>
            <trkpt lat="51.827695" lon="10.283932"><ele>396</ele></trkpt>
            <trkpt lat="51.82767" lon="10.283828"><ele>396</ele></trkpt>
            <trkpt lat="51.8276" lon="10.283526"><ele>396</ele></trkpt>
            <trkpt lat="51.827553" lon="10.283562"><ele>396</ele></trkpt>
            <trkpt lat="51.827527" lon="10.283471"><ele>396</ele></trkpt>
            <trkpt lat="51.827499" lon="10.283413"><ele>403</ele></trkpt>
            <trkpt lat="51.827374" lon="10.28315"><ele>415</ele></trkpt>
            <trkpt lat="51.827224" lon="10.28316"><ele>415</ele></trkpt>
            <trkpt lat="51.827189" lon="10.283162"><ele>415</ele></trkpt>
            <trkpt lat="51.826907" lon="10.283165"><ele>415</ele></trkpt>
            <trkpt lat="51.826842" lon="10.283217"><ele>415</ele></trkpt>
            <trkpt lat="51.826831" lon="10.283088"><ele>415</ele></trkpt>
            <trkpt lat="51.826841" lon="10.282895"><ele>415</ele></trkpt>
            <trkpt lat="51.826898" lon="10.282804"><ele>415</ele></trkpt>
            <trkpt lat="51.826953" lon="10.28265"><ele>415</ele></trkpt>
            <trkpt lat="51.82708" lon="10.282511"><ele>415</ele></trkpt>
            <trkpt lat="51.827048" lon="10.282397"><ele>430.1</ele></trkpt>
            <trkpt lat="51.826969" lon="10.282354"><ele>430.4</ele></trkpt>
            <trkpt lat="51.826902" lon="10.282171"><ele>430.8</ele></trkpt>
            <trkpt lat="51.826838" lon="10.282107"><ele>431.2</ele></trkpt>
            <trkpt lat="51.826504" lon="10.282033"><ele>432.9</ele></trkpt>
            <trkpt lat="51.826412" lon="10.281933"><ele>432.8</ele></trkpt>
            <trkpt lat="51.826257" lon="10.281866"><ele>433.5</ele></trkpt>
            <trkpt lat="51.826214" lon="10.281794"><ele>433.5</ele></trkpt>
            <trkpt lat="51.82618" lon="10.281527"><ele>433.4</ele></trkpt>
            <trkpt lat="51.82604" lon="10.281098"><ele>435.2</ele></trkpt>
            <trkpt lat="51.82577" lon="10.28046"><ele>439</ele></trkpt>
            <trkpt lat="51.825613" lon="10.28016"><ele>440</ele></trkpt>
            <trkpt lat="51.825362" lon="10.279443"><ele>443.7</ele></trkpt>
            <trkpt lat="51.825277" lon="10.279078"><ele>443.2</ele></trkpt>
            <trkpt lat="51.825225" lon="10.278706"><ele>442.6</ele></trkpt>
            <trkpt lat="51.824891" lon="10.277152"><ele>440.7</ele></trkpt>
            <trkpt lat="51.824746" lon="10.276261"><ele>441</ele></trkpt>
            <trkpt lat="51.824685" lon="10.276298"><ele>442.2</ele></trkpt>
            <trkpt lat="51.824535" lon="10.276278"><ele>442.4</ele></trkpt>
            <trkpt lat="51.824422" lon="10.276183"><ele>441.6</ele></trkpt>
            <trkpt lat="51.824358" lon="10.276048"><ele>440.9</ele></trkpt>
            <trkpt lat="51.824281" lon="10.275664"><ele>439.4</ele></trkpt>
            <trkpt lat="51.824254" lon="10.275143"><ele>437.3</ele></trkpt>
            <trkpt lat="51.824209" lon="10.274868"><ele>436.8</ele></trkpt>
            <trkpt lat="51.824043" lon="10.274091"><ele>434.9</ele></trkpt>
            <trkpt lat="51.824008" lon="10.273618"><ele>434.4</ele></trkpt>
            <trkpt lat="51.824027" lon="10.273319"><ele>435.2</ele></trkpt>
            <trkpt lat="51.824011" lon="10.273216"><ele>433</ele></trkpt>
            <trkpt lat="51.823765" lon="10.272571"><ele>439</ele></trkpt>
            <trkpt lat="51.823718" lon="10.272382"><ele>439.6</ele></trkpt>
            <trkpt lat="51.823713" lon="10.272206"><ele>439.9</ele></trkpt>
            <trkpt lat="51.823794" lon="10.271737"><ele>441.7</ele></trkpt>
            <trkpt lat="51.82384" lon="10.271051"><ele>443.1</ele></trkpt>
            <trkpt lat="51.82391" lon="10.270428"><ele>445.5</ele></trkpt>
            <trkpt lat="51.824119" lon="10.26921"><ele>449.6</ele></trkpt>
            <trkpt lat="51.82414" lon="10.268701"><ele>461</ele></trkpt>
            <trkpt lat="51.824174" lon="10.267735"><ele>450</ele></trkpt>
            <trkpt lat="51.824181" lon="10.267329"><ele>451</ele></trkpt>
            <trkpt lat="51.824114" lon="10.26718"><ele>461.2</ele></trkpt>
            <trkpt lat="51.82406" lon="10.267149"><ele>461.7</ele></trkpt>
            <trkpt lat="51.823818" lon="10.2672"><ele>461.8</ele></trkpt>
            <trkpt lat="51.823713" lon="10.267173"><ele>461.8</ele></trkpt>
            <trkpt lat="51.823631" lon="10.267101"><ele>461.9</ele></trkpt>
            <trkpt lat="51.823587" lon="10.267034"><ele>462.7</ele></trkpt>
            <trkpt lat="51.823538" lon="10.26689"><ele>462.9</ele></trkpt>
            <trkpt lat="51.823462" lon="10.266067"><ele>465</ele></trkpt>
            <trkpt lat="51.823476" lon="10.265836"><ele>465</ele></trkpt>
            <trkpt lat="51.823685" lon="10.264593"><ele>473.8</ele></trkpt>
            <trkpt lat="51.823749" lon="10.263969"><ele>475.6</ele></trkpt>
            <trkpt lat="51.823925" lon="10.263192"><ele>477.2</ele></trkpt>
            <trkpt lat="51.823977" lon="10.262806"><ele>477.7</ele></trkpt>
            <trkpt lat="51.823996" lon="10.262527"><ele>477.9</ele></trkpt>
            <trkpt lat="51.823982" lon="10.262108"><ele>484</ele></trkpt>
            <trkpt lat="51.82384" lon="10.262043"><ele>484</ele></trkpt>
            <trkpt lat="51.823776" lon="10.262049"><ele>484</ele></trkpt>
            <trkpt lat="51.823696" lon="10.261647"><ele>486</ele></trkpt>
            <trkpt lat="51.823586" lon="10.260876"><ele>486.8</ele></trkpt>
            <trkpt lat="51.823579" lon="10.259927"><ele>491.1</ele></trkpt>
            <trkpt lat="51.823545" lon="10.259463"><ele>493.8</ele></trkpt>
            <trkpt lat="51.822953" lon="10.258112"><ele>510.2</ele></trkpt>
            <trkpt lat="51.822535" lon="10.257639"><ele>518</ele></trkpt>
            <trkpt lat="51.82239" lon="10.257253"><ele>519</ele></trkpt>
            <trkpt lat="51.822375" lon="10.257075"><ele>524</ele></trkpt>
            <trkpt lat="51.8223" lon="10.25698"><ele>522.2</ele></trkpt>
            <trkpt lat="51.822258" lon="10.256843"><ele>521.8</ele></trkpt>
            <trkpt lat="51.822229" lon="10.256001"><ele>521.4</ele></trkpt>
            <trkpt lat="51.822157" lon="10.255086"><ele>518</ele></trkpt>
            <trkpt lat="51.821952" lon="10.254942"><ele>522</ele></trkpt>
            <trkpt lat="51.821967" lon="10.253795"><ele>527.3</ele></trkpt>
            <trkpt lat="51.821909" lon="10.253666"><ele>527.5</ele></trkpt>
            <trkpt lat="51.821833" lon="10.253562"><ele>526.4</ele></trkpt>
            <trkpt lat="51.821511" lon="10.253291"><ele>524.3</ele></trkpt>
            <trkpt lat="51.821403" lon="10.25324"><ele>523.9</ele></trkpt>
            <trkpt lat="51.821206" lon="10.253271"><ele>521.9</ele></trkpt>
            <trkpt lat="51.820962" lon="10.25324"><ele>520.5</ele></trkpt>
            <trkpt lat="51.820838" lon="10.253192"><ele>518.7</ele></trkpt>
            <trkpt lat="51.820605" lon="10.252995"><ele>515.3</ele></trkpt>
            <trkpt lat="51.820374" lon="10.252915"><ele>514.3</ele></trkpt>
            <trkpt lat="51.820224" lon="10.252814"><ele>512.3</ele></trkpt>
            <trkpt lat="51.819679" lon="10.252085"><ele>502.2</ele></trkpt>
            <trkpt lat="51.819554" lon="10.251999"><ele>500</ele></trkpt>
            <trkpt lat="51.819343" lon="10.251973"><ele>498.4</ele></trkpt>
            <trkpt lat="51.819147" lon="10.251774"><ele>496.4</ele></trkpt>
            <trkpt lat="51.818856" lon="10.251748"><ele>496.3</ele></trkpt>
            <trkpt lat="51.818749" lon="10.251682"><ele>495.5</ele></trkpt>
            <trkpt lat="51.818677" lon="10.251554"><ele>496.9</ele></trkpt>
            <trkpt lat="51.818591" lon="10.25122"><ele>496.6</ele></trkpt>
            <trkpt lat="51.818481" lon="10.251053"><ele>492</ele></trkpt>
            <trkpt lat="51.818375" lon="10.250804"><ele>482.3</ele></trkpt>
            <trkpt lat="51.818178" lon="10.250523"><ele>467</ele></trkpt>
            <trkpt lat="51.818067" lon="10.250316"><ele>468.7</ele></trkpt>
            <trkpt lat="51.817933" lon="10.249837"><ele>472</ele></trkpt>
            <trkpt lat="51.817912" lon="10.249714"><ele>472</ele></trkpt>
            <trkpt lat="51.817861" lon="10.249288"><ele>465</ele></trkpt>
            <trkpt lat="51.817756" lon="10.248916"><ele>466.8</ele></trkpt>
            <trkpt lat="51.817443" lon="10.248076"><ele>463.5</ele></trkpt>
            <trkpt lat="51.81726" lon="10.247717"><ele>444</ele></trkpt>
            <trkpt lat="51.816884" lon="10.246602"><ele>439.5</ele></trkpt>
            <trkpt lat="51.816546" lon="10.245928"><ele>424.5</ele></trkpt>
            <trkpt lat="51.816409" lon="10.244512"><ele>400.2</ele></trkpt>
            <trkpt lat="51.816201" lon="10.243726"><ele>399.7</ele></trkpt>
            <trkpt lat="51.8162" lon="10.242819"><ele>395</ele></trkpt>
            <trkpt lat="51.816109" lon="10.242381"><ele>389</ele></trkpt>
            <trkpt lat="51.815855" lon="10.242703"><ele>384.9</ele></trkpt>
            <trkpt lat="51.815731" lon="10.242735"><ele>382.5</ele></trkpt>
            <trkpt lat="51.815636" lon="10.24273"><ele>373</ele></trkpt>
            <trkpt lat="51.815624" lon="10.243086"><ele>373</ele></trkpt>
            <trkpt lat="51.815424" lon="10.242671"><ele>373</ele></trkpt>
            <trkpt lat="51.815411" lon="10.24236"><ele>376</ele></trkpt>
            <trkpt lat="51.815422" lon="10.242268"><ele>374.6</ele></trkpt>
            <trkpt lat="51.815755" lon="10.241786"><ele>373.1</ele></trkpt>
            <trkpt lat="51.81593" lon="10.241308"><ele>371</ele></trkpt>
            <trkpt lat="51.816204" lon="10.240647"><ele>368.2</ele></trkpt>
            <trkpt lat="51.816363" lon="10.240047"><ele>367.8</ele></trkpt>
            <trkpt lat="51.816502" lon="10.23943"><ele>367</ele></trkpt>
            <trkpt lat="51.816757" lon="10.238604"><ele>378</ele></trkpt>
            <trkpt lat="51.816852" lon="10.238445"><ele>371.8</ele></trkpt>
            <trkpt lat="51.817446" lon="10.237039"><ele>374.2</ele></trkpt>
            <trkpt lat="51.817828" lon="10.23661"><ele>379.3</ele></trkpt>
            <trkpt lat="51.818216" lon="10.236565"><ele>380.4</ele></trkpt>
            <trkpt lat="51.818539" lon="10.236289"><ele>383.3</ele></trkpt>
            <trkpt lat="51.818712" lon="10.236231"><ele>394</ele></trkpt>
            <trkpt lat="51.819192" lon="10.236183"><ele>407.3</ele></trkpt>
            <trkpt lat="51.819416" lon="10.236229"><ele>407.7</ele></trkpt>
            <trkpt lat="51.819549" lon="10.236228"><ele>407.9</ele></trkpt>
            <trkpt lat="51.8198" lon="10.236165"><ele>408.2</ele></trkpt>
            <trkpt lat="51.820112" lon="10.236188"><ele>410.5</ele></trkpt>
            <trkpt lat="51.820283" lon="10.236083"><ele>420</ele></trkpt>
            <trkpt lat="51.820421" lon="10.235952"><ele>420</ele></trkpt>
            <trkpt lat="51.820484" lon="10.235787"><ele>419.9</ele></trkpt>
            <trkpt lat="51.820509" lon="10.235585"><ele>419.7</ele></trkpt>
            <trkpt lat="51.82051" lon="10.235062"><ele>419.6</ele></trkpt>
            <trkpt lat="51.820553" lon="10.234839"><ele>421</ele></trkpt>
            <trkpt lat="51.82061" lon="10.234793"><ele>421</ele></trkpt>
            <trkpt lat="51.82017" lon="10.234189"><ele>421</ele></trkpt>
            <trkpt lat="51.820018" lon="10.233978"><ele>420.3</ele></trkpt>
            <trkpt lat="51.819936" lon="10.233802"><ele>417</ele></trkpt>
            <trkpt lat="51.819857" lon="10.233616"><ele>417</ele></trkpt>
            <trkpt lat="51.819931" lon="10.233521"><ele>417</ele></trkpt>
            <trkpt lat="51.819949" lon="10.233493"><ele>419.6</ele></trkpt>
            <trkpt lat="51.820049" lon="10.232988"><ele>420.6</ele></trkpt>
            <trkpt lat="51.820081" lon="10.23256"><ele>422</ele></trkpt>
            <trkpt lat="51.820244" lon="10.23162"><ele>409</ele></trkpt>
            <trkpt lat="51.820054" lon="10.23132"><ele>413.4</ele></trkpt>
            <trkpt lat="51.819851" lon="10.230937"><ele>415.8</ele></trkpt>
            <trkpt lat="51.819604" lon="10.230339"><ele>415</ele></trkpt>
            <trkpt lat="51.819546" lon="10.22999"><ele>414.3</ele></trkpt>
            <trkpt lat="51.819358" lon="10.229076"><ele>411.6</ele></trkpt>
            <trkpt lat="51.819283" lon="10.228823"><ele>409.6</ele></trkpt>
            <trkpt lat="51.819149" lon="10.228473"><ele>408.2</ele></trkpt>
            <trkpt lat="51.819166" lon="10.227932"><ele>406.5</ele></trkpt>
            <trkpt lat="51.81924" lon="10.227614"><ele>406</ele></trkpt>
            <trkpt lat="51.819362" lon="10.227401"><ele>406</ele></trkpt>
            <trkpt lat="51.819445" lon="10.227202"><ele>405.4</ele></trkpt>
            <trkpt lat="51.819525" lon="10.226905"><ele>405.4</ele></trkpt>
            <trkpt lat="51.819522" lon="10.226622"><ele>404.9</ele></trkpt>
            <trkpt lat="51.819483" lon="10.226486"><ele>404.4</ele></trkpt>
            <trkpt lat="51.819419" lon="10.226374"><ele>403.9</ele></trkpt>
            <trkpt lat="51.819256" lon="10.226246"><ele>402.4</ele></trkpt>
            <trkpt lat="51.819086" lon="10.2262"><ele>394</ele></trkpt>
            <trkpt lat="51.819108" lon="10.225915"><ele>391.5</ele></trkpt>
            <trkpt lat="51.819083" lon="10.225374"><ele>390.4</ele></trkpt>
            <trkpt lat="51.819107" lon="10.225005"><ele>385</ele></trkpt>
            <trkpt lat="51.819201" lon="10.225014"><ele>386.3</ele></trkpt>
            <trkpt lat="51.819249" lon="10.224987"><ele>382</ele></trkpt>
            <trkpt lat="51.819268" lon="10.224998"><ele>387</ele></trkpt>
        </trkseg>
    </trk>
</gpx>
