<?xml version="1.0" encoding="UTF-8"?>
<gpx version="1.1" creator="HWN Route Compare (OpenRouteService)" xmlns="http://www.topografix.com/GPX/1/1">
    <metadata>
        <name>OpenRouteService – Tour A2</name>
    </metadata>
    <trk>
        <name>OpenRouteService – Tour A2</name>
        <trkseg>
            <trkpt lat="51.914835" lon="10.251364"><ele>566</ele></trkpt>
            <trkpt lat="51.914882" lon="10.251356"><ele>566</ele></trkpt>
            <trkpt lat="51.915139" lon="10.251017"><ele>562.8</ele></trkpt>
            <trkpt lat="51.915294" lon="10.25088"><ele>562.7</ele></trkpt>
            <trkpt lat="51.915481" lon="10.25088"><ele>561.6</ele></trkpt>
            <trkpt lat="51.915633" lon="10.250933"><ele>561.4</ele></trkpt>
            <trkpt lat="51.915696" lon="10.250979"><ele>560.4</ele></trkpt>
            <trkpt lat="51.915761" lon="10.251059"><ele>560.3</ele></trkpt>
            <trkpt lat="51.915831" lon="10.251197"><ele>559.4</ele></trkpt>
            <trkpt lat="51.915944" lon="10.25152"><ele>555.4</ele></trkpt>
            <trkpt lat="51.916081" lon="10.252002"><ele>552.8</ele></trkpt>
            <trkpt lat="51.916102" lon="10.252248"><ele>550.3</ele></trkpt>
            <trkpt lat="51.916202" lon="10.252979"><ele>541.5</ele></trkpt>
            <trkpt lat="51.916255" lon="10.253214"><ele>538.8</ele></trkpt>
            <trkpt lat="51.916316" lon="10.253345"><ele>536.9</ele></trkpt>
            <trkpt lat="51.916365" lon="10.253452"><ele>537.5</ele></trkpt>
            <trkpt lat="51.916419" lon="10.253515"><ele>538.1</ele></trkpt>
            <trkpt lat="51.917004" lon="10.253821"><ele>521</ele></trkpt>
            <trkpt lat="51.9173" lon="10.254068"><ele>509.3</ele></trkpt>
            <trkpt lat="51.917389" lon="10.254175"><ele>508</ele></trkpt>
            <trkpt lat="51.917435" lon="10.254295"><ele>508</ele></trkpt>
            <trkpt lat="51.917498" lon="10.254708"><ele>508</ele></trkpt>
            <trkpt lat="51.917503" lon="10.254908"><ele>508</ele></trkpt>
            <trkpt lat="51.917461" lon="10.255"><ele>494</ele></trkpt>
            <trkpt lat="51.917431" lon="10.255083"><ele>494</ele></trkpt>
            <trkpt lat="51.916854" lon="10.254977"><ele>499.3</ele></trkpt>
            <trkpt lat="51.91661" lon="10.254897"><ele>499.6</ele></trkpt>
            <trkpt lat="51.916403" lon="10.254792"><ele>500.2</ele></trkpt>
            <trkpt lat="51.915983" lon="10.254475"><ele>500.2</ele></trkpt>
            <trkpt lat="51.915748" lon="10.254267"><ele>499.4</ele></trkpt>
            <trkpt lat="51.91561" lon="10.254223"><ele>498.9</ele></trkpt>
            <trkpt lat="51.914677" lon="10.254111"><ele>495.2</ele></trkpt>
            <trkpt lat="51.914528" lon="10.25415"><ele>497</ele></trkpt>
            <trkpt lat="51.914207" lon="10.254682"><ele>490.5</ele></trkpt>
            <trkpt lat="51.913977" lon="10.254942"><ele>487.9</ele></trkpt>
            <trkpt lat="51.913794" lon="10.255069"><ele>485.4</ele></trkpt>
            <trkpt lat="51.913544" lon="10.255199"><ele>482.7</ele></trkpt>
            <trkpt lat="51.913373" lon="10.255259"><ele>476.7</ele></trkpt>
            <trkpt lat="51.913193" lon="10.255247"><ele>471.1</ele></trkpt>
            <trkpt lat="51.913105" lon="10.255219"><ele>469.9</ele></trkpt>
            <trkpt lat="51.913035" lon="10.25516"><ele>468.8</ele></trkpt>
            <trkpt lat="51.912937" lon="10.255058"><ele>468.3</ele></trkpt>
            <trkpt lat="51.912831" lon="10.254901"><ele>467.6</ele></trkpt>
            <trkpt lat="51.912608" lon="10.25446"><ele>468.1</ele></trkpt>
            <trkpt lat="51.912456" lon="10.254372"><ele>468.6</ele></trkpt>
            <trkpt lat="51.912162" lon="10.254335"><ele>469.1</ele></trkpt>
            <trkpt lat="51.911809" lon="10.254211"><ele>472.8</ele></trkpt>
            <trkpt lat="51.9117" lon="10.254215"><ele>472.5</ele></trkpt>
            <trkpt lat="51.911606" lon="10.254263"><ele>475.3</ele></trkpt>
            <trkpt lat="51.911455" lon="10.254394"><ele>476.1</ele></trkpt>
            <trkpt lat="51.911316" lon="10.254621"><ele>476.9</ele></trkpt>
            <trkpt lat="51.911186" lon="10.254963"><ele>477.3</ele></trkpt>
            <trkpt lat="51.911025" lon="10.255273"><ele>477.3</ele></trkpt>
            <trkpt lat="51.910661" lon="10.255759"><ele>479.4</ele></trkpt>
            <trkpt lat="51.910302" lon="10.256114"><ele>474.2</ele></trkpt>
            <trkpt lat="51.910228" lon="10.256228"><ele>473.8</ele></trkpt>
            <trkpt lat="51.909904" lon="10.257093"><ele>473</ele></trkpt>
            <trkpt lat="51.909729" lon="10.257611"><ele>467.1</ele></trkpt>
            <trkpt lat="51.909524" lon="10.258345"><ele>453.7</ele></trkpt>
            <trkpt lat="51.909189" lon="10.259456"><ele>445.9</ele></trkpt>
            <trkpt lat="51.909115" lon="10.259642"><ele>444.4</ele></trkpt>
            <trkpt lat="51.909031" lon="10.259746"><ele>444.2</ele></trkpt>
            <trkpt lat="51.908936" lon="10.25981"><ele>444</ele></trkpt>
            <trkpt lat="51.908786" lon="10.259828"><ele>443.8</ele></trkpt>
            <trkpt lat="51.908327" lon="10.259812"><ele>445.1</ele></trkpt>
            <trkpt lat="51.908266" lon="10.259836"><ele>446.5</ele></trkpt>
            <trkpt lat="51.908208" lon="10.259916"><ele>447.9</ele></trkpt>
            <trkpt lat="51.908169" lon="10.260012"><ele>447.9</ele></trkpt>
            <trkpt lat="51.90813" lon="10.260262"><ele>447.9</ele></trkpt>
            <trkpt lat="51.90813" lon="10.260486"><ele>446.7</ele></trkpt>
            <trkpt lat="51.908181" lon="10.260744"><ele>446.8</ele></trkpt>
            <trkpt lat="51.908187" lon="10.260992"><ele>445.8</ele></trkpt>
            <trkpt lat="51.908113" lon="10.261888"><ele>443.8</ele></trkpt>
            <trkpt lat="51.907991" lon="10.262966"><ele>418.9</ele></trkpt>
            <trkpt lat="51.907807" lon="10.264194"><ele>400</ele></trkpt>
            <trkpt lat="51.907724" lon="10.264592"><ele>400.2</ele></trkpt>
            <trkpt lat="51.907621" lon="10.264871"><ele>400.2</ele></trkpt>
            <trkpt lat="51.90718" lon="10.265658"><ele>401.1</ele></trkpt>
            <trkpt lat="51.906961" lon="10.266297"><ele>398.2</ele></trkpt>
            <trkpt lat="51.906662" lon="10.267004"><ele>387.7</ele></trkpt>
            <trkpt lat="51.906304" lon="10.267693"><ele>379.5</ele></trkpt>
            <trkpt lat="51.905996" lon="10.26803"><ele>370</ele></trkpt>
            <trkpt lat="51.905863" lon="10.267572"><ele>367.9</ele></trkpt>
            <trkpt lat="51.90571" lon="10.266816"><ele>371</ele></trkpt>
            <trkpt lat="51.905581" lon="10.265803"><ele>378.8</ele></trkpt>
            <trkpt lat="51.905513" lon="10.265509"><ele>379.2</ele></trkpt>
            <trkpt lat="51.905337" lon="10.264996"><ele>381.3</ele></trkpt>
            <trkpt lat="51.905221" lon="10.26434"><ele>395</ele></trkpt>
            <trkpt lat="51.905159" lon="10.264015"><ele>407</ele></trkpt>
            <trkpt lat="51.905089" lon="10.263926"><ele>406</ele></trkpt>
            <trkpt lat="51.904999" lon="10.263888"><ele>402.2</ele></trkpt>
            <trkpt lat="51.90444" lon="10.263973"><ele>401.2</ele></trkpt>
            <trkpt lat="51.904236" lon="10.264056"><ele>400.2</ele></trkpt>
            <trkpt lat="51.903899" lon="10.26441"><ele>399</ele></trkpt>
            <trkpt lat="51.903763" lon="10.264441"><ele>398.1</ele></trkpt>
            <trkpt lat="51.903703" lon="10.264419"><ele>393</ele></trkpt>
            <trkpt lat="51.90369" lon="10.264503"><ele>388.3</ele></trkpt>
            <trkpt lat="51.903659" lon="10.264577"><ele>388.7</ele></trkpt>
            <trkpt lat="51.903608" lon="10.264634"><ele>390.2</ele></trkpt>
            <trkpt lat="51.903537" lon="10.264668"><ele>390.5</ele></trkpt>
            <trkpt lat="51.90347" lon="10.26464"><ele>389.5</ele></trkpt>
            <trkpt lat="51.903428" lon="10.264545"><ele>389.8</ele></trkpt>
            <trkpt lat="51.903371" lon="10.264266"><ele>390.1</ele></trkpt>
            <trkpt lat="51.903316" lon="10.263854"><ele>386.5</ele></trkpt>
            <trkpt lat="51.903193" lon="10.263138"><ele>384</ele></trkpt>
            <trkpt lat="51.90308" lon="10.262606"><ele>376.4</ele></trkpt>
            <trkpt lat="51.902955" lon="10.262033"><ele>368.5</ele></trkpt>
            <trkpt lat="51.902549" lon="10.260646"><ele>367.9</ele></trkpt>
            <trkpt lat="51.902468" lon="10.260073"><ele>364.9</ele></trkpt>
            <trkpt lat="51.902437" lon="10.259944"><ele>363</ele></trkpt>
            <trkpt lat="51.902379" lon="10.259881"><ele>362.9</ele></trkpt>
            <trkpt lat="51.90214" lon="10.259734"><ele>362.1</ele></trkpt>
            <trkpt lat="51.901998" lon="10.259586"><ele>360</ele></trkpt>
            <trkpt lat="51.901641" lon="10.258999"><ele>356.2</ele></trkpt>
            <trkpt lat="51.901229" lon="10.258402"><ele>353.9</ele></trkpt>
            <trkpt lat="51.901045" lon="10.258173"><ele>353.6</ele></trkpt>
            <trkpt lat="51.900825" lon="10.257854"><ele>353.1</ele></trkpt>
            <trkpt lat="51.900689" lon="10.257623"><ele>353.1</ele></trkpt>
            <trkpt lat="51.900546" lon="10.257496"><ele>353.8</ele></trkpt>
            <trkpt lat="51.900186" lon="10.257285"><ele>354.6</ele></trkpt>
            <trkpt lat="51.900096" lon="10.257256"><ele>354.6</ele></trkpt>
            <trkpt lat="51.90002" lon="10.257277"><ele>355.3</ele></trkpt>
            <trkpt lat="51.899981" lon="10.25731"><ele>355.8</ele></trkpt>
            <trkpt lat="51.899956" lon="10.257375"><ele>361</ele></trkpt>
            <trkpt lat="51.899951" lon="10.257458"><ele>359.9</ele></trkpt>
            <trkpt lat="51.899966" lon="10.25756"><ele>361.1</ele></trkpt>
            <trkpt lat="51.900258" lon="10.25845"><ele>359</ele></trkpt>
            <trkpt lat="51.900365" lon="10.258854"><ele>358.4</ele></trkpt>
            <trkpt lat="51.90045" lon="10.259346"><ele>358.4</ele></trkpt>
            <trkpt lat="51.900613" lon="10.25989"><ele>357.1</ele></trkpt>
            <trkpt lat="51.900709" lon="10.260442"><ele>357.7</ele></trkpt>
            <trkpt lat="51.900736" lon="10.260699"><ele>358.5</ele></trkpt>
            <trkpt lat="51.900741" lon="10.260936"><ele>358.3</ele></trkpt>
            <trkpt lat="51.900639" lon="10.262211"><ele>356.4</ele></trkpt>
            <trkpt lat="51.900635" lon="10.262453"><ele>355.3</ele></trkpt>
            <trkpt lat="51.90076" lon="10.263003"><ele>350</ele></trkpt>
            <trkpt lat="51.900818" lon="10.263482"><ele>346.6</ele></trkpt>
            <trkpt lat="51.900835" lon="10.263786"><ele>343</ele></trkpt>
            <trkpt lat="51.900814" lon="10.264494"><ele>337.7</ele></trkpt>
            <trkpt lat="51.900839" lon="10.264785"><ele>333.3</ele></trkpt>
            <trkpt lat="51.901119" lon="10.266298"><ele>312.1</ele></trkpt>
            <trkpt lat="51.90131" lon="10.267501"><ele>302.1</ele></trkpt>
            <trkpt lat="51.90141" lon="10.268506"><ele>297.6</ele></trkpt>
            <trkpt lat="51.901555" lon="10.269705"><ele>290</ele></trkpt>
            <trkpt lat="51.901625" lon="10.270767"><ele>278</ele></trkpt>
            <trkpt lat="51.901556" lon="10.270929"><ele>273.2</ele></trkpt>
            <trkpt lat="51.901449" lon="10.271049"><ele>271</ele></trkpt>
            <trkpt lat="51.901075" lon="10.271078"><ele>274.9</ele></trkpt>
            <trkpt lat="51.900751" lon="10.270997"><ele>276</ele></trkpt>
            <trkpt lat="51.900469" lon="10.270877"><ele>279.2</ele></trkpt>
            <trkpt lat="51.899977" lon="10.270714"><ele>285.4</ele></trkpt>
            <trkpt lat="51.899361" lon="10.270551"><ele>290.5</ele></trkpt>
            <trkpt lat="51.899205" lon="10.270558"><ele>290.7</ele></trkpt>
            <trkpt lat="51.898997" lon="10.270692"><ele>293.1</ele></trkpt>
            <trkpt lat="51.898769" lon="10.270907"><ele>292.2</ele></trkpt>
            <trkpt lat="51.897019" lon="10.271699"><ele>277.3</ele></trkpt>
            <trkpt lat="51.89669" lon="10.271884"><ele>272</ele></trkpt>
            <trkpt lat="51.896359" lon="10.272338"><ele>278</ele></trkpt>
            <trkpt lat="51.896254" lon="10.272482"><ele>276.6</ele></trkpt>
            <trkpt lat="51.896106" lon="10.27263"><ele>275.8</ele></trkpt>
            <trkpt lat="51.895998" lon="10.272709"><ele>275.1</ele></trkpt>
            <trkpt lat="51.895202" lon="10.273113"><ele>280</ele></trkpt>
            <trkpt lat="51.895149" lon="10.273152"><ele>280</ele></trkpt>
            <trkpt lat="51.894733" lon="10.273479"><ele>281.5</ele></trkpt>
            <trkpt lat="51.894639" lon="10.273598"><ele>281.6</ele></trkpt>
            <trkpt lat="51.894593" lon="10.273715"><ele>282</ele></trkpt>
            <trkpt lat="51.89457" lon="10.273928"><ele>282</ele></trkpt>
            <trkpt lat="51.894584" lon="10.274037"><ele>282</ele></trkpt>
            <trkpt lat="51.894636" lon="10.274184"><ele>275</ele></trkpt>
            <trkpt lat="51.894692" lon="10.27427"><ele>275</ele></trkpt>
            <trkpt lat="51.894701" lon="10.274343"><ele>275</ele></trkpt>
            <trkpt lat="51.894671" lon="10.274489"><ele>275</ele></trkpt>
            <trkpt lat="51.894701" lon="10.274701"><ele>275</ele></trkpt>
            <trkpt lat="51.895171" lon="10.274599"><ele>267.4</ele></trkpt>
            <trkpt lat="51.895416" lon="10.274573"><ele>267.5</ele></trkpt>
            <trkpt lat="51.895773" lon="10.274573"><ele>267.6</ele></trkpt>
            <trkpt lat="51.896495" lon="10.274691"><ele>261</ele></trkpt>
            <trkpt lat="51.89674" lon="10.274726"><ele>261</ele></trkpt>
            <trkpt lat="51.898384" lon="10.275017"><ele>269.3</ele></trkpt>
            <trkpt lat="51.899035" lon="10.2752"><ele>271</ele></trkpt>
            <trkpt lat="51.899007" lon="10.275309"><ele>275.3</ele></trkpt>
            <trkpt lat="51.898934" lon="10.275324"><ele>275.3</ele></trkpt>
            <trkpt lat="51.898871" lon="10.275309"><ele>274.9</ele></trkpt>
            <trkpt lat="51.898684" lon="10.275442"><ele>275.1</ele></trkpt>
            <trkpt lat="51.898514" lon="10.27565"><ele>275.1</ele></trkpt>
            <trkpt lat="51.898426" lon="10.2758"><ele>275.2</ele></trkpt>
            <trkpt lat="51.898275" lon="10.275911"><ele>276</ele></trkpt>
            <trkpt lat="51.898129" lon="10.276052"><ele>276.7</ele></trkpt>
            <trkpt lat="51.898093" lon="10.276117"><ele>277.4</ele></trkpt>
            <trkpt lat="51.897944" lon="10.276216"><ele>277.6</ele></trkpt>
            <trkpt lat="51.897914" lon="10.27637"><ele>278.9</ele></trkpt>
            <trkpt lat="51.897954" lon="10.27649"><ele>279</ele></trkpt>
            <trkpt lat="51.897948" lon="10.276765"><ele>280.4</ele></trkpt>
            <trkpt lat="51.897908" lon="10.276942"><ele>282.5</ele></trkpt>
            <trkpt lat="51.897726" lon="10.277544"><ele>286.4</ele></trkpt>
            <trkpt lat="51.897666" lon="10.277682"><ele>288.8</ele></trkpt>
            <trkpt lat="51.897594" lon="10.27795"><ele>289.6</ele></trkpt>
            <trkpt lat="51.897543" lon="10.278304"><ele>292.1</ele></trkpt>
            <trkpt lat="51.897506" lon="10.278403"><ele>298</ele></trkpt>
            <trkpt lat="51.897316" lon="10.277972"><ele>302.6</ele></trkpt>
            <trkpt lat="51.897156" lon="10.277516"><ele>304</ele></trkpt>
            <trkpt lat="51.897077" lon="10.277476"><ele>297.1</ele></trkpt>
            <trkpt lat="51.897032" lon="10.27731"><ele>296.7</ele></trkpt>
            <trkpt lat="51.897031" lon="10.277126"><ele>296.4</ele></trkpt>
            <trkpt lat="51.896993" lon="10.277007"><ele>296.1</ele></trkpt>
            <trkpt lat="51.89696" lon="10.276979"><ele>295.9</ele></trkpt>
            <trkpt lat="51.896831" lon="10.276958"><ele>295.8</ele></trkpt>
            <trkpt lat="51.896566" lon="10.277273"><ele>297.2</ele></trkpt>
            <trkpt lat="51.896501" lon="10.277318"><ele>296.8</ele></trkpt>
            <trkpt lat="51.896428" lon="10.277432"><ele>296.1</ele></trkpt>
            <trkpt lat="51.896411" lon="10.277508"><ele>296.3</ele></trkpt>
            <trkpt lat="51.896306" lon="10.277586"><ele>296.8</ele></trkpt>
            <trkpt lat="51.89628" lon="10.277681"><ele>297.2</ele></trkpt>
            <trkpt lat="51.896248" lon="10.277733"><ele>297.6</ele></trkpt>
            <trkpt lat="51.896127" lon="10.277759"><ele>298.1</ele></trkpt>
            <trkpt lat="51.896005" lon="10.277841"><ele>298.4</ele></trkpt>
            <trkpt lat="51.895753" lon="10.278159"><ele>300.6</ele></trkpt>
            <trkpt lat="51.895735" lon="10.27843"><ele>304</ele></trkpt>
            <trkpt lat="51.895636" lon="10.278434"><ele>305.6</ele></trkpt>
            <trkpt lat="51.895536" lon="10.278405"><ele>307.6</ele></trkpt>
            <trkpt lat="51.89547" lon="10.278465"><ele>333</ele></trkpt>
            <trkpt lat="51.895386" lon="10.278525"><ele>333</ele></trkpt>
            <trkpt lat="51.895327" lon="10.27849"><ele>333</ele></trkpt>
            <trkpt lat="51.895271" lon="10.27852"><ele>333</ele></trkpt>
            <trkpt lat="51.895235" lon="10.278611"><ele>333</ele></trkpt>
            <trkpt lat="51.895206" lon="10.278639"><ele>333</ele></trkpt>
            <trkpt lat="51.895183" lon="10.278615"><ele>333</ele></trkpt>
            <trkpt lat="51.895133" lon="10.278614"><ele>333</ele></trkpt>
            <trkpt lat="51.895112" lon="10.278782"><ele>333</ele></trkpt>
            <trkpt lat="51.895088" lon="10.278929"><ele>333</ele></trkpt>
            <trkpt lat="51.895042" lon="10.278962"><ele>327.7</ele></trkpt>
            <trkpt lat="51.89502" lon="10.27902"><ele>321.8</ele></trkpt>
            <trkpt lat="51.894979" lon="10.279128"><ele>316</ele></trkpt>
            <trkpt lat="51.894892" lon="10.2791"><ele>327.4</ele></trkpt>
            <trkpt lat="51.89481" lon="10.279135"><ele>326.8</ele></trkpt>
            <trkpt lat="51.894595" lon="10.279457"><ele>328.2</ele></trkpt>
            <trkpt lat="51.894507" lon="10.279555"><ele>329.1</ele></trkpt>
            <trkpt lat="51.894401" lon="10.279612"><ele>330.4</ele></trkpt>
            <trkpt lat="51.894319" lon="10.27962"><ele>330.9</ele></trkpt>
            <trkpt lat="51.89423" lon="10.279603"><ele>331.5</ele></trkpt>
            <trkpt lat="51.894143" lon="10.279528"><ele>331.8</ele></trkpt>
            <trkpt lat="51.893924" lon="10.279263"><ele>332.3</ele></trkpt>
            <trkpt lat="51.893825" lon="10.279219"><ele>332.4</ele></trkpt>
            <trkpt lat="51.893717" lon="10.279194"><ele>332.7</ele></trkpt>
            <trkpt lat="51.893493" lon="10.279255"><ele>336.7</ele></trkpt>
            <trkpt lat="51.893191" lon="10.279247"><ele>335.3</ele></trkpt>
            <trkpt lat="51.893075" lon="10.279284"><ele>333.8</ele></trkpt>
            <trkpt lat="51.892913" lon="10.279383"><ele>332.3</ele></trkpt>
            <trkpt lat="51.892579" lon="10.279706"><ele>329.1</ele></trkpt>
            <trkpt lat="51.892176" lon="10.280017"><ele>325.4</ele></trkpt>
            <trkpt lat="51.891858" lon="10.280518"><ele>325.3</ele></trkpt>
            <trkpt lat="51.891767" lon="10.280591"><ele>325.9</ele></trkpt>
            <trkpt lat="51.891665" lon="10.28063"><ele>324.5</ele></trkpt>
            <trkpt lat="51.891165" lon="10.280597"><ele>318.4</ele></trkpt>
            <trkpt lat="51.890386" lon="10.280679"><ele>305.9</ele></trkpt>
            <trkpt lat="51.890229" lon="10.280608"><ele>305</ele></trkpt>
            <trkpt lat="51.889988" lon="10.280419"><ele>303.9</ele></trkpt>
            <trkpt lat="51.889928" lon="10.280396"><ele>303.4</ele></trkpt>
            <trkpt lat="51.889805" lon="10.280393"><ele>301.4</ele></trkpt>
            <trkpt lat="51.889653" lon="10.280456"><ele>300.6</ele></trkpt>
            <trkpt lat="51.889541" lon="10.280595"><ele>298.8</ele></trkpt>
            <trkpt lat="51.889496" lon="10.280723"><ele>298.5</ele></trkpt>
            <trkpt lat="51.889468" lon="10.280912"><ele>298.6</ele></trkpt>
            <trkpt lat="51.889426" lon="10.281065"><ele>298</ele></trkpt>
            <trkpt lat="51.889302" lon="10.28131"><ele>297.2</ele></trkpt>
            <trkpt lat="51.889168" lon="10.281793"><ele>296.8</ele></trkpt>
            <trkpt lat="51.889125" lon="10.282094"><ele>293.3</ele></trkpt>
            <trkpt lat="51.889143" lon="10.282648"><ele>293.1</ele></trkpt>
            <trkpt lat="51.889114" lon="10.283308"><ele>291</ele></trkpt>
            <trkpt lat="51.888816" lon="10.284086"><ele>287.2</ele></trkpt>
            <trkpt lat="51.888665" lon="10.284574"><ele>288.6</ele></trkpt>
            <trkpt lat="51.88841" lon="10.285291"><ele>291.5</ele></trkpt>
            <trkpt lat="51.888227" lon="10.28559"><ele>290.9</ele></trkpt>
            <trkpt lat="51.888134" lon="10.285692"><ele>289.6</ele></trkpt>
            <trkpt lat="51.888035" lon="10.28576"><ele>289</ele></trkpt>
            <trkpt lat="51.887337" lon="10.286403"><ele>287.7</ele></trkpt>
            <trkpt lat="51.887078" lon="10.286609"><ele>283.7</ele></trkpt>
            <trkpt lat="51.886964" lon="10.286658"><ele>281</ele></trkpt>
            <trkpt lat="51.886611" lon="10.286756"><ele>285.7</ele></trkpt>
            <trkpt lat="51.886286" lon="10.286886"><ele>285.9</ele></trkpt>
            <trkpt lat="51.885797" lon="10.287001"><ele>286.3</ele></trkpt>
            <trkpt lat="51.88551" lon="10.286972"><ele>286.7</ele></trkpt>
            <trkpt lat="51.885136" lon="10.28689"><ele>286.6</ele></trkpt>
            <trkpt lat="51.884963" lon="10.286754"><ele>287.4</ele></trkpt>
            <trkpt lat="51.884833" lon="10.286594"><ele>290</ele></trkpt>
            <trkpt lat="51.884676" lon="10.286831"><ele>292.5</ele></trkpt>
            <trkpt lat="51.884619" lon="10.287088"><ele>294</ele></trkpt>
            <trkpt lat="51.884594" lon="10.287153"><ele>304</ele></trkpt>
            <trkpt lat="51.884544" lon="10.287549"><ele>306.3</ele></trkpt>
            <trkpt lat="51.884526" lon="10.287914"><ele>307.7</ele></trkpt>
            <trkpt lat="51.884552" lon="10.288368"><ele>308.4</ele></trkpt>
            <trkpt lat="51.884577" lon="10.288627"><ele>308.3</ele></trkpt>
            <trkpt lat="51.884754" lon="10.289209"><ele>309.5</ele></trkpt>
            <trkpt lat="51.884802" lon="10.289516"><ele>312.2</ele></trkpt>
            <trkpt lat="51.884842" lon="10.289978"><ele>314.6</ele></trkpt>
            <trkpt lat="51.884932" lon="10.29074"><ele>317.2</ele></trkpt>
            <trkpt lat="51.88506" lon="10.291467"><ele>318.6</ele></trkpt>
            <trkpt lat="51.885091" lon="10.291934"><ele>318.9</ele></trkpt>
            <trkpt lat="51.885077" lon="10.292157"><ele>321</ele></trkpt>
            <trkpt lat="51.884901" lon="10.292348"><ele>334</ele></trkpt>
            <trkpt lat="51.884784" lon="10.292442"><ele>334</ele></trkpt>
            <trkpt lat="51.884637" lon="10.292521"><ele>337</ele></trkpt>
            <trkpt lat="51.884591" lon="10.292455"><ele>333.3</ele></trkpt>
            <trkpt lat="51.884537" lon="10.292195"><ele>333.2</ele></trkpt>
            <trkpt lat="51.88449" lon="10.29176"><ele>332.9</ele></trkpt>
            <trkpt lat="51.884444" lon="10.291494"><ele>327</ele></trkpt>
            <trkpt lat="51.883994" lon="10.2906"><ele>354</ele></trkpt>
            <trkpt lat="51.883895" lon="10.2904"><ele>349.1</ele></trkpt>
            <trkpt lat="51.883424" lon="10.289212"><ele>347</ele></trkpt>
            <trkpt lat="51.883161" lon="10.288668"><ele>346.3</ele></trkpt>
            <trkpt lat="51.882787" lon="10.28777"><ele>346</ele></trkpt>
            <trkpt lat="51.882563" lon="10.287426"><ele>343.7</ele></trkpt>
            <trkpt lat="51.882424" lon="10.287294"><ele>344</ele></trkpt>
            <trkpt lat="51.882196" lon="10.287243"><ele>345</ele></trkpt>
            <trkpt lat="51.881899" lon="10.287284"><ele>345.9</ele></trkpt>
            <trkpt lat="51.881594" lon="10.28724"><ele>345.8</ele></trkpt>
            <trkpt lat="51.881241" lon="10.287229"><ele>345.5</ele></trkpt>
            <trkpt lat="51.881095" lon="10.287298"><ele>346.7</ele></trkpt>
            <trkpt lat="51.88099" lon="10.287527"><ele>348</ele></trkpt>
            <trkpt lat="51.880941" lon="10.287688"><ele>349.4</ele></trkpt>
            <trkpt lat="51.880925" lon="10.28783"><ele>350.4</ele></trkpt>
            <trkpt lat="51.88094" lon="10.288242"><ele>360</ele></trkpt>
            <trkpt lat="51.880783" lon="10.288338"><ele>345.5</ele></trkpt>
            <trkpt lat="51.880415" lon="10.288483"><ele>342.3</ele></trkpt>
            <trkpt lat="51.880351" lon="10.288537"><ele>341.2</ele></trkpt>
            <trkpt lat="51.880264" lon="10.28868"><ele>340</ele></trkpt>
            <trkpt lat="51.880085" lon="10.289099"><ele>338.7</ele></trkpt>
            <trkpt lat="51.879998" lon="10.289368"><ele>336.3</ele></trkpt>
            <trkpt lat="51.879831" lon="10.290263"><ele>335.3</ele></trkpt>
            <trkpt lat="51.879574" lon="10.291404"><ele>335.3</ele></trkpt>
            <trkpt lat="51.879467" lon="10.292115"><ele>336.4</ele></trkpt>
            <trkpt lat="51.879284" lon="10.292635"><ele>341</ele></trkpt>
            <trkpt lat="51.879169" lon="10.29312"><ele>353.5</ele></trkpt>
            <trkpt lat="51.879061" lon="10.293662"><ele>356.6</ele></trkpt>
            <trkpt lat="51.879016" lon="10.293784"><ele>366</ele></trkpt>
            <trkpt lat="51.879012" lon="10.294019"><ele>373.9</ele></trkpt>
            <trkpt lat="51.879032" lon="10.294562"><ele>374.9</ele></trkpt>
            <trkpt lat="51.879086" lon="10.295377"><ele>375.1</ele></trkpt>
            <trkpt lat="51.879084" lon="10.295595"><ele>374.8</ele></trkpt>
            <trkpt lat="51.879016" lon="10.296069"><ele>375.1</ele></trkpt>
            <trkpt lat="51.878956" lon="10.296268"><ele>376</ele></trkpt>
            <trkpt lat="51.878869" lon="10.296161"><ele>375.2</ele></trkpt>
            <trkpt lat="51.878861" lon="10.296126"><ele>375.3</ele></trkpt>
            <trkpt lat="51.878834" lon="10.295746"><ele>375.6</ele></trkpt>
            <trkpt lat="51.878738" lon="10.294993"><ele>375.6</ele></trkpt>
            <trkpt lat="51.878547" lon="10.294215"><ele>372</ele></trkpt>
            <trkpt lat="51.878524" lon="10.294195"><ele>380.7</ele></trkpt>
            <trkpt lat="51.878382" lon="10.293301"><ele>383</ele></trkpt>
            <trkpt lat="51.878325" lon="10.293081"><ele>384.5</ele></trkpt>
            <trkpt lat="51.878202" lon="10.292661"><ele>385.8</ele></trkpt>
            <trkpt lat="51.877998" lon="10.292092"><ele>388</ele></trkpt>
            <trkpt lat="51.877971" lon="10.292068"><ele>390.3</ele></trkpt>
            <trkpt lat="51.87795" lon="10.292148"><ele>391.2</ele></trkpt>
            <trkpt lat="51.877915" lon="10.292617"><ele>388.7</ele></trkpt>
            <trkpt lat="51.877859" lon="10.293115"><ele>389.8</ele></trkpt>
            <trkpt lat="51.87784" lon="10.294286"><ele>423</ele></trkpt>
            <trkpt lat="51.877809" lon="10.294439"><ele>426.1</ele></trkpt>
            <trkpt lat="51.877783" lon="10.294431"><ele>426.6</ele></trkpt>
            <trkpt lat="51.8776" lon="10.294014"><ele>427.1</ele></trkpt>
            <trkpt lat="51.877325" lon="10.293152"><ele>425.2</ele></trkpt>
            <trkpt lat="51.877162" lon="10.292872"><ele>423</ele></trkpt>
            <trkpt lat="51.877129" lon="10.292589"><ele>423</ele></trkpt>
            <trkpt lat="51.876996" lon="10.292601"><ele>423</ele></trkpt>
            <trkpt lat="51.877014" lon="10.292399"><ele>407.8</ele></trkpt>
            <trkpt lat="51.876975" lon="10.292277"><ele>405.7</ele></trkpt>
            <trkpt lat="51.876959" lon="10.292153"><ele>400</ele></trkpt>
            <trkpt lat="51.876801" lon="10.292132"><ele>400</ele></trkpt>
            <trkpt lat="51.876839" lon="10.292056"><ele>400</ele></trkpt>
            <trkpt lat="51.87686" lon="10.292014"><ele>400</ele></trkpt>
            <trkpt lat="51.876934" lon="10.291922"><ele>400</ele></trkpt>
            <trkpt lat="51.876942" lon="10.291848"><ele>400</ele></trkpt>
            <trkpt lat="51.876821" lon="10.291849"><ele>400</ele></trkpt>
            <trkpt lat="51.876713" lon="10.291925"><ele>400</ele></trkpt>
            <trkpt lat="51.876704" lon="10.291819"><ele>388.8</ele></trkpt>
            <trkpt lat="51.876777" lon="10.291536"><ele>370</ele></trkpt>
            <trkpt lat="51.876757" lon="10.291531"><ele>357.1</ele></trkpt>
            <trkpt lat="51.876713" lon="10.291584"><ele>357.6</ele></trkpt>
            <trkpt lat="51.876591" lon="10.291763"><ele>357.9</ele></trkpt>
            <trkpt lat="51.876557" lon="10.291842"><ele>358.2</ele></trkpt>
            <trkpt lat="51.876476" lon="10.291887"><ele>358.8</ele></trkpt>
            <trkpt lat="51.876297" lon="10.292112"><ele>359.3</ele></trkpt>
            <trkpt lat="51.876196" lon="10.292159"><ele>359.5</ele></trkpt>
            <trkpt lat="51.87606" lon="10.292275"><ele>360</ele></trkpt>
            <trkpt lat="51.876151" lon="10.292134"><ele>360.2</ele></trkpt>
            <trkpt lat="51.876255" lon="10.291885"><ele>360.6</ele></trkpt>
            <trkpt lat="51.876329" lon="10.291613"><ele>359.6</ele></trkpt>
            <trkpt lat="51.876441" lon="10.29096"><ele>357.4</ele></trkpt>
            <trkpt lat="51.876499" lon="10.290872"><ele>355.4</ele></trkpt>
            <trkpt lat="51.876564" lon="10.290664"><ele>353.2</ele></trkpt>
            <trkpt lat="51.876558" lon="10.290633"><ele>302</ele></trkpt>
            <trkpt lat="51.876476" lon="10.290769"><ele>320.1</ele></trkpt>
            <trkpt lat="51.876372" lon="10.291007"><ele>324.3</ele></trkpt>
            <trkpt lat="51.876298" lon="10.291102"><ele>326</ele></trkpt>
            <trkpt lat="51.876194" lon="10.291348"><ele>327.3</ele></trkpt>
            <trkpt lat="51.876169" lon="10.291481"><ele>328</ele></trkpt>
            <trkpt lat="51.875903" lon="10.291735"><ele>330.7</ele></trkpt>
            <trkpt lat="51.875353" lon="10.29219"><ele>335.2</ele></trkpt>
            <trkpt lat="51.875287" lon="10.292275"><ele>334.7</ele></trkpt>
            <trkpt lat="51.875207" lon="10.292325"><ele>334.3</ele></trkpt>
            <trkpt lat="51.875092" lon="10.292322"><ele>333.9</ele></trkpt>
            <trkpt lat="51.874975" lon="10.292352"><ele>331.5</ele></trkpt>
            <trkpt lat="51.874845" lon="10.292446"><ele>328.9</ele></trkpt>
            <trkpt lat="51.874259" lon="10.292629"><ele>343</ele></trkpt>
            <trkpt lat="51.874059" lon="10.292732"><ele>333.8</ele></trkpt>
            <trkpt lat="51.873163" lon="10.292823"><ele>330.3</ele></trkpt>
            <trkpt lat="51.872895" lon="10.292818"><ele>328.7</ele></trkpt>
            <trkpt lat="51.87267" lon="10.292853"><ele>328.1</ele></trkpt>
            <trkpt lat="51.872371" lon="10.29267"><ele>325.6</ele></trkpt>
            <trkpt lat="51.872211" lon="10.292691"><ele>319</ele></trkpt>
            <trkpt lat="51.872093" lon="10.292716"><ele>317.3</ele></trkpt>
            <trkpt lat="51.871693" lon="10.292686"><ele>317.6</ele></trkpt>
            <trkpt lat="51.871596" lon="10.292712"><ele>317</ele></trkpt>
            <trkpt lat="51.871485" lon="10.29281"><ele>314</ele></trkpt>
            <trkpt lat="51.871419" lon="10.292926"><ele>315.6</ele></trkpt>
            <trkpt lat="51.871378" lon="10.293155"><ele>315.3</ele></trkpt>
            <trkpt lat="51.871384" lon="10.29382"><ele>319</ele></trkpt>
            <trkpt lat="51.871362" lon="10.29392"><ele>319</ele></trkpt>
            <trkpt lat="51.871354" lon="10.294057"><ele>319</ele></trkpt>
            <trkpt lat="51.87128" lon="10.294132"><ele>319</ele></trkpt>
            <trkpt lat="51.871234" lon="10.294118"><ele>319</ele></trkpt>
            <trkpt lat="51.871111" lon="10.293916"><ele>319</ele></trkpt>
            <trkpt lat="51.871014" lon="10.293527"><ele>321.5</ele></trkpt>
            <trkpt lat="51.870745" lon="10.2929"><ele>321.4</ele></trkpt>
            <trkpt lat="51.870616" lon="10.292704"><ele>322.2</ele></trkpt>
            <trkpt lat="51.870466" lon="10.292543"><ele>327</ele></trkpt>
            <trkpt lat="51.870089" lon="10.292061"><ele>320</ele></trkpt>
            <trkpt lat="51.870022" lon="10.291978"><ele>323</ele></trkpt>
            <trkpt lat="51.869657" lon="10.291382"><ele>329</ele></trkpt>
            <trkpt lat="51.869649" lon="10.291369"><ele>329</ele></trkpt>
            <trkpt lat="51.869377" lon="10.290888"><ele>330.7</ele></trkpt>
            <trkpt lat="51.869148" lon="10.290398"><ele>334</ele></trkpt>
            <trkpt lat="51.868892" lon="10.289753"><ele>327.7</ele></trkpt>
            <trkpt lat="51.86887" lon="10.289574"><ele>326.6</ele></trkpt>
            <trkpt lat="51.868918" lon="10.289443"><ele>323</ele></trkpt>
            <trkpt lat="51.868807" lon="10.289207"><ele>323</ele></trkpt>
            <trkpt lat="51.868854" lon="10.289093"><ele>313</ele></trkpt>
            <trkpt lat="51.868386" lon="10.288295"><ele>314.9</ele></trkpt>
            <trkpt lat="51.868327" lon="10.288234"><ele>319</ele></trkpt>
            <trkpt lat="51.868126" lon="10.287658"><ele>319</ele></trkpt>
            <trkpt lat="51.86804" lon="10.287613"><ele>319</ele></trkpt>
            <trkpt lat="51.867999" lon="10.287554"><ele>319</ele></trkpt>
            <trkpt lat="51.867938" lon="10.287419"><ele>324</ele></trkpt>
            <trkpt lat="51.868155" lon="10.28723"><ele>318</ele></trkpt>
            <trkpt lat="51.868401" lon="10.287133"><ele>306</ele></trkpt>
            <trkpt lat="51.868401" lon="10.286887"><ele>304.8</ele></trkpt>
            <trkpt lat="51.868444" lon="10.286717"><ele>304.6</ele></trkpt>
            <trkpt lat="51.868434" lon="10.286627"><ele>304.3</ele></trkpt>
            <trkpt lat="51.868392" lon="10.286535"><ele>303</ele></trkpt>
            <trkpt lat="51.86822" lon="10.286531"><ele>314</ele></trkpt>
            <trkpt lat="51.868154" lon="10.28649"><ele>314</ele></trkpt>
            <trkpt lat="51.868044" lon="10.28637"><ele>314</ele></trkpt>
            <trkpt lat="51.867985" lon="10.286315"><ele>318.6</ele></trkpt>
            <trkpt lat="51.8678" lon="10.286296"><ele>319.2</ele></trkpt>
            <trkpt lat="51.867739" lon="10.286245"><ele>320</ele></trkpt>
            <trkpt lat="51.867597" lon="10.286238"><ele>320.8</ele></trkpt>
            <trkpt lat="51.867132" lon="10.286154"><ele>330</ele></trkpt>
            <trkpt lat="51.86698" lon="10.286243"><ele>330</ele></trkpt>
            <trkpt lat="51.866942" lon="10.28629"><ele>330</ele></trkpt>
            <trkpt lat="51.866952" lon="10.28633"><ele>330</ele></trkpt>
            <trkpt lat="51.867003" lon="10.286339"><ele>330</ele></trkpt>
            <trkpt lat="51.86707" lon="10.2864"><ele>330</ele></trkpt>
            <trkpt lat="51.867048" lon="10.286434"><ele>330</ele></trkpt>
            <trkpt lat="51.866969" lon="10.286563"><ele>330</ele></trkpt>
            <trkpt lat="51.866845" lon="10.286616"><ele>330</ele></trkpt>
            <trkpt lat="51.866688" lon="10.286573"><ele>344.4</ele></trkpt>
            <trkpt lat="51.866555" lon="10.286574"><ele>347.3</ele></trkpt>
            <trkpt lat="51.866531" lon="10.286604"><ele>347.1</ele></trkpt>
            <trkpt lat="51.866504" lon="10.286704"><ele>366</ele></trkpt>
            <trkpt lat="51.866369" lon="10.286752"><ele>366</ele></trkpt>
            <trkpt lat="51.866357" lon="10.286799"><ele>366</ele></trkpt>
            <trkpt lat="51.866199" lon="10.28698"><ele>366</ele></trkpt>
            <trkpt lat="51.866011" lon="10.286971"><ele>366</ele></trkpt>
            <trkpt lat="51.865652" lon="10.287375"><ele>387.3</ele></trkpt>
            <trkpt lat="51.865541" lon="10.287569"><ele>397</ele></trkpt>
            <trkpt lat="51.864823" lon="10.288508"><ele>411.4</ele></trkpt>
            <trkpt lat="51.864729" lon="10.288657"><ele>422</ele></trkpt>
            <trkpt lat="51.864476" lon="10.289099"><ele>418.2</ele></trkpt>
            <trkpt lat="51.864237" lon="10.289398"><ele>414</ele></trkpt>
            <trkpt lat="51.864043" lon="10.289669"><ele>438.8</ele></trkpt>
            <trkpt lat="51.863893" lon="10.289939"><ele>437.3</ele></trkpt>
            <trkpt lat="51.863734" lon="10.290275"><ele>435.5</ele></trkpt>
            <trkpt lat="51.863667" lon="10.29032"><ele>441</ele></trkpt>
            <trkpt lat="51.863608" lon="10.290288"><ele>441</ele></trkpt>
            <trkpt lat="51.863587" lon="10.29026"><ele>441</ele></trkpt>
            <trkpt lat="51.863608" lon="10.290288"><ele>441</ele></trkpt>
            <trkpt lat="51.863667" lon="10.29032"><ele>441</ele></trkpt>
            <trkpt lat="51.863734" lon="10.290275"><ele>435.5</ele></trkpt>
            <trkpt lat="51.863893" lon="10.289939"><ele>437.3</ele></trkpt>
            <trkpt lat="51.864043" lon="10.289669"><ele>438.8</ele></trkpt>
            <trkpt lat="51.864237" lon="10.289398"><ele>414</ele></trkpt>
            <trkpt lat="51.864476" lon="10.289099"><ele>418.2</ele></trkpt>
            <trkpt lat="51.864729" lon="10.288657"><ele>422</ele></trkpt>
            <trkpt lat="51.864823" lon="10.288508"><ele>411.4</ele></trkpt>
            <trkpt lat="51.865541" lon="10.287569"><ele>397</ele></trkpt>
            <trkpt lat="51.865652" lon="10.287375"><ele>387.3</ele></trkpt>
            <trkpt lat="51.866011" lon="10.286971"><ele>366</ele></trkpt>
            <trkpt lat="51.866199" lon="10.28698"><ele>366</ele></trkpt>
            <trkpt lat="51.866357" lon="10.286799"><ele>366</ele></trkpt>
            <trkpt lat="51.866369" lon="10.286752"><ele>366</ele></trkpt>
            <trkpt lat="51.866504" lon="10.286704"><ele>366</ele></trkpt>
            <trkpt lat="51.866531" lon="10.286604"><ele>347.1</ele></trkpt>
            <trkpt lat="51.866555" lon="10.286574"><ele>347.3</ele></trkpt>
            <trkpt lat="51.866688" lon="10.286573"><ele>344.4</ele></trkpt>
            <trkpt lat="51.866845" lon="10.286616"><ele>330</ele></trkpt>
            <trkpt lat="51.866969" lon="10.286563"><ele>330</ele></trkpt>
            <trkpt lat="51.867048" lon="10.286434"><ele>330</ele></trkpt>
            <trkpt lat="51.86707" lon="10.2864"><ele>330</ele></trkpt>
            <trkpt lat="51.867003" lon="10.286339"><ele>330</ele></trkpt>
            <trkpt lat="51.866952" lon="10.28633"><ele>330</ele></trkpt>
            <trkpt lat="51.866942" lon="10.28629"><ele>330</ele></trkpt>
            <trkpt lat="51.86698" lon="10.286243"><ele>330</ele></trkpt>
            <trkpt lat="51.867132" lon="10.286154"><ele>330</ele></trkpt>
            <trkpt lat="51.867597" lon="10.286238"><ele>320.8</ele></trkpt>
            <trkpt lat="51.867739" lon="10.286245"><ele>320</ele></trkpt>
            <trkpt lat="51.8678" lon="10.286296"><ele>319.2</ele></trkpt>
            <trkpt lat="51.867985" lon="10.286315"><ele>318.6</ele></trkpt>
            <trkpt lat="51.868044" lon="10.28637"><ele>314</ele></trkpt>
            <trkpt lat="51.868154" lon="10.28649"><ele>314</ele></trkpt>
            <trkpt lat="51.86822" lon="10.286531"><ele>314</ele></trkpt>
            <trkpt lat="51.868392" lon="10.286535"><ele>303</ele></trkpt>
            <trkpt lat="51.868455" lon="10.286215"><ele>303</ele></trkpt>
            <trkpt lat="51.86843" lon="10.286177"><ele>302.3</ele></trkpt>
            <trkpt lat="51.868334" lon="10.285816"><ele>301</ele></trkpt>
            <trkpt lat="51.868322" lon="10.285725"><ele>303.7</ele></trkpt>
            <trkpt lat="51.868332" lon="10.285639"><ele>305</ele></trkpt>
            <trkpt lat="51.868194" lon="10.285536"><ele>305</ele></trkpt>
            <trkpt lat="51.867241" lon="10.28484"><ele>309</ele></trkpt>
            <trkpt lat="51.867219" lon="10.284825"><ele>309</ele></trkpt>
            <trkpt lat="51.867215" lon="10.284822"><ele>309</ele></trkpt>
            <trkpt lat="51.866805" lon="10.284516"><ele>309</ele></trkpt>
            <trkpt lat="51.866881" lon="10.283917"><ele>304</ele></trkpt>
            <trkpt lat="51.866886" lon="10.283881"><ele>304</ele></trkpt>
            <trkpt lat="51.866907" lon="10.283624"><ele>304</ele></trkpt>
            <trkpt lat="51.866913" lon="10.283429"><ele>304</ele></trkpt>
            <trkpt lat="51.866915" lon="10.283366"><ele>304</ele></trkpt>
            <trkpt lat="51.866921" lon="10.282778"><ele>309.8</ele></trkpt>
            <trkpt lat="51.866892" lon="10.282572"><ele>309.7</ele></trkpt>
            <trkpt lat="51.866795" lon="10.282257"><ele>315</ele></trkpt>
            <trkpt lat="51.866742" lon="10.282111"><ele>315</ele></trkpt>
            <trkpt lat="51.866268" lon="10.281201"><ele>332</ele></trkpt>
            <trkpt lat="51.865949" lon="10.281164"><ele>332</ele></trkpt>
            <trkpt lat="51.866994" lon="10.280088"><ele>353.6</ele></trkpt>
            <trkpt lat="51.867313" lon="10.279906"><ele>360.5</ele></trkpt>
            <trkpt lat="51.867568" lon="10.279663"><ele>369</ele></trkpt>
            <trkpt lat="51.867559" lon="10.27961"><ele>373.5</ele></trkpt>
            <trkpt lat="51.867488" lon="10.279558"><ele>374</ele></trkpt>
            <trkpt lat="51.867136" lon="10.279464"><ele>375.2</ele></trkpt>
            <trkpt lat="51.866827" lon="10.279164"><ele>377.1</ele></trkpt>
            <trkpt lat="51.866731" lon="10.279165"><ele>376</ele></trkpt>
            <trkpt lat="51.866444" lon="10.279247"><ele>374.7</ele></trkpt>
            <trkpt lat="51.865922" lon="10.27932"><ele>375</ele></trkpt>
            <trkpt lat="51.866109" lon="10.27921"><ele>388.4</ele></trkpt>
            <trkpt lat="51.866637" lon="10.278642"><ele>392.7</ele></trkpt>
            <trkpt lat="51.866781" lon="10.278525"><ele>392.1</ele></trkpt>
            <trkpt lat="51.86765" lon="10.278289"><ele>402.4</ele></trkpt>
            <trkpt lat="51.868699" lon="10.277945"><ele>409.1</ele></trkpt>
            <trkpt lat="51.868849" lon="10.277908"><ele>408.2</ele></trkpt>
            <trkpt lat="51.86934" lon="10.277872"><ele>408.3</ele></trkpt>
            <trkpt lat="51.869413" lon="10.277832"><ele>408</ele></trkpt>
            <trkpt lat="51.86949" lon="10.277655"><ele>408</ele></trkpt>
            <trkpt lat="51.869504" lon="10.277402"><ele>422.3</ele></trkpt>
            <trkpt lat="51.869491" lon="10.277107"><ele>423.1</ele></trkpt>
            <trkpt lat="51.869494" lon="10.276551"><ele>426.6</ele></trkpt>
            <trkpt lat="51.869517" lon="10.275999"><ele>426.6</ele></trkpt>
            <trkpt lat="51.869656" lon="10.274859"><ele>443</ele></trkpt>
            <trkpt lat="51.869825" lon="10.273756"><ele>452</ele></trkpt>
            <trkpt lat="51.869936" lon="10.272237"><ele>449.1</ele></trkpt>
            <trkpt lat="51.86997" lon="10.27201"><ele>447.5</ele></trkpt>
            <trkpt lat="51.870035" lon="10.271802"><ele>445.6</ele></trkpt>
            <trkpt lat="51.870288" lon="10.271183"><ele>450.6</ele></trkpt>
            <trkpt lat="51.870347" lon="10.270988"><ele>451.7</ele></trkpt>
            <trkpt lat="51.870419" lon="10.270628"><ele>452.8</ele></trkpt>
            <trkpt lat="51.870468" lon="10.270244"><ele>453.7</ele></trkpt>
            <trkpt lat="51.870496" lon="10.269743"><ele>456.1</ele></trkpt>
            <trkpt lat="51.870489" lon="10.269034"><ele>457.4</ele></trkpt>
            <trkpt lat="51.870465" lon="10.268081"><ele>460.1</ele></trkpt>
            <trkpt lat="51.870432" lon="10.267539"><ele>462.1</ele></trkpt>
            <trkpt lat="51.870379" lon="10.26724"><ele>462</ele></trkpt>
            <trkpt lat="51.870196" lon="10.266462"><ele>471.5</ele></trkpt>
            <trkpt lat="51.870186" lon="10.266343"><ele>471.6</ele></trkpt>
            <trkpt lat="51.870245" lon="10.265627"><ele>471.6</ele></trkpt>
            <trkpt lat="51.870349" lon="10.26465"><ele>474</ele></trkpt>
            <trkpt lat="51.870388" lon="10.264551"><ele>474.1</ele></trkpt>
            <trkpt lat="51.870455" lon="10.264463"><ele>473.8</ele></trkpt>
            <trkpt lat="51.870541" lon="10.264419"><ele>473.4</ele></trkpt>
            <trkpt lat="51.870921" lon="10.264543"><ele>473.7</ele></trkpt>
            <trkpt lat="51.87105" lon="10.264488"><ele>475.1</ele></trkpt>
            <trkpt lat="51.871108" lon="10.264408"><ele>475.7</ele></trkpt>
            <trkpt lat="51.871235" lon="10.263956"><ele>479.5</ele></trkpt>
            <trkpt lat="51.871314" lon="10.263326"><ele>482.9</ele></trkpt>
            <trkpt lat="51.87141" lon="10.262722"><ele>485.9</ele></trkpt>
            <trkpt lat="51.871565" lon="10.262076"><ele>502.4</ele></trkpt>
            <trkpt lat="51.871706" lon="10.261572"><ele>506.4</ele></trkpt>
            <trkpt lat="51.872095" lon="10.260713"><ele>509.2</ele></trkpt>
            <trkpt lat="51.872232" lon="10.260375"><ele>508.6</ele></trkpt>
            <trkpt lat="51.872301" lon="10.260252"><ele>507.9</ele></trkpt>
            <trkpt lat="51.872406" lon="10.260154"><ele>506.8</ele></trkpt>
            <trkpt lat="51.872725" lon="10.260142"><ele>505.1</ele></trkpt>
            <trkpt lat="51.872775" lon="10.260116"><ele>505.8</ele></trkpt>
            <trkpt lat="51.872924" lon="10.259887"><ele>507.8</ele></trkpt>
            <trkpt lat="51.87361" lon="10.258507"><ele>507.6</ele></trkpt>
            <trkpt lat="51.873771" lon="10.258134"><ele>512</ele></trkpt>
            <trkpt lat="51.873979" lon="10.257488"><ele>514.5</ele></trkpt>
            <trkpt lat="51.874029" lon="10.257272"><ele>516</ele></trkpt>
            <trkpt lat="51.874134" lon="10.257223"><ele>516</ele></trkpt>
            <trkpt lat="51.874159" lon="10.257209"><ele>516</ele></trkpt>
            <trkpt lat="51.874337" lon="10.257161"><ele>498</ele></trkpt>
            <trkpt lat="51.874384" lon="10.257163"><ele>498</ele></trkpt>
            <trkpt lat="51.874416" lon="10.257164"><ele>498</ele></trkpt>
            <trkpt lat="51.874457" lon="10.257159"><ele>498</ele></trkpt>
            <trkpt lat="51.874559" lon="10.257175"><ele>498</ele></trkpt>
            <trkpt lat="51.874752" lon="10.25718"><ele>500.2</ele></trkpt>
            <trkpt lat="51.875097" lon="10.257113"><ele>500.3</ele></trkpt>
            <trkpt lat="51.875433" lon="10.257106"><ele>500.4</ele></trkpt>
            <trkpt lat="51.87555" lon="10.257148"><ele>500</ele></trkpt>
            <trkpt lat="51.875861" lon="10.257361"><ele>501.3</ele></trkpt>
            <trkpt lat="51.876544" lon="10.257881"><ele>512.1</ele></trkpt>
            <trkpt lat="51.877061" lon="10.258355"><ele>517.2</ele></trkpt>
            <trkpt lat="51.877147" lon="10.25846"><ele>519.6</ele></trkpt>
            <trkpt lat="51.877202" lon="10.258562"><ele>520.1</ele></trkpt>
            <trkpt lat="51.877238" lon="10.258686"><ele>521.2</ele></trkpt>
            <trkpt lat="51.877315" lon="10.259481"><ele>524.2</ele></trkpt>
            <trkpt lat="51.877345" lon="10.259578"><ele>532</ele></trkpt>
            <trkpt lat="51.877448" lon="10.259864"><ele>529.8</ele></trkpt>
            <trkpt lat="51.877783" lon="10.260531"><ele>528.7</ele></trkpt>
            <trkpt lat="51.87787" lon="10.260742"><ele>528.2</ele></trkpt>
            <trkpt lat="51.878026" lon="10.261225"><ele>530</ele></trkpt>
            <trkpt lat="51.878084" lon="10.261301"><ele>530</ele></trkpt>
            <trkpt lat="51.878143" lon="10.261332"><ele>530</ele></trkpt>
            <trkpt lat="51.878257" lon="10.261299"><ele>530</ele></trkpt>
            <trkpt lat="51.878333" lon="10.26121"><ele>530</ele></trkpt>
            <trkpt lat="51.878357" lon="10.261132"><ele>513.8</ele></trkpt>
            <trkpt lat="51.878416" lon="10.260639"><ele>512.4</ele></trkpt>
            <trkpt lat="51.878466" lon="10.260367"><ele>512.4</ele></trkpt>
            <trkpt lat="51.878522" lon="10.260133"><ele>512.7</ele></trkpt>
            <trkpt lat="51.878616" lon="10.259841"><ele>513.2</ele></trkpt>
            <trkpt lat="51.878782" lon="10.25961"><ele>513.9</ele></trkpt>
            <trkpt lat="51.879077" lon="10.259351"><ele>514.6</ele></trkpt>
            <trkpt lat="51.879144" lon="10.259197"><ele>515</ele></trkpt>
            <trkpt lat="51.879251" lon="10.25878"><ele>516.4</ele></trkpt>
            <trkpt lat="51.879313" lon="10.258636"><ele>516.5</ele></trkpt>
            <trkpt lat="51.879454" lon="10.258499"><ele>517.9</ele></trkpt>
            <trkpt lat="51.87966" lon="10.258458"><ele>520.4</ele></trkpt>
            <trkpt lat="51.88042" lon="10.258172"><ele>523</ele></trkpt>
            <trkpt lat="51.880656" lon="10.258135"><ele>523.8</ele></trkpt>
            <trkpt lat="51.880765" lon="10.258032"><ele>524.2</ele></trkpt>
            <trkpt lat="51.880808" lon="10.257854"><ele>524.4</ele></trkpt>
            <trkpt lat="51.880789" lon="10.257663"><ele>524.7</ele></trkpt>
            <trkpt lat="51.880683" lon="10.257337"><ele>525.4</ele></trkpt>
            <trkpt lat="51.880583" lon="10.257117"><ele>526.1</ele></trkpt>
            <trkpt lat="51.880423" lon="10.256878"><ele>527.1</ele></trkpt>
            <trkpt lat="51.880365" lon="10.256739"><ele>528</ele></trkpt>
            <trkpt lat="51.880336" lon="10.256491"><ele>528.3</ele></trkpt>
            <trkpt lat="51.880368" lon="10.25615"><ele>528.6</ele></trkpt>
            <trkpt lat="51.880374" lon="10.255835"><ele>529.7</ele></trkpt>
            <trkpt lat="51.880329" lon="10.255576"><ele>530</ele></trkpt>
            <trkpt lat="51.880302" lon="10.255418"><ele>530.3</ele></trkpt>
            <trkpt lat="51.880165" lon="10.254999"><ele>529.2</ele></trkpt>
            <trkpt lat="51.880063" lon="10.254742"><ele>528.3</ele></trkpt>
            <trkpt lat="51.879914" lon="10.254433"><ele>527</ele></trkpt>
            <trkpt lat="51.879487" lon="10.253449"><ele>524.1</ele></trkpt>
            <trkpt lat="51.879456" lon="10.253318"><ele>523.4</ele></trkpt>
            <trkpt lat="51.879451" lon="10.253156"><ele>522.9</ele></trkpt>
            <trkpt lat="51.879467" lon="10.252939"><ele>522</ele></trkpt>
            <trkpt lat="51.879581" lon="10.252363"><ele>522.6</ele></trkpt>
            <trkpt lat="51.879599" lon="10.251805"><ele>524.9</ele></trkpt>
            <trkpt lat="51.879642" lon="10.251478"><ele>525.7</ele></trkpt>
            <trkpt lat="51.879693" lon="10.251274"><ele>526.4</ele></trkpt>
            <trkpt lat="51.87973" lon="10.25115"><ele>527.1</ele></trkpt>
            <trkpt lat="51.879841" lon="10.250937"><ele>528.1</ele></trkpt>
            <trkpt lat="51.880153" lon="10.25051"><ele>530</ele></trkpt>
            <trkpt lat="51.880229" lon="10.250359"><ele>529.9</ele></trkpt>
            <trkpt lat="51.880253" lon="10.250211"><ele>530.8</ele></trkpt>
            <trkpt lat="51.880213" lon="10.249799"><ele>533.2</ele></trkpt>
            <trkpt lat="51.880204" lon="10.249091"><ele>536.4</ele></trkpt>
            <trkpt lat="51.880242" lon="10.248826"><ele>536.7</ele></trkpt>
            <trkpt lat="51.880289" lon="10.248727"><ele>536.7</ele></trkpt>
            <trkpt lat="51.880385" lon="10.248625"><ele>537.3</ele></trkpt>
            <trkpt lat="51.880689" lon="10.248447"><ele>538.3</ele></trkpt>
            <trkpt lat="51.880849" lon="10.248396"><ele>539.1</ele></trkpt>
            <trkpt lat="51.880957" lon="10.248311"><ele>538.9</ele></trkpt>
            <trkpt lat="51.881011" lon="10.248171"><ele>537.6</ele></trkpt>
            <trkpt lat="51.881006" lon="10.248022"><ele>537.1</ele></trkpt>
            <trkpt lat="51.880969" lon="10.247825"><ele>535.8</ele></trkpt>
            <trkpt lat="51.880788" lon="10.247068"><ele>533.3</ele></trkpt>
            <trkpt lat="51.880632" lon="10.246675"><ele>532</ele></trkpt>
            <trkpt lat="51.880385" lon="10.246244"><ele>529.6</ele></trkpt>
            <trkpt lat="51.880327" lon="10.246109"><ele>529</ele></trkpt>
            <trkpt lat="51.880254" lon="10.245804"><ele>529.6</ele></trkpt>
            <trkpt lat="51.880256" lon="10.245447"><ele>529.4</ele></trkpt>
            <trkpt lat="51.880335" lon="10.244821"><ele>529.2</ele></trkpt>
            <trkpt lat="51.880379" lon="10.244641"><ele>529.4</ele></trkpt>
            <trkpt lat="51.880432" lon="10.244538"><ele>529.7</ele></trkpt>
            <trkpt lat="51.880503" lon="10.244489"><ele>529.5</ele></trkpt>
            <trkpt lat="51.880618" lon="10.244447"><ele>530.2</ele></trkpt>
            <trkpt lat="51.880984" lon="10.244483"><ele>530.1</ele></trkpt>
            <trkpt lat="51.881073" lon="10.244424"><ele>529.7</ele></trkpt>
            <trkpt lat="51.881132" lon="10.244341"><ele>529.3</ele></trkpt>
            <trkpt lat="51.881254" lon="10.243813"><ele>528.8</ele></trkpt>
            <trkpt lat="51.881429" lon="10.243393"><ele>529.2</ele></trkpt>
            <trkpt lat="51.881755" lon="10.242301"><ele>531.6</ele></trkpt>
            <trkpt lat="51.88228" lon="10.241079"><ele>533.4</ele></trkpt>
            <trkpt lat="51.882337" lon="10.240981"><ele>534.1</ele></trkpt>
            <trkpt lat="51.882478" lon="10.240825"><ele>534.8</ele></trkpt>
            <trkpt lat="51.882602" lon="10.240751"><ele>535.9</ele></trkpt>
            <trkpt lat="51.883395" lon="10.240437"><ele>541.9</ele></trkpt>
            <trkpt lat="51.88362" lon="10.240405"><ele>542.6</ele></trkpt>
            <trkpt lat="51.883891" lon="10.240433"><ele>543.8</ele></trkpt>
            <trkpt lat="51.884059" lon="10.2405"><ele>544.3</ele></trkpt>
            <trkpt lat="51.884172" lon="10.240608"><ele>544.9</ele></trkpt>
            <trkpt lat="51.884272" lon="10.24079"><ele>545.2</ele></trkpt>
            <trkpt lat="51.884378" lon="10.24114"><ele>545.5</ele></trkpt>
            <trkpt lat="51.884479" lon="10.241234"><ele>545.2</ele></trkpt>
            <trkpt lat="51.88456" lon="10.241217"><ele>545</ele></trkpt>
            <trkpt lat="51.884755" lon="10.240911"><ele>544.7</ele></trkpt>
            <trkpt lat="51.884842" lon="10.240805"><ele>544.5</ele></trkpt>
            <trkpt lat="51.884986" lon="10.240704"><ele>542</ele></trkpt>
            <trkpt lat="51.885045" lon="10.240391"><ele>546</ele></trkpt>
            <trkpt lat="51.884999" lon="10.24018"><ele>534.8</ele></trkpt>
            <trkpt lat="51.884967" lon="10.239776"><ele>533.8</ele></trkpt>
            <trkpt lat="51.884998" lon="10.239191"><ele>533.8</ele></trkpt>
            <trkpt lat="51.884916" lon="10.238779"><ele>527</ele></trkpt>
            <trkpt lat="51.884892" lon="10.238635"><ele>527</ele></trkpt>
            <trkpt lat="51.884887" lon="10.238569"><ele>527</ele></trkpt>
            <trkpt lat="51.884892" lon="10.238635"><ele>527</ele></trkpt>
            <trkpt lat="51.884916" lon="10.238779"><ele>527</ele></trkpt>
            <trkpt lat="51.884998" lon="10.239191"><ele>533.8</ele></trkpt>
            <trkpt lat="51.884967" lon="10.239776"><ele>533.8</ele></trkpt>
            <trkpt lat="51.884999" lon="10.24018"><ele>534.8</ele></trkpt>
            <trkpt lat="51.885045" lon="10.240391"><ele>546</ele></trkpt>
            <trkpt lat="51.885084" lon="10.240681"><ele>546</ele></trkpt>
            <trkpt lat="51.885231" lon="10.240706"><ele>548.6</ele></trkpt>
            <trkpt lat="51.885635" lon="10.240906"><ele>548.8</ele></trkpt>
            <trkpt lat="51.885885" lon="10.241151"><ele>548.4</ele></trkpt>
            <trkpt lat="51.886003" lon="10.241297"><ele>549</ele></trkpt>
            <trkpt lat="51.886586" lon="10.241933"><ele>548.3</ele></trkpt>
            <trkpt lat="51.88682" lon="10.242123"><ele>545.5</ele></trkpt>
            <trkpt lat="51.887024" lon="10.242215"><ele>545.7</ele></trkpt>
            <trkpt lat="51.887365" lon="10.242299"><ele>544.9</ele></trkpt>
            <trkpt lat="51.887915" lon="10.242325"><ele>544.9</ele></trkpt>
            <trkpt lat="51.888037" lon="10.242386"><ele>545.3</ele></trkpt>
            <trkpt lat="51.888124" lon="10.242456"><ele>545.6</ele></trkpt>
            <trkpt lat="51.888204" lon="10.242563"><ele>546.1</ele></trkpt>
            <trkpt lat="51.888745" lon="10.243587"><ele>544.5</ele></trkpt>
            <trkpt lat="51.889074" lon="10.244113"><ele>543.1</ele></trkpt>
            <trkpt lat="51.88937" lon="10.244487"><ele>542</ele></trkpt>
            <trkpt lat="51.889724" lon="10.24472"><ele>541.5</ele></trkpt>
            <trkpt lat="51.890094" lon="10.244857"><ele>534</ele></trkpt>
            <trkpt lat="51.890255" lon="10.244838"><ele>534.3</ele></trkpt>
            <trkpt lat="51.890398" lon="10.244852"><ele>534.3</ele></trkpt>
            <trkpt lat="51.890839" lon="10.244981"><ele>534.7</ele></trkpt>
            <trkpt lat="51.891038" lon="10.244988"><ele>534.6</ele></trkpt>
            <trkpt lat="51.891278" lon="10.244956"><ele>534.6</ele></trkpt>
            <trkpt lat="51.89192" lon="10.245049"><ele>539</ele></trkpt>
            <trkpt lat="51.892121" lon="10.24506"><ele>538.5</ele></trkpt>
            <trkpt lat="51.892302" lon="10.245011"><ele>538.5</ele></trkpt>
            <trkpt lat="51.892557" lon="10.244875"><ele>538.3</ele></trkpt>
            <trkpt lat="51.892768" lon="10.244881"><ele>538.3</ele></trkpt>
            <trkpt lat="51.893176" lon="10.244937"><ele>538.3</ele></trkpt>
            <trkpt lat="51.893318" lon="10.24492"><ele>538.2</ele></trkpt>
            <trkpt lat="51.893695" lon="10.244666"><ele>538.4</ele></trkpt>
            <trkpt lat="51.893832" lon="10.244621"><ele>538.6</ele></trkpt>
            <trkpt lat="51.894244" lon="10.24469"><ele>538.9</ele></trkpt>
            <trkpt lat="51.894456" lon="10.244793"><ele>538.9</ele></trkpt>
            <trkpt lat="51.895212" lon="10.245252"><ele>540.7</ele></trkpt>
            <trkpt lat="51.895473" lon="10.245475"><ele>541</ele></trkpt>
            <trkpt lat="51.895811" lon="10.245598"><ele>543</ele></trkpt>
            <trkpt lat="51.896536" lon="10.245574"><ele>537.4</ele></trkpt>
            <trkpt lat="51.896685" lon="10.245535"><ele>537.5</ele></trkpt>
            <trkpt lat="51.896835" lon="10.24564"><ele>537.5</ele></trkpt>
            <trkpt lat="51.896957" lon="10.245864"><ele>536.4</ele></trkpt>
            <trkpt lat="51.897036" lon="10.246138"><ele>536.4</ele></trkpt>
            <trkpt lat="51.897094" lon="10.246455"><ele>535.9</ele></trkpt>
            <trkpt lat="51.897145" lon="10.246637"><ele>535.9</ele></trkpt>
            <trkpt lat="51.897206" lon="10.246766"><ele>535.7</ele></trkpt>
            <trkpt lat="51.897436" lon="10.247108"><ele>535.1</ele></trkpt>
            <trkpt lat="51.897805" lon="10.247509"><ele>524</ele></trkpt>
            <trkpt lat="51.898499" lon="10.24831"><ele>520.7</ele></trkpt>
            <trkpt lat="51.898855" lon="10.248554"><ele>520.2</ele></trkpt>
            <trkpt lat="51.899428" lon="10.24901"><ele>519.4</ele></trkpt>
            <trkpt lat="51.899631" lon="10.249052"><ele>518.7</ele></trkpt>
            <trkpt lat="51.900034" lon="10.249029"><ele>518.5</ele></trkpt>
            <trkpt lat="51.90044" lon="10.249048"><ele>517.9</ele></trkpt>
            <trkpt lat="51.901384" lon="10.248963"><ele>516</ele></trkpt>
            <trkpt lat="51.901659" lon="10.248939"><ele>522.4</ele></trkpt>
            <trkpt lat="51.901911" lon="10.249102"><ele>522.9</ele></trkpt>
            <trkpt lat="51.902185" lon="10.24922"><ele>523.5</ele></trkpt>
            <trkpt lat="51.90246" lon="10.249276"><ele>523.5</ele></trkpt>
            <trkpt lat="51.902602" lon="10.249359"><ele>524.4</ele></trkpt>
            <trkpt lat="51.90289" lon="10.249689"><ele>526.1</ele></trkpt>
            <trkpt lat="51.903178" lon="10.249941"><ele>528.2</ele></trkpt>
            <trkpt lat="51.903478" lon="10.250065"><ele>530.1</ele></trkpt>
            <trkpt lat="51.903743" lon="10.250227"><ele>532</ele></trkpt>
            <trkpt lat="51.904027" lon="10.250452"><ele>532.7</ele></trkpt>
            <trkpt lat="51.904212" lon="10.250718"><ele>532.9</ele></trkpt>
            <trkpt lat="51.904453" lon="10.251205"><ele>533.2</ele></trkpt>
            <trkpt lat="51.904715" lon="10.2515"><ele>532.5</ele></trkpt>
            <trkpt lat="51.904947" lon="10.251709"><ele>532</ele></trkpt>
            <trkpt lat="51.90511" lon="10.251819"><ele>531.7</ele></trkpt>
            <trkpt lat="51.905862" lon="10.251924"><ele>532.3</ele></trkpt>
            <trkpt lat="51.906185" lon="10.251813"><ele>533</ele></trkpt>
            <trkpt lat="51.906562" lon="10.251611"><ele>533.2</ele></trkpt>
            <trkpt lat="51.906685" lon="10.251614"><ele>533.2</ele></trkpt>
            <trkpt lat="51.907049" lon="10.251741"><ele>533.4</ele></trkpt>
            <trkpt lat="51.907217" lon="10.251743"><ele>533.8</ele></trkpt>
            <trkpt lat="51.907414" lon="10.251903"><ele>534.4</ele></trkpt>
            <trkpt lat="51.907756" lon="10.252114"><ele>534.6</ele></trkpt>
            <trkpt lat="51.907896" lon="10.252177"><ele>535</ele></trkpt>
            <trkpt lat="51.907951" lon="10.252074"><ele>537.3</ele></trkpt>
            <trkpt lat="51.908186" lon="10.252006"><ele>538.9</ele></trkpt>
            <trkpt lat="51.908524" lon="10.251849"><ele>538.8</ele></trkpt>
            <trkpt lat="51.908983" lon="10.251541"><ele>539</ele></trkpt>
            <trkpt lat="51.90923" lon="10.251253"><ele>541.8</ele></trkpt>
            <trkpt lat="51.909354" lon="10.251036"><ele>548</ele></trkpt>
            <trkpt lat="51.909497" lon="10.250755"><ele>554.2</ele></trkpt>
            <trkpt lat="51.909882" lon="10.250185"><ele>555.3</ele></trkpt>
            <trkpt lat="51.909999" lon="10.249972"><ele>555.3</ele></trkpt>
            <trkpt lat="51.910064" lon="10.249745"><ele>555.8</ele></trkpt>
            <trkpt lat="51.910134" lon="10.249567"><ele>556.2</ele></trkpt>
            <trkpt lat="51.9104" lon="10.249294"><ele>557.5</ele></trkpt>
            <trkpt lat="51.910727" lon="10.249049"><ele>564</ele></trkpt>
            <trkpt lat="51.910983" lon="10.249196"><ele>563.2</ele></trkpt>
            <trkpt lat="51.911367" lon="10.249543"><ele>563.2</ele></trkpt>
            <trkpt lat="51.911578" lon="10.249708"><ele>563.3</ele></trkpt>
            <trkpt lat="51.911803" lon="10.249928"><ele>563</ele></trkpt>
            <trkpt lat="51.912256" lon="10.250304"><ele>566.2</ele></trkpt>
            <trkpt lat="51.912685" lon="10.250575"><ele>566.5</ele></trkpt>
            <trkpt lat="51.913111" lon="10.250769"><ele>566.7</ele></trkpt>
            <trkpt lat="51.913613" lon="10.251057"><ele>566</ele></trkpt>
            <trkpt lat="51.913744" lon="10.251092"><ele>566</ele></trkpt>
            <trkpt lat="51.914249" lon="10.251129"><ele>566</ele></trkpt>
            <trkpt lat="51.914649" lon="10.251321"><ele>566</ele></trkpt>
            <trkpt lat="51.914834" lon="10.251364"><ele>566</ele></trkpt>
            <trkpt lat="51.914835" lon="10.251364"><ele>566</ele></trkpt>
        </trkseg>
    </trk>
</gpx>
