<?xml version="1.0" encoding="UTF-8"?>
<gpx version="1.1" creator="HWN Route Compare (OpenRouteService)" xmlns="http://www.topografix.com/GPX/1/1">
    <metadata>
        <name>OpenRouteService – Tour A2a</name>
    </metadata>
    <trk>
        <name>OpenRouteService – Tour A2a</name>
        <trkseg>
            <trkpt lat="51.89502" lon="10.27902"><ele>321.8</ele></trkpt>
            <trkpt lat="51.894979" lon="10.279128"><ele>316</ele></trkpt>
            <trkpt lat="51.894892" lon="10.2791"><ele>327.4</ele></trkpt>
            <trkpt lat="51.89481" lon="10.279135"><ele>326.8</ele></trkpt>
            <trkpt lat="51.894595" lon="10.279457"><ele>328.2</ele></trkpt>
            <trkpt lat="51.894507" lon="10.279555"><ele>329.1</ele></trkpt>
            <trkpt lat="51.894401" lon="10.279612"><ele>330.4</ele></trkpt>
            <trkpt lat="51.894319" lon="10.27962"><ele>330.9</ele></trkpt>
            <trkpt lat="51.89423" lon="10.279603"><ele>331.5</ele></trkpt>
            <trkpt lat="51.894143" lon="10.279528"><ele>331.8</ele></trkpt>
            <trkpt lat="51.893924" lon="10.279263"><ele>332.3</ele></trkpt>
            <trkpt lat="51.893825" lon="10.279219"><ele>332.4</ele></trkpt>
            <trkpt lat="51.893717" lon="10.279194"><ele>332.7</ele></trkpt>
            <trkpt lat="51.893493" lon="10.279255"><ele>336.7</ele></trkpt>
            <trkpt lat="51.893191" lon="10.279247"><ele>335.3</ele></trkpt>
            <trkpt lat="51.893075" lon="10.279284"><ele>333.8</ele></trkpt>
            <trkpt lat="51.892913" lon="10.279383"><ele>332.3</ele></trkpt>
            <trkpt lat="51.892579" lon="10.279706"><ele>329.1</ele></trkpt>
            <trkpt lat="51.892176" lon="10.280017"><ele>325.4</ele></trkpt>
            <trkpt lat="51.891858" lon="10.280518"><ele>325.3</ele></trkpt>
            <trkpt lat="51.891767" lon="10.280591"><ele>325.9</ele></trkpt>
            <trkpt lat="51.891665" lon="10.28063"><ele>324.5</ele></trkpt>
            <trkpt lat="51.891165" lon="10.280597"><ele>318.4</ele></trkpt>
            <trkpt lat="51.890386" lon="10.280679"><ele>305.9</ele></trkpt>
            <trkpt lat="51.890229" lon="10.280608"><ele>305</ele></trkpt>
            <trkpt lat="51.889988" lon="10.280419"><ele>303.9</ele></trkpt>
            <trkpt lat="51.889928" lon="10.280396"><ele>303.4</ele></trkpt>
            <trkpt lat="51.889805" lon="10.280393"><ele>301.4</ele></trkpt>
            <trkpt lat="51.889653" lon="10.280456"><ele>300.6</ele></trkpt>
            <trkpt lat="51.889541" lon="10.280595"><ele>298.8</ele></trkpt>
            <trkpt lat="51.889496" lon="10.280723"><ele>298.5</ele></trkpt>
            <trkpt lat="51.889468" lon="10.280912"><ele>298.6</ele></trkpt>
            <trkpt lat="51.889426" lon="10.281065"><ele>298</ele></trkpt>
            <trkpt lat="51.889302" lon="10.28131"><ele>297.2</ele></trkpt>
            <trkpt lat="51.889168" lon="10.281793"><ele>296.8</ele></trkpt>
            <trkpt lat="51.889125" lon="10.282094"><ele>293.3</ele></trkpt>
            <trkpt lat="51.889143" lon="10.282648"><ele>293.1</ele></trkpt>
            <trkpt lat="51.889114" lon="10.283308"><ele>291</ele></trkpt>
            <trkpt lat="51.888816" lon="10.284086"><ele>287.2</ele></trkpt>
            <trkpt lat="51.888665" lon="10.284574"><ele>288.6</ele></trkpt>
            <trkpt lat="51.88841" lon="10.285291"><ele>291.5</ele></trkpt>
            <trkpt lat="51.888227" lon="10.28559"><ele>290.9</ele></trkpt>
            <trkpt lat="51.888134" lon="10.285692"><ele>289.6</ele></trkpt>
            <trkpt lat="51.888035" lon="10.28576"><ele>289</ele></trkpt>
            <trkpt lat="51.887337" lon="10.286403"><ele>287.7</ele></trkpt>
            <trkpt lat="51.887078" lon="10.286609"><ele>283.7</ele></trkpt>
            <trkpt lat="51.886964" lon="10.286658"><ele>281</ele></trkpt>
            <trkpt lat="51.886611" lon="10.286756"><ele>285.7</ele></trkpt>
            <trkpt lat="51.886286" lon="10.286886"><ele>285.9</ele></trkpt>
            <trkpt lat="51.885797" lon="10.287001"><ele>286.3</ele></trkpt>
            <trkpt lat="51.88551" lon="10.286972"><ele>286.7</ele></trkpt>
            <trkpt lat="51.885136" lon="10.28689"><ele>286.6</ele></trkpt>
            <trkpt lat="51.884963" lon="10.286754"><ele>287.4</ele></trkpt>
            <trkpt lat="51.884833" lon="10.286594"><ele>290</ele></trkpt>
            <trkpt lat="51.884676" lon="10.286831"><ele>292.5</ele></trkpt>
            <trkpt lat="51.884619" lon="10.287088"><ele>294</ele></trkpt>
            <trkpt lat="51.884594" lon="10.287153"><ele>304</ele></trkpt>
            <trkpt lat="51.884544" lon="10.287549"><ele>306.3</ele></trkpt>
            <trkpt lat="51.884526" lon="10.287914"><ele>307.7</ele></trkpt>
            <trkpt lat="51.884552" lon="10.288368"><ele>308.4</ele></trkpt>
            <trkpt lat="51.884577" lon="10.288627"><ele>308.3</ele></trkpt>
            <trkpt lat="51.884754" lon="10.289209"><ele>309.5</ele></trkpt>
            <trkpt lat="51.884802" lon="10.289516"><ele>312.2</ele></trkpt>
            <trkpt lat="51.884842" lon="10.289978"><ele>314.6</ele></trkpt>
            <trkpt lat="51.884932" lon="10.29074"><ele>317.2</ele></trkpt>
            <trkpt lat="51.88506" lon="10.291467"><ele>318.6</ele></trkpt>
            <trkpt lat="51.885091" lon="10.291934"><ele>318.9</ele></trkpt>
            <trkpt lat="51.885077" lon="10.292157"><ele>321</ele></trkpt>
            <trkpt lat="51.884901" lon="10.292348"><ele>334</ele></trkpt>
            <trkpt lat="51.884784" lon="10.292442"><ele>334</ele></trkpt>
            <trkpt lat="51.884637" lon="10.292521"><ele>337</ele></trkpt>
            <trkpt lat="51.884591" lon="10.292455"><ele>333.3</ele></trkpt>
            <trkpt lat="51.884537" lon="10.292195"><ele>333.2</ele></trkpt>
            <trkpt lat="51.88449" lon="10.29176"><ele>332.9</ele></trkpt>
            <trkpt lat="51.884444" lon="10.291494"><ele>327</ele></trkpt>
            <trkpt lat="51.883994" lon="10.2906"><ele>354</ele></trkpt>
            <trkpt lat="51.883895" lon="10.2904"><ele>349.1</ele></trkpt>
            <trkpt lat="51.883424" lon="10.289212"><ele>347</ele></trkpt>
            <trkpt lat="51.883161" lon="10.288668"><ele>346.3</ele></trkpt>
            <trkpt lat="51.882787" lon="10.28777"><ele>346</ele></trkpt>
            <trkpt lat="51.882563" lon="10.287426"><ele>343.7</ele></trkpt>
            <trkpt lat="51.882424" lon="10.287294"><ele>344</ele></trkpt>
            <trkpt lat="51.882196" lon="10.287243"><ele>345</ele></trkpt>
            <trkpt lat="51.881899" lon="10.287284"><ele>345.9</ele></trkpt>
            <trkpt lat="51.881594" lon="10.28724"><ele>345.8</ele></trkpt>
            <trkpt lat="51.881241" lon="10.287229"><ele>345.5</ele></trkpt>
            <trkpt lat="51.881095" lon="10.287298"><ele>346.7</ele></trkpt>
            <trkpt lat="51.88099" lon="10.287527"><ele>348</ele></trkpt>
            <trkpt lat="51.880941" lon="10.287688"><ele>349.4</ele></trkpt>
            <trkpt lat="51.880925" lon="10.28783"><ele>350.4</ele></trkpt>
            <trkpt lat="51.88094" lon="10.288242"><ele>360</ele></trkpt>
            <trkpt lat="51.880783" lon="10.288338"><ele>345.5</ele></trkpt>
            <trkpt lat="51.880415" lon="10.288483"><ele>342.3</ele></trkpt>
            <trkpt lat="51.880351" lon="10.288537"><ele>341.2</ele></trkpt>
            <trkpt lat="51.880264" lon="10.28868"><ele>340</ele></trkpt>
            <trkpt lat="51.880085" lon="10.289099"><ele>338.7</ele></trkpt>
            <trkpt lat="51.879998" lon="10.289368"><ele>336.3</ele></trkpt>
            <trkpt lat="51.879831" lon="10.290263"><ele>335.3</ele></trkpt>
            <trkpt lat="51.879574" lon="10.291404"><ele>335.3</ele></trkpt>
            <trkpt lat="51.879467" lon="10.292115"><ele>336.4</ele></trkpt>
            <trkpt lat="51.879284" lon="10.292635"><ele>341</ele></trkpt>
            <trkpt lat="51.879169" lon="10.29312"><ele>353.5</ele></trkpt>
            <trkpt lat="51.879061" lon="10.293662"><ele>356.6</ele></trkpt>
            <trkpt lat="51.879016" lon="10.293784"><ele>366</ele></trkpt>
            <trkpt lat="51.879012" lon="10.294019"><ele>373.9</ele></trkpt>
            <trkpt lat="51.879032" lon="10.294562"><ele>374.9</ele></trkpt>
            <trkpt lat="51.879086" lon="10.295377"><ele>375.1</ele></trkpt>
            <trkpt lat="51.879084" lon="10.295595"><ele>374.8</ele></trkpt>
            <trkpt lat="51.879016" lon="10.296069"><ele>375.1</ele></trkpt>
            <trkpt lat="51.878956" lon="10.296268"><ele>376</ele></trkpt>
            <trkpt lat="51.878869" lon="10.296161"><ele>375.2</ele></trkpt>
            <trkpt lat="51.878861" lon="10.296126"><ele>375.3</ele></trkpt>
            <trkpt lat="51.878834" lon="10.295746"><ele>375.6</ele></trkpt>
            <trkpt lat="51.878738" lon="10.294993"><ele>375.6</ele></trkpt>
            <trkpt lat="51.878547" lon="10.294215"><ele>372</ele></trkpt>
            <trkpt lat="51.878524" lon="10.294195"><ele>380.7</ele></trkpt>
            <trkpt lat="51.878382" lon="10.293301"><ele>383</ele></trkpt>
            <trkpt lat="51.878325" lon="10.293081"><ele>384.5</ele></trkpt>
            <trkpt lat="51.878202" lon="10.292661"><ele>385.8</ele></trkpt>
            <trkpt lat="51.877998" lon="10.292092"><ele>388</ele></trkpt>
            <trkpt lat="51.877971" lon="10.292068"><ele>390.3</ele></trkpt>
            <trkpt lat="51.87795" lon="10.292148"><ele>391.2</ele></trkpt>
            <trkpt lat="51.877915" lon="10.292617"><ele>388.7</ele></trkpt>
            <trkpt lat="51.877859" lon="10.293115"><ele>389.8</ele></trkpt>
            <trkpt lat="51.87784" lon="10.294286"><ele>423</ele></trkpt>
            <trkpt lat="51.877809" lon="10.294439"><ele>426.1</ele></trkpt>
            <trkpt lat="51.877783" lon="10.294431"><ele>426.6</ele></trkpt>
            <trkpt lat="51.8776" lon="10.294014"><ele>427.1</ele></trkpt>
            <trkpt lat="51.877325" lon="10.293152"><ele>425.2</ele></trkpt>
            <trkpt lat="51.877162" lon="10.292872"><ele>423</ele></trkpt>
            <trkpt lat="51.877129" lon="10.292589"><ele>423</ele></trkpt>
            <trkpt lat="51.876996" lon="10.292601"><ele>423</ele></trkpt>
            <trkpt lat="51.877014" lon="10.292399"><ele>407.8</ele></trkpt>
            <trkpt lat="51.876975" lon="10.292277"><ele>405.7</ele></trkpt>
            <trkpt lat="51.876959" lon="10.292153"><ele>400</ele></trkpt>
            <trkpt lat="51.876801" lon="10.292132"><ele>400</ele></trkpt>
            <trkpt lat="51.876839" lon="10.292056"><ele>400</ele></trkpt>
            <trkpt lat="51.87686" lon="10.292014"><ele>400</ele></trkpt>
            <trkpt lat="51.876934" lon="10.291922"><ele>400</ele></trkpt>
            <trkpt lat="51.876942" lon="10.291848"><ele>400</ele></trkpt>
            <trkpt lat="51.876821" lon="10.291849"><ele>400</ele></trkpt>
            <trkpt lat="51.876713" lon="10.291925"><ele>400</ele></trkpt>
            <trkpt lat="51.876704" lon="10.291819"><ele>388.8</ele></trkpt>
            <trkpt lat="51.876777" lon="10.291536"><ele>370</ele></trkpt>
            <trkpt lat="51.876757" lon="10.291531"><ele>357.1</ele></trkpt>
            <trkpt lat="51.876713" lon="10.291584"><ele>357.6</ele></trkpt>
            <trkpt lat="51.876591" lon="10.291763"><ele>357.9</ele></trkpt>
            <trkpt lat="51.876557" lon="10.291842"><ele>358.2</ele></trkpt>
            <trkpt lat="51.876476" lon="10.291887"><ele>358.8</ele></trkpt>
            <trkpt lat="51.876297" lon="10.292112"><ele>359.3</ele></trkpt>
            <trkpt lat="51.876196" lon="10.292159"><ele>359.5</ele></trkpt>
            <trkpt lat="51.87606" lon="10.292275"><ele>360</ele></trkpt>
            <trkpt lat="51.876151" lon="10.292134"><ele>360.2</ele></trkpt>
            <trkpt lat="51.876255" lon="10.291885"><ele>360.6</ele></trkpt>
            <trkpt lat="51.876329" lon="10.291613"><ele>359.6</ele></trkpt>
            <trkpt lat="51.876441" lon="10.29096"><ele>357.4</ele></trkpt>
            <trkpt lat="51.876499" lon="10.290872"><ele>355.4</ele></trkpt>
            <trkpt lat="51.876564" lon="10.290664"><ele>353.2</ele></trkpt>
            <trkpt lat="51.876558" lon="10.290633"><ele>302</ele></trkpt>
            <trkpt lat="51.876476" lon="10.290769"><ele>320.1</ele></trkpt>
            <trkpt lat="51.876372" lon="10.291007"><ele>324.3</ele></trkpt>
            <trkpt lat="51.876298" lon="10.291102"><ele>326</ele></trkpt>
            <trkpt lat="51.876194" lon="10.291348"><ele>327.3</ele></trkpt>
            <trkpt lat="51.876169" lon="10.291481"><ele>328</ele></trkpt>
            <trkpt lat="51.875903" lon="10.291735"><ele>330.7</ele></trkpt>
            <trkpt lat="51.875353" lon="10.29219"><ele>335.2</ele></trkpt>
            <trkpt lat="51.875287" lon="10.292275"><ele>334.7</ele></trkpt>
            <trkpt lat="51.875207" lon="10.292325"><ele>334.3</ele></trkpt>
            <trkpt lat="51.875092" lon="10.292322"><ele>333.9</ele></trkpt>
            <trkpt lat="51.874975" lon="10.292352"><ele>331.5</ele></trkpt>
            <trkpt lat="51.874845" lon="10.292446"><ele>328.9</ele></trkpt>
            <trkpt lat="51.874259" lon="10.292629"><ele>343</ele></trkpt>
            <trkpt lat="51.874059" lon="10.292732"><ele>333.8</ele></trkpt>
            <trkpt lat="51.873163" lon="10.292823"><ele>330.3</ele></trkpt>
            <trkpt lat="51.872895" lon="10.292818"><ele>328.7</ele></trkpt>
            <trkpt lat="51.87267" lon="10.292853"><ele>328.1</ele></trkpt>
            <trkpt lat="51.872371" lon="10.29267"><ele>325.6</ele></trkpt>
            <trkpt lat="51.872211" lon="10.292691"><ele>319</ele></trkpt>
            <trkpt lat="51.872093" lon="10.292716"><ele>317.3</ele></trkpt>
            <trkpt lat="51.871693" lon="10.292686"><ele>317.6</ele></trkpt>
            <trkpt lat="51.871596" lon="10.292712"><ele>317</ele></trkpt>
            <trkpt lat="51.871485" lon="10.29281"><ele>314</ele></trkpt>
            <trkpt lat="51.871419" lon="10.292926"><ele>315.6</ele></trkpt>
            <trkpt lat="51.871378" lon="10.293155"><ele>315.3</ele></trkpt>
            <trkpt lat="51.871384" lon="10.29382"><ele>319</ele></trkpt>
            <trkpt lat="51.871362" lon="10.29392"><ele>319</ele></trkpt>
            <trkpt lat="51.871354" lon="10.294057"><ele>319</ele></trkpt>
            <trkpt lat="51.87128" lon="10.294132"><ele>319</ele></trkpt>
            <trkpt lat="51.871234" lon="10.294118"><ele>319</ele></trkpt>
            <trkpt lat="51.871111" lon="10.293916"><ele>319</ele></trkpt>
            <trkpt lat="51.871014" lon="10.293527"><ele>321.5</ele></trkpt>
            <trkpt lat="51.870745" lon="10.2929"><ele>321.4</ele></trkpt>
            <trkpt lat="51.870616" lon="10.292704"><ele>322.2</ele></trkpt>
            <trkpt lat="51.870466" lon="10.292543"><ele>327</ele></trkpt>
            <trkpt lat="51.870089" lon="10.292061"><ele>320</ele></trkpt>
            <trkpt lat="51.870022" lon="10.291978"><ele>323</ele></trkpt>
            <trkpt lat="51.869657" lon="10.291382"><ele>329</ele></trkpt>
            <trkpt lat="51.869649" lon="10.291369"><ele>329</ele></trkpt>
            <trkpt lat="51.869377" lon="10.290888"><ele>330.7</ele></trkpt>
            <trkpt lat="51.869148" lon="10.290398"><ele>334</ele></trkpt>
            <trkpt lat="51.868892" lon="10.289753"><ele>327.7</ele></trkpt>
            <trkpt lat="51.86887" lon="10.289574"><ele>326.6</ele></trkpt>
            <trkpt lat="51.868918" lon="10.289443"><ele>323</ele></trkpt>
            <trkpt lat="51.868807" lon="10.289207"><ele>323</ele></trkpt>
            <trkpt lat="51.868854" lon="10.289093"><ele>313</ele></trkpt>
            <trkpt lat="51.868386" lon="10.288295"><ele>314.9</ele></trkpt>
            <trkpt lat="51.868327" lon="10.288234"><ele>319</ele></trkpt>
            <trkpt lat="51.868126" lon="10.287658"><ele>319</ele></trkpt>
            <trkpt lat="51.86804" lon="10.287613"><ele>319</ele></trkpt>
            <trkpt lat="51.867999" lon="10.287554"><ele>319</ele></trkpt>
            <trkpt lat="51.867938" lon="10.287419"><ele>324</ele></trkpt>
            <trkpt lat="51.868155" lon="10.28723"><ele>318</ele></trkpt>
            <trkpt lat="51.868401" lon="10.287133"><ele>306</ele></trkpt>
            <trkpt lat="51.868401" lon="10.286887"><ele>304.8</ele></trkpt>
            <trkpt lat="51.868444" lon="10.286717"><ele>304.6</ele></trkpt>
            <trkpt lat="51.868434" lon="10.286627"><ele>304.3</ele></trkpt>
            <trkpt lat="51.868392" lon="10.286535"><ele>303</ele></trkpt>
            <trkpt lat="51.86822" lon="10.286531"><ele>314</ele></trkpt>
            <trkpt lat="51.868154" lon="10.28649"><ele>314</ele></trkpt>
            <trkpt lat="51.868044" lon="10.28637"><ele>314</ele></trkpt>
            <trkpt lat="51.867985" lon="10.286315"><ele>318.6</ele></trkpt>
            <trkpt lat="51.8678" lon="10.286296"><ele>319.2</ele></trkpt>
            <trkpt lat="51.867739" lon="10.286245"><ele>320</ele></trkpt>
            <trkpt lat="51.867597" lon="10.286238"><ele>320.8</ele></trkpt>
            <trkpt lat="51.867132" lon="10.286154"><ele>330</ele></trkpt>
            <trkpt lat="51.86698" lon="10.286243"><ele>330</ele></trkpt>
            <trkpt lat="51.866942" lon="10.28629"><ele>330</ele></trkpt>
            <trkpt lat="51.866952" lon="10.28633"><ele>330</ele></trkpt>
            <trkpt lat="51.867003" lon="10.286339"><ele>330</ele></trkpt>
            <trkpt lat="51.86707" lon="10.2864"><ele>330</ele></trkpt>
            <trkpt lat="51.867048" lon="10.286434"><ele>330</ele></trkpt>
            <trkpt lat="51.866969" lon="10.286563"><ele>330</ele></trkpt>
            <trkpt lat="51.866845" lon="10.286616"><ele>330</ele></trkpt>
            <trkpt lat="51.866688" lon="10.286573"><ele>344.4</ele></trkpt>
            <trkpt lat="51.866555" lon="10.286574"><ele>347.3</ele></trkpt>
            <trkpt lat="51.866531" lon="10.286604"><ele>347.1</ele></trkpt>
            <trkpt lat="51.866504" lon="10.286704"><ele>366</ele></trkpt>
            <trkpt lat="51.866369" lon="10.286752"><ele>366</ele></trkpt>
            <trkpt lat="51.866357" lon="10.286799"><ele>366</ele></trkpt>
            <trkpt lat="51.866199" lon="10.28698"><ele>366</ele></trkpt>
            <trkpt lat="51.866011" lon="10.286971"><ele>366</ele></trkpt>
            <trkpt lat="51.865652" lon="10.287375"><ele>387.3</ele></trkpt>
            <trkpt lat="51.865541" lon="10.287569"><ele>397</ele></trkpt>
            <trkpt lat="51.864823" lon="10.288508"><ele>411.4</ele></trkpt>
            <trkpt lat="51.864729" lon="10.288657"><ele>422</ele></trkpt>
            <trkpt lat="51.864476" lon="10.289099"><ele>418.2</ele></trkpt>
            <trkpt lat="51.864237" lon="10.289398"><ele>414</ele></trkpt>
            <trkpt lat="51.864043" lon="10.289669"><ele>438.8</ele></trkpt>
            <trkpt lat="51.863893" lon="10.289939"><ele>437.3</ele></trkpt>
            <trkpt lat="51.863734" lon="10.290275"><ele>435.5</ele></trkpt>
            <trkpt lat="51.863667" lon="10.29032"><ele>441</ele></trkpt>
            <trkpt lat="51.863608" lon="10.290288"><ele>441</ele></trkpt>
            <trkpt lat="51.863587" lon="10.29026"><ele>441</ele></trkpt>
            <trkpt lat="51.863608" lon="10.290288"><ele>441</ele></trkpt>
            <trkpt lat="51.863667" lon="10.29032"><ele>441</ele></trkpt>
            <trkpt lat="51.863734" lon="10.290275"><ele>435.5</ele></trkpt>
            <trkpt lat="51.863893" lon="10.289939"><ele>437.3</ele></trkpt>
            <trkpt lat="51.864043" lon="10.289669"><ele>438.8</ele></trkpt>
            <trkpt lat="51.864237" lon="10.289398"><ele>414</ele></trkpt>
            <trkpt lat="51.864476" lon="10.289099"><ele>418.2</ele></trkpt>
            <trkpt lat="51.864729" lon="10.288657"><ele>422</ele></trkpt>
            <trkpt lat="51.864823" lon="10.288508"><ele>411.4</ele></trkpt>
            <trkpt lat="51.865541" lon="10.287569"><ele>397</ele></trkpt>
            <trkpt lat="51.865652" lon="10.287375"><ele>387.3</ele></trkpt>
            <trkpt lat="51.866011" lon="10.286971"><ele>366</ele></trkpt>
            <trkpt lat="51.866199" lon="10.28698"><ele>366</ele></trkpt>
            <trkpt lat="51.866357" lon="10.286799"><ele>366</ele></trkpt>
            <trkpt lat="51.866369" lon="10.286752"><ele>366</ele></trkpt>
            <trkpt lat="51.866504" lon="10.286704"><ele>366</ele></trkpt>
            <trkpt lat="51.866531" lon="10.286604"><ele>347.1</ele></trkpt>
            <trkpt lat="51.866555" lon="10.286574"><ele>347.3</ele></trkpt>
            <trkpt lat="51.866688" lon="10.286573"><ele>344.4</ele></trkpt>
            <trkpt lat="51.866845" lon="10.286616"><ele>330</ele></trkpt>
            <trkpt lat="51.866969" lon="10.286563"><ele>330</ele></trkpt>
            <trkpt lat="51.867048" lon="10.286434"><ele>330</ele></trkpt>
            <trkpt lat="51.86707" lon="10.2864"><ele>330</ele></trkpt>
            <trkpt lat="51.867003" lon="10.286339"><ele>330</ele></trkpt>
            <trkpt lat="51.866952" lon="10.28633"><ele>330</ele></trkpt>
            <trkpt lat="51.866942" lon="10.28629"><ele>330</ele></trkpt>
            <trkpt lat="51.86698" lon="10.286243"><ele>330</ele></trkpt>
            <trkpt lat="51.867132" lon="10.286154"><ele>330</ele></trkpt>
            <trkpt lat="51.867597" lon="10.286238"><ele>320.8</ele></trkpt>
            <trkpt lat="51.867739" lon="10.286245"><ele>320</ele></trkpt>
            <trkpt lat="51.8678" lon="10.286296"><ele>319.2</ele></trkpt>
            <trkpt lat="51.867985" lon="10.286315"><ele>318.6</ele></trkpt>
            <trkpt lat="51.868044" lon="10.28637"><ele>314</ele></trkpt>
            <trkpt lat="51.868154" lon="10.28649"><ele>314</ele></trkpt>
            <trkpt lat="51.86822" lon="10.286531"><ele>314</ele></trkpt>
            <trkpt lat="51.868392" lon="10.286535"><ele>303</ele></trkpt>
            <trkpt lat="51.868434" lon="10.286627"><ele>304.3</ele></trkpt>
            <trkpt lat="51.868444" lon="10.286717"><ele>304.6</ele></trkpt>
            <trkpt lat="51.868401" lon="10.286887"><ele>304.8</ele></trkpt>
            <trkpt lat="51.868401" lon="10.287133"><ele>306</ele></trkpt>
            <trkpt lat="51.868659" lon="10.28704"><ele>306</ele></trkpt>
            <trkpt lat="51.868849" lon="10.286937"><ele>306</ele></trkpt>
            <trkpt lat="51.869105" lon="10.287213"><ele>306</ele></trkpt>
            <trkpt lat="51.869086" lon="10.287264"><ele>306</ele></trkpt>
            <trkpt lat="51.86911" lon="10.287305"><ele>305.7</ele></trkpt>
            <trkpt lat="51.869256" lon="10.288016"><ele>305</ele></trkpt>
            <trkpt lat="51.86929" lon="10.28818"><ele>305</ele></trkpt>
            <trkpt lat="51.86935" lon="10.288455"><ele>309</ele></trkpt>
            <trkpt lat="51.869551" lon="10.28831"><ele>305</ele></trkpt>
            <trkpt lat="51.870142" lon="10.289081"><ele>301</ele></trkpt>
            <trkpt lat="51.87027" lon="10.289276"><ele>304.4</ele></trkpt>
            <trkpt lat="51.87034" lon="10.289331"><ele>304.8</ele></trkpt>
            <trkpt lat="51.870447" lon="10.289375"><ele>306</ele></trkpt>
            <trkpt lat="51.870514" lon="10.289387"><ele>306</ele></trkpt>
            <trkpt lat="51.87057" lon="10.289431"><ele>306</ele></trkpt>
            <trkpt lat="51.870701" lon="10.289601"><ele>306</ele></trkpt>
            <trkpt lat="51.870799" lon="10.289462"><ele>301</ele></trkpt>
            <trkpt lat="51.871656" lon="10.289452"><ele>299.8</ele></trkpt>
            <trkpt lat="51.871783" lon="10.289604"><ele>294</ele></trkpt>
            <trkpt lat="51.871907" lon="10.289268"><ele>293.7</ele></trkpt>
            <trkpt lat="51.87204" lon="10.28898"><ele>293.6</ele></trkpt>
            <trkpt lat="51.872171" lon="10.288572"><ele>293</ele></trkpt>
            <trkpt lat="51.872448" lon="10.288764"><ele>293</ele></trkpt>
            <trkpt lat="51.872728" lon="10.288872"><ele>293</ele></trkpt>
            <trkpt lat="51.872873" lon="10.288888"><ele>293</ele></trkpt>
            <trkpt lat="51.873007" lon="10.288883"><ele>293</ele></trkpt>
            <trkpt lat="51.873156" lon="10.288864"><ele>293</ele></trkpt>
            <trkpt lat="51.873826" lon="10.288659"><ele>295</ele></trkpt>
            <trkpt lat="51.874287" lon="10.288499"><ele>293</ele></trkpt>
            <trkpt lat="51.874347" lon="10.288599"><ele>293</ele></trkpt>
            <trkpt lat="51.874531" lon="10.288615"><ele>293</ele></trkpt>
            <trkpt lat="51.87455" lon="10.288576"><ele>293</ele></trkpt>
            <trkpt lat="51.874919" lon="10.288312"><ele>297</ele></trkpt>
            <trkpt lat="51.875022" lon="10.288348"><ele>293</ele></trkpt>
            <trkpt lat="51.875122" lon="10.288349"><ele>293.5</ele></trkpt>
            <trkpt lat="51.875449" lon="10.288291"><ele>293</ele></trkpt>
            <trkpt lat="51.875906" lon="10.288202"><ele>289.1</ele></trkpt>
            <trkpt lat="51.876123" lon="10.288205"><ele>289.4</ele></trkpt>
            <trkpt lat="51.876625" lon="10.288374"><ele>289</ele></trkpt>
            <trkpt lat="51.876717" lon="10.288403"><ele>289</ele></trkpt>
            <trkpt lat="51.876881" lon="10.288458"><ele>289</ele></trkpt>
            <trkpt lat="51.876939" lon="10.288478"><ele>289</ele></trkpt>
            <trkpt lat="51.877259" lon="10.28851"><ele>289</ele></trkpt>
            <trkpt lat="51.877394" lon="10.288452"><ele>293.6</ele></trkpt>
            <trkpt lat="51.87776" lon="10.288172"><ele>294.2</ele></trkpt>
            <trkpt lat="51.878277" lon="10.287835"><ele>294.3</ele></trkpt>
            <trkpt lat="51.878389" lon="10.287733"><ele>301</ele></trkpt>
            <trkpt lat="51.878476" lon="10.28764"><ele>298.5</ele></trkpt>
            <trkpt lat="51.878643" lon="10.287405"><ele>296</ele></trkpt>
            <trkpt lat="51.878699" lon="10.28731"><ele>295</ele></trkpt>
            <trkpt lat="51.878977" lon="10.286572"><ele>292</ele></trkpt>
            <trkpt lat="51.879094" lon="10.286332"><ele>295.1</ele></trkpt>
            <trkpt lat="51.879179" lon="10.286246"><ele>305</ele></trkpt>
            <trkpt lat="51.879461" lon="10.285994"><ele>305</ele></trkpt>
            <trkpt lat="51.879687" lon="10.285805"><ele>301</ele></trkpt>
            <trkpt lat="51.87977" lon="10.285712"><ele>299</ele></trkpt>
            <trkpt lat="51.879978" lon="10.285401"><ele>303.1</ele></trkpt>
            <trkpt lat="51.880245" lon="10.285102"><ele>302.8</ele></trkpt>
            <trkpt lat="51.880554" lon="10.2849"><ele>301.5</ele></trkpt>
            <trkpt lat="51.880877" lon="10.284792"><ele>302</ele></trkpt>
            <trkpt lat="51.88115" lon="10.284762"><ele>302.6</ele></trkpt>
            <trkpt lat="51.881624" lon="10.284837"><ele>302.6</ele></trkpt>
            <trkpt lat="51.881932" lon="10.284953"><ele>303.2</ele></trkpt>
            <trkpt lat="51.882281" lon="10.285128"><ele>309</ele></trkpt>
            <trkpt lat="51.882573" lon="10.285319"><ele>304.2</ele></trkpt>
            <trkpt lat="51.8829" lon="10.285609"><ele>303</ele></trkpt>
            <trkpt lat="51.883426" lon="10.285673"><ele>297.6</ele></trkpt>
            <trkpt lat="51.883702" lon="10.285799"><ele>298.3</ele></trkpt>
            <trkpt lat="51.883997" lon="10.286004"><ele>298.2</ele></trkpt>
            <trkpt lat="51.884134" lon="10.286195"><ele>297.5</ele></trkpt>
            <trkpt lat="51.88421" lon="10.286355"><ele>290</ele></trkpt>
            <trkpt lat="51.884186" lon="10.286481"><ele>290</ele></trkpt>
            <trkpt lat="51.8842" lon="10.286517"><ele>290</ele></trkpt>
            <trkpt lat="51.884373" lon="10.286948"><ele>294</ele></trkpt>
            <trkpt lat="51.88441" lon="10.287002"><ele>294</ele></trkpt>
            <trkpt lat="51.884508" lon="10.286718"><ele>292.1</ele></trkpt>
            <trkpt lat="51.884674" lon="10.286326"><ele>290</ele></trkpt>
            <trkpt lat="51.884833" lon="10.286594"><ele>290</ele></trkpt>
            <trkpt lat="51.884963" lon="10.286754"><ele>287.4</ele></trkpt>
            <trkpt lat="51.885136" lon="10.28689"><ele>286.6</ele></trkpt>
            <trkpt lat="51.88551" lon="10.286972"><ele>286.7</ele></trkpt>
            <trkpt lat="51.885797" lon="10.287001"><ele>286.3</ele></trkpt>
            <trkpt lat="51.886286" lon="10.286886"><ele>285.9</ele></trkpt>
            <trkpt lat="51.886611" lon="10.286756"><ele>285.7</ele></trkpt>
            <trkpt lat="51.886964" lon="10.286658"><ele>281</ele></trkpt>
            <trkpt lat="51.887078" lon="10.286609"><ele>283.7</ele></trkpt>
            <trkpt lat="51.887337" lon="10.286403"><ele>287.7</ele></trkpt>
            <trkpt lat="51.888035" lon="10.28576"><ele>289</ele></trkpt>
            <trkpt lat="51.888134" lon="10.285692"><ele>289.6</ele></trkpt>
            <trkpt lat="51.888227" lon="10.28559"><ele>290.9</ele></trkpt>
            <trkpt lat="51.88841" lon="10.285291"><ele>291.5</ele></trkpt>
            <trkpt lat="51.888665" lon="10.284574"><ele>288.6</ele></trkpt>
            <trkpt lat="51.888816" lon="10.284086"><ele>287.2</ele></trkpt>
            <trkpt lat="51.889114" lon="10.283308"><ele>291</ele></trkpt>
            <trkpt lat="51.889143" lon="10.282648"><ele>293.1</ele></trkpt>
            <trkpt lat="51.889125" lon="10.282094"><ele>293.3</ele></trkpt>
            <trkpt lat="51.889168" lon="10.281793"><ele>296.8</ele></trkpt>
            <trkpt lat="51.889302" lon="10.28131"><ele>297.2</ele></trkpt>
            <trkpt lat="51.889426" lon="10.281065"><ele>298</ele></trkpt>
            <trkpt lat="51.889468" lon="10.280912"><ele>298.6</ele></trkpt>
            <trkpt lat="51.889496" lon="10.280723"><ele>298.5</ele></trkpt>
            <trkpt lat="51.889541" lon="10.280595"><ele>298.8</ele></trkpt>
            <trkpt lat="51.889653" lon="10.280456"><ele>300.6</ele></trkpt>
            <trkpt lat="51.889805" lon="10.280393"><ele>301.4</ele></trkpt>
            <trkpt lat="51.889928" lon="10.280396"><ele>303.4</ele></trkpt>
            <trkpt lat="51.889988" lon="10.280419"><ele>303.9</ele></trkpt>
            <trkpt lat="51.890229" lon="10.280608"><ele>305</ele></trkpt>
            <trkpt lat="51.890386" lon="10.280679"><ele>305.9</ele></trkpt>
            <trkpt lat="51.891165" lon="10.280597"><ele>318.4</ele></trkpt>
            <trkpt lat="51.891665" lon="10.28063"><ele>324.5</ele></trkpt>
            <trkpt lat="51.891767" lon="10.280591"><ele>325.9</ele></trkpt>
            <trkpt lat="51.891858" lon="10.280518"><ele>325.3</ele></trkpt>
            <trkpt lat="51.892176" lon="10.280017"><ele>325.4</ele></trkpt>
            <trkpt lat="51.892579" lon="10.279706"><ele>329.1</ele></trkpt>
            <trkpt lat="51.892913" lon="10.279383"><ele>332.3</ele></trkpt>
            <trkpt lat="51.893075" lon="10.279284"><ele>333.8</ele></trkpt>
            <trkpt lat="51.893191" lon="10.279247"><ele>335.3</ele></trkpt>
            <trkpt lat="51.893493" lon="10.279255"><ele>336.7</ele></trkpt>
            <trkpt lat="51.893717" lon="10.279194"><ele>332.7</ele></trkpt>
            <trkpt lat="51.893825" lon="10.279219"><ele>332.4</ele></trkpt>
            <trkpt lat="51.893924" lon="10.279263"><ele>332.3</ele></trkpt>
            <trkpt lat="51.894143" lon="10.279528"><ele>331.8</ele></trkpt>
            <trkpt lat="51.89423" lon="10.279603"><ele>331.5</ele></trkpt>
            <trkpt lat="51.894319" lon="10.27962"><ele>330.9</ele></trkpt>
            <trkpt lat="51.894401" lon="10.279612"><ele>330.4</ele></trkpt>
            <trkpt lat="51.894507" lon="10.279555"><ele>329.1</ele></trkpt>
            <trkpt lat="51.894595" lon="10.279457"><ele>328.2</ele></trkpt>
            <trkpt lat="51.89481" lon="10.279135"><ele>326.8</ele></trkpt>
            <trkpt lat="51.894892" lon="10.2791"><ele>327.4</ele></trkpt>
            <trkpt lat="51.894979" lon="10.279128"><ele>316</ele></trkpt>
            <trkpt lat="51.89502" lon="10.27902"><ele>321.8</ele></trkpt>
        </trkseg>
    </trk>
</gpx>
