<?xml version="1.0" encoding="UTF-8"?>
<gpx version="1.1" creator="HWN Route Compare (OpenRouteService)" xmlns="http://www.topografix.com/GPX/1/1">
    <metadata>
        <name>OpenRouteService – Tour A2b</name>
    </metadata>
    <trk>
        <name>OpenRouteService – Tour A2b</name>
        <trkseg>
            <trkpt lat="51.880329" lon="10.255576"><ele>530</ele></trkpt>
            <trkpt lat="51.880302" lon="10.255418"><ele>530.3</ele></trkpt>
            <trkpt lat="51.880165" lon="10.254999"><ele>529.2</ele></trkpt>
            <trkpt lat="51.880063" lon="10.254742"><ele>528.3</ele></trkpt>
            <trkpt lat="51.879914" lon="10.254433"><ele>527</ele></trkpt>
            <trkpt lat="51.879487" lon="10.253449"><ele>524.1</ele></trkpt>
            <trkpt lat="51.879456" lon="10.253318"><ele>523.4</ele></trkpt>
            <trkpt lat="51.879451" lon="10.253156"><ele>522.9</ele></trkpt>
            <trkpt lat="51.879467" lon="10.252939"><ele>522</ele></trkpt>
            <trkpt lat="51.879581" lon="10.252363"><ele>522.6</ele></trkpt>
            <trkpt lat="51.879599" lon="10.251805"><ele>524.9</ele></trkpt>
            <trkpt lat="51.879642" lon="10.251478"><ele>525.7</ele></trkpt>
            <trkpt lat="51.879693" lon="10.251274"><ele>526.4</ele></trkpt>
            <trkpt lat="51.87973" lon="10.25115"><ele>527.1</ele></trkpt>
            <trkpt lat="51.879841" lon="10.250937"><ele>528.1</ele></trkpt>
            <trkpt lat="51.880153" lon="10.25051"><ele>530</ele></trkpt>
            <trkpt lat="51.880229" lon="10.250359"><ele>529.9</ele></trkpt>
            <trkpt lat="51.880253" lon="10.250211"><ele>530.8</ele></trkpt>
            <trkpt lat="51.880213" lon="10.249799"><ele>533.2</ele></trkpt>
            <trkpt lat="51.880204" lon="10.249091"><ele>536.4</ele></trkpt>
            <trkpt lat="51.880242" lon="10.248826"><ele>536.7</ele></trkpt>
            <trkpt lat="51.880289" lon="10.248727"><ele>536.7</ele></trkpt>
            <trkpt lat="51.880385" lon="10.248625"><ele>537.3</ele></trkpt>
            <trkpt lat="51.880689" lon="10.248447"><ele>538.3</ele></trkpt>
            <trkpt lat="51.880849" lon="10.248396"><ele>539.1</ele></trkpt>
            <trkpt lat="51.880957" lon="10.248311"><ele>538.9</ele></trkpt>
            <trkpt lat="51.881011" lon="10.248171"><ele>537.6</ele></trkpt>
            <trkpt lat="51.881006" lon="10.248022"><ele>537.1</ele></trkpt>
            <trkpt lat="51.880969" lon="10.247825"><ele>535.8</ele></trkpt>
            <trkpt lat="51.880788" lon="10.247068"><ele>533.3</ele></trkpt>
            <trkpt lat="51.880632" lon="10.246675"><ele>532</ele></trkpt>
            <trkpt lat="51.880385" lon="10.246244"><ele>529.6</ele></trkpt>
            <trkpt lat="51.880327" lon="10.246109"><ele>529</ele></trkpt>
            <trkpt lat="51.880254" lon="10.245804"><ele>529.6</ele></trkpt>
            <trkpt lat="51.880256" lon="10.245447"><ele>529.4</ele></trkpt>
            <trkpt lat="51.880335" lon="10.244821"><ele>529.2</ele></trkpt>
            <trkpt lat="51.880379" lon="10.244641"><ele>529.4</ele></trkpt>
            <trkpt lat="51.880432" lon="10.244538"><ele>529.7</ele></trkpt>
            <trkpt lat="51.880503" lon="10.244489"><ele>529.5</ele></trkpt>
            <trkpt lat="51.880618" lon="10.244447"><ele>530.2</ele></trkpt>
            <trkpt lat="51.880984" lon="10.244483"><ele>530.1</ele></trkpt>
            <trkpt lat="51.881073" lon="10.244424"><ele>529.7</ele></trkpt>
            <trkpt lat="51.881132" lon="10.244341"><ele>529.3</ele></trkpt>
            <trkpt lat="51.881254" lon="10.243813"><ele>528.8</ele></trkpt>
            <trkpt lat="51.881429" lon="10.243393"><ele>529.2</ele></trkpt>
            <trkpt lat="51.881755" lon="10.242301"><ele>531.6</ele></trkpt>
            <trkpt lat="51.88228" lon="10.241079"><ele>533.4</ele></trkpt>
            <trkpt lat="51.882337" lon="10.240981"><ele>534.1</ele></trkpt>
            <trkpt lat="51.882478" lon="10.240825"><ele>534.8</ele></trkpt>
            <trkpt lat="51.882602" lon="10.240751"><ele>535.9</ele></trkpt>
            <trkpt lat="51.883395" lon="10.240437"><ele>541.9</ele></trkpt>
            <trkpt lat="51.88362" lon="10.240405"><ele>542.6</ele></trkpt>
            <trkpt lat="51.883891" lon="10.240433"><ele>543.8</ele></trkpt>
            <trkpt lat="51.884059" lon="10.2405"><ele>544.3</ele></trkpt>
            <trkpt lat="51.884172" lon="10.240608"><ele>544.9</ele></trkpt>
            <trkpt lat="51.884272" lon="10.24079"><ele>545.2</ele></trkpt>
            <trkpt lat="51.884378" lon="10.24114"><ele>545.5</ele></trkpt>
            <trkpt lat="51.884479" lon="10.241234"><ele>545.2</ele></trkpt>
            <trkpt lat="51.88456" lon="10.241217"><ele>545</ele></trkpt>
            <trkpt lat="51.884755" lon="10.240911"><ele>544.7</ele></trkpt>
            <trkpt lat="51.884842" lon="10.240805"><ele>544.5</ele></trkpt>
            <trkpt lat="51.884986" lon="10.240704"><ele>542</ele></trkpt>
            <trkpt lat="51.885045" lon="10.240391"><ele>546</ele></trkpt>
            <trkpt lat="51.884999" lon="10.24018"><ele>534.8</ele></trkpt>
            <trkpt lat="51.884967" lon="10.239776"><ele>533.8</ele></trkpt>
            <trkpt lat="51.884998" lon="10.239191"><ele>533.8</ele></trkpt>
            <trkpt lat="51.884916" lon="10.238779"><ele>527</ele></trkpt>
            <trkpt lat="51.884892" lon="10.238635"><ele>527</ele></trkpt>
            <trkpt lat="51.884887" lon="10.238569"><ele>527</ele></trkpt>
            <trkpt lat="51.884892" lon="10.238635"><ele>527</ele></trkpt>
            <trkpt lat="51.884916" lon="10.238779"><ele>527</ele></trkpt>
            <trkpt lat="51.884998" lon="10.239191"><ele>533.8</ele></trkpt>
            <trkpt lat="51.884967" lon="10.239776"><ele>533.8</ele></trkpt>
            <trkpt lat="51.884999" lon="10.24018"><ele>534.8</ele></trkpt>
            <trkpt lat="51.885045" lon="10.240391"><ele>546</ele></trkpt>
            <trkpt lat="51.885084" lon="10.240681"><ele>546</ele></trkpt>
            <trkpt lat="51.885231" lon="10.240706"><ele>548.6</ele></trkpt>
            <trkpt lat="51.885635" lon="10.240906"><ele>548.8</ele></trkpt>
            <trkpt lat="51.885885" lon="10.241151"><ele>548.4</ele></trkpt>
            <trkpt lat="51.886003" lon="10.241297"><ele>549</ele></trkpt>
            <trkpt lat="51.886586" lon="10.241933"><ele>548.3</ele></trkpt>
            <trkpt lat="51.88682" lon="10.242123"><ele>545.5</ele></trkpt>
            <trkpt lat="51.887024" lon="10.242215"><ele>545.7</ele></trkpt>
            <trkpt lat="51.887365" lon="10.242299"><ele>544.9</ele></trkpt>
            <trkpt lat="51.887915" lon="10.242325"><ele>544.9</ele></trkpt>
            <trkpt lat="51.888037" lon="10.242386"><ele>545.3</ele></trkpt>
            <trkpt lat="51.888124" lon="10.242456"><ele>545.6</ele></trkpt>
            <trkpt lat="51.888204" lon="10.242563"><ele>546.1</ele></trkpt>
            <trkpt lat="51.888745" lon="10.243587"><ele>544.5</ele></trkpt>
            <trkpt lat="51.889074" lon="10.244113"><ele>543.1</ele></trkpt>
            <trkpt lat="51.88937" lon="10.244487"><ele>542</ele></trkpt>
            <trkpt lat="51.889724" lon="10.24472"><ele>541.5</ele></trkpt>
            <trkpt lat="51.890094" lon="10.244857"><ele>534</ele></trkpt>
            <trkpt lat="51.890255" lon="10.244838"><ele>534.3</ele></trkpt>
            <trkpt lat="51.890398" lon="10.244852"><ele>534.3</ele></trkpt>
            <trkpt lat="51.890839" lon="10.244981"><ele>534.7</ele></trkpt>
            <trkpt lat="51.891038" lon="10.244988"><ele>534.6</ele></trkpt>
            <trkpt lat="51.891278" lon="10.244956"><ele>534.6</ele></trkpt>
            <trkpt lat="51.89192" lon="10.245049"><ele>539</ele></trkpt>
            <trkpt lat="51.892121" lon="10.24506"><ele>538.5</ele></trkpt>
            <trkpt lat="51.892302" lon="10.245011"><ele>538.5</ele></trkpt>
            <trkpt lat="51.892557" lon="10.244875"><ele>538.3</ele></trkpt>
            <trkpt lat="51.892768" lon="10.244881"><ele>538.3</ele></trkpt>
            <trkpt lat="51.893176" lon="10.244937"><ele>538.3</ele></trkpt>
            <trkpt lat="51.893318" lon="10.24492"><ele>538.2</ele></trkpt>
            <trkpt lat="51.893695" lon="10.244666"><ele>538.4</ele></trkpt>
            <trkpt lat="51.893832" lon="10.244621"><ele>538.6</ele></trkpt>
            <trkpt lat="51.894244" lon="10.24469"><ele>538.9</ele></trkpt>
            <trkpt lat="51.894456" lon="10.244793"><ele>538.9</ele></trkpt>
            <trkpt lat="51.895212" lon="10.245252"><ele>540.7</ele></trkpt>
            <trkpt lat="51.895473" lon="10.245475"><ele>541</ele></trkpt>
            <trkpt lat="51.895811" lon="10.245598"><ele>543</ele></trkpt>
            <trkpt lat="51.896536" lon="10.245574"><ele>537.4</ele></trkpt>
            <trkpt lat="51.896685" lon="10.245535"><ele>537.5</ele></trkpt>
            <trkpt lat="51.896835" lon="10.24564"><ele>537.5</ele></trkpt>
            <trkpt lat="51.896957" lon="10.245864"><ele>536.4</ele></trkpt>
            <trkpt lat="51.897036" lon="10.246138"><ele>536.4</ele></trkpt>
            <trkpt lat="51.897094" lon="10.246455"><ele>535.9</ele></trkpt>
            <trkpt lat="51.897145" lon="10.246637"><ele>535.9</ele></trkpt>
            <trkpt lat="51.897206" lon="10.246766"><ele>535.7</ele></trkpt>
            <trkpt lat="51.897436" lon="10.247108"><ele>535.1</ele></trkpt>
            <trkpt lat="51.897805" lon="10.247509"><ele>524</ele></trkpt>
            <trkpt lat="51.898499" lon="10.24831"><ele>520.7</ele></trkpt>
            <trkpt lat="51.898855" lon="10.248554"><ele>520.2</ele></trkpt>
            <trkpt lat="51.899428" lon="10.24901"><ele>519.4</ele></trkpt>
            <trkpt lat="51.899631" lon="10.249052"><ele>518.7</ele></trkpt>
            <trkpt lat="51.900034" lon="10.249029"><ele>518.5</ele></trkpt>
            <trkpt lat="51.90044" lon="10.249048"><ele>517.9</ele></trkpt>
            <trkpt lat="51.901384" lon="10.248963"><ele>516</ele></trkpt>
            <trkpt lat="51.901659" lon="10.248939"><ele>522.4</ele></trkpt>
            <trkpt lat="51.901911" lon="10.249102"><ele>522.9</ele></trkpt>
            <trkpt lat="51.902185" lon="10.24922"><ele>523.5</ele></trkpt>
            <trkpt lat="51.90246" lon="10.249276"><ele>523.5</ele></trkpt>
            <trkpt lat="51.902602" lon="10.249359"><ele>524.4</ele></trkpt>
            <trkpt lat="51.90289" lon="10.249689"><ele>526.1</ele></trkpt>
            <trkpt lat="51.903178" lon="10.249941"><ele>528.2</ele></trkpt>
            <trkpt lat="51.903478" lon="10.250065"><ele>530.1</ele></trkpt>
            <trkpt lat="51.903743" lon="10.250227"><ele>532</ele></trkpt>
            <trkpt lat="51.904027" lon="10.250452"><ele>532.7</ele></trkpt>
            <trkpt lat="51.904212" lon="10.250718"><ele>532.9</ele></trkpt>
            <trkpt lat="51.904453" lon="10.251205"><ele>533.2</ele></trkpt>
            <trkpt lat="51.904715" lon="10.2515"><ele>532.5</ele></trkpt>
            <trkpt lat="51.904947" lon="10.251709"><ele>532</ele></trkpt>
            <trkpt lat="51.90511" lon="10.251819"><ele>531.7</ele></trkpt>
            <trkpt lat="51.905862" lon="10.251924"><ele>532.3</ele></trkpt>
            <trkpt lat="51.906185" lon="10.251813"><ele>533</ele></trkpt>
            <trkpt lat="51.906562" lon="10.251611"><ele>533.2</ele></trkpt>
            <trkpt lat="51.906685" lon="10.251614"><ele>533.2</ele></trkpt>
            <trkpt lat="51.907049" lon="10.251741"><ele>533.4</ele></trkpt>
            <trkpt lat="51.907217" lon="10.251743"><ele>533.8</ele></trkpt>
            <trkpt lat="51.907414" lon="10.251903"><ele>534.4</ele></trkpt>
            <trkpt lat="51.907756" lon="10.252114"><ele>534.6</ele></trkpt>
            <trkpt lat="51.907896" lon="10.252177"><ele>535</ele></trkpt>
            <trkpt lat="51.907951" lon="10.252074"><ele>537.3</ele></trkpt>
            <trkpt lat="51.908186" lon="10.252006"><ele>538.9</ele></trkpt>
            <trkpt lat="51.908524" lon="10.251849"><ele>538.8</ele></trkpt>
            <trkpt lat="51.908983" lon="10.251541"><ele>539</ele></trkpt>
            <trkpt lat="51.90923" lon="10.251253"><ele>541.8</ele></trkpt>
            <trkpt lat="51.909354" lon="10.251036"><ele>548</ele></trkpt>
            <trkpt lat="51.909497" lon="10.250755"><ele>554.2</ele></trkpt>
            <trkpt lat="51.909882" lon="10.250185"><ele>555.3</ele></trkpt>
            <trkpt lat="51.909999" lon="10.249972"><ele>555.3</ele></trkpt>
            <trkpt lat="51.910064" lon="10.249745"><ele>555.8</ele></trkpt>
            <trkpt lat="51.910134" lon="10.249567"><ele>556.2</ele></trkpt>
            <trkpt lat="51.9104" lon="10.249294"><ele>557.5</ele></trkpt>
            <trkpt lat="51.910727" lon="10.249049"><ele>564</ele></trkpt>
            <trkpt lat="51.910983" lon="10.249196"><ele>563.2</ele></trkpt>
            <trkpt lat="51.911367" lon="10.249543"><ele>563.2</ele></trkpt>
            <trkpt lat="51.911578" lon="10.249708"><ele>563.3</ele></trkpt>
            <trkpt lat="51.911803" lon="10.249928"><ele>563</ele></trkpt>
            <trkpt lat="51.912256" lon="10.250304"><ele>566.2</ele></trkpt>
            <trkpt lat="51.912685" lon="10.250575"><ele>566.5</ele></trkpt>
            <trkpt lat="51.913111" lon="10.250769"><ele>566.7</ele></trkpt>
            <trkpt lat="51.913613" lon="10.251057"><ele>566</ele></trkpt>
            <trkpt lat="51.913744" lon="10.251092"><ele>566</ele></trkpt>
            <trkpt lat="51.914249" lon="10.251129"><ele>566</ele></trkpt>
            <trkpt lat="51.914649" lon="10.251321"><ele>566</ele></trkpt>
            <trkpt lat="51.914834" lon="10.251364"><ele>566</ele></trkpt>
            <trkpt lat="51.914835" lon="10.251364"><ele>566</ele></trkpt>
            <trkpt lat="51.914834" lon="10.251364"><ele>566</ele></trkpt>
            <trkpt lat="51.914649" lon="10.251321"><ele>566</ele></trkpt>
            <trkpt lat="51.914249" lon="10.251129"><ele>566</ele></trkpt>
            <trkpt lat="51.913744" lon="10.251092"><ele>566</ele></trkpt>
            <trkpt lat="51.913613" lon="10.251057"><ele>566</ele></trkpt>
            <trkpt lat="51.913111" lon="10.250769"><ele>566.7</ele></trkpt>
            <trkpt lat="51.912685" lon="10.250575"><ele>566.5</ele></trkpt>
            <trkpt lat="51.912256" lon="10.250304"><ele>566.2</ele></trkpt>
            <trkpt lat="51.911803" lon="10.249928"><ele>563</ele></trkpt>
            <trkpt lat="51.911578" lon="10.249708"><ele>563.3</ele></trkpt>
            <trkpt lat="51.911367" lon="10.249543"><ele>563.2</ele></trkpt>
            <trkpt lat="51.910983" lon="10.249196"><ele>563.2</ele></trkpt>
            <trkpt lat="51.910727" lon="10.249049"><ele>564</ele></trkpt>
            <trkpt lat="51.9104" lon="10.249294"><ele>557.5</ele></trkpt>
            <trkpt lat="51.910134" lon="10.249567"><ele>556.2</ele></trkpt>
            <trkpt lat="51.910064" lon="10.249745"><ele>555.8</ele></trkpt>
            <trkpt lat="51.909999" lon="10.249972"><ele>555.3</ele></trkpt>
            <trkpt lat="51.909882" lon="10.250185"><ele>555.3</ele></trkpt>
            <trkpt lat="51.909497" lon="10.250755"><ele>554.2</ele></trkpt>
            <trkpt lat="51.909354" lon="10.251036"><ele>548</ele></trkpt>
            <trkpt lat="51.90923" lon="10.251253"><ele>541.8</ele></trkpt>
            <trkpt lat="51.908983" lon="10.251541"><ele>539</ele></trkpt>
            <trkpt lat="51.908524" lon="10.251849"><ele>538.8</ele></trkpt>
            <trkpt lat="51.908186" lon="10.252006"><ele>538.9</ele></trkpt>
            <trkpt lat="51.907951" lon="10.252074"><ele>537.3</ele></trkpt>
            <trkpt lat="51.907896" lon="10.252177"><ele>535</ele></trkpt>
            <trkpt lat="51.907756" lon="10.252114"><ele>534.6</ele></trkpt>
            <trkpt lat="51.907414" lon="10.251903"><ele>534.4</ele></trkpt>
            <trkpt lat="51.907217" lon="10.251743"><ele>533.8</ele></trkpt>
            <trkpt lat="51.907049" lon="10.251741"><ele>533.4</ele></trkpt>
            <trkpt lat="51.906685" lon="10.251614"><ele>533.2</ele></trkpt>
            <trkpt lat="51.906562" lon="10.251611"><ele>533.2</ele></trkpt>
            <trkpt lat="51.906185" lon="10.251813"><ele>533</ele></trkpt>
            <trkpt lat="51.905862" lon="10.251924"><ele>532.3</ele></trkpt>
            <trkpt lat="51.90511" lon="10.251819"><ele>531.7</ele></trkpt>
            <trkpt lat="51.904947" lon="10.251709"><ele>532</ele></trkpt>
            <trkpt lat="51.904715" lon="10.2515"><ele>532.5</ele></trkpt>
            <trkpt lat="51.904453" lon="10.251205"><ele>533.2</ele></trkpt>
            <trkpt lat="51.904212" lon="10.250718"><ele>532.9</ele></trkpt>
            <trkpt lat="51.904027" lon="10.250452"><ele>532.7</ele></trkpt>
            <trkpt lat="51.903743" lon="10.250227"><ele>532</ele></trkpt>
            <trkpt lat="51.903478" lon="10.250065"><ele>530.1</ele></trkpt>
            <trkpt lat="51.903178" lon="10.249941"><ele>528.2</ele></trkpt>
            <trkpt lat="51.90289" lon="10.249689"><ele>526.1</ele></trkpt>
            <trkpt lat="51.902602" lon="10.249359"><ele>524.4</ele></trkpt>
            <trkpt lat="51.90246" lon="10.249276"><ele>523.5</ele></trkpt>
            <trkpt lat="51.902185" lon="10.24922"><ele>523.5</ele></trkpt>
            <trkpt lat="51.901911" lon="10.249102"><ele>522.9</ele></trkpt>
            <trkpt lat="51.901659" lon="10.248939"><ele>522.4</ele></trkpt>
            <trkpt lat="51.901384" lon="10.248963"><ele>516</ele></trkpt>
            <trkpt lat="51.90044" lon="10.249048"><ele>517.9</ele></trkpt>
            <trkpt lat="51.900034" lon="10.249029"><ele>518.5</ele></trkpt>
            <trkpt lat="51.899631" lon="10.249052"><ele>518.7</ele></trkpt>
            <trkpt lat="51.899428" lon="10.24901"><ele>519.4</ele></trkpt>
            <trkpt lat="51.898855" lon="10.248554"><ele>520.2</ele></trkpt>
            <trkpt lat="51.898499" lon="10.24831"><ele>520.7</ele></trkpt>
            <trkpt lat="51.897805" lon="10.247509"><ele>524</ele></trkpt>
            <trkpt lat="51.897436" lon="10.247108"><ele>535.1</ele></trkpt>
            <trkpt lat="51.897206" lon="10.246766"><ele>535.7</ele></trkpt>
            <trkpt lat="51.897145" lon="10.246637"><ele>535.9</ele></trkpt>
            <trkpt lat="51.897094" lon="10.246455"><ele>535.9</ele></trkpt>
            <trkpt lat="51.897036" lon="10.246138"><ele>536.4</ele></trkpt>
            <trkpt lat="51.896957" lon="10.245864"><ele>536.4</ele></trkpt>
            <trkpt lat="51.896835" lon="10.24564"><ele>537.5</ele></trkpt>
            <trkpt lat="51.896685" lon="10.245535"><ele>537.5</ele></trkpt>
            <trkpt lat="51.896536" lon="10.245574"><ele>537.4</ele></trkpt>
            <trkpt lat="51.895811" lon="10.245598"><ele>543</ele></trkpt>
            <trkpt lat="51.895473" lon="10.245475"><ele>541</ele></trkpt>
            <trkpt lat="51.895212" lon="10.245252"><ele>540.7</ele></trkpt>
            <trkpt lat="51.894456" lon="10.244793"><ele>538.9</ele></trkpt>
            <trkpt lat="51.894244" lon="10.24469"><ele>538.9</ele></trkpt>
            <trkpt lat="51.893832" lon="10.244621"><ele>538.6</ele></trkpt>
            <trkpt lat="51.893695" lon="10.244666"><ele>538.4</ele></trkpt>
            <trkpt lat="51.893318" lon="10.24492"><ele>538.2</ele></trkpt>
            <trkpt lat="51.893176" lon="10.244937"><ele>538.3</ele></trkpt>
            <trkpt lat="51.892768" lon="10.244881"><ele>538.3</ele></trkpt>
            <trkpt lat="51.892557" lon="10.244875"><ele>538.3</ele></trkpt>
            <trkpt lat="51.892302" lon="10.245011"><ele>538.5</ele></trkpt>
            <trkpt lat="51.892121" lon="10.24506"><ele>538.5</ele></trkpt>
            <trkpt lat="51.89192" lon="10.245049"><ele>539</ele></trkpt>
            <trkpt lat="51.891278" lon="10.244956"><ele>534.6</ele></trkpt>
            <trkpt lat="51.891038" lon="10.244988"><ele>534.6</ele></trkpt>
            <trkpt lat="51.890839" lon="10.244981"><ele>534.7</ele></trkpt>
            <trkpt lat="51.890398" lon="10.244852"><ele>534.3</ele></trkpt>
            <trkpt lat="51.890255" lon="10.244838"><ele>534.3</ele></trkpt>
            <trkpt lat="51.890094" lon="10.244857"><ele>534</ele></trkpt>
            <trkpt lat="51.889724" lon="10.24472"><ele>541.5</ele></trkpt>
            <trkpt lat="51.88937" lon="10.244487"><ele>542</ele></trkpt>
            <trkpt lat="51.889074" lon="10.244113"><ele>543.1</ele></trkpt>
            <trkpt lat="51.888745" lon="10.243587"><ele>544.5</ele></trkpt>
            <trkpt lat="51.888204" lon="10.242563"><ele>546.1</ele></trkpt>
            <trkpt lat="51.888124" lon="10.242456"><ele>545.6</ele></trkpt>
            <trkpt lat="51.888037" lon="10.242386"><ele>545.3</ele></trkpt>
            <trkpt lat="51.887915" lon="10.242325"><ele>544.9</ele></trkpt>
            <trkpt lat="51.887365" lon="10.242299"><ele>544.9</ele></trkpt>
            <trkpt lat="51.887024" lon="10.242215"><ele>545.7</ele></trkpt>
            <trkpt lat="51.88682" lon="10.242123"><ele>545.5</ele></trkpt>
            <trkpt lat="51.886586" lon="10.241933"><ele>548.3</ele></trkpt>
            <trkpt lat="51.886003" lon="10.241297"><ele>549</ele></trkpt>
            <trkpt lat="51.885885" lon="10.241151"><ele>548.4</ele></trkpt>
            <trkpt lat="51.885635" lon="10.240906"><ele>548.8</ele></trkpt>
            <trkpt lat="51.885231" lon="10.240706"><ele>548.6</ele></trkpt>
            <trkpt lat="51.885084" lon="10.240681"><ele>546</ele></trkpt>
            <trkpt lat="51.884986" lon="10.240704"><ele>542</ele></trkpt>
            <trkpt lat="51.884842" lon="10.240805"><ele>544.5</ele></trkpt>
            <trkpt lat="51.884755" lon="10.240911"><ele>544.7</ele></trkpt>
            <trkpt lat="51.88456" lon="10.241217"><ele>545</ele></trkpt>
            <trkpt lat="51.884479" lon="10.241234"><ele>545.2</ele></trkpt>
            <trkpt lat="51.884378" lon="10.24114"><ele>545.5</ele></trkpt>
            <trkpt lat="51.884272" lon="10.24079"><ele>545.2</ele></trkpt>
            <trkpt lat="51.884172" lon="10.240608"><ele>544.9</ele></trkpt>
            <trkpt lat="51.884059" lon="10.2405"><ele>544.3</ele></trkpt>
            <trkpt lat="51.883891" lon="10.240433"><ele>543.8</ele></trkpt>
            <trkpt lat="51.88362" lon="10.240405"><ele>542.6</ele></trkpt>
            <trkpt lat="51.883395" lon="10.240437"><ele>541.9</ele></trkpt>
            <trkpt lat="51.882602" lon="10.240751"><ele>535.9</ele></trkpt>
            <trkpt lat="51.882478" lon="10.240825"><ele>534.8</ele></trkpt>
            <trkpt lat="51.882337" lon="10.240981"><ele>534.1</ele></trkpt>
            <trkpt lat="51.88228" lon="10.241079"><ele>533.4</ele></trkpt>
            <trkpt lat="51.881755" lon="10.242301"><ele>531.6</ele></trkpt>
            <trkpt lat="51.881429" lon="10.243393"><ele>529.2</ele></trkpt>
            <trkpt lat="51.881254" lon="10.243813"><ele>528.8</ele></trkpt>
            <trkpt lat="51.881132" lon="10.244341"><ele>529.3</ele></trkpt>
            <trkpt lat="51.881073" lon="10.244424"><ele>529.7</ele></trkpt>
            <trkpt lat="51.880984" lon="10.244483"><ele>530.1</ele></trkpt>
            <trkpt lat="51.880618" lon="10.244447"><ele>530.2</ele></trkpt>
            <trkpt lat="51.880503" lon="10.244489"><ele>529.5</ele></trkpt>
            <trkpt lat="51.880432" lon="10.244538"><ele>529.7</ele></trkpt>
            <trkpt lat="51.880379" lon="10.244641"><ele>529.4</ele></trkpt>
            <trkpt lat="51.880335" lon="10.244821"><ele>529.2</ele></trkpt>
            <trkpt lat="51.880256" lon="10.245447"><ele>529.4</ele></trkpt>
            <trkpt lat="51.880254" lon="10.245804"><ele>529.6</ele></trkpt>
            <trkpt lat="51.880327" lon="10.246109"><ele>529</ele></trkpt>
            <trkpt lat="51.880385" lon="10.246244"><ele>529.6</ele></trkpt>
            <trkpt lat="51.880632" lon="10.246675"><ele>532</ele></trkpt>
            <trkpt lat="51.880788" lon="10.247068"><ele>533.3</ele></trkpt>
            <trkpt lat="51.880969" lon="10.247825"><ele>535.8</ele></trkpt>
            <trkpt lat="51.881006" lon="10.248022"><ele>537.1</ele></trkpt>
            <trkpt lat="51.881011" lon="10.248171"><ele>537.6</ele></trkpt>
            <trkpt lat="51.880957" lon="10.248311"><ele>538.9</ele></trkpt>
            <trkpt lat="51.880849" lon="10.248396"><ele>539.1</ele></trkpt>
            <trkpt lat="51.880689" lon="10.248447"><ele>538.3</ele></trkpt>
            <trkpt lat="51.880385" lon="10.248625"><ele>537.3</ele></trkpt>
            <trkpt lat="51.880289" lon="10.248727"><ele>536.7</ele></trkpt>
            <trkpt lat="51.880242" lon="10.248826"><ele>536.7</ele></trkpt>
            <trkpt lat="51.880204" lon="10.249091"><ele>536.4</ele></trkpt>
            <trkpt lat="51.880213" lon="10.249799"><ele>533.2</ele></trkpt>
            <trkpt lat="51.880253" lon="10.250211"><ele>530.8</ele></trkpt>
            <trkpt lat="51.880229" lon="10.250359"><ele>529.9</ele></trkpt>
            <trkpt lat="51.880153" lon="10.25051"><ele>530</ele></trkpt>
            <trkpt lat="51.879841" lon="10.250937"><ele>528.1</ele></trkpt>
            <trkpt lat="51.87973" lon="10.25115"><ele>527.1</ele></trkpt>
            <trkpt lat="51.879693" lon="10.251274"><ele>526.4</ele></trkpt>
            <trkpt lat="51.879642" lon="10.251478"><ele>525.7</ele></trkpt>
            <trkpt lat="51.879599" lon="10.251805"><ele>524.9</ele></trkpt>
            <trkpt lat="51.879581" lon="10.252363"><ele>522.6</ele></trkpt>
            <trkpt lat="51.879467" lon="10.252939"><ele>522</ele></trkpt>
            <trkpt lat="51.879451" lon="10.253156"><ele>522.9</ele></trkpt>
            <trkpt lat="51.879456" lon="10.253318"><ele>523.4</ele></trkpt>
            <trkpt lat="51.879487" lon="10.253449"><ele>524.1</ele></trkpt>
            <trkpt lat="51.879914" lon="10.254433"><ele>527</ele></trkpt>
            <trkpt lat="51.880063" lon="10.254742"><ele>528.3</ele></trkpt>
            <trkpt lat="51.880165" lon="10.254999"><ele>529.2</ele></trkpt>
            <trkpt lat="51.880302" lon="10.255418"><ele>530.3</ele></trkpt>
            <trkpt lat="51.880329" lon="10.255576"><ele>530</ele></trkpt>
        </trkseg>
    </trk>
</gpx>
