<?xml version="1.0" encoding="UTF-8"?>
<gpx version="1.1" creator="HWN Route Compare (OpenRouteService)" xmlns="http://www.topografix.com/GPX/1/1">
    <metadata>
        <name>OpenRouteService – Tour A3</name>
    </metadata>
    <trk>
        <name>OpenRouteService – Tour A3</name>
        <trkseg>
            <trkpt lat="51.912629" lon="10.335734"><ele>304</ele></trkpt>
            <trkpt lat="51.912667" lon="10.335758"><ele>304</ele></trkpt>
            <trkpt lat="51.912692" lon="10.336084"><ele>314</ele></trkpt>
            <trkpt lat="51.912086" lon="10.336476"><ele>317.8</ele></trkpt>
            <trkpt lat="51.911966" lon="10.336529"><ele>319</ele></trkpt>
            <trkpt lat="51.911708" lon="10.335914"><ele>319.9</ele></trkpt>
            <trkpt lat="51.911568" lon="10.335636"><ele>319.8</ele></trkpt>
            <trkpt lat="51.911505" lon="10.335554"><ele>319.8</ele></trkpt>
            <trkpt lat="51.911464" lon="10.33553"><ele>319.8</ele></trkpt>
            <trkpt lat="51.911233" lon="10.335552"><ele>319.7</ele></trkpt>
            <trkpt lat="51.910747" lon="10.335667"><ele>320.3</ele></trkpt>
            <trkpt lat="51.910488" lon="10.335701"><ele>320.9</ele></trkpt>
            <trkpt lat="51.909525" lon="10.335527"><ele>322.3</ele></trkpt>
            <trkpt lat="51.90939" lon="10.335433"><ele>322.8</ele></trkpt>
            <trkpt lat="51.909323" lon="10.335342"><ele>323</ele></trkpt>
            <trkpt lat="51.909079" lon="10.334882"><ele>315</ele></trkpt>
            <trkpt lat="51.908818" lon="10.334582"><ele>312.6</ele></trkpt>
            <trkpt lat="51.908486" lon="10.334259"><ele>313.1</ele></trkpt>
            <trkpt lat="51.908437" lon="10.334255"><ele>313.4</ele></trkpt>
            <trkpt lat="51.908348" lon="10.334298"><ele>313.6</ele></trkpt>
            <trkpt lat="51.908191" lon="10.334454"><ele>305</ele></trkpt>
            <trkpt lat="51.908136" lon="10.334539"><ele>313</ele></trkpt>
            <trkpt lat="51.90801" lon="10.334854"><ele>312.8</ele></trkpt>
            <trkpt lat="51.907873" lon="10.335284"><ele>314.8</ele></trkpt>
            <trkpt lat="51.907756" lon="10.335561"><ele>314.3</ele></trkpt>
            <trkpt lat="51.907665" lon="10.335704"><ele>313.3</ele></trkpt>
            <trkpt lat="51.907371" lon="10.335937"><ele>313.8</ele></trkpt>
            <trkpt lat="51.907255" lon="10.335918"><ele>315.5</ele></trkpt>
            <trkpt lat="51.907011" lon="10.335747"><ele>317.1</ele></trkpt>
            <trkpt lat="51.906829" lon="10.335559"><ele>317.9</ele></trkpt>
            <trkpt lat="51.906642" lon="10.335318"><ele>352</ele></trkpt>
            <trkpt lat="51.906478" lon="10.334784"><ele>345.3</ele></trkpt>
            <trkpt lat="51.906358" lon="10.334196"><ele>343</ele></trkpt>
            <trkpt lat="51.906317" lon="10.33398"><ele>334</ele></trkpt>
            <trkpt lat="51.906212" lon="10.333297"><ele>329</ele></trkpt>
            <trkpt lat="51.906197" lon="10.332757"><ele>329</ele></trkpt>
            <trkpt lat="51.906187" lon="10.331201"><ele>317.6</ele></trkpt>
            <trkpt lat="51.906163" lon="10.330787"><ele>314.3</ele></trkpt>
            <trkpt lat="51.905984" lon="10.329098"><ele>307.2</ele></trkpt>
            <trkpt lat="51.905976" lon="10.328855"><ele>297</ele></trkpt>
            <trkpt lat="51.905793" lon="10.32891"><ele>309</ele></trkpt>
            <trkpt lat="51.905721" lon="10.328902"><ele>309</ele></trkpt>
            <trkpt lat="51.905665" lon="10.328854"><ele>309</ele></trkpt>
            <trkpt lat="51.905646" lon="10.328806"><ele>309</ele></trkpt>
            <trkpt lat="51.905513" lon="10.32816"><ele>300.3</ele></trkpt>
            <trkpt lat="51.905484" lon="10.327838"><ele>296</ele></trkpt>
            <trkpt lat="51.90538" lon="10.327782"><ele>296</ele></trkpt>
            <trkpt lat="51.905327" lon="10.327755"><ele>296</ele></trkpt>
            <trkpt lat="51.90526" lon="10.327714"><ele>296</ele></trkpt>
            <trkpt lat="51.905181" lon="10.327736"><ele>296</ele></trkpt>
            <trkpt lat="51.905151" lon="10.327702"><ele>296</ele></trkpt>
            <trkpt lat="51.905117" lon="10.327556"><ele>296</ele></trkpt>
            <trkpt lat="51.905034" lon="10.327496"><ele>283.9</ele></trkpt>
            <trkpt lat="51.904871" lon="10.327448"><ele>283.5</ele></trkpt>
            <trkpt lat="51.904738" lon="10.327375"><ele>282.9</ele></trkpt>
            <trkpt lat="51.90472" lon="10.327389"><ele>282.6</ele></trkpt>
            <trkpt lat="51.90448" lon="10.327821"><ele>283</ele></trkpt>
            <trkpt lat="51.904297" lon="10.328202"><ele>283</ele></trkpt>
            <trkpt lat="51.904243" lon="10.328377"><ele>283.5</ele></trkpt>
            <trkpt lat="51.90406" lon="10.328643"><ele>283.6</ele></trkpt>
            <trkpt lat="51.904028" lon="10.328715"><ele>283.8</ele></trkpt>
            <trkpt lat="51.903856" lon="10.328878"><ele>283.6</ele></trkpt>
            <trkpt lat="51.90378" lon="10.329017"><ele>285.6</ele></trkpt>
            <trkpt lat="51.903708" lon="10.329049"><ele>287</ele></trkpt>
            <trkpt lat="51.903625" lon="10.329234"><ele>287.9</ele></trkpt>
            <trkpt lat="51.903482" lon="10.329702"><ele>288</ele></trkpt>
            <trkpt lat="51.903306" lon="10.330164"><ele>288.2</ele></trkpt>
            <trkpt lat="51.90329" lon="10.330238"><ele>288.1</ele></trkpt>
            <trkpt lat="51.903185" lon="10.330339"><ele>287.9</ele></trkpt>
            <trkpt lat="51.903138" lon="10.330343"><ele>287</ele></trkpt>
            <trkpt lat="51.902998" lon="10.330542"><ele>290</ele></trkpt>
            <trkpt lat="51.902744" lon="10.330798"><ele>291.1</ele></trkpt>
            <trkpt lat="51.902503" lon="10.330944"><ele>295</ele></trkpt>
            <trkpt lat="51.902413" lon="10.330969"><ele>295</ele></trkpt>
            <trkpt lat="51.90196" lon="10.331008"><ele>295</ele></trkpt>
            <trkpt lat="51.901812" lon="10.331087"><ele>295</ele></trkpt>
            <trkpt lat="51.901678" lon="10.331083"><ele>295</ele></trkpt>
            <trkpt lat="51.901659" lon="10.331242"><ele>308</ele></trkpt>
            <trkpt lat="51.901578" lon="10.331288"><ele>313.5</ele></trkpt>
            <trkpt lat="51.901526" lon="10.331355"><ele>314.4</ele></trkpt>
            <trkpt lat="51.901225" lon="10.331976"><ele>317.4</ele></trkpt>
            <trkpt lat="51.90104" lon="10.332285"><ele>320</ele></trkpt>
            <trkpt lat="51.900298" lon="10.333148"><ele>328.1</ele></trkpt>
            <trkpt lat="51.900029" lon="10.333619"><ele>330</ele></trkpt>
            <trkpt lat="51.899942" lon="10.333835"><ele>342</ele></trkpt>
            <trkpt lat="51.899844" lon="10.334129"><ele>342</ele></trkpt>
            <trkpt lat="51.899754" lon="10.334162"><ele>342</ele></trkpt>
            <trkpt lat="51.899574" lon="10.334145"><ele>342</ele></trkpt>
            <trkpt lat="51.899468" lon="10.334136"><ele>351.7</ele></trkpt>
            <trkpt lat="51.899196" lon="10.334185"><ele>351.3</ele></trkpt>
            <trkpt lat="51.898992" lon="10.334252"><ele>354.2</ele></trkpt>
            <trkpt lat="51.898757" lon="10.334389"><ele>355.1</ele></trkpt>
            <trkpt lat="51.898165" lon="10.334398"><ele>361.8</ele></trkpt>
            <trkpt lat="51.89766" lon="10.334536"><ele>367.1</ele></trkpt>
            <trkpt lat="51.897066" lon="10.334893"><ele>370.8</ele></trkpt>
            <trkpt lat="51.896919" lon="10.335054"><ele>371</ele></trkpt>
            <trkpt lat="51.896832" lon="10.334974"><ele>370</ele></trkpt>
            <trkpt lat="51.896727" lon="10.334948"><ele>368.5</ele></trkpt>
            <trkpt lat="51.896457" lon="10.334976"><ele>368.1</ele></trkpt>
            <trkpt lat="51.896088" lon="10.334856"><ele>367</ele></trkpt>
            <trkpt lat="51.89611" lon="10.334715"><ele>367</ele></trkpt>
            <trkpt lat="51.895894" lon="10.334988"><ele>367.9</ele></trkpt>
            <trkpt lat="51.895689" lon="10.335172"><ele>370</ele></trkpt>
            <trkpt lat="51.895578" lon="10.335261"><ele>370.2</ele></trkpt>
            <trkpt lat="51.895306" lon="10.335425"><ele>371.1</ele></trkpt>
            <trkpt lat="51.895088" lon="10.335466"><ele>371.5</ele></trkpt>
            <trkpt lat="51.894999" lon="10.335441"><ele>371.9</ele></trkpt>
            <trkpt lat="51.894666" lon="10.335235"><ele>373.1</ele></trkpt>
            <trkpt lat="51.894561" lon="10.33512"><ele>373.4</ele></trkpt>
            <trkpt lat="51.894332" lon="10.334802"><ele>374.5</ele></trkpt>
            <trkpt lat="51.894238" lon="10.334716"><ele>374.7</ele></trkpt>
            <trkpt lat="51.89412" lon="10.334656"><ele>374.8</ele></trkpt>
            <trkpt lat="51.893957" lon="10.334631"><ele>375.5</ele></trkpt>
            <trkpt lat="51.893847" lon="10.334584"><ele>375.8</ele></trkpt>
            <trkpt lat="51.893716" lon="10.334415"><ele>377</ele></trkpt>
            <trkpt lat="51.893405" lon="10.33389"><ele>378.6</ele></trkpt>
            <trkpt lat="51.893182" lon="10.333665"><ele>378.4</ele></trkpt>
            <trkpt lat="51.893075" lon="10.333528"><ele>380.4</ele></trkpt>
            <trkpt lat="51.892741" lon="10.332965"><ele>383</ele></trkpt>
            <trkpt lat="51.892524" lon="10.332562"><ele>384.1</ele></trkpt>
            <trkpt lat="51.892222" lon="10.331887"><ele>396</ele></trkpt>
            <trkpt lat="51.892033" lon="10.331214"><ele>404.7</ele></trkpt>
            <trkpt lat="51.891901" lon="10.330633"><ele>404.8</ele></trkpt>
            <trkpt lat="51.891661" lon="10.330052"><ele>417</ele></trkpt>
            <trkpt lat="51.891522" lon="10.33006"><ele>417</ele></trkpt>
            <trkpt lat="51.891351" lon="10.330104"><ele>417</ele></trkpt>
            <trkpt lat="51.891274" lon="10.330154"><ele>417</ele></trkpt>
            <trkpt lat="51.891129" lon="10.330333"><ele>417</ele></trkpt>
            <trkpt lat="51.89096" lon="10.330282"><ele>433.1</ele></trkpt>
            <trkpt lat="51.890917" lon="10.330245"><ele>432.7</ele></trkpt>
            <trkpt lat="51.890842" lon="10.330132"><ele>433.9</ele></trkpt>
            <trkpt lat="51.890748" lon="10.330033"><ele>434.1</ele></trkpt>
            <trkpt lat="51.890659" lon="10.329982"><ele>434.5</ele></trkpt>
            <trkpt lat="51.890472" lon="10.329732"><ele>435.3</ele></trkpt>
            <trkpt lat="51.890273" lon="10.329682"><ele>435.9</ele></trkpt>
            <trkpt lat="51.890185" lon="10.329514"><ele>436.2</ele></trkpt>
            <trkpt lat="51.889985" lon="10.328857"><ele>440.4</ele></trkpt>
            <trkpt lat="51.8899" lon="10.328702"><ele>469</ele></trkpt>
            <trkpt lat="51.889754" lon="10.328599"><ele>476.1</ele></trkpt>
            <trkpt lat="51.889585" lon="10.328675"><ele>475.6</ele></trkpt>
            <trkpt lat="51.889458" lon="10.328852"><ele>475.1</ele></trkpt>
            <trkpt lat="51.889326" lon="10.329294"><ele>474.4</ele></trkpt>
            <trkpt lat="51.889304" lon="10.329736"><ele>473.9</ele></trkpt>
            <trkpt lat="51.889266" lon="10.330144"><ele>473.8</ele></trkpt>
            <trkpt lat="51.889198" lon="10.330288"><ele>473.8</ele></trkpt>
            <trkpt lat="51.889091" lon="10.330349"><ele>476.1</ele></trkpt>
            <trkpt lat="51.889027" lon="10.330419"><ele>506</ele></trkpt>
            <trkpt lat="51.888975" lon="10.33024"><ele>501.9</ele></trkpt>
            <trkpt lat="51.888916" lon="10.329818"><ele>501.4</ele></trkpt>
            <trkpt lat="51.888873" lon="10.329704"><ele>501.1</ele></trkpt>
            <trkpt lat="51.888758" lon="10.329518"><ele>500.7</ele></trkpt>
            <trkpt lat="51.888636" lon="10.3294"><ele>499</ele></trkpt>
            <trkpt lat="51.888587" lon="10.32955"><ele>501.3</ele></trkpt>
            <trkpt lat="51.888585" lon="10.329703"><ele>501.1</ele></trkpt>
            <trkpt lat="51.888612" lon="10.330233"><ele>501.3</ele></trkpt>
            <trkpt lat="51.888669" lon="10.330686"><ele>502.2</ele></trkpt>
            <trkpt lat="51.888668" lon="10.331049"><ele>502.3</ele></trkpt>
            <trkpt lat="51.888647" lon="10.331315"><ele>503</ele></trkpt>
            <trkpt lat="51.888536" lon="10.331953"><ele>501.4</ele></trkpt>
            <trkpt lat="51.888518" lon="10.331998"><ele>501.3</ele></trkpt>
            <trkpt lat="51.888431" lon="10.332075"><ele>501.2</ele></trkpt>
            <trkpt lat="51.888293" lon="10.332077"><ele>501.2</ele></trkpt>
            <trkpt lat="51.888193" lon="10.332043"><ele>501.4</ele></trkpt>
            <trkpt lat="51.888016" lon="10.331923"><ele>501.6</ele></trkpt>
            <trkpt lat="51.887953" lon="10.331841"><ele>503</ele></trkpt>
            <trkpt lat="51.888012" lon="10.331849"><ele>506</ele></trkpt>
            <trkpt lat="51.887953" lon="10.331841"><ele>503</ele></trkpt>
            <trkpt lat="51.888016" lon="10.331923"><ele>501.6</ele></trkpt>
            <trkpt lat="51.888193" lon="10.332043"><ele>501.4</ele></trkpt>
            <trkpt lat="51.888293" lon="10.332077"><ele>501.2</ele></trkpt>
            <trkpt lat="51.888431" lon="10.332075"><ele>501.2</ele></trkpt>
            <trkpt lat="51.888518" lon="10.331998"><ele>501.3</ele></trkpt>
            <trkpt lat="51.888536" lon="10.331953"><ele>501.4</ele></trkpt>
            <trkpt lat="51.888647" lon="10.331315"><ele>503</ele></trkpt>
            <trkpt lat="51.888668" lon="10.331049"><ele>502.3</ele></trkpt>
            <trkpt lat="51.888669" lon="10.330686"><ele>502.2</ele></trkpt>
            <trkpt lat="51.888612" lon="10.330233"><ele>501.3</ele></trkpt>
            <trkpt lat="51.888585" lon="10.329703"><ele>501.1</ele></trkpt>
            <trkpt lat="51.888587" lon="10.32955"><ele>501.3</ele></trkpt>
            <trkpt lat="51.888636" lon="10.3294"><ele>499</ele></trkpt>
            <trkpt lat="51.888758" lon="10.329518"><ele>500.7</ele></trkpt>
            <trkpt lat="51.888873" lon="10.329704"><ele>501.1</ele></trkpt>
            <trkpt lat="51.888916" lon="10.329818"><ele>501.4</ele></trkpt>
            <trkpt lat="51.888975" lon="10.33024"><ele>501.9</ele></trkpt>
            <trkpt lat="51.889027" lon="10.330419"><ele>506</ele></trkpt>
            <trkpt lat="51.889091" lon="10.330349"><ele>476.1</ele></trkpt>
            <trkpt lat="51.889198" lon="10.330288"><ele>473.8</ele></trkpt>
            <trkpt lat="51.889266" lon="10.330144"><ele>473.8</ele></trkpt>
            <trkpt lat="51.889304" lon="10.329736"><ele>473.9</ele></trkpt>
            <trkpt lat="51.889326" lon="10.329294"><ele>474.4</ele></trkpt>
            <trkpt lat="51.889458" lon="10.328852"><ele>475.1</ele></trkpt>
            <trkpt lat="51.889585" lon="10.328675"><ele>475.6</ele></trkpt>
            <trkpt lat="51.889754" lon="10.328599"><ele>476.1</ele></trkpt>
            <trkpt lat="51.8899" lon="10.328702"><ele>469</ele></trkpt>
            <trkpt lat="51.889985" lon="10.328857"><ele>440.4</ele></trkpt>
            <trkpt lat="51.890185" lon="10.329514"><ele>436.2</ele></trkpt>
            <trkpt lat="51.890273" lon="10.329682"><ele>435.9</ele></trkpt>
            <trkpt lat="51.890472" lon="10.329732"><ele>435.3</ele></trkpt>
            <trkpt lat="51.890659" lon="10.329982"><ele>434.5</ele></trkpt>
            <trkpt lat="51.890748" lon="10.330033"><ele>434.1</ele></trkpt>
            <trkpt lat="51.890842" lon="10.330132"><ele>433.9</ele></trkpt>
            <trkpt lat="51.890917" lon="10.330245"><ele>432.7</ele></trkpt>
            <trkpt lat="51.89096" lon="10.330282"><ele>433.1</ele></trkpt>
            <trkpt lat="51.891129" lon="10.330333"><ele>417</ele></trkpt>
            <trkpt lat="51.891274" lon="10.330154"><ele>417</ele></trkpt>
            <trkpt lat="51.891351" lon="10.330104"><ele>417</ele></trkpt>
            <trkpt lat="51.891522" lon="10.33006"><ele>417</ele></trkpt>
            <trkpt lat="51.891661" lon="10.330052"><ele>417</ele></trkpt>
            <trkpt lat="51.891901" lon="10.330633"><ele>404.8</ele></trkpt>
            <trkpt lat="51.892033" lon="10.331214"><ele>404.7</ele></trkpt>
            <trkpt lat="51.892222" lon="10.331887"><ele>396</ele></trkpt>
            <trkpt lat="51.892524" lon="10.332562"><ele>384.1</ele></trkpt>
            <trkpt lat="51.892741" lon="10.332965"><ele>383</ele></trkpt>
            <trkpt lat="51.893075" lon="10.333528"><ele>380.4</ele></trkpt>
            <trkpt lat="51.893182" lon="10.333665"><ele>378.4</ele></trkpt>
            <trkpt lat="51.893405" lon="10.33389"><ele>378.6</ele></trkpt>
            <trkpt lat="51.893716" lon="10.334415"><ele>377</ele></trkpt>
            <trkpt lat="51.893847" lon="10.334584"><ele>375.8</ele></trkpt>
            <trkpt lat="51.893957" lon="10.334631"><ele>375.5</ele></trkpt>
            <trkpt lat="51.89412" lon="10.334656"><ele>374.8</ele></trkpt>
            <trkpt lat="51.894238" lon="10.334716"><ele>374.7</ele></trkpt>
            <trkpt lat="51.894332" lon="10.334802"><ele>374.5</ele></trkpt>
            <trkpt lat="51.894561" lon="10.33512"><ele>373.4</ele></trkpt>
            <trkpt lat="51.894666" lon="10.335235"><ele>373.1</ele></trkpt>
            <trkpt lat="51.894999" lon="10.335441"><ele>371.9</ele></trkpt>
            <trkpt lat="51.895088" lon="10.335466"><ele>371.5</ele></trkpt>
            <trkpt lat="51.895306" lon="10.335425"><ele>371.1</ele></trkpt>
            <trkpt lat="51.895578" lon="10.335261"><ele>370.2</ele></trkpt>
            <trkpt lat="51.895689" lon="10.335172"><ele>370</ele></trkpt>
            <trkpt lat="51.895894" lon="10.334988"><ele>367.9</ele></trkpt>
            <trkpt lat="51.89611" lon="10.334715"><ele>367</ele></trkpt>
            <trkpt lat="51.896088" lon="10.334856"><ele>367</ele></trkpt>
            <trkpt lat="51.896457" lon="10.334976"><ele>368.1</ele></trkpt>
            <trkpt lat="51.896727" lon="10.334948"><ele>368.5</ele></trkpt>
            <trkpt lat="51.896832" lon="10.334974"><ele>370</ele></trkpt>
            <trkpt lat="51.896919" lon="10.335054"><ele>371</ele></trkpt>
            <trkpt lat="51.897146" lon="10.335271"><ele>371.5</ele></trkpt>
            <trkpt lat="51.89784" lon="10.336079"><ele>370.6</ele></trkpt>
            <trkpt lat="51.898975" lon="10.337463"><ele>363.7</ele></trkpt>
            <trkpt lat="51.899078" lon="10.337525"><ele>363.2</ele></trkpt>
            <trkpt lat="51.899136" lon="10.337502"><ele>362.6</ele></trkpt>
            <trkpt lat="51.899415" lon="10.337116"><ele>362.2</ele></trkpt>
            <trkpt lat="51.899543" lon="10.337026"><ele>362.4</ele></trkpt>
            <trkpt lat="51.899623" lon="10.337016"><ele>362.6</ele></trkpt>
            <trkpt lat="51.899683" lon="10.33705"><ele>360</ele></trkpt>
            <trkpt lat="51.899726" lon="10.337138"><ele>357.7</ele></trkpt>
            <trkpt lat="51.899791" lon="10.337491"><ele>357.3</ele></trkpt>
            <trkpt lat="51.899885" lon="10.337831"><ele>356.8</ele></trkpt>
            <trkpt lat="51.900017" lon="10.338188"><ele>356.3</ele></trkpt>
            <trkpt lat="51.900072" lon="10.338265"><ele>353</ele></trkpt>
            <trkpt lat="51.900499" lon="10.338463"><ele>354.3</ele></trkpt>
            <trkpt lat="51.900965" lon="10.338619"><ele>354.1</ele></trkpt>
            <trkpt lat="51.901135" lon="10.338735"><ele>354.8</ele></trkpt>
            <trkpt lat="51.901331" lon="10.338972"><ele>354.9</ele></trkpt>
            <trkpt lat="51.901627" lon="10.339429"><ele>356</ele></trkpt>
            <trkpt lat="51.901986" lon="10.340151"><ele>357.3</ele></trkpt>
            <trkpt lat="51.902293" lon="10.340846"><ele>358.9</ele></trkpt>
            <trkpt lat="51.902504" lon="10.341248"><ele>360.6</ele></trkpt>
            <trkpt lat="51.903434" lon="10.342699"><ele>365.6</ele></trkpt>
            <trkpt lat="51.904377" lon="10.343797"><ele>374</ele></trkpt>
            <trkpt lat="51.904476" lon="10.343965"><ele>374</ele></trkpt>
            <trkpt lat="51.904534" lon="10.344143"><ele>374</ele></trkpt>
            <trkpt lat="51.904615" lon="10.345019"><ele>376.3</ele></trkpt>
            <trkpt lat="51.904732" lon="10.345756"><ele>376.8</ele></trkpt>
            <trkpt lat="51.904807" lon="10.346385"><ele>377.2</ele></trkpt>
            <trkpt lat="51.904912" lon="10.34673"><ele>377.3</ele></trkpt>
            <trkpt lat="51.905128" lon="10.347154"><ele>377.5</ele></trkpt>
            <trkpt lat="51.905477" lon="10.347614"><ele>378</ele></trkpt>
            <trkpt lat="51.905791" lon="10.348086"><ele>380</ele></trkpt>
            <trkpt lat="51.906147" lon="10.348706"><ele>381.6</ele></trkpt>
            <trkpt lat="51.906524" lon="10.349279"><ele>383.9</ele></trkpt>
            <trkpt lat="51.906745" lon="10.349569"><ele>386.9</ele></trkpt>
            <trkpt lat="51.907244" lon="10.350147"><ele>391.4</ele></trkpt>
            <trkpt lat="51.90743" lon="10.350328"><ele>391.9</ele></trkpt>
            <trkpt lat="51.908204" lon="10.350873"><ele>392.8</ele></trkpt>
            <trkpt lat="51.908663" lon="10.351307"><ele>392.4</ele></trkpt>
            <trkpt lat="51.908912" lon="10.351584"><ele>392.2</ele></trkpt>
            <trkpt lat="51.90904" lon="10.351764"><ele>389</ele></trkpt>
            <trkpt lat="51.909521" lon="10.352856"><ele>386.5</ele></trkpt>
            <trkpt lat="51.909714" lon="10.353332"><ele>385</ele></trkpt>
            <trkpt lat="51.909813" lon="10.353613"><ele>379.3</ele></trkpt>
            <trkpt lat="51.910094" lon="10.354267"><ele>378.3</ele></trkpt>
            <trkpt lat="51.910507" lon="10.355296"><ele>377.1</ele></trkpt>
            <trkpt lat="51.910586" lon="10.355699"><ele>377.4</ele></trkpt>
            <trkpt lat="51.910616" lon="10.356248"><ele>377.5</ele></trkpt>
            <trkpt lat="51.910649" lon="10.356545"><ele>377.6</ele></trkpt>
            <trkpt lat="51.910725" lon="10.35686"><ele>377.2</ele></trkpt>
            <trkpt lat="51.910938" lon="10.357416"><ele>377</ele></trkpt>
            <trkpt lat="51.911062" lon="10.357675"><ele>376.2</ele></trkpt>
            <trkpt lat="51.911395" lon="10.358133"><ele>375.4</ele></trkpt>
            <trkpt lat="51.911493" lon="10.358381"><ele>374.7</ele></trkpt>
            <trkpt lat="51.911539" lon="10.358752"><ele>374.6</ele></trkpt>
            <trkpt lat="51.911589" lon="10.359753"><ele>376.4</ele></trkpt>
            <trkpt lat="51.91173" lon="10.361002"><ele>377.1</ele></trkpt>
            <trkpt lat="51.911757" lon="10.361136"><ele>376.9</ele></trkpt>
            <trkpt lat="51.911803" lon="10.361294"><ele>376.8</ele></trkpt>
            <trkpt lat="51.911883" lon="10.361441"><ele>376.6</ele></trkpt>
            <trkpt lat="51.912112" lon="10.361761"><ele>376.2</ele></trkpt>
            <trkpt lat="51.912218" lon="10.361944"><ele>376</ele></trkpt>
            <trkpt lat="51.912336" lon="10.362222"><ele>375.8</ele></trkpt>
            <trkpt lat="51.912456" lon="10.362572"><ele>368</ele></trkpt>
            <trkpt lat="51.912488" lon="10.362802"><ele>366</ele></trkpt>
            <trkpt lat="51.912735" lon="10.363634"><ele>362.3</ele></trkpt>
            <trkpt lat="51.912831" lon="10.363898"><ele>361.7</ele></trkpt>
            <trkpt lat="51.913039" lon="10.364734"><ele>359.6</ele></trkpt>
            <trkpt lat="51.913184" lon="10.36511"><ele>351</ele></trkpt>
            <trkpt lat="51.913053" lon="10.365367"><ele>351</ele></trkpt>
            <trkpt lat="51.912961" lon="10.365544"><ele>350</ele></trkpt>
            <trkpt lat="51.912838" lon="10.365842"><ele>349.8</ele></trkpt>
            <trkpt lat="51.912723" lon="10.366213"><ele>349</ele></trkpt>
            <trkpt lat="51.912609" lon="10.366623"><ele>344</ele></trkpt>
            <trkpt lat="51.912473" lon="10.366911"><ele>330</ele></trkpt>
            <trkpt lat="51.912215" lon="10.36767"><ele>323.9</ele></trkpt>
            <trkpt lat="51.911987" lon="10.368225"><ele>321.1</ele></trkpt>
            <trkpt lat="51.911674" lon="10.368832"><ele>315.7</ele></trkpt>
            <trkpt lat="51.911596" lon="10.369175"><ele>313</ele></trkpt>
            <trkpt lat="51.911503" lon="10.369975"><ele>312.2</ele></trkpt>
            <trkpt lat="51.911468" lon="10.370844"><ele>312.5</ele></trkpt>
            <trkpt lat="51.911468" lon="10.37117"><ele>312.6</ele></trkpt>
            <trkpt lat="51.911472" lon="10.371289"><ele>312.9</ele></trkpt>
            <trkpt lat="51.911506" lon="10.371505"><ele>314</ele></trkpt>
            <trkpt lat="51.911552" lon="10.371625"><ele>314.8</ele></trkpt>
            <trkpt lat="51.911626" lon="10.371754"><ele>315.4</ele></trkpt>
            <trkpt lat="51.911813" lon="10.372014"><ele>315.8</ele></trkpt>
            <trkpt lat="51.911934" lon="10.372234"><ele>315</ele></trkpt>
            <trkpt lat="51.912185" lon="10.372793"><ele>317</ele></trkpt>
            <trkpt lat="51.912225" lon="10.372886"><ele>317</ele></trkpt>
            <trkpt lat="51.912466" lon="10.373394"><ele>309</ele></trkpt>
            <trkpt lat="51.912598" lon="10.37377"><ele>315</ele></trkpt>
            <trkpt lat="51.912656" lon="10.374084"><ele>315</ele></trkpt>
            <trkpt lat="51.912662" lon="10.374231"><ele>312</ele></trkpt>
            <trkpt lat="51.912671" lon="10.376473"><ele>303.5</ele></trkpt>
            <trkpt lat="51.912649" lon="10.376711"><ele>303</ele></trkpt>
            <trkpt lat="51.91262" lon="10.376843"><ele>302.9</ele></trkpt>
            <trkpt lat="51.91253" lon="10.377074"><ele>302.7</ele></trkpt>
            <trkpt lat="51.912421" lon="10.37725"><ele>302.6</ele></trkpt>
            <trkpt lat="51.912122" lon="10.377636"><ele>301</ele></trkpt>
            <trkpt lat="51.912021" lon="10.377769"><ele>301</ele></trkpt>
            <trkpt lat="51.910513" lon="10.379828"><ele>307.1</ele></trkpt>
            <trkpt lat="51.910284" lon="10.380176"><ele>310</ele></trkpt>
            <trkpt lat="51.910199" lon="10.380276"><ele>310</ele></trkpt>
            <trkpt lat="51.910079" lon="10.380371"><ele>310</ele></trkpt>
            <trkpt lat="51.909966" lon="10.380424"><ele>323</ele></trkpt>
            <trkpt lat="51.90995" lon="10.380424"><ele>323</ele></trkpt>
            <trkpt lat="51.909789" lon="10.380409"><ele>323</ele></trkpt>
            <trkpt lat="51.909612" lon="10.380246"><ele>320.4</ele></trkpt>
            <trkpt lat="51.909326" lon="10.379925"><ele>312</ele></trkpt>
            <trkpt lat="51.908955" lon="10.379558"><ele>318.6</ele></trkpt>
            <trkpt lat="51.908612" lon="10.379297"><ele>319</ele></trkpt>
            <trkpt lat="51.908481" lon="10.379244"><ele>319.2</ele></trkpt>
            <trkpt lat="51.908346" lon="10.379255"><ele>319.5</ele></trkpt>
            <trkpt lat="51.90824" lon="10.379301"><ele>319.3</ele></trkpt>
            <trkpt lat="51.907684" lon="10.379649"><ele>316</ele></trkpt>
            <trkpt lat="51.907525" lon="10.379807"><ele>312.3</ele></trkpt>
            <trkpt lat="51.907442" lon="10.379941"><ele>310.7</ele></trkpt>
            <trkpt lat="51.907419" lon="10.380017"><ele>310.3</ele></trkpt>
            <trkpt lat="51.907401" lon="10.380234"><ele>309.4</ele></trkpt>
            <trkpt lat="51.907441" lon="10.380904"><ele>311</ele></trkpt>
            <trkpt lat="51.907507" lon="10.38171"><ele>325.2</ele></trkpt>
            <trkpt lat="51.907624" lon="10.382436"><ele>327.7</ele></trkpt>
            <trkpt lat="51.907626" lon="10.382569"><ele>327.9</ele></trkpt>
            <trkpt lat="51.907602" lon="10.382757"><ele>328.1</ele></trkpt>
            <trkpt lat="51.907496" lon="10.383208"><ele>329</ele></trkpt>
            <trkpt lat="51.907423" lon="10.3834"><ele>329.2</ele></trkpt>
            <trkpt lat="51.907072" lon="10.384043"><ele>331.1</ele></trkpt>
            <trkpt lat="51.906957" lon="10.384187"><ele>331.8</ele></trkpt>
            <trkpt lat="51.906849" lon="10.384207"><ele>340</ele></trkpt>
            <trkpt lat="51.906726" lon="10.384138"><ele>332</ele></trkpt>
            <trkpt lat="51.906656" lon="10.384021"><ele>341</ele></trkpt>
            <trkpt lat="51.906608" lon="10.383862"><ele>341.6</ele></trkpt>
            <trkpt lat="51.906523" lon="10.383251"><ele>340.8</ele></trkpt>
            <trkpt lat="51.906434" lon="10.38292"><ele>340.8</ele></trkpt>
            <trkpt lat="51.906317" lon="10.382608"><ele>339.8</ele></trkpt>
            <trkpt lat="51.906134" lon="10.38222"><ele>338.1</ele></trkpt>
            <trkpt lat="51.906001" lon="10.382027"><ele>334.8</ele></trkpt>
            <trkpt lat="51.905891" lon="10.381916"><ele>333</ele></trkpt>
            <trkpt lat="51.905256" lon="10.381461"><ele>327.2</ele></trkpt>
            <trkpt lat="51.905043" lon="10.381318"><ele>325.7</ele></trkpt>
            <trkpt lat="51.904909" lon="10.381267"><ele>323.7</ele></trkpt>
            <trkpt lat="51.904759" lon="10.381269"><ele>323.2</ele></trkpt>
            <trkpt lat="51.904017" lon="10.381501"><ele>317.6</ele></trkpt>
            <trkpt lat="51.903604" lon="10.381664"><ele>316</ele></trkpt>
            <trkpt lat="51.903356" lon="10.381798"><ele>316</ele></trkpt>
            <trkpt lat="51.903157" lon="10.38196"><ele>315.9</ele></trkpt>
            <trkpt lat="51.902777" lon="10.382381"><ele>316.8</ele></trkpt>
            <trkpt lat="51.902605" lon="10.382601"><ele>317.6</ele></trkpt>
            <trkpt lat="51.902372" lon="10.383061"><ele>318.1</ele></trkpt>
            <trkpt lat="51.902305" lon="10.383229"><ele>317.6</ele></trkpt>
            <trkpt lat="51.902217" lon="10.383568"><ele>317.9</ele></trkpt>
            <trkpt lat="51.902203" lon="10.3837"><ele>318.1</ele></trkpt>
            <trkpt lat="51.90221" lon="10.383913"><ele>317.8</ele></trkpt>
            <trkpt lat="51.902342" lon="10.384619"><ele>320.1</ele></trkpt>
            <trkpt lat="51.902427" lon="10.385221"><ele>321.7</ele></trkpt>
            <trkpt lat="51.902572" lon="10.385798"><ele>325.1</ele></trkpt>
            <trkpt lat="51.902745" lon="10.386184"><ele>327.8</ele></trkpt>
            <trkpt lat="51.902825" lon="10.386473"><ele>329.2</ele></trkpt>
            <trkpt lat="51.902829" lon="10.386584"><ele>329.5</ele></trkpt>
            <trkpt lat="51.902806" lon="10.386687"><ele>330.9</ele></trkpt>
            <trkpt lat="51.902775" lon="10.386768"><ele>331.4</ele></trkpt>
            <trkpt lat="51.902719" lon="10.386847"><ele>336</ele></trkpt>
            <trkpt lat="51.902575" lon="10.386885"><ele>339.3</ele></trkpt>
            <trkpt lat="51.902523" lon="10.386866"><ele>339.3</ele></trkpt>
            <trkpt lat="51.90201" lon="10.386516"><ele>339.1</ele></trkpt>
            <trkpt lat="51.901761" lon="10.386437"><ele>338.9</ele></trkpt>
            <trkpt lat="51.901704" lon="10.386395"><ele>338.5</ele></trkpt>
            <trkpt lat="51.901612" lon="10.386262"><ele>340.2</ele></trkpt>
            <trkpt lat="51.901554" lon="10.386057"><ele>341.5</ele></trkpt>
            <trkpt lat="51.901514" lon="10.385513"><ele>342.7</ele></trkpt>
            <trkpt lat="51.901472" lon="10.385384"><ele>343.3</ele></trkpt>
            <trkpt lat="51.901301" lon="10.38507"><ele>342.1</ele></trkpt>
            <trkpt lat="51.901152" lon="10.384716"><ele>342.7</ele></trkpt>
            <trkpt lat="51.901076" lon="10.384452"><ele>343.7</ele></trkpt>
            <trkpt lat="51.90091" lon="10.383706"><ele>336.5</ele></trkpt>
            <trkpt lat="51.900757" lon="10.383194"><ele>315</ele></trkpt>
            <trkpt lat="51.900657" lon="10.382847"><ele>315</ele></trkpt>
            <trkpt lat="51.900511" lon="10.382502"><ele>315</ele></trkpt>
            <trkpt lat="51.900505" lon="10.382398"><ele>302</ele></trkpt>
            <trkpt lat="51.900519" lon="10.382243"><ele>302</ele></trkpt>
            <trkpt lat="51.900549" lon="10.382181"><ele>302</ele></trkpt>
            <trkpt lat="51.900576" lon="10.382172"><ele>302</ele></trkpt>
            <trkpt lat="51.900549" lon="10.382181"><ele>302</ele></trkpt>
            <trkpt lat="51.900519" lon="10.382243"><ele>302</ele></trkpt>
            <trkpt lat="51.900505" lon="10.382398"><ele>302</ele></trkpt>
            <trkpt lat="51.900388" lon="10.382745"><ele>312.5</ele></trkpt>
            <trkpt lat="51.900378" lon="10.382897"><ele>312</ele></trkpt>
            <trkpt lat="51.900387" lon="10.383105"><ele>315</ele></trkpt>
            <trkpt lat="51.90034" lon="10.383141"><ele>315</ele></trkpt>
            <trkpt lat="51.900349" lon="10.383381"><ele>328</ele></trkpt>
            <trkpt lat="51.900435" lon="10.38377"><ele>342.4</ele></trkpt>
            <trkpt lat="51.900643" lon="10.384458"><ele>349.3</ele></trkpt>
            <trkpt lat="51.900736" lon="10.38492"><ele>352.8</ele></trkpt>
            <trkpt lat="51.900803" lon="10.385453"><ele>357.1</ele></trkpt>
            <trkpt lat="51.900901" lon="10.385963"><ele>358</ele></trkpt>
            <trkpt lat="51.900921" lon="10.386173"><ele>359.6</ele></trkpt>
            <trkpt lat="51.90094" lon="10.387018"><ele>366.4</ele></trkpt>
            <trkpt lat="51.901104" lon="10.388241"><ele>379</ele></trkpt>
            <trkpt lat="51.901116" lon="10.388562"><ele>381.4</ele></trkpt>
            <trkpt lat="51.901104" lon="10.388786"><ele>383.5</ele></trkpt>
            <trkpt lat="51.900967" lon="10.38943"><ele>400.4</ele></trkpt>
            <trkpt lat="51.900807" lon="10.389975"><ele>406.1</ele></trkpt>
            <trkpt lat="51.900445" lon="10.390864"><ele>410.1</ele></trkpt>
            <trkpt lat="51.900411" lon="10.391029"><ele>410.4</ele></trkpt>
            <trkpt lat="51.900408" lon="10.391245"><ele>408.7</ele></trkpt>
            <trkpt lat="51.90046" lon="10.391451"><ele>407.1</ele></trkpt>
            <trkpt lat="51.900789" lon="10.392092"><ele>405.8</ele></trkpt>
            <trkpt lat="51.901106" lon="10.392784"><ele>404.9</ele></trkpt>
            <trkpt lat="51.901162" lon="10.392926"><ele>404.6</ele></trkpt>
            <trkpt lat="51.90129" lon="10.393457"><ele>404</ele></trkpt>
            <trkpt lat="51.901349" lon="10.393788"><ele>404</ele></trkpt>
            <trkpt lat="51.901497" lon="10.39427"><ele>411.3</ele></trkpt>
            <trkpt lat="51.901962" lon="10.395488"><ele>417.3</ele></trkpt>
            <trkpt lat="51.90236" lon="10.396724"><ele>420.2</ele></trkpt>
            <trkpt lat="51.902519" lon="10.397309"><ele>418.8</ele></trkpt>
            <trkpt lat="51.902555" lon="10.397575"><ele>419.7</ele></trkpt>
            <trkpt lat="51.902566" lon="10.397838"><ele>420</ele></trkpt>
            <trkpt lat="51.902556" lon="10.399122"><ele>422</ele></trkpt>
            <trkpt lat="51.902559" lon="10.399175"><ele>423</ele></trkpt>
            <trkpt lat="51.902545" lon="10.399415"><ele>423</ele></trkpt>
            <trkpt lat="51.902531" lon="10.399521"><ele>423</ele></trkpt>
            <trkpt lat="51.902534" lon="10.399733"><ele>423</ele></trkpt>
            <trkpt lat="51.902513" lon="10.40007"><ele>425</ele></trkpt>
            <trkpt lat="51.902607" lon="10.400501"><ele>425</ele></trkpt>
            <trkpt lat="51.902651" lon="10.40078"><ele>425</ele></trkpt>
            <trkpt lat="51.902715" lon="10.400815"><ele>425</ele></trkpt>
            <trkpt lat="51.902838" lon="10.400884"><ele>420</ele></trkpt>
            <trkpt lat="51.903087" lon="10.401035"><ele>428.6</ele></trkpt>
            <trkpt lat="51.903255" lon="10.401241"><ele>429.6</ele></trkpt>
            <trkpt lat="51.903546" lon="10.401676"><ele>433.5</ele></trkpt>
            <trkpt lat="51.904033" lon="10.402272"><ele>434.6</ele></trkpt>
            <trkpt lat="51.904498" lon="10.402695"><ele>445</ele></trkpt>
            <trkpt lat="51.904698" lon="10.402963"><ele>450.3</ele></trkpt>
            <trkpt lat="51.904988" lon="10.403286"><ele>451.9</ele></trkpt>
            <trkpt lat="51.905265" lon="10.403368"><ele>458</ele></trkpt>
            <trkpt lat="51.905307" lon="10.403422"><ele>454.6</ele></trkpt>
            <trkpt lat="51.905343" lon="10.403516"><ele>454.4</ele></trkpt>
            <trkpt lat="51.905442" lon="10.403949"><ele>453.9</ele></trkpt>
            <trkpt lat="51.905505" lon="10.404126"><ele>453.3</ele></trkpt>
            <trkpt lat="51.905603" lon="10.404227"><ele>452.8</ele></trkpt>
            <trkpt lat="51.905804" lon="10.40432"><ele>450</ele></trkpt>
            <trkpt lat="51.905883" lon="10.404414"><ele>458.3</ele></trkpt>
            <trkpt lat="51.906053" lon="10.40476"><ele>460</ele></trkpt>
            <trkpt lat="51.906152" lon="10.404854"><ele>460.5</ele></trkpt>
            <trkpt lat="51.906239" lon="10.405004"><ele>462</ele></trkpt>
            <trkpt lat="51.906318" lon="10.405075"><ele>462</ele></trkpt>
            <trkpt lat="51.906428" lon="10.405248"><ele>462</ele></trkpt>
            <trkpt lat="51.906496" lon="10.405303"><ele>462</ele></trkpt>
            <trkpt lat="51.906428" lon="10.405248"><ele>462</ele></trkpt>
            <trkpt lat="51.906318" lon="10.405075"><ele>462</ele></trkpt>
            <trkpt lat="51.906239" lon="10.405004"><ele>462</ele></trkpt>
            <trkpt lat="51.906152" lon="10.404854"><ele>460.5</ele></trkpt>
            <trkpt lat="51.906053" lon="10.40476"><ele>460</ele></trkpt>
            <trkpt lat="51.905883" lon="10.404414"><ele>458.3</ele></trkpt>
            <trkpt lat="51.905804" lon="10.40432"><ele>450</ele></trkpt>
            <trkpt lat="51.905603" lon="10.404227"><ele>452.8</ele></trkpt>
            <trkpt lat="51.905505" lon="10.404126"><ele>453.3</ele></trkpt>
            <trkpt lat="51.905442" lon="10.403949"><ele>453.9</ele></trkpt>
            <trkpt lat="51.905343" lon="10.403516"><ele>454.4</ele></trkpt>
            <trkpt lat="51.905307" lon="10.403422"><ele>454.6</ele></trkpt>
            <trkpt lat="51.905265" lon="10.403368"><ele>458</ele></trkpt>
            <trkpt lat="51.905195" lon="10.403097"><ele>457</ele></trkpt>
            <trkpt lat="51.90511" lon="10.402912"><ele>457</ele></trkpt>
            <trkpt lat="51.905097" lon="10.402852"><ele>457</ele></trkpt>
            <trkpt lat="51.905062" lon="10.40262"><ele>450.7</ele></trkpt>
            <trkpt lat="51.905023" lon="10.402483"><ele>450.4</ele></trkpt>
            <trkpt lat="51.904986" lon="10.402395"><ele>450.1</ele></trkpt>
            <trkpt lat="51.904868" lon="10.402224"><ele>449.7</ele></trkpt>
            <trkpt lat="51.904864" lon="10.402102"><ele>449.5</ele></trkpt>
            <trkpt lat="51.904882" lon="10.401875"><ele>448.6</ele></trkpt>
            <trkpt lat="51.904818" lon="10.401786"><ele>447.8</ele></trkpt>
            <trkpt lat="51.904819" lon="10.401649"><ele>447</ele></trkpt>
            <trkpt lat="51.904803" lon="10.401556"><ele>446.1</ele></trkpt>
            <trkpt lat="51.904759" lon="10.401392"><ele>445.4</ele></trkpt>
            <trkpt lat="51.904727" lon="10.401351"><ele>445.2</ele></trkpt>
            <trkpt lat="51.904755" lon="10.401242"><ele>445.2</ele></trkpt>
            <trkpt lat="51.90475" lon="10.4012"><ele>445.1</ele></trkpt>
            <trkpt lat="51.904722" lon="10.401152"><ele>445</ele></trkpt>
            <trkpt lat="51.904694" lon="10.401144"><ele>444.9</ele></trkpt>
            <trkpt lat="51.904565" lon="10.401277"><ele>444.7</ele></trkpt>
            <trkpt lat="51.904524" lon="10.40128"><ele>444.6</ele></trkpt>
            <trkpt lat="51.904465" lon="10.401327"><ele>444.5</ele></trkpt>
            <trkpt lat="51.90444" lon="10.401319"><ele>444.4</ele></trkpt>
            <trkpt lat="51.904417" lon="10.40127"><ele>444.4</ele></trkpt>
            <trkpt lat="51.904398" lon="10.401088"><ele>444.1</ele></trkpt>
            <trkpt lat="51.904346" lon="10.400993"><ele>443.7</ele></trkpt>
            <trkpt lat="51.904307" lon="10.400863"><ele>443.4</ele></trkpt>
            <trkpt lat="51.904317" lon="10.400579"><ele>443</ele></trkpt>
            <trkpt lat="51.904274" lon="10.400399"><ele>442.7</ele></trkpt>
            <trkpt lat="51.904165" lon="10.400205"><ele>442.1</ele></trkpt>
            <trkpt lat="51.904099" lon="10.400161"><ele>442.3</ele></trkpt>
            <trkpt lat="51.904052" lon="10.400054"><ele>442.2</ele></trkpt>
            <trkpt lat="51.904026" lon="10.39987"><ele>442.4</ele></trkpt>
            <trkpt lat="51.904048" lon="10.399693"><ele>430</ele></trkpt>
            <trkpt lat="51.90405" lon="10.399352"><ele>427.4</ele></trkpt>
            <trkpt lat="51.904071" lon="10.399196"><ele>427.1</ele></trkpt>
            <trkpt lat="51.904116" lon="10.399053"><ele>426.6</ele></trkpt>
            <trkpt lat="51.904076" lon="10.398811"><ele>426.9</ele></trkpt>
            <trkpt lat="51.903954" lon="10.398636"><ele>427.1</ele></trkpt>
            <trkpt lat="51.903784" lon="10.39833"><ele>427</ele></trkpt>
            <trkpt lat="51.904148" lon="10.398086"><ele>429.2</ele></trkpt>
            <trkpt lat="51.904448" lon="10.397963"><ele>429.4</ele></trkpt>
            <trkpt lat="51.904723" lon="10.397888"><ele>429.7</ele></trkpt>
            <trkpt lat="51.90487" lon="10.397748"><ele>431</ele></trkpt>
            <trkpt lat="51.90499" lon="10.397531"><ele>422.6</ele></trkpt>
            <trkpt lat="51.906208" lon="10.396466"><ele>400</ele></trkpt>
            <trkpt lat="51.906684" lon="10.395925"><ele>385</ele></trkpt>
            <trkpt lat="51.906698" lon="10.395856"><ele>393.9</ele></trkpt>
            <trkpt lat="51.906695" lon="10.395727"><ele>394.8</ele></trkpt>
            <trkpt lat="51.906654" lon="10.395524"><ele>396.1</ele></trkpt>
            <trkpt lat="51.90641" lon="10.394903"><ele>397</ele></trkpt>
            <trkpt lat="51.906176" lon="10.394571"><ele>397</ele></trkpt>
            <trkpt lat="51.905873" lon="10.393867"><ele>398.3</ele></trkpt>
            <trkpt lat="51.905771" lon="10.393669"><ele>398.8</ele></trkpt>
            <trkpt lat="51.905739" lon="10.393525"><ele>398.4</ele></trkpt>
            <trkpt lat="51.905735" lon="10.393319"><ele>397.7</ele></trkpt>
            <trkpt lat="51.905695" lon="10.39324"><ele>398</ele></trkpt>
            <trkpt lat="51.905606" lon="10.393107"><ele>397.7</ele></trkpt>
            <trkpt lat="51.905432" lon="10.393026"><ele>397.7</ele></trkpt>
            <trkpt lat="51.905367" lon="10.393026"><ele>397.7</ele></trkpt>
            <trkpt lat="51.905309" lon="10.392985"><ele>397.7</ele></trkpt>
            <trkpt lat="51.905126" lon="10.392751"><ele>397.6</ele></trkpt>
            <trkpt lat="51.905046" lon="10.392616"><ele>397.6</ele></trkpt>
            <trkpt lat="51.904994" lon="10.392403"><ele>397.6</ele></trkpt>
            <trkpt lat="51.904872" lon="10.392057"><ele>397.3</ele></trkpt>
            <trkpt lat="51.90477" lon="10.391827"><ele>397.1</ele></trkpt>
            <trkpt lat="51.904733" lon="10.391582"><ele>396.4</ele></trkpt>
            <trkpt lat="51.904745" lon="10.391448"><ele>390</ele></trkpt>
            <trkpt lat="51.904797" lon="10.391518"><ele>388.3</ele></trkpt>
            <trkpt lat="51.904868" lon="10.391556"><ele>388.4</ele></trkpt>
            <trkpt lat="51.904933" lon="10.391551"><ele>388.5</ele></trkpt>
            <trkpt lat="51.904998" lon="10.391484"><ele>388.6</ele></trkpt>
            <trkpt lat="51.905076" lon="10.391156"><ele>388.3</ele></trkpt>
            <trkpt lat="51.905116" lon="10.391071"><ele>388.1</ele></trkpt>
            <trkpt lat="51.905182" lon="10.390988"><ele>388</ele></trkpt>
            <trkpt lat="51.905249" lon="10.390948"><ele>387.9</ele></trkpt>
            <trkpt lat="51.905889" lon="10.390755"><ele>387.3</ele></trkpt>
            <trkpt lat="51.906062" lon="10.390808"><ele>389</ele></trkpt>
            <trkpt lat="51.906006" lon="10.390699"><ele>382</ele></trkpt>
            <trkpt lat="51.90589" lon="10.390603"><ele>381.8</ele></trkpt>
            <trkpt lat="51.905405" lon="10.390361"><ele>380.4</ele></trkpt>
            <trkpt lat="51.905214" lon="10.390236"><ele>379.1</ele></trkpt>
            <trkpt lat="51.905093" lon="10.390133"><ele>379.1</ele></trkpt>
            <trkpt lat="51.904943" lon="10.38996"><ele>377.1</ele></trkpt>
            <trkpt lat="51.904709" lon="10.389647"><ele>372.7</ele></trkpt>
            <trkpt lat="51.904583" lon="10.389398"><ele>371.1</ele></trkpt>
            <trkpt lat="51.904319" lon="10.388959"><ele>366.5</ele></trkpt>
            <trkpt lat="51.903422" lon="10.387667"><ele>350.4</ele></trkpt>
            <trkpt lat="51.903146" lon="10.387286"><ele>347.1</ele></trkpt>
            <trkpt lat="51.902766" lon="10.386924"><ele>342.3</ele></trkpt>
            <trkpt lat="51.902719" lon="10.386847"><ele>336</ele></trkpt>
            <trkpt lat="51.902775" lon="10.386768"><ele>331.4</ele></trkpt>
            <trkpt lat="51.902806" lon="10.386687"><ele>330.9</ele></trkpt>
            <trkpt lat="51.902829" lon="10.386584"><ele>329.5</ele></trkpt>
            <trkpt lat="51.902825" lon="10.386473"><ele>329.2</ele></trkpt>
            <trkpt lat="51.902745" lon="10.386184"><ele>327.8</ele></trkpt>
            <trkpt lat="51.902572" lon="10.385798"><ele>325.1</ele></trkpt>
            <trkpt lat="51.902427" lon="10.385221"><ele>321.7</ele></trkpt>
            <trkpt lat="51.902342" lon="10.384619"><ele>320.1</ele></trkpt>
            <trkpt lat="51.90221" lon="10.383913"><ele>317.8</ele></trkpt>
            <trkpt lat="51.902203" lon="10.3837"><ele>318.1</ele></trkpt>
            <trkpt lat="51.902217" lon="10.383568"><ele>317.9</ele></trkpt>
            <trkpt lat="51.902305" lon="10.383229"><ele>317.6</ele></trkpt>
            <trkpt lat="51.902372" lon="10.383061"><ele>318.1</ele></trkpt>
            <trkpt lat="51.902605" lon="10.382601"><ele>317.6</ele></trkpt>
            <trkpt lat="51.902777" lon="10.382381"><ele>316.8</ele></trkpt>
            <trkpt lat="51.903157" lon="10.38196"><ele>315.9</ele></trkpt>
            <trkpt lat="51.903356" lon="10.381798"><ele>316</ele></trkpt>
            <trkpt lat="51.903604" lon="10.381664"><ele>316</ele></trkpt>
            <trkpt lat="51.904017" lon="10.381501"><ele>317.6</ele></trkpt>
            <trkpt lat="51.904759" lon="10.381269"><ele>323.2</ele></trkpt>
            <trkpt lat="51.904909" lon="10.381267"><ele>323.7</ele></trkpt>
            <trkpt lat="51.905043" lon="10.381318"><ele>325.7</ele></trkpt>
            <trkpt lat="51.905256" lon="10.381461"><ele>327.2</ele></trkpt>
            <trkpt lat="51.905891" lon="10.381916"><ele>333</ele></trkpt>
            <trkpt lat="51.906001" lon="10.382027"><ele>334.8</ele></trkpt>
            <trkpt lat="51.906134" lon="10.38222"><ele>338.1</ele></trkpt>
            <trkpt lat="51.906317" lon="10.382608"><ele>339.8</ele></trkpt>
            <trkpt lat="51.906434" lon="10.38292"><ele>340.8</ele></trkpt>
            <trkpt lat="51.906523" lon="10.383251"><ele>340.8</ele></trkpt>
            <trkpt lat="51.906608" lon="10.383862"><ele>341.6</ele></trkpt>
            <trkpt lat="51.906656" lon="10.384021"><ele>341</ele></trkpt>
            <trkpt lat="51.906726" lon="10.384138"><ele>332</ele></trkpt>
            <trkpt lat="51.906849" lon="10.384207"><ele>340</ele></trkpt>
            <trkpt lat="51.906957" lon="10.384187"><ele>331.8</ele></trkpt>
            <trkpt lat="51.907072" lon="10.384043"><ele>331.1</ele></trkpt>
            <trkpt lat="51.907423" lon="10.3834"><ele>329.2</ele></trkpt>
            <trkpt lat="51.907496" lon="10.383208"><ele>329</ele></trkpt>
            <trkpt lat="51.907602" lon="10.382757"><ele>328.1</ele></trkpt>
            <trkpt lat="51.907626" lon="10.382569"><ele>327.9</ele></trkpt>
            <trkpt lat="51.907624" lon="10.382436"><ele>327.7</ele></trkpt>
            <trkpt lat="51.907507" lon="10.38171"><ele>325.2</ele></trkpt>
            <trkpt lat="51.907441" lon="10.380904"><ele>311</ele></trkpt>
            <trkpt lat="51.907401" lon="10.380234"><ele>309.4</ele></trkpt>
            <trkpt lat="51.907419" lon="10.380017"><ele>310.3</ele></trkpt>
            <trkpt lat="51.907442" lon="10.379941"><ele>310.7</ele></trkpt>
            <trkpt lat="51.907525" lon="10.379807"><ele>312.3</ele></trkpt>
            <trkpt lat="51.907684" lon="10.379649"><ele>316</ele></trkpt>
            <trkpt lat="51.90824" lon="10.379301"><ele>319.3</ele></trkpt>
            <trkpt lat="51.908346" lon="10.379255"><ele>319.5</ele></trkpt>
            <trkpt lat="51.908481" lon="10.379244"><ele>319.2</ele></trkpt>
            <trkpt lat="51.908612" lon="10.379297"><ele>319</ele></trkpt>
            <trkpt lat="51.908955" lon="10.379558"><ele>318.6</ele></trkpt>
            <trkpt lat="51.909326" lon="10.379925"><ele>312</ele></trkpt>
            <trkpt lat="51.909612" lon="10.380246"><ele>320.4</ele></trkpt>
            <trkpt lat="51.909789" lon="10.380409"><ele>323</ele></trkpt>
            <trkpt lat="51.90995" lon="10.380424"><ele>323</ele></trkpt>
            <trkpt lat="51.909966" lon="10.380424"><ele>323</ele></trkpt>
            <trkpt lat="51.910079" lon="10.380371"><ele>310</ele></trkpt>
            <trkpt lat="51.910199" lon="10.380276"><ele>310</ele></trkpt>
            <trkpt lat="51.910284" lon="10.380176"><ele>310</ele></trkpt>
            <trkpt lat="51.910513" lon="10.379828"><ele>307.1</ele></trkpt>
            <trkpt lat="51.912021" lon="10.377769"><ele>301</ele></trkpt>
            <trkpt lat="51.912122" lon="10.377636"><ele>301</ele></trkpt>
            <trkpt lat="51.912421" lon="10.37725"><ele>302.6</ele></trkpt>
            <trkpt lat="51.91253" lon="10.377074"><ele>302.7</ele></trkpt>
            <trkpt lat="51.91262" lon="10.376843"><ele>302.9</ele></trkpt>
            <trkpt lat="51.912649" lon="10.376711"><ele>303</ele></trkpt>
            <trkpt lat="51.912671" lon="10.376473"><ele>303.5</ele></trkpt>
            <trkpt lat="51.912662" lon="10.374231"><ele>312</ele></trkpt>
            <trkpt lat="51.912656" lon="10.374084"><ele>315</ele></trkpt>
            <trkpt lat="51.912598" lon="10.37377"><ele>315</ele></trkpt>
            <trkpt lat="51.912466" lon="10.373394"><ele>309</ele></trkpt>
            <trkpt lat="51.912225" lon="10.372886"><ele>317</ele></trkpt>
            <trkpt lat="51.912185" lon="10.372793"><ele>317</ele></trkpt>
            <trkpt lat="51.911934" lon="10.372234"><ele>315</ele></trkpt>
            <trkpt lat="51.911813" lon="10.372014"><ele>315.8</ele></trkpt>
            <trkpt lat="51.911626" lon="10.371754"><ele>315.4</ele></trkpt>
            <trkpt lat="51.911552" lon="10.371625"><ele>314.8</ele></trkpt>
            <trkpt lat="51.911506" lon="10.371505"><ele>314</ele></trkpt>
            <trkpt lat="51.911472" lon="10.371289"><ele>312.9</ele></trkpt>
            <trkpt lat="51.911468" lon="10.37117"><ele>312.6</ele></trkpt>
            <trkpt lat="51.911468" lon="10.370844"><ele>312.5</ele></trkpt>
            <trkpt lat="51.911503" lon="10.369975"><ele>312.2</ele></trkpt>
            <trkpt lat="51.911596" lon="10.369175"><ele>313</ele></trkpt>
            <trkpt lat="51.911674" lon="10.368832"><ele>315.7</ele></trkpt>
            <trkpt lat="51.911987" lon="10.368225"><ele>321.1</ele></trkpt>
            <trkpt lat="51.912215" lon="10.36767"><ele>323.9</ele></trkpt>
            <trkpt lat="51.912473" lon="10.366911"><ele>330</ele></trkpt>
            <trkpt lat="51.912609" lon="10.366623"><ele>344</ele></trkpt>
            <trkpt lat="51.912723" lon="10.366213"><ele>349</ele></trkpt>
            <trkpt lat="51.912838" lon="10.365842"><ele>349.8</ele></trkpt>
            <trkpt lat="51.912961" lon="10.365544"><ele>350</ele></trkpt>
            <trkpt lat="51.913053" lon="10.365367"><ele>351</ele></trkpt>
            <trkpt lat="51.913184" lon="10.36511"><ele>351</ele></trkpt>
            <trkpt lat="51.913039" lon="10.364734"><ele>359.6</ele></trkpt>
            <trkpt lat="51.912831" lon="10.363898"><ele>361.7</ele></trkpt>
            <trkpt lat="51.912735" lon="10.363634"><ele>362.3</ele></trkpt>
            <trkpt lat="51.912488" lon="10.362802"><ele>366</ele></trkpt>
            <trkpt lat="51.912456" lon="10.362572"><ele>368</ele></trkpt>
            <trkpt lat="51.912336" lon="10.362222"><ele>375.8</ele></trkpt>
            <trkpt lat="51.912218" lon="10.361944"><ele>376</ele></trkpt>
            <trkpt lat="51.912112" lon="10.361761"><ele>376.2</ele></trkpt>
            <trkpt lat="51.911883" lon="10.361441"><ele>376.6</ele></trkpt>
            <trkpt lat="51.911803" lon="10.361294"><ele>376.8</ele></trkpt>
            <trkpt lat="51.911757" lon="10.361136"><ele>376.9</ele></trkpt>
            <trkpt lat="51.91173" lon="10.361002"><ele>377.1</ele></trkpt>
            <trkpt lat="51.911589" lon="10.359753"><ele>376.4</ele></trkpt>
            <trkpt lat="51.911539" lon="10.358752"><ele>374.6</ele></trkpt>
            <trkpt lat="51.911493" lon="10.358381"><ele>374.7</ele></trkpt>
            <trkpt lat="51.911395" lon="10.358133"><ele>375.4</ele></trkpt>
            <trkpt lat="51.911062" lon="10.357675"><ele>376.2</ele></trkpt>
            <trkpt lat="51.910938" lon="10.357416"><ele>377</ele></trkpt>
            <trkpt lat="51.910725" lon="10.35686"><ele>377.2</ele></trkpt>
            <trkpt lat="51.910649" lon="10.356545"><ele>377.6</ele></trkpt>
            <trkpt lat="51.910616" lon="10.356248"><ele>377.5</ele></trkpt>
            <trkpt lat="51.910586" lon="10.355699"><ele>377.4</ele></trkpt>
            <trkpt lat="51.910507" lon="10.355296"><ele>377.1</ele></trkpt>
            <trkpt lat="51.910094" lon="10.354267"><ele>378.3</ele></trkpt>
            <trkpt lat="51.909813" lon="10.353613"><ele>379.3</ele></trkpt>
            <trkpt lat="51.909714" lon="10.353332"><ele>385</ele></trkpt>
            <trkpt lat="51.909521" lon="10.352856"><ele>386.5</ele></trkpt>
            <trkpt lat="51.90904" lon="10.351764"><ele>389</ele></trkpt>
            <trkpt lat="51.909071" lon="10.351624"><ele>394.2</ele></trkpt>
            <trkpt lat="51.909081" lon="10.351494"><ele>394.3</ele></trkpt>
            <trkpt lat="51.909066" lon="10.350784"><ele>394.6</ele></trkpt>
            <trkpt lat="51.909044" lon="10.350595"><ele>394.4</ele></trkpt>
            <trkpt lat="51.909005" lon="10.350349"><ele>394.1</ele></trkpt>
            <trkpt lat="51.908895" lon="10.349873"><ele>393.7</ele></trkpt>
            <trkpt lat="51.908686" lon="10.348713"><ele>393.7</ele></trkpt>
            <trkpt lat="51.908558" lon="10.348272"><ele>391</ele></trkpt>
            <trkpt lat="51.908465" lon="10.348056"><ele>391</ele></trkpt>
            <trkpt lat="51.908409" lon="10.347893"><ele>387.9</ele></trkpt>
            <trkpt lat="51.908391" lon="10.347762"><ele>387.5</ele></trkpt>
            <trkpt lat="51.90837" lon="10.346954"><ele>385.9</ele></trkpt>
            <trkpt lat="51.908459" lon="10.345505"><ele>374</ele></trkpt>
            <trkpt lat="51.908574" lon="10.344612"><ele>365.6</ele></trkpt>
            <trkpt lat="51.908616" lon="10.344397"><ele>365.3</ele></trkpt>
            <trkpt lat="51.908827" lon="10.343728"><ele>358.8</ele></trkpt>
            <trkpt lat="51.908886" lon="10.34343"><ele>355.3</ele></trkpt>
            <trkpt lat="51.908881" lon="10.343141"><ele>354.8</ele></trkpt>
            <trkpt lat="51.908835" lon="10.342608"><ele>354.9</ele></trkpt>
            <trkpt lat="51.90882" lon="10.342153"><ele>352.8</ele></trkpt>
            <trkpt lat="51.90877" lon="10.341438"><ele>340</ele></trkpt>
            <trkpt lat="51.908821" lon="10.341646"><ele>340.6</ele></trkpt>
            <trkpt lat="51.908921" lon="10.341841"><ele>341.2</ele></trkpt>
            <trkpt lat="51.909018" lon="10.341954"><ele>341.7</ele></trkpt>
            <trkpt lat="51.909099" lon="10.341986"><ele>342.2</ele></trkpt>
            <trkpt lat="51.909173" lon="10.341991"><ele>341.9</ele></trkpt>
            <trkpt lat="51.909323" lon="10.341925"><ele>341.1</ele></trkpt>
            <trkpt lat="51.909411" lon="10.341828"><ele>340.6</ele></trkpt>
            <trkpt lat="51.909551" lon="10.341615"><ele>332</ele></trkpt>
            <trkpt lat="51.909693" lon="10.34141"><ele>334.5</ele></trkpt>
            <trkpt lat="51.909855" lon="10.341267"><ele>334.1</ele></trkpt>
            <trkpt lat="51.909958" lon="10.341243"><ele>333.8</ele></trkpt>
            <trkpt lat="51.910047" lon="10.341284"><ele>333.7</ele></trkpt>
            <trkpt lat="51.91017" lon="10.341467"><ele>333.6</ele></trkpt>
            <trkpt lat="51.910382" lon="10.341879"><ele>333.8</ele></trkpt>
            <trkpt lat="51.910766" lon="10.342559"><ele>345</ele></trkpt>
            <trkpt lat="51.910859" lon="10.34244"><ele>340</ele></trkpt>
            <trkpt lat="51.911052" lon="10.342067"><ele>340</ele></trkpt>
            <trkpt lat="51.911346" lon="10.341394"><ele>336.3</ele></trkpt>
            <trkpt lat="51.911511" lon="10.340877"><ele>336.5</ele></trkpt>
            <trkpt lat="51.911718" lon="10.340327"><ele>335</ele></trkpt>
            <trkpt lat="51.911834" lon="10.339957"><ele>334.6</ele></trkpt>
            <trkpt lat="51.911864" lon="10.339707"><ele>334.4</ele></trkpt>
            <trkpt lat="51.911766" lon="10.339151"><ele>333.9</ele></trkpt>
            <trkpt lat="51.911481" lon="10.337009"><ele>329.9</ele></trkpt>
            <trkpt lat="51.911477" lon="10.33689"><ele>329.7</ele></trkpt>
            <trkpt lat="51.911508" lon="10.336782"><ele>329.5</ele></trkpt>
            <trkpt lat="51.911564" lon="10.336722"><ele>329.2</ele></trkpt>
            <trkpt lat="51.911966" lon="10.336529"><ele>319</ele></trkpt>
            <trkpt lat="51.912086" lon="10.336476"><ele>317.8</ele></trkpt>
            <trkpt lat="51.912692" lon="10.336084"><ele>314</ele></trkpt>
            <trkpt lat="51.912667" lon="10.335758"><ele>304</ele></trkpt>
            <trkpt lat="51.912629" lon="10.335734"><ele>304</ele></trkpt>
        </trkseg>
    </trk>
</gpx>
