<?xml version="1.0" encoding="UTF-8"?>
<gpx version="1.1" creator="HWN Route Compare (OpenRouteService)" xmlns="http://www.topografix.com/GPX/1/1">
    <metadata>
        <name>OpenRouteService – Tour A4</name>
    </metadata>
    <trk>
        <name>OpenRouteService – Tour A4</name>
        <trkseg>
            <trkpt lat="51.860649" lon="10.357316"><ele>673</ele></trkpt>
            <trkpt lat="51.860687" lon="10.357337"><ele>673</ele></trkpt>
            <trkpt lat="51.860842" lon="10.358091"><ele>663.9</ele></trkpt>
            <trkpt lat="51.860901" lon="10.3585"><ele>668.3</ele></trkpt>
            <trkpt lat="51.86098" lon="10.35973"><ele>673.9</ele></trkpt>
            <trkpt lat="51.860997" lon="10.360137"><ele>678.7</ele></trkpt>
            <trkpt lat="51.860992" lon="10.36061"><ele>683.4</ele></trkpt>
            <trkpt lat="51.860919" lon="10.361363"><ele>687.6</ele></trkpt>
            <trkpt lat="51.860882" lon="10.361555"><ele>689.5</ele></trkpt>
            <trkpt lat="51.860738" lon="10.362057"><ele>690.2</ele></trkpt>
            <trkpt lat="51.860592" lon="10.363052"><ele>689</ele></trkpt>
            <trkpt lat="51.860524" lon="10.363386"><ele>688.8</ele></trkpt>
            <trkpt lat="51.860372" lon="10.363783"><ele>689</ele></trkpt>
            <trkpt lat="51.860283" lon="10.363925"><ele>688</ele></trkpt>
            <trkpt lat="51.860266" lon="10.363873"><ele>688</ele></trkpt>
            <trkpt lat="51.860074" lon="10.363754"><ele>688</ele></trkpt>
            <trkpt lat="51.859882" lon="10.363741"><ele>688</ele></trkpt>
            <trkpt lat="51.859595" lon="10.36361"><ele>688.2</ele></trkpt>
            <trkpt lat="51.859053" lon="10.363117"><ele>688.4</ele></trkpt>
            <trkpt lat="51.858846" lon="10.362881"><ele>688.4</ele></trkpt>
            <trkpt lat="51.858455" lon="10.36253"><ele>689</ele></trkpt>
            <trkpt lat="51.858169" lon="10.36245"><ele>690</ele></trkpt>
            <trkpt lat="51.857632" lon="10.362595"><ele>689.4</ele></trkpt>
            <trkpt lat="51.857184" lon="10.362608"><ele>688.1</ele></trkpt>
            <trkpt lat="51.856952" lon="10.362802"><ele>681.6</ele></trkpt>
            <trkpt lat="51.855728" lon="10.362967"><ele>656.2</ele></trkpt>
            <trkpt lat="51.855406" lon="10.363156"><ele>652.2</ele></trkpt>
            <trkpt lat="51.85512" lon="10.363163"><ele>649.4</ele></trkpt>
            <trkpt lat="51.854924" lon="10.362915"><ele>648.2</ele></trkpt>
            <trkpt lat="51.854716" lon="10.362776"><ele>647.2</ele></trkpt>
            <trkpt lat="51.853997" lon="10.362669"><ele>627</ele></trkpt>
            <trkpt lat="51.854137" lon="10.363079"><ele>632.4</ele></trkpt>
            <trkpt lat="51.854169" lon="10.363398"><ele>632.9</ele></trkpt>
            <trkpt lat="51.854169" lon="10.364113"><ele>633.6</ele></trkpt>
            <trkpt lat="51.8542" lon="10.364336"><ele>639</ele></trkpt>
            <trkpt lat="51.854203" lon="10.364512"><ele>639</ele></trkpt>
            <trkpt lat="51.854357" lon="10.364507"><ele>639</ele></trkpt>
            <trkpt lat="51.854359" lon="10.364622"><ele>639</ele></trkpt>
            <trkpt lat="51.854329" lon="10.364752"><ele>639</ele></trkpt>
            <trkpt lat="51.854283" lon="10.364845"><ele>639</ele></trkpt>
            <trkpt lat="51.854219" lon="10.36491"><ele>639</ele></trkpt>
            <trkpt lat="51.854135" lon="10.365055"><ele>646.3</ele></trkpt>
            <trkpt lat="51.854024" lon="10.365441"><ele>646.6</ele></trkpt>
            <trkpt lat="51.853983" lon="10.365802"><ele>647</ele></trkpt>
            <trkpt lat="51.853964" lon="10.36644"><ele>651</ele></trkpt>
            <trkpt lat="51.8539" lon="10.367011"><ele>660.6</ele></trkpt>
            <trkpt lat="51.853855" lon="10.367143"><ele>660.9</ele></trkpt>
            <trkpt lat="51.853717" lon="10.367439"><ele>661.1</ele></trkpt>
            <trkpt lat="51.853504" lon="10.368099"><ele>661.5</ele></trkpt>
            <trkpt lat="51.853415" lon="10.368581"><ele>662.2</ele></trkpt>
            <trkpt lat="51.853388" lon="10.368953"><ele>665</ele></trkpt>
            <trkpt lat="51.853399" lon="10.370518"><ele>674.7</ele></trkpt>
            <trkpt lat="51.853343" lon="10.371499"><ele>681.1</ele></trkpt>
            <trkpt lat="51.853291" lon="10.371771"><ele>683.3</ele></trkpt>
            <trkpt lat="51.853156" lon="10.372195"><ele>686</ele></trkpt>
            <trkpt lat="51.853082" lon="10.372377"><ele>687.5</ele></trkpt>
            <trkpt lat="51.852929" lon="10.37258"><ele>688.9</ele></trkpt>
            <trkpt lat="51.852689" lon="10.372685"><ele>692.4</ele></trkpt>
            <trkpt lat="51.852244" lon="10.373039"><ele>697.2</ele></trkpt>
            <trkpt lat="51.852114" lon="10.373104"><ele>697.8</ele></trkpt>
            <trkpt lat="51.851924" lon="10.373131"><ele>699.2</ele></trkpt>
            <trkpt lat="51.85183" lon="10.373121"><ele>699.3</ele></trkpt>
            <trkpt lat="51.851577" lon="10.373034"><ele>700.8</ele></trkpt>
            <trkpt lat="51.851439" lon="10.373019"><ele>700.4</ele></trkpt>
            <trkpt lat="51.851337" lon="10.373056"><ele>700.5</ele></trkpt>
            <trkpt lat="51.851079" lon="10.373348"><ele>705</ele></trkpt>
            <trkpt lat="51.850989" lon="10.373416"><ele>705.3</ele></trkpt>
            <trkpt lat="51.850805" lon="10.373651"><ele>706</ele></trkpt>
            <trkpt lat="51.850616" lon="10.373849"><ele>708.2</ele></trkpt>
            <trkpt lat="51.850334" lon="10.373993"><ele>708.7</ele></trkpt>
            <trkpt lat="51.850052" lon="10.374046"><ele>709.9</ele></trkpt>
            <trkpt lat="51.849794" lon="10.374024"><ele>712.2</ele></trkpt>
            <trkpt lat="51.849676" lon="10.374036"><ele>713.3</ele></trkpt>
            <trkpt lat="51.849471" lon="10.374157"><ele>715.8</ele></trkpt>
            <trkpt lat="51.849356" lon="10.374254"><ele>717.1</ele></trkpt>
            <trkpt lat="51.848934" lon="10.374757"><ele>719.5</ele></trkpt>
            <trkpt lat="51.84884" lon="10.37491"><ele>720.9</ele></trkpt>
            <trkpt lat="51.848714" lon="10.375221"><ele>722.8</ele></trkpt>
            <trkpt lat="51.848626" lon="10.375535"><ele>724.1</ele></trkpt>
            <trkpt lat="51.848555" lon="10.376431"><ele>731.4</ele></trkpt>
            <trkpt lat="51.848462" lon="10.376904"><ele>735.5</ele></trkpt>
            <trkpt lat="51.8484" lon="10.377338"><ele>737.3</ele></trkpt>
            <trkpt lat="51.848383" lon="10.377728"><ele>741.6</ele></trkpt>
            <trkpt lat="51.84841" lon="10.378195"><ele>743.4</ele></trkpt>
            <trkpt lat="51.848489" lon="10.378664"><ele>746.1</ele></trkpt>
            <trkpt lat="51.848548" lon="10.378888"><ele>747.1</ele></trkpt>
            <trkpt lat="51.848842" lon="10.379572"><ele>752.2</ele></trkpt>
            <trkpt lat="51.849125" lon="10.380403"><ele>755.6</ele></trkpt>
            <trkpt lat="51.849221" lon="10.380837"><ele>757.1</ele></trkpt>
            <trkpt lat="51.849227" lon="10.381136"><ele>757.1</ele></trkpt>
            <trkpt lat="51.849204" lon="10.381217"><ele>762</ele></trkpt>
            <trkpt lat="51.849256" lon="10.381538"><ele>761.7</ele></trkpt>
            <trkpt lat="51.84926" lon="10.381699"><ele>761</ele></trkpt>
            <trkpt lat="51.848907" lon="10.381963"><ele>757</ele></trkpt>
            <trkpt lat="51.848881" lon="10.382055"><ele>755</ele></trkpt>
            <trkpt lat="51.848837" lon="10.382249"><ele>755</ele></trkpt>
            <trkpt lat="51.848815" lon="10.382262"><ele>755</ele></trkpt>
            <trkpt lat="51.848785" lon="10.382281"><ele>755</ele></trkpt>
            <trkpt lat="51.848621" lon="10.382336"><ele>755</ele></trkpt>
            <trkpt lat="51.848536" lon="10.382307"><ele>755</ele></trkpt>
            <trkpt lat="51.848447" lon="10.382219"><ele>755</ele></trkpt>
            <trkpt lat="51.848333" lon="10.382403"><ele>740.5</ele></trkpt>
            <trkpt lat="51.848284" lon="10.382569"><ele>740</ele></trkpt>
            <trkpt lat="51.848212" lon="10.383108"><ele>740.5</ele></trkpt>
            <trkpt lat="51.848212" lon="10.383401"><ele>730</ele></trkpt>
            <trkpt lat="51.848243" lon="10.383529"><ele>742.7</ele></trkpt>
            <trkpt lat="51.848283" lon="10.383607"><ele>744</ele></trkpt>
            <trkpt lat="51.848348" lon="10.383675"><ele>745.4</ele></trkpt>
            <trkpt lat="51.849047" lon="10.384251"><ele>744</ele></trkpt>
            <trkpt lat="51.849275" lon="10.384664"><ele>745.5</ele></trkpt>
            <trkpt lat="51.849673" lon="10.38568"><ele>748.2</ele></trkpt>
            <trkpt lat="51.850124" lon="10.386367"><ele>747.3</ele></trkpt>
            <trkpt lat="51.850351" lon="10.386927"><ele>744.4</ele></trkpt>
            <trkpt lat="51.850503" lon="10.387676"><ele>742.3</ele></trkpt>
            <trkpt lat="51.850568" lon="10.387899"><ele>742.1</ele></trkpt>
            <trkpt lat="51.85083" lon="10.3885"><ele>741.6</ele></trkpt>
            <trkpt lat="51.851403" lon="10.389911"><ele>742</ele></trkpt>
            <trkpt lat="51.851589" lon="10.390288"><ele>744.2</ele></trkpt>
            <trkpt lat="51.851716" lon="10.390628"><ele>745.6</ele></trkpt>
            <trkpt lat="51.851889" lon="10.391263"><ele>745.1</ele></trkpt>
            <trkpt lat="51.852014" lon="10.391914"><ele>744.8</ele></trkpt>
            <trkpt lat="51.852082" lon="10.39235"><ele>744.8</ele></trkpt>
            <trkpt lat="51.852186" lon="10.393305"><ele>744.3</ele></trkpt>
            <trkpt lat="51.852237" lon="10.393605"><ele>743</ele></trkpt>
            <trkpt lat="51.852305" lon="10.39426"><ele>734</ele></trkpt>
            <trkpt lat="51.852315" lon="10.394506"><ele>733</ele></trkpt>
            <trkpt lat="51.852299" lon="10.394753"><ele>732.6</ele></trkpt>
            <trkpt lat="51.852228" lon="10.395372"><ele>732.3</ele></trkpt>
            <trkpt lat="51.852234" lon="10.395571"><ele>732.4</ele></trkpt>
            <trkpt lat="51.852388" lon="10.396534"><ele>726</ele></trkpt>
            <trkpt lat="51.852434" lon="10.396853"><ele>721</ele></trkpt>
            <trkpt lat="51.852514" lon="10.397329"><ele>721.3</ele></trkpt>
            <trkpt lat="51.852778" lon="10.398531"><ele>714.9</ele></trkpt>
            <trkpt lat="51.852813" lon="10.39907"><ele>710.6</ele></trkpt>
            <trkpt lat="51.852856" lon="10.399334"><ele>709.7</ele></trkpt>
            <trkpt lat="51.852911" lon="10.399561"><ele>708.3</ele></trkpt>
            <trkpt lat="51.853127" lon="10.400177"><ele>707.7</ele></trkpt>
            <trkpt lat="51.853288" lon="10.400755"><ele>706.5</ele></trkpt>
            <trkpt lat="51.853321" lon="10.400981"><ele>699</ele></trkpt>
            <trkpt lat="51.853229" lon="10.401054"><ele>699</ele></trkpt>
            <trkpt lat="51.853237" lon="10.401176"><ele>695.9</ele></trkpt>
            <trkpt lat="51.853212" lon="10.401395"><ele>695.5</ele></trkpt>
            <trkpt lat="51.853167" lon="10.401584"><ele>695</ele></trkpt>
            <trkpt lat="51.853037" lon="10.40189"><ele>694.5</ele></trkpt>
            <trkpt lat="51.852717" lon="10.402224"><ele>692.4</ele></trkpt>
            <trkpt lat="51.852554" lon="10.402337"><ele>692</ele></trkpt>
            <trkpt lat="51.852393" lon="10.402401"><ele>688.9</ele></trkpt>
            <trkpt lat="51.851453" lon="10.402536"><ele>683.1</ele></trkpt>
            <trkpt lat="51.851202" lon="10.402607"><ele>680.6</ele></trkpt>
            <trkpt lat="51.851066" lon="10.40272"><ele>681.3</ele></trkpt>
            <trkpt lat="51.851011" lon="10.402845"><ele>677</ele></trkpt>
            <trkpt lat="51.850992" lon="10.40312"><ele>678.5</ele></trkpt>
            <trkpt lat="51.851037" lon="10.403523"><ele>679.5</ele></trkpt>
            <trkpt lat="51.85113" lon="10.403795"><ele>678.9</ele></trkpt>
            <trkpt lat="51.851295" lon="10.404131"><ele>678.3</ele></trkpt>
            <trkpt lat="51.851901" lon="10.404911"><ele>677.9</ele></trkpt>
            <trkpt lat="51.852097" lon="10.405275"><ele>676.8</ele></trkpt>
            <trkpt lat="51.852212" lon="10.405575"><ele>676.4</ele></trkpt>
            <trkpt lat="51.85235" lon="10.406093"><ele>671</ele></trkpt>
            <trkpt lat="51.852439" lon="10.406469"><ele>666.8</ele></trkpt>
            <trkpt lat="51.85243" lon="10.406668"><ele>666</ele></trkpt>
            <trkpt lat="51.852367" lon="10.406907"><ele>666.4</ele></trkpt>
            <trkpt lat="51.852248" lon="10.407254"><ele>664</ele></trkpt>
            <trkpt lat="51.852158" lon="10.407429"><ele>664</ele></trkpt>
            <trkpt lat="51.852217" lon="10.407616"><ele>675.7</ele></trkpt>
            <trkpt lat="51.85247" lon="10.408808"><ele>678.6</ele></trkpt>
            <trkpt lat="51.852499" lon="10.408988"><ele>678.5</ele></trkpt>
            <trkpt lat="51.852491" lon="10.409281"><ele>678.4</ele></trkpt>
            <trkpt lat="51.852443" lon="10.409487"><ele>677.9</ele></trkpt>
            <trkpt lat="51.851688" lon="10.411365"><ele>689.2</ele></trkpt>
            <trkpt lat="51.851428" lon="10.412237"><ele>691.6</ele></trkpt>
            <trkpt lat="51.851259" lon="10.412667"><ele>690.8</ele></trkpt>
            <trkpt lat="51.850972" lon="10.41379"><ele>690</ele></trkpt>
            <trkpt lat="51.850658" lon="10.41483"><ele>678.4</ele></trkpt>
            <trkpt lat="51.850505" lon="10.415205"><ele>678.6</ele></trkpt>
            <trkpt lat="51.850243" lon="10.415696"><ele>675</ele></trkpt>
            <trkpt lat="51.850133" lon="10.41582"><ele>663.9</ele></trkpt>
            <trkpt lat="51.849689" lon="10.416421"><ele>660.4</ele></trkpt>
            <trkpt lat="51.849468" lon="10.416808"><ele>658.3</ele></trkpt>
            <trkpt lat="51.849341" lon="10.416954"><ele>658.4</ele></trkpt>
            <trkpt lat="51.849102" lon="10.417397"><ele>654.5</ele></trkpt>
            <trkpt lat="51.848754" lon="10.41782"><ele>650.3</ele></trkpt>
            <trkpt lat="51.84852" lon="10.418209"><ele>642</ele></trkpt>
            <trkpt lat="51.848297" lon="10.418455"><ele>635.8</ele></trkpt>
            <trkpt lat="51.847853" lon="10.419227"><ele>634.3</ele></trkpt>
            <trkpt lat="51.847177" lon="10.419627"><ele>629</ele></trkpt>
            <trkpt lat="51.84699" lon="10.419762"><ele>627.9</ele></trkpt>
            <trkpt lat="51.846671" lon="10.420079"><ele>625.1</ele></trkpt>
            <trkpt lat="51.84617" lon="10.420407"><ele>621.1</ele></trkpt>
            <trkpt lat="51.845984" lon="10.420631"><ele>618.6</ele></trkpt>
            <trkpt lat="51.845798" lon="10.420939"><ele>587</ele></trkpt>
            <trkpt lat="51.84536" lon="10.421547"><ele>590</ele></trkpt>
            <trkpt lat="51.845099" lon="10.421773"><ele>596</ele></trkpt>
            <trkpt lat="51.844825" lon="10.422121"><ele>567.3</ele></trkpt>
            <trkpt lat="51.84432" lon="10.422447"><ele>564.6</ele></trkpt>
            <trkpt lat="51.843926" lon="10.422831"><ele>561.3</ele></trkpt>
            <trkpt lat="51.84367" lon="10.423012"><ele>556.4</ele></trkpt>
            <trkpt lat="51.84349" lon="10.42319"><ele>554</ele></trkpt>
            <trkpt lat="51.843368" lon="10.423348"><ele>554.2</ele></trkpt>
            <trkpt lat="51.843166" lon="10.423768"><ele>552.2</ele></trkpt>
            <trkpt lat="51.842465" lon="10.424391"><ele>544.4</ele></trkpt>
            <trkpt lat="51.841783" lon="10.424547"><ele>539.2</ele></trkpt>
            <trkpt lat="51.841598" lon="10.424537"><ele>537.5</ele></trkpt>
            <trkpt lat="51.841401" lon="10.424468"><ele>535.6</ele></trkpt>
            <trkpt lat="51.841313" lon="10.424381"><ele>534.9</ele></trkpt>
            <trkpt lat="51.841273" lon="10.424266"><ele>528</ele></trkpt>
            <trkpt lat="51.841162" lon="10.424164"><ele>526.9</ele></trkpt>
            <trkpt lat="51.841054" lon="10.423973"><ele>526.7</ele></trkpt>
            <trkpt lat="51.840877" lon="10.423504"><ele>526.3</ele></trkpt>
            <trkpt lat="51.840865" lon="10.423472"><ele>526</ele></trkpt>
            <trkpt lat="51.840836" lon="10.422895"><ele>526.8</ele></trkpt>
            <trkpt lat="51.840873" lon="10.42246"><ele>526.9</ele></trkpt>
            <trkpt lat="51.84091" lon="10.422208"><ele>526.9</ele></trkpt>
            <trkpt lat="51.840983" lon="10.421971"><ele>526.9</ele></trkpt>
            <trkpt lat="51.841068" lon="10.421823"><ele>526.9</ele></trkpt>
            <trkpt lat="51.841174" lon="10.421749"><ele>526.9</ele></trkpt>
            <trkpt lat="51.841232" lon="10.421751"><ele>526.9</ele></trkpt>
            <trkpt lat="51.841312" lon="10.421765"><ele>526.9</ele></trkpt>
            <trkpt lat="51.841505" lon="10.421952"><ele>526.9</ele></trkpt>
            <trkpt lat="51.841581" lon="10.422001"><ele>527</ele></trkpt>
            <trkpt lat="51.841653" lon="10.422031"><ele>523</ele></trkpt>
            <trkpt lat="51.841733" lon="10.421986"><ele>523.1</ele></trkpt>
            <trkpt lat="51.841952" lon="10.421697"><ele>523</ele></trkpt>
            <trkpt lat="51.842031" lon="10.42163"><ele>522.4</ele></trkpt>
            <trkpt lat="51.842273" lon="10.421545"><ele>521.9</ele></trkpt>
            <trkpt lat="51.842548" lon="10.421518"><ele>522</ele></trkpt>
            <trkpt lat="51.842689" lon="10.421475"><ele>521.9</ele></trkpt>
            <trkpt lat="51.842799" lon="10.421392"><ele>522</ele></trkpt>
            <trkpt lat="51.842857" lon="10.421292"><ele>521.8</ele></trkpt>
            <trkpt lat="51.842891" lon="10.421192"><ele>521.5</ele></trkpt>
            <trkpt lat="51.84291" lon="10.421024"><ele>521.3</ele></trkpt>
            <trkpt lat="51.842935" lon="10.420605"><ele>520.6</ele></trkpt>
            <trkpt lat="51.842926" lon="10.420327"><ele>520.3</ele></trkpt>
            <trkpt lat="51.842903" lon="10.420149"><ele>519.9</ele></trkpt>
            <trkpt lat="51.842732" lon="10.419687"><ele>519.6</ele></trkpt>
            <trkpt lat="51.842673" lon="10.41946"><ele>519.4</ele></trkpt>
            <trkpt lat="51.84267" lon="10.419327"><ele>519</ele></trkpt>
            <trkpt lat="51.842681" lon="10.419194"><ele>518.3</ele></trkpt>
            <trkpt lat="51.842744" lon="10.419022"><ele>517.8</ele></trkpt>
            <trkpt lat="51.843034" lon="10.418546"><ele>517</ele></trkpt>
            <trkpt lat="51.843076" lon="10.418422"><ele>516.9</ele></trkpt>
            <trkpt lat="51.843084" lon="10.418324"><ele>517.8</ele></trkpt>
            <trkpt lat="51.843071" lon="10.418238"><ele>530</ele></trkpt>
            <trkpt lat="51.842999" lon="10.418204"><ele>524.4</ele></trkpt>
            <trkpt lat="51.842259" lon="10.41859"><ele>522.7</ele></trkpt>
            <trkpt lat="51.842056" lon="10.418633"><ele>521.5</ele></trkpt>
            <trkpt lat="51.841702" lon="10.418627"><ele>510</ele></trkpt>
            <trkpt lat="51.841701" lon="10.418491"><ele>509.4</ele></trkpt>
            <trkpt lat="51.841378" lon="10.417959"><ele>508.8</ele></trkpt>
            <trkpt lat="51.841239" lon="10.417524"><ele>508.8</ele></trkpt>
            <trkpt lat="51.841035" lon="10.416964"><ele>509.6</ele></trkpt>
            <trkpt lat="51.840897" lon="10.416431"><ele>511.1</ele></trkpt>
            <trkpt lat="51.840801" lon="10.416277"><ele>510</ele></trkpt>
            <trkpt lat="51.840456" lon="10.416085"><ele>510.6</ele></trkpt>
            <trkpt lat="51.840244" lon="10.415938"><ele>511.1</ele></trkpt>
            <trkpt lat="51.840024" lon="10.415624"><ele>511.6</ele></trkpt>
            <trkpt lat="51.839902" lon="10.415402"><ele>509.8</ele></trkpt>
            <trkpt lat="51.839775" lon="10.415038"><ele>496</ele></trkpt>
            <trkpt lat="51.839626" lon="10.414726"><ele>494.8</ele></trkpt>
            <trkpt lat="51.839569" lon="10.414502"><ele>494.9</ele></trkpt>
            <trkpt lat="51.839529" lon="10.414142"><ele>494.7</ele></trkpt>
            <trkpt lat="51.839457" lon="10.413842"><ele>494.7</ele></trkpt>
            <trkpt lat="51.839383" lon="10.413407"><ele>494</ele></trkpt>
            <trkpt lat="51.8394" lon="10.413311"><ele>500</ele></trkpt>
            <trkpt lat="51.839472" lon="10.412893"><ele>500</ele></trkpt>
            <trkpt lat="51.839526" lon="10.412733"><ele>500</ele></trkpt>
            <trkpt lat="51.839557" lon="10.412485"><ele>505</ele></trkpt>
            <trkpt lat="51.839525" lon="10.411874"><ele>510.6</ele></trkpt>
            <trkpt lat="51.839661" lon="10.410168"><ele>514.7</ele></trkpt>
            <trkpt lat="51.839578" lon="10.409403"><ele>516.4</ele></trkpt>
            <trkpt lat="51.839648" lon="10.409101"><ele>516.9</ele></trkpt>
            <trkpt lat="51.839795" lon="10.408739"><ele>517.2</ele></trkpt>
            <trkpt lat="51.839929" lon="10.407694"><ele>524</ele></trkpt>
            <trkpt lat="51.840115" lon="10.406894"><ele>529</ele></trkpt>
            <trkpt lat="51.840213" lon="10.406378"><ele>532.2</ele></trkpt>
            <trkpt lat="51.840723" lon="10.404675"><ele>539.1</ele></trkpt>
            <trkpt lat="51.841179" lon="10.402146"><ele>547.4</ele></trkpt>
            <trkpt lat="51.841237" lon="10.401664"><ele>547.8</ele></trkpt>
            <trkpt lat="51.841251" lon="10.401146"><ele>550</ele></trkpt>
            <trkpt lat="51.841121" lon="10.400866"><ele>551.2</ele></trkpt>
            <trkpt lat="51.841001" lon="10.40048"><ele>551.7</ele></trkpt>
            <trkpt lat="51.840836" lon="10.400072"><ele>551.9</ele></trkpt>
            <trkpt lat="51.840589" lon="10.399555"><ele>552.2</ele></trkpt>
            <trkpt lat="51.840373" lon="10.398868"><ele>553.2</ele></trkpt>
            <trkpt lat="51.84017" lon="10.39814"><ele>550</ele></trkpt>
            <trkpt lat="51.840122" lon="10.397938"><ele>550</ele></trkpt>
            <trkpt lat="51.839913" lon="10.397121"><ele>546.6</ele></trkpt>
            <trkpt lat="51.839819" lon="10.396652"><ele>546.3</ele></trkpt>
            <trkpt lat="51.839609" lon="10.395904"><ele>545.2</ele></trkpt>
            <trkpt lat="51.839571" lon="10.395531"><ele>539</ele></trkpt>
            <trkpt lat="51.839536" lon="10.395211"><ele>539</ele></trkpt>
            <trkpt lat="51.839563" lon="10.395013"><ele>537.3</ele></trkpt>
            <trkpt lat="51.839343" lon="10.393652"><ele>537.7</ele></trkpt>
            <trkpt lat="51.839299" lon="10.393207"><ele>538.6</ele></trkpt>
            <trkpt lat="51.8393" lon="10.393058"><ele>539.2</ele></trkpt>
            <trkpt lat="51.839316" lon="10.392927"><ele>539.4</ele></trkpt>
            <trkpt lat="51.839376" lon="10.392739"><ele>539.9</ele></trkpt>
            <trkpt lat="51.839871" lon="10.391395"><ele>542.1</ele></trkpt>
            <trkpt lat="51.83991" lon="10.391174"><ele>542.3</ele></trkpt>
            <trkpt lat="51.839971" lon="10.390463"><ele>545.8</ele></trkpt>
            <trkpt lat="51.840143" lon="10.388923"><ele>553</ele></trkpt>
            <trkpt lat="51.840064" lon="10.388672"><ele>565.8</ele></trkpt>
            <trkpt lat="51.84" lon="10.388607"><ele>567</ele></trkpt>
            <trkpt lat="51.839905" lon="10.388582"><ele>566.4</ele></trkpt>
            <trkpt lat="51.839802" lon="10.388632"><ele>565.8</ele></trkpt>
            <trkpt lat="51.839703" lon="10.388748"><ele>563.6</ele></trkpt>
            <trkpt lat="51.839535" lon="10.389021"><ele>561.3</ele></trkpt>
            <trkpt lat="51.839366" lon="10.389353"><ele>558.1</ele></trkpt>
            <trkpt lat="51.839159" lon="10.389995"><ele>557.8</ele></trkpt>
            <trkpt lat="51.838941" lon="10.390853"><ele>552.2</ele></trkpt>
            <trkpt lat="51.838868" lon="10.390973"><ele>551.9</ele></trkpt>
            <trkpt lat="51.838759" lon="10.390995"><ele>545</ele></trkpt>
            <trkpt lat="51.838668" lon="10.391"><ele>546.3</ele></trkpt>
            <trkpt lat="51.8386" lon="10.390963"><ele>546.1</ele></trkpt>
            <trkpt lat="51.838337" lon="10.390595"><ele>549</ele></trkpt>
            <trkpt lat="51.838539" lon="10.390142"><ele>555</ele></trkpt>
            <trkpt lat="51.838562" lon="10.38952"><ele>555.8</ele></trkpt>
            <trkpt lat="51.837872" lon="10.388315"><ele>565</ele></trkpt>
            <trkpt lat="51.837936" lon="10.388285"><ele>570.3</ele></trkpt>
            <trkpt lat="51.838006" lon="10.388179"><ele>569.3</ele></trkpt>
            <trkpt lat="51.838477" lon="10.387667"><ele>582</ele></trkpt>
            <trkpt lat="51.838516" lon="10.387637"><ele>582</ele></trkpt>
            <trkpt lat="51.838667" lon="10.387187"><ele>589.3</ele></trkpt>
            <trkpt lat="51.838701" lon="10.387141"><ele>593</ele></trkpt>
            <trkpt lat="51.838605" lon="10.387002"><ele>591.8</ele></trkpt>
            <trkpt lat="51.837834" lon="10.385565"><ele>589</ele></trkpt>
            <trkpt lat="51.837809" lon="10.385488"><ele>589</ele></trkpt>
            <trkpt lat="51.837565" lon="10.385068"><ele>586.5</ele></trkpt>
            <trkpt lat="51.83746" lon="10.384767"><ele>579</ele></trkpt>
            <trkpt lat="51.837603" lon="10.384577"><ele>598.5</ele></trkpt>
            <trkpt lat="51.837651" lon="10.384384"><ele>599.7</ele></trkpt>
            <trkpt lat="51.837649" lon="10.384204"><ele>600.7</ele></trkpt>
            <trkpt lat="51.837553" lon="10.383713"><ele>601.1</ele></trkpt>
            <trkpt lat="51.837536" lon="10.383521"><ele>601.1</ele></trkpt>
            <trkpt lat="51.83755" lon="10.383322"><ele>601</ele></trkpt>
            <trkpt lat="51.8376" lon="10.383049"><ele>600.6</ele></trkpt>
            <trkpt lat="51.837655" lon="10.382505"><ele>602.7</ele></trkpt>
            <trkpt lat="51.837748" lon="10.382064"><ele>609</ele></trkpt>
            <trkpt lat="51.83761" lon="10.381543"><ele>609.8</ele></trkpt>
            <trkpt lat="51.837582" lon="10.381351"><ele>609.9</ele></trkpt>
            <trkpt lat="51.837578" lon="10.381184"><ele>610</ele></trkpt>
            <trkpt lat="51.83763" lon="10.380922"><ele>610.3</ele></trkpt>
            <trkpt lat="51.837609" lon="10.380783"><ele>610.6</ele></trkpt>
            <trkpt lat="51.837055" lon="10.37985"><ele>609.2</ele></trkpt>
            <trkpt lat="51.837037" lon="10.379795"><ele>608.1</ele></trkpt>
            <trkpt lat="51.837055" lon="10.37985"><ele>609.2</ele></trkpt>
            <trkpt lat="51.837609" lon="10.380783"><ele>610.6</ele></trkpt>
            <trkpt lat="51.83763" lon="10.380922"><ele>610.3</ele></trkpt>
            <trkpt lat="51.837578" lon="10.381184"><ele>610</ele></trkpt>
            <trkpt lat="51.837582" lon="10.381351"><ele>609.9</ele></trkpt>
            <trkpt lat="51.83761" lon="10.381543"><ele>609.8</ele></trkpt>
            <trkpt lat="51.837748" lon="10.382064"><ele>609</ele></trkpt>
            <trkpt lat="51.837758" lon="10.38206"><ele>609</ele></trkpt>
            <trkpt lat="51.83778" lon="10.382038"><ele>609</ele></trkpt>
            <trkpt lat="51.837798" lon="10.381979"><ele>611.4</ele></trkpt>
            <trkpt lat="51.837825" lon="10.3816"><ele>614.4</ele></trkpt>
            <trkpt lat="51.837904" lon="10.3811"><ele>615.1</ele></trkpt>
            <trkpt lat="51.83796" lon="10.380886"><ele>617.5</ele></trkpt>
            <trkpt lat="51.838259" lon="10.380245"><ele>619.7</ele></trkpt>
            <trkpt lat="51.838484" lon="10.37904"><ele>625.6</ele></trkpt>
            <trkpt lat="51.838584" lon="10.378684"><ele>634</ele></trkpt>
            <trkpt lat="51.838566" lon="10.378314"><ele>634</ele></trkpt>
            <trkpt lat="51.83855" lon="10.376715"><ele>634</ele></trkpt>
            <trkpt lat="51.838559" lon="10.376524"><ele>632</ele></trkpt>
            <trkpt lat="51.838615" lon="10.376586"><ele>635.5</ele></trkpt>
            <trkpt lat="51.839013" lon="10.377376"><ele>638.5</ele></trkpt>
            <trkpt lat="51.83918" lon="10.377601"><ele>639.1</ele></trkpt>
            <trkpt lat="51.839771" lon="10.378288"><ele>647</ele></trkpt>
            <trkpt lat="51.840072" lon="10.378694"><ele>662.3</ele></trkpt>
            <trkpt lat="51.840417" lon="10.379068"><ele>664</ele></trkpt>
            <trkpt lat="51.840892" lon="10.379443"><ele>671.6</ele></trkpt>
            <trkpt lat="51.841403" lon="10.379685"><ele>677</ele></trkpt>
            <trkpt lat="51.841961" lon="10.379824"><ele>678.4</ele></trkpt>
            <trkpt lat="51.842182" lon="10.379835"><ele>678.8</ele></trkpt>
            <trkpt lat="51.842354" lon="10.379926"><ele>685</ele></trkpt>
            <trkpt lat="51.842494" lon="10.379994"><ele>696.9</ele></trkpt>
            <trkpt lat="51.842592" lon="10.379993"><ele>698.2</ele></trkpt>
            <trkpt lat="51.842821" lon="10.379862"><ele>699.4</ele></trkpt>
            <trkpt lat="51.843588" lon="10.379197"><ele>699.7</ele></trkpt>
            <trkpt lat="51.843698" lon="10.379116"><ele>701.1</ele></trkpt>
            <trkpt lat="51.843861" lon="10.379045"><ele>708</ele></trkpt>
            <trkpt lat="51.84413" lon="10.378915"><ele>711.6</ele></trkpt>
            <trkpt lat="51.844237" lon="10.3789"><ele>712.2</ele></trkpt>
            <trkpt lat="51.844422" lon="10.378932"><ele>712.3</ele></trkpt>
            <trkpt lat="51.844502" lon="10.378977"><ele>712.1</ele></trkpt>
            <trkpt lat="51.844736" lon="10.379173"><ele>711.9</ele></trkpt>
            <trkpt lat="51.845021" lon="10.379336"><ele>712.7</ele></trkpt>
            <trkpt lat="51.845396" lon="10.379696"><ele>714.1</ele></trkpt>
            <trkpt lat="51.845552" lon="10.379863"><ele>714.5</ele></trkpt>
            <trkpt lat="51.845695" lon="10.380092"><ele>715.3</ele></trkpt>
            <trkpt lat="51.845815" lon="10.380244"><ele>717.2</ele></trkpt>
            <trkpt lat="51.84621" lon="10.380691"><ele>721.2</ele></trkpt>
            <trkpt lat="51.846495" lon="10.381126"><ele>722.5</ele></trkpt>
            <trkpt lat="51.846794" lon="10.381444"><ele>728</ele></trkpt>
            <trkpt lat="51.84714" lon="10.381969"><ele>730.1</ele></trkpt>
            <trkpt lat="51.847531" lon="10.382677"><ele>732.6</ele></trkpt>
            <trkpt lat="51.848056" lon="10.383372"><ele>731.5</ele></trkpt>
            <trkpt lat="51.848123" lon="10.383405"><ele>730</ele></trkpt>
            <trkpt lat="51.848212" lon="10.383401"><ele>730</ele></trkpt>
            <trkpt lat="51.848212" lon="10.383108"><ele>740.5</ele></trkpt>
            <trkpt lat="51.848284" lon="10.382569"><ele>740</ele></trkpt>
            <trkpt lat="51.848333" lon="10.382403"><ele>740.5</ele></trkpt>
            <trkpt lat="51.848447" lon="10.382219"><ele>755</ele></trkpt>
            <trkpt lat="51.848753" lon="10.381812"><ele>755</ele></trkpt>
            <trkpt lat="51.849204" lon="10.381217"><ele>762</ele></trkpt>
            <trkpt lat="51.849227" lon="10.381136"><ele>757.1</ele></trkpt>
            <trkpt lat="51.849221" lon="10.380837"><ele>757.1</ele></trkpt>
            <trkpt lat="51.849125" lon="10.380403"><ele>755.6</ele></trkpt>
            <trkpt lat="51.848842" lon="10.379572"><ele>752.2</ele></trkpt>
            <trkpt lat="51.848548" lon="10.378888"><ele>747.1</ele></trkpt>
            <trkpt lat="51.848489" lon="10.378664"><ele>746.1</ele></trkpt>
            <trkpt lat="51.84841" lon="10.378195"><ele>743.4</ele></trkpt>
            <trkpt lat="51.848383" lon="10.377728"><ele>741.6</ele></trkpt>
            <trkpt lat="51.8484" lon="10.377338"><ele>737.3</ele></trkpt>
            <trkpt lat="51.848462" lon="10.376904"><ele>735.5</ele></trkpt>
            <trkpt lat="51.848555" lon="10.376431"><ele>731.4</ele></trkpt>
            <trkpt lat="51.848626" lon="10.375535"><ele>724.1</ele></trkpt>
            <trkpt lat="51.848714" lon="10.375221"><ele>722.8</ele></trkpt>
            <trkpt lat="51.84884" lon="10.37491"><ele>720.9</ele></trkpt>
            <trkpt lat="51.848934" lon="10.374757"><ele>719.5</ele></trkpt>
            <trkpt lat="51.849356" lon="10.374254"><ele>717.1</ele></trkpt>
            <trkpt lat="51.849471" lon="10.374157"><ele>715.8</ele></trkpt>
            <trkpt lat="51.849676" lon="10.374036"><ele>713.3</ele></trkpt>
            <trkpt lat="51.849794" lon="10.374024"><ele>712.2</ele></trkpt>
            <trkpt lat="51.850052" lon="10.374046"><ele>709.9</ele></trkpt>
            <trkpt lat="51.850334" lon="10.373993"><ele>708.7</ele></trkpt>
            <trkpt lat="51.850616" lon="10.373849"><ele>708.2</ele></trkpt>
            <trkpt lat="51.850805" lon="10.373651"><ele>706</ele></trkpt>
            <trkpt lat="51.850989" lon="10.373416"><ele>705.3</ele></trkpt>
            <trkpt lat="51.851079" lon="10.373348"><ele>705</ele></trkpt>
            <trkpt lat="51.851337" lon="10.373056"><ele>700.5</ele></trkpt>
            <trkpt lat="51.851439" lon="10.373019"><ele>700.4</ele></trkpt>
            <trkpt lat="51.851577" lon="10.373034"><ele>700.8</ele></trkpt>
            <trkpt lat="51.85183" lon="10.373121"><ele>699.3</ele></trkpt>
            <trkpt lat="51.851924" lon="10.373131"><ele>699.2</ele></trkpt>
            <trkpt lat="51.852114" lon="10.373104"><ele>697.8</ele></trkpt>
            <trkpt lat="51.852244" lon="10.373039"><ele>697.2</ele></trkpt>
            <trkpt lat="51.852689" lon="10.372685"><ele>692.4</ele></trkpt>
            <trkpt lat="51.852929" lon="10.37258"><ele>688.9</ele></trkpt>
            <trkpt lat="51.853082" lon="10.372377"><ele>687.5</ele></trkpt>
            <trkpt lat="51.853156" lon="10.372195"><ele>686</ele></trkpt>
            <trkpt lat="51.853291" lon="10.371771"><ele>683.3</ele></trkpt>
            <trkpt lat="51.853343" lon="10.371499"><ele>681.1</ele></trkpt>
            <trkpt lat="51.853399" lon="10.370518"><ele>674.7</ele></trkpt>
            <trkpt lat="51.853388" lon="10.368953"><ele>665</ele></trkpt>
            <trkpt lat="51.853415" lon="10.368581"><ele>662.2</ele></trkpt>
            <trkpt lat="51.853504" lon="10.368099"><ele>661.5</ele></trkpt>
            <trkpt lat="51.853717" lon="10.367439"><ele>661.1</ele></trkpt>
            <trkpt lat="51.853855" lon="10.367143"><ele>660.9</ele></trkpt>
            <trkpt lat="51.8539" lon="10.367011"><ele>660.6</ele></trkpt>
            <trkpt lat="51.853964" lon="10.36644"><ele>651</ele></trkpt>
            <trkpt lat="51.853983" lon="10.365802"><ele>647</ele></trkpt>
            <trkpt lat="51.854024" lon="10.365441"><ele>646.6</ele></trkpt>
            <trkpt lat="51.854135" lon="10.365055"><ele>646.3</ele></trkpt>
            <trkpt lat="51.854219" lon="10.36491"><ele>639</ele></trkpt>
            <trkpt lat="51.854283" lon="10.364845"><ele>639</ele></trkpt>
            <trkpt lat="51.854329" lon="10.364752"><ele>639</ele></trkpt>
            <trkpt lat="51.854359" lon="10.364622"><ele>639</ele></trkpt>
            <trkpt lat="51.854357" lon="10.364507"><ele>639</ele></trkpt>
            <trkpt lat="51.854203" lon="10.364512"><ele>639</ele></trkpt>
            <trkpt lat="51.8542" lon="10.364336"><ele>639</ele></trkpt>
            <trkpt lat="51.854169" lon="10.364113"><ele>633.6</ele></trkpt>
            <trkpt lat="51.854169" lon="10.363398"><ele>632.9</ele></trkpt>
            <trkpt lat="51.854137" lon="10.363079"><ele>632.4</ele></trkpt>
            <trkpt lat="51.853997" lon="10.362669"><ele>627</ele></trkpt>
            <trkpt lat="51.854716" lon="10.362776"><ele>647.2</ele></trkpt>
            <trkpt lat="51.854924" lon="10.362915"><ele>648.2</ele></trkpt>
            <trkpt lat="51.85512" lon="10.363163"><ele>649.4</ele></trkpt>
            <trkpt lat="51.855406" lon="10.363156"><ele>652.2</ele></trkpt>
            <trkpt lat="51.855728" lon="10.362967"><ele>656.2</ele></trkpt>
            <trkpt lat="51.856952" lon="10.362802"><ele>681.6</ele></trkpt>
            <trkpt lat="51.857184" lon="10.362608"><ele>688.1</ele></trkpt>
            <trkpt lat="51.857632" lon="10.362595"><ele>689.4</ele></trkpt>
            <trkpt lat="51.858169" lon="10.36245"><ele>690</ele></trkpt>
            <trkpt lat="51.858455" lon="10.36253"><ele>689</ele></trkpt>
            <trkpt lat="51.858846" lon="10.362881"><ele>688.4</ele></trkpt>
            <trkpt lat="51.859053" lon="10.363117"><ele>688.4</ele></trkpt>
            <trkpt lat="51.859595" lon="10.36361"><ele>688.2</ele></trkpt>
            <trkpt lat="51.859882" lon="10.363741"><ele>688</ele></trkpt>
            <trkpt lat="51.860074" lon="10.363754"><ele>688</ele></trkpt>
            <trkpt lat="51.860266" lon="10.363873"><ele>688</ele></trkpt>
            <trkpt lat="51.860283" lon="10.363925"><ele>688</ele></trkpt>
            <trkpt lat="51.860372" lon="10.363783"><ele>689</ele></trkpt>
            <trkpt lat="51.860524" lon="10.363386"><ele>688.8</ele></trkpt>
            <trkpt lat="51.860592" lon="10.363052"><ele>689</ele></trkpt>
            <trkpt lat="51.860738" lon="10.362057"><ele>690.2</ele></trkpt>
            <trkpt lat="51.860882" lon="10.361555"><ele>689.5</ele></trkpt>
            <trkpt lat="51.860919" lon="10.361363"><ele>687.6</ele></trkpt>
            <trkpt lat="51.860992" lon="10.36061"><ele>683.4</ele></trkpt>
            <trkpt lat="51.860997" lon="10.360137"><ele>678.7</ele></trkpt>
            <trkpt lat="51.86098" lon="10.35973"><ele>673.9</ele></trkpt>
            <trkpt lat="51.860901" lon="10.3585"><ele>668.3</ele></trkpt>
            <trkpt lat="51.860842" lon="10.358091"><ele>663.9</ele></trkpt>
            <trkpt lat="51.860687" lon="10.357337"><ele>673</ele></trkpt>
            <trkpt lat="51.860649" lon="10.357316"><ele>673</ele></trkpt>
        </trkseg>
    </trk>
</gpx>
