<?xml version="1.0" encoding="UTF-8"?>
<gpx version="1.1" creator="HWN Route Compare (OpenRouteService)" xmlns="http://www.topografix.com/GPX/1/1">
    <metadata>
        <name>OpenRouteService – Tour A5</name>
    </metadata>
    <trk>
        <name>OpenRouteService – Tour A5</name>
        <trkseg>
            <trkpt lat="51.871834" lon="10.481374"><ele>482</ele></trkpt>
            <trkpt lat="51.871889" lon="10.48126"><ele>482</ele></trkpt>
            <trkpt lat="51.871965" lon="10.481281"><ele>486.9</ele></trkpt>
            <trkpt lat="51.872028" lon="10.481354"><ele>486.1</ele></trkpt>
            <trkpt lat="51.872096" lon="10.481525"><ele>485.4</ele></trkpt>
            <trkpt lat="51.872164" lon="10.481903"><ele>499</ele></trkpt>
            <trkpt lat="51.872115" lon="10.481941"><ele>514.3</ele></trkpt>
            <trkpt lat="51.872005" lon="10.482197"><ele>517.6</ele></trkpt>
            <trkpt lat="51.871841" lon="10.482392"><ele>523</ele></trkpt>
            <trkpt lat="51.871809" lon="10.482504"><ele>525</ele></trkpt>
            <trkpt lat="51.871792" lon="10.482642"><ele>526.3</ele></trkpt>
            <trkpt lat="51.871702" lon="10.482874"><ele>530.1</ele></trkpt>
            <trkpt lat="51.871703" lon="10.483104"><ele>531.5</ele></trkpt>
            <trkpt lat="51.871679" lon="10.483211"><ele>532.2</ele></trkpt>
            <trkpt lat="51.871639" lon="10.483261"><ele>532.9</ele></trkpt>
            <trkpt lat="51.871525" lon="10.483577"><ele>532.7</ele></trkpt>
            <trkpt lat="51.871444" lon="10.483655"><ele>532.2</ele></trkpt>
            <trkpt lat="51.871406" lon="10.48383"><ele>533.9</ele></trkpt>
            <trkpt lat="51.871269" lon="10.484062"><ele>535</ele></trkpt>
            <trkpt lat="51.871188" lon="10.484098"><ele>535.2</ele></trkpt>
            <trkpt lat="51.870936" lon="10.484045"><ele>535</ele></trkpt>
            <trkpt lat="51.870731" lon="10.484114"><ele>535</ele></trkpt>
            <trkpt lat="51.870622" lon="10.484102"><ele>554</ele></trkpt>
            <trkpt lat="51.870494" lon="10.484137"><ele>554</ele></trkpt>
            <trkpt lat="51.870265" lon="10.484387"><ele>568.4</ele></trkpt>
            <trkpt lat="51.870006" lon="10.484523"><ele>569.3</ele></trkpt>
            <trkpt lat="51.869692" lon="10.484832"><ele>580</ele></trkpt>
            <trkpt lat="51.869643" lon="10.484742"><ele>584.7</ele></trkpt>
            <trkpt lat="51.869573" lon="10.484665"><ele>585.1</ele></trkpt>
            <trkpt lat="51.869509" lon="10.484641"><ele>585.4</ele></trkpt>
            <trkpt lat="51.869456" lon="10.48466"><ele>585.9</ele></trkpt>
            <trkpt lat="51.869394" lon="10.484716"><ele>586.3</ele></trkpt>
            <trkpt lat="51.869338" lon="10.484808"><ele>586.8</ele></trkpt>
            <trkpt lat="51.86929" lon="10.484951"><ele>587.3</ele></trkpt>
            <trkpt lat="51.869171" lon="10.485785"><ele>587.6</ele></trkpt>
            <trkpt lat="51.869074" lon="10.486068"><ele>587</ele></trkpt>
            <trkpt lat="51.868973" lon="10.486161"><ele>593</ele></trkpt>
            <trkpt lat="51.868902" lon="10.48589"><ele>592.3</ele></trkpt>
            <trkpt lat="51.86884" lon="10.485741"><ele>592.1</ele></trkpt>
            <trkpt lat="51.868562" lon="10.48507"><ele>591.9</ele></trkpt>
            <trkpt lat="51.86842" lon="10.48488"><ele>591.5</ele></trkpt>
            <trkpt lat="51.868213" lon="10.484828"><ele>591.5</ele></trkpt>
            <trkpt lat="51.868056" lon="10.484676"><ele>591.6</ele></trkpt>
            <trkpt lat="51.867986" lon="10.484576"><ele>590</ele></trkpt>
            <trkpt lat="51.867639" lon="10.484238"><ele>590</ele></trkpt>
            <trkpt lat="51.86762" lon="10.484192"><ele>590</ele></trkpt>
            <trkpt lat="51.867502" lon="10.484173"><ele>583.3</ele></trkpt>
            <trkpt lat="51.867376" lon="10.484048"><ele>582.2</ele></trkpt>
            <trkpt lat="51.867143" lon="10.483962"><ele>583</ele></trkpt>
            <trkpt lat="51.867053" lon="10.484052"><ele>580</ele></trkpt>
            <trkpt lat="51.866909" lon="10.48405"><ele>574.1</ele></trkpt>
            <trkpt lat="51.866743" lon="10.484132"><ele>572.7</ele></trkpt>
            <trkpt lat="51.866637" lon="10.484108"><ele>571.9</ele></trkpt>
            <trkpt lat="51.866505" lon="10.484186"><ele>573.2</ele></trkpt>
            <trkpt lat="51.866366" lon="10.484231"><ele>570</ele></trkpt>
            <trkpt lat="51.866336" lon="10.484073"><ele>564</ele></trkpt>
            <trkpt lat="51.86634" lon="10.483885"><ele>563.6</ele></trkpt>
            <trkpt lat="51.866372" lon="10.483626"><ele>563.1</ele></trkpt>
            <trkpt lat="51.86646" lon="10.483298"><ele>552</ele></trkpt>
            <trkpt lat="51.866365" lon="10.482176"><ele>525.5</ele></trkpt>
            <trkpt lat="51.865935" lon="10.480961"><ele>509.4</ele></trkpt>
            <trkpt lat="51.865963" lon="10.480678"><ele>507.8</ele></trkpt>
            <trkpt lat="51.865848" lon="10.479833"><ele>491.5</ele></trkpt>
            <trkpt lat="51.865773" lon="10.479005"><ele>482</ele></trkpt>
            <trkpt lat="51.8656" lon="10.47841"><ele>461</ele></trkpt>
            <trkpt lat="51.865305" lon="10.478158"><ele>434.4</ele></trkpt>
            <trkpt lat="51.864777" lon="10.477851"><ele>433.9</ele></trkpt>
            <trkpt lat="51.864482" lon="10.477593"><ele>432.9</ele></trkpt>
            <trkpt lat="51.864218" lon="10.477489"><ele>428.2</ele></trkpt>
            <trkpt lat="51.863836" lon="10.477581"><ele>430.7</ele></trkpt>
            <trkpt lat="51.863509" lon="10.477766"><ele>431.6</ele></trkpt>
            <trkpt lat="51.863194" lon="10.47788"><ele>431.5</ele></trkpt>
            <trkpt lat="51.862637" lon="10.478001"><ele>429.5</ele></trkpt>
            <trkpt lat="51.862213" lon="10.477925"><ele>428.4</ele></trkpt>
            <trkpt lat="51.861741" lon="10.477457"><ele>424.7</ele></trkpt>
            <trkpt lat="51.861443" lon="10.477102"><ele>425.2</ele></trkpt>
            <trkpt lat="51.861147" lon="10.476637"><ele>424.6</ele></trkpt>
            <trkpt lat="51.861046" lon="10.476578"><ele>424.1</ele></trkpt>
            <trkpt lat="51.860952" lon="10.476584"><ele>423</ele></trkpt>
            <trkpt lat="51.86069" lon="10.476189"><ele>413.6</ele></trkpt>
            <trkpt lat="51.86056" lon="10.475911"><ele>413.5</ele></trkpt>
            <trkpt lat="51.860391" lon="10.475447"><ele>410.7</ele></trkpt>
            <trkpt lat="51.860081" lon="10.475015"><ele>408.6</ele></trkpt>
            <trkpt lat="51.859584" lon="10.474202"><ele>386.4</ele></trkpt>
            <trkpt lat="51.859332" lon="10.473707"><ele>384</ele></trkpt>
            <trkpt lat="51.859206" lon="10.473279"><ele>379</ele></trkpt>
            <trkpt lat="51.859165" lon="10.472948"><ele>376.6</ele></trkpt>
            <trkpt lat="51.859162" lon="10.472592"><ele>374.6</ele></trkpt>
            <trkpt lat="51.859201" lon="10.472431"><ele>372.9</ele></trkpt>
            <trkpt lat="51.859249" lon="10.472337"><ele>361</ele></trkpt>
            <trkpt lat="51.859272" lon="10.472187"><ele>361</ele></trkpt>
            <trkpt lat="51.859542" lon="10.472219"><ele>361</ele></trkpt>
            <trkpt lat="51.859951" lon="10.472139"><ele>361</ele></trkpt>
            <trkpt lat="51.859995" lon="10.472036"><ele>364.6</ele></trkpt>
            <trkpt lat="51.860128" lon="10.471958"><ele>364.4</ele></trkpt>
            <trkpt lat="51.860132" lon="10.471907"><ele>364.4</ele></trkpt>
            <trkpt lat="51.860106" lon="10.471859"><ele>364.3</ele></trkpt>
            <trkpt lat="51.859995" lon="10.471737"><ele>364</ele></trkpt>
            <trkpt lat="51.859925" lon="10.471718"><ele>363.9</ele></trkpt>
            <trkpt lat="51.859903" lon="10.471687"><ele>363.7</ele></trkpt>
            <trkpt lat="51.859734" lon="10.471626"><ele>364.2</ele></trkpt>
            <trkpt lat="51.859646" lon="10.47163"><ele>364.6</ele></trkpt>
            <trkpt lat="51.85957" lon="10.471512"><ele>365</ele></trkpt>
            <trkpt lat="51.859478" lon="10.471522"><ele>365.4</ele></trkpt>
            <trkpt lat="51.859428" lon="10.471494"><ele>365.8</ele></trkpt>
            <trkpt lat="51.859311" lon="10.471511"><ele>366.1</ele></trkpt>
            <trkpt lat="51.859301" lon="10.471353"><ele>372</ele></trkpt>
            <trkpt lat="51.859006" lon="10.471335"><ele>354</ele></trkpt>
            <trkpt lat="51.85893" lon="10.471309"><ele>354</ele></trkpt>
            <trkpt lat="51.858775" lon="10.471234"><ele>354</ele></trkpt>
            <trkpt lat="51.858705" lon="10.471187"><ele>354</ele></trkpt>
            <trkpt lat="51.858766" lon="10.471079"><ele>362.5</ele></trkpt>
            <trkpt lat="51.85919" lon="10.470772"><ele>363.3</ele></trkpt>
            <trkpt lat="51.859231" lon="10.470774"><ele>382</ele></trkpt>
            <trkpt lat="51.859398" lon="10.470781"><ele>382</ele></trkpt>
            <trkpt lat="51.859654" lon="10.470847"><ele>377.9</ele></trkpt>
            <trkpt lat="51.859901" lon="10.470832"><ele>378.7</ele></trkpt>
            <trkpt lat="51.860189" lon="10.470869"><ele>378.2</ele></trkpt>
            <trkpt lat="51.860273" lon="10.470841"><ele>377.8</ele></trkpt>
            <trkpt lat="51.860323" lon="10.470851"><ele>374</ele></trkpt>
            <trkpt lat="51.860407" lon="10.47084"><ele>372.6</ele></trkpt>
            <trkpt lat="51.86047" lon="10.470872"><ele>372.7</ele></trkpt>
            <trkpt lat="51.860682" lon="10.470899"><ele>372.9</ele></trkpt>
            <trkpt lat="51.860773" lon="10.47098"><ele>373</ele></trkpt>
            <trkpt lat="51.860863" lon="10.471002"><ele>372.8</ele></trkpt>
            <trkpt lat="51.861125" lon="10.471326"><ele>372.3</ele></trkpt>
            <trkpt lat="51.861345" lon="10.471539"><ele>372.2</ele></trkpt>
            <trkpt lat="51.861485" lon="10.471592"><ele>370</ele></trkpt>
            <trkpt lat="51.861534" lon="10.471654"><ele>370</ele></trkpt>
            <trkpt lat="51.861681" lon="10.471845"><ele>359</ele></trkpt>
            <trkpt lat="51.861732" lon="10.472001"><ele>358.3</ele></trkpt>
            <trkpt lat="51.862056" lon="10.472526"><ele>357.6</ele></trkpt>
            <trkpt lat="51.862385" lon="10.473276"><ele>357.6</ele></trkpt>
            <trkpt lat="51.862565" lon="10.473734"><ele>357.1</ele></trkpt>
            <trkpt lat="51.862642" lon="10.473823"><ele>357.1</ele></trkpt>
            <trkpt lat="51.862805" lon="10.473923"><ele>357.1</ele></trkpt>
            <trkpt lat="51.863006" lon="10.474125"><ele>356.9</ele></trkpt>
            <trkpt lat="51.863203" lon="10.474227"><ele>357.3</ele></trkpt>
            <trkpt lat="51.863273" lon="10.474226"><ele>357.2</ele></trkpt>
            <trkpt lat="51.863434" lon="10.474383"><ele>357.7</ele></trkpt>
            <trkpt lat="51.863667" lon="10.474484"><ele>358.5</ele></trkpt>
            <trkpt lat="51.86379" lon="10.474488"><ele>358.7</ele></trkpt>
            <trkpt lat="51.86404" lon="10.474405"><ele>359.9</ele></trkpt>
            <trkpt lat="51.864205" lon="10.47438"><ele>360.7</ele></trkpt>
            <trkpt lat="51.86443" lon="10.47439"><ele>361.7</ele></trkpt>
            <trkpt lat="51.864511" lon="10.474422"><ele>361.7</ele></trkpt>
            <trkpt lat="51.864775" lon="10.474449"><ele>362.7</ele></trkpt>
            <trkpt lat="51.864818" lon="10.474466"><ele>362.8</ele></trkpt>
            <trkpt lat="51.864969" lon="10.474653"><ele>363</ele></trkpt>
            <trkpt lat="51.86523" lon="10.474808"><ele>363.1</ele></trkpt>
            <trkpt lat="51.865353" lon="10.474813"><ele>363.1</ele></trkpt>
            <trkpt lat="51.865395" lon="10.474773"><ele>363.2</ele></trkpt>
            <trkpt lat="51.865477" lon="10.474744"><ele>363.2</ele></trkpt>
            <trkpt lat="51.866076" lon="10.474781"><ele>364.1</ele></trkpt>
            <trkpt lat="51.866119" lon="10.474753"><ele>364.6</ele></trkpt>
            <trkpt lat="51.866203" lon="10.474616"><ele>368</ele></trkpt>
            <trkpt lat="51.866309" lon="10.474566"><ele>368</ele></trkpt>
            <trkpt lat="51.866333" lon="10.474608"><ele>368</ele></trkpt>
            <trkpt lat="51.866297" lon="10.4747"><ele>368</ele></trkpt>
            <trkpt lat="51.866463" lon="10.474663"><ele>362.4</ele></trkpt>
            <trkpt lat="51.866609" lon="10.474667"><ele>363.1</ele></trkpt>
            <trkpt lat="51.866762" lon="10.474613"><ele>361.3</ele></trkpt>
            <trkpt lat="51.866787" lon="10.474555"><ele>359.8</ele></trkpt>
            <trkpt lat="51.866809" lon="10.474349"><ele>358.4</ele></trkpt>
            <trkpt lat="51.866872" lon="10.474121"><ele>358</ele></trkpt>
            <trkpt lat="51.866965" lon="10.474179"><ele>349</ele></trkpt>
            <trkpt lat="51.867008" lon="10.474216"><ele>351.3</ele></trkpt>
            <trkpt lat="51.867024" lon="10.474174"><ele>351.8</ele></trkpt>
            <trkpt lat="51.867074" lon="10.474134"><ele>358</ele></trkpt>
            <trkpt lat="51.867024" lon="10.474174"><ele>351.8</ele></trkpt>
            <trkpt lat="51.867008" lon="10.474216"><ele>351.3</ele></trkpt>
            <trkpt lat="51.866965" lon="10.474179"><ele>349</ele></trkpt>
            <trkpt lat="51.866872" lon="10.474121"><ele>358</ele></trkpt>
            <trkpt lat="51.866809" lon="10.474349"><ele>358.4</ele></trkpt>
            <trkpt lat="51.866787" lon="10.474555"><ele>359.8</ele></trkpt>
            <trkpt lat="51.866762" lon="10.474613"><ele>361.3</ele></trkpt>
            <trkpt lat="51.866609" lon="10.474667"><ele>363.1</ele></trkpt>
            <trkpt lat="51.866463" lon="10.474663"><ele>362.4</ele></trkpt>
            <trkpt lat="51.866297" lon="10.4747"><ele>368</ele></trkpt>
            <trkpt lat="51.866333" lon="10.474608"><ele>368</ele></trkpt>
            <trkpt lat="51.866309" lon="10.474566"><ele>368</ele></trkpt>
            <trkpt lat="51.866203" lon="10.474616"><ele>368</ele></trkpt>
            <trkpt lat="51.866119" lon="10.474753"><ele>364.6</ele></trkpt>
            <trkpt lat="51.866076" lon="10.474781"><ele>364.1</ele></trkpt>
            <trkpt lat="51.865477" lon="10.474744"><ele>363.2</ele></trkpt>
            <trkpt lat="51.865395" lon="10.474773"><ele>363.2</ele></trkpt>
            <trkpt lat="51.865353" lon="10.474813"><ele>363.1</ele></trkpt>
            <trkpt lat="51.86523" lon="10.474808"><ele>363.1</ele></trkpt>
            <trkpt lat="51.864969" lon="10.474653"><ele>363</ele></trkpt>
            <trkpt lat="51.864818" lon="10.474466"><ele>362.8</ele></trkpt>
            <trkpt lat="51.864775" lon="10.474449"><ele>362.7</ele></trkpt>
            <trkpt lat="51.864511" lon="10.474422"><ele>361.7</ele></trkpt>
            <trkpt lat="51.86443" lon="10.47439"><ele>361.7</ele></trkpt>
            <trkpt lat="51.864205" lon="10.47438"><ele>360.7</ele></trkpt>
            <trkpt lat="51.86404" lon="10.474405"><ele>359.9</ele></trkpt>
            <trkpt lat="51.86379" lon="10.474488"><ele>358.7</ele></trkpt>
            <trkpt lat="51.863667" lon="10.474484"><ele>358.5</ele></trkpt>
            <trkpt lat="51.863434" lon="10.474383"><ele>357.7</ele></trkpt>
            <trkpt lat="51.863273" lon="10.474226"><ele>357.2</ele></trkpt>
            <trkpt lat="51.863203" lon="10.474227"><ele>357.3</ele></trkpt>
            <trkpt lat="51.863006" lon="10.474125"><ele>356.9</ele></trkpt>
            <trkpt lat="51.862805" lon="10.473923"><ele>357.1</ele></trkpt>
            <trkpt lat="51.862642" lon="10.473823"><ele>357.1</ele></trkpt>
            <trkpt lat="51.862565" lon="10.473734"><ele>357.1</ele></trkpt>
            <trkpt lat="51.862385" lon="10.473276"><ele>357.6</ele></trkpt>
            <trkpt lat="51.862056" lon="10.472526"><ele>357.6</ele></trkpt>
            <trkpt lat="51.861732" lon="10.472001"><ele>358.3</ele></trkpt>
            <trkpt lat="51.861681" lon="10.471845"><ele>359</ele></trkpt>
            <trkpt lat="51.861534" lon="10.471654"><ele>370</ele></trkpt>
            <trkpt lat="51.861485" lon="10.471592"><ele>370</ele></trkpt>
            <trkpt lat="51.861345" lon="10.471539"><ele>372.2</ele></trkpt>
            <trkpt lat="51.861125" lon="10.471326"><ele>372.3</ele></trkpt>
            <trkpt lat="51.860863" lon="10.471002"><ele>372.8</ele></trkpt>
            <trkpt lat="51.860773" lon="10.47098"><ele>373</ele></trkpt>
            <trkpt lat="51.860682" lon="10.470899"><ele>372.9</ele></trkpt>
            <trkpt lat="51.86047" lon="10.470872"><ele>372.7</ele></trkpt>
            <trkpt lat="51.860407" lon="10.47084"><ele>372.6</ele></trkpt>
            <trkpt lat="51.860323" lon="10.470851"><ele>374</ele></trkpt>
            <trkpt lat="51.860273" lon="10.470841"><ele>377.8</ele></trkpt>
            <trkpt lat="51.860189" lon="10.470869"><ele>378.2</ele></trkpt>
            <trkpt lat="51.859901" lon="10.470832"><ele>378.7</ele></trkpt>
            <trkpt lat="51.859654" lon="10.470847"><ele>377.9</ele></trkpt>
            <trkpt lat="51.859398" lon="10.470781"><ele>382</ele></trkpt>
            <trkpt lat="51.859231" lon="10.470774"><ele>382</ele></trkpt>
            <trkpt lat="51.85919" lon="10.470772"><ele>363.3</ele></trkpt>
            <trkpt lat="51.858766" lon="10.471079"><ele>362.5</ele></trkpt>
            <trkpt lat="51.858705" lon="10.471187"><ele>354</ele></trkpt>
            <trkpt lat="51.858775" lon="10.471234"><ele>354</ele></trkpt>
            <trkpt lat="51.85893" lon="10.471309"><ele>354</ele></trkpt>
            <trkpt lat="51.859006" lon="10.471335"><ele>354</ele></trkpt>
            <trkpt lat="51.85897" lon="10.471433"><ele>354</ele></trkpt>
            <trkpt lat="51.858879" lon="10.471491"><ele>354</ele></trkpt>
            <trkpt lat="51.858686" lon="10.471553"><ele>354</ele></trkpt>
            <trkpt lat="51.858454" lon="10.471528"><ele>351.1</ele></trkpt>
            <trkpt lat="51.858069" lon="10.471372"><ele>349</ele></trkpt>
            <trkpt lat="51.85793" lon="10.471477"><ele>349.3</ele></trkpt>
            <trkpt lat="51.857722" lon="10.471679"><ele>350</ele></trkpt>
            <trkpt lat="51.857604" lon="10.47178"><ele>350</ele></trkpt>
            <trkpt lat="51.856845" lon="10.472403"><ele>375.5</ele></trkpt>
            <trkpt lat="51.855958" lon="10.473268"><ele>386.3</ele></trkpt>
            <trkpt lat="51.855859" lon="10.473336"><ele>374</ele></trkpt>
            <trkpt lat="51.855811" lon="10.473323"><ele>427</ele></trkpt>
            <trkpt lat="51.85572" lon="10.473319"><ele>427</ele></trkpt>
            <trkpt lat="51.855634" lon="10.47336"><ele>418.3</ele></trkpt>
            <trkpt lat="51.855289" lon="10.473701"><ele>416.3</ele></trkpt>
            <trkpt lat="51.854993" lon="10.474047"><ele>422.7</ele></trkpt>
            <trkpt lat="51.854391" lon="10.474806"><ele>430.7</ele></trkpt>
            <trkpt lat="51.854049" lon="10.475107"><ele>434.5</ele></trkpt>
            <trkpt lat="51.853937" lon="10.475262"><ele>434.9</ele></trkpt>
            <trkpt lat="51.853667" lon="10.475558"><ele>435.5</ele></trkpt>
            <trkpt lat="51.853597" lon="10.47566"><ele>436.3</ele></trkpt>
            <trkpt lat="51.853475" lon="10.475959"><ele>435.1</ele></trkpt>
            <trkpt lat="51.853369" lon="10.476164"><ele>434.1</ele></trkpt>
            <trkpt lat="51.853288" lon="10.476277"><ele>436.5</ele></trkpt>
            <trkpt lat="51.853222" lon="10.476328"><ele>437.9</ele></trkpt>
            <trkpt lat="51.85307" lon="10.476354"><ele>439.3</ele></trkpt>
            <trkpt lat="51.852921" lon="10.476411"><ele>441</ele></trkpt>
            <trkpt lat="51.852763" lon="10.476523"><ele>455</ele></trkpt>
            <trkpt lat="51.85287" lon="10.476206"><ele>461.4</ele></trkpt>
            <trkpt lat="51.852933" lon="10.47594"><ele>460.3</ele></trkpt>
            <trkpt lat="51.852959" lon="10.475681"><ele>462.6</ele></trkpt>
            <trkpt lat="51.852955" lon="10.475428"><ele>474</ele></trkpt>
            <trkpt lat="51.85285" lon="10.474933"><ele>493.4</ele></trkpt>
            <trkpt lat="51.852866" lon="10.474828"><ele>493.7</ele></trkpt>
            <trkpt lat="51.852959" lon="10.474507"><ele>494.4</ele></trkpt>
            <trkpt lat="51.852979" lon="10.474326"><ele>494.8</ele></trkpt>
            <trkpt lat="51.852983" lon="10.474193"><ele>495.3</ele></trkpt>
            <trkpt lat="51.852902" lon="10.473605"><ele>494.6</ele></trkpt>
            <trkpt lat="51.852923" lon="10.473452"><ele>503</ele></trkpt>
            <trkpt lat="51.853052" lon="10.473312"><ele>514.2</ele></trkpt>
            <trkpt lat="51.853198" lon="10.473044"><ele>512.3</ele></trkpt>
            <trkpt lat="51.853415" lon="10.472995"><ele>509.7</ele></trkpt>
            <trkpt lat="51.853621" lon="10.47288"><ele>511.2</ele></trkpt>
            <trkpt lat="51.853697" lon="10.472799"><ele>512</ele></trkpt>
            <trkpt lat="51.853867" lon="10.472519"><ele>514.7</ele></trkpt>
            <trkpt lat="51.854036" lon="10.471916"><ele>519.4</ele></trkpt>
            <trkpt lat="51.854212" lon="10.471557"><ele>523.2</ele></trkpt>
            <trkpt lat="51.854371" lon="10.471372"><ele>526.7</ele></trkpt>
            <trkpt lat="51.854569" lon="10.471222"><ele>528.8</ele></trkpt>
            <trkpt lat="51.854608" lon="10.47117"><ele>530.3</ele></trkpt>
            <trkpt lat="51.854637" lon="10.471102"><ele>531.1</ele></trkpt>
            <trkpt lat="51.854648" lon="10.471002"><ele>532.9</ele></trkpt>
            <trkpt lat="51.854589" lon="10.470566"><ele>535.6</ele></trkpt>
            <trkpt lat="51.854591" lon="10.470228"><ele>536</ele></trkpt>
            <trkpt lat="51.854628" lon="10.470048"><ele>535.7</ele></trkpt>
            <trkpt lat="51.85468" lon="10.469911"><ele>536.4</ele></trkpt>
            <trkpt lat="51.854788" lon="10.469752"><ele>535.9</ele></trkpt>
            <trkpt lat="51.854985" lon="10.469547"><ele>559</ele></trkpt>
            <trkpt lat="51.854964" lon="10.469468"><ele>559</ele></trkpt>
            <trkpt lat="51.854915" lon="10.469467"><ele>568.8</ele></trkpt>
            <trkpt lat="51.854886" lon="10.469436"><ele>568.9</ele></trkpt>
            <trkpt lat="51.854798" lon="10.469471"><ele>569.3</ele></trkpt>
            <trkpt lat="51.854796" lon="10.4694"><ele>569.5</ele></trkpt>
            <trkpt lat="51.854876" lon="10.469184"><ele>569.8</ele></trkpt>
            <trkpt lat="51.854862" lon="10.469104"><ele>570</ele></trkpt>
            <trkpt lat="51.854848" lon="10.469099"><ele>569.9</ele></trkpt>
            <trkpt lat="51.85482" lon="10.469165"><ele>569.7</ele></trkpt>
            <trkpt lat="51.85476" lon="10.469216"><ele>569.6</ele></trkpt>
            <trkpt lat="51.854611" lon="10.469296"><ele>570</ele></trkpt>
            <trkpt lat="51.85459" lon="10.46929"><ele>570.2</ele></trkpt>
            <trkpt lat="51.854587" lon="10.469249"><ele>570.3</ele></trkpt>
            <trkpt lat="51.85469" lon="10.469112"><ele>570.7</ele></trkpt>
            <trkpt lat="51.854677" lon="10.469092"><ele>570.6</ele></trkpt>
            <trkpt lat="51.854585" lon="10.469127"><ele>570.4</ele></trkpt>
            <trkpt lat="51.854486" lon="10.469207"><ele>570.5</ele></trkpt>
            <trkpt lat="51.854439" lon="10.469295"><ele>570.7</ele></trkpt>
            <trkpt lat="51.854411" lon="10.469308"><ele>570.9</ele></trkpt>
            <trkpt lat="51.854398" lon="10.469261"><ele>571.1</ele></trkpt>
            <trkpt lat="51.854427" lon="10.469085"><ele>571.3</ele></trkpt>
            <trkpt lat="51.85442" lon="10.469067"><ele>571.2</ele></trkpt>
            <trkpt lat="51.854225" lon="10.469311"><ele>571.3</ele></trkpt>
            <trkpt lat="51.854162" lon="10.469335"><ele>571.8</ele></trkpt>
            <trkpt lat="51.854141" lon="10.469214"><ele>571.6</ele></trkpt>
            <trkpt lat="51.854209" lon="10.468883"><ele>571.3</ele></trkpt>
            <trkpt lat="51.854261" lon="10.468724"><ele>571.3</ele></trkpt>
            <trkpt lat="51.854358" lon="10.468503"><ele>571.2</ele></trkpt>
            <trkpt lat="51.854429" lon="10.468434"><ele>571.1</ele></trkpt>
            <trkpt lat="51.854484" lon="10.468277"><ele>571</ele></trkpt>
            <trkpt lat="51.854452" lon="10.468253"><ele>571</ele></trkpt>
            <trkpt lat="51.854461" lon="10.468184"><ele>570.9</ele></trkpt>
            <trkpt lat="51.854505" lon="10.468107"><ele>570.9</ele></trkpt>
            <trkpt lat="51.854495" lon="10.46809"><ele>570.9</ele></trkpt>
            <trkpt lat="51.854429" lon="10.468202"><ele>570.8</ele></trkpt>
            <trkpt lat="51.854391" lon="10.468216"><ele>570.7</ele></trkpt>
            <trkpt lat="51.854385" lon="10.468016"><ele>570.6</ele></trkpt>
            <trkpt lat="51.854352" lon="10.467992"><ele>570.6</ele></trkpt>
            <trkpt lat="51.854262" lon="10.467991"><ele>570.5</ele></trkpt>
            <trkpt lat="51.854242" lon="10.467961"><ele>570.5</ele></trkpt>
            <trkpt lat="51.854219" lon="10.467814"><ele>573</ele></trkpt>
            <trkpt lat="51.854168" lon="10.467911"><ele>577.2</ele></trkpt>
            <trkpt lat="51.854219" lon="10.467814"><ele>573</ele></trkpt>
            <trkpt lat="51.854242" lon="10.467961"><ele>570.5</ele></trkpt>
            <trkpt lat="51.854262" lon="10.467991"><ele>570.5</ele></trkpt>
            <trkpt lat="51.854352" lon="10.467992"><ele>570.6</ele></trkpt>
            <trkpt lat="51.854385" lon="10.468016"><ele>570.6</ele></trkpt>
            <trkpt lat="51.854391" lon="10.468216"><ele>570.7</ele></trkpt>
            <trkpt lat="51.854429" lon="10.468202"><ele>570.8</ele></trkpt>
            <trkpt lat="51.854495" lon="10.46809"><ele>570.9</ele></trkpt>
            <trkpt lat="51.854505" lon="10.468107"><ele>570.9</ele></trkpt>
            <trkpt lat="51.854461" lon="10.468184"><ele>570.9</ele></trkpt>
            <trkpt lat="51.854452" lon="10.468253"><ele>571</ele></trkpt>
            <trkpt lat="51.854484" lon="10.468277"><ele>571</ele></trkpt>
            <trkpt lat="51.854429" lon="10.468434"><ele>571.1</ele></trkpt>
            <trkpt lat="51.854358" lon="10.468503"><ele>571.2</ele></trkpt>
            <trkpt lat="51.854261" lon="10.468724"><ele>571.3</ele></trkpt>
            <trkpt lat="51.854209" lon="10.468883"><ele>571.3</ele></trkpt>
            <trkpt lat="51.854141" lon="10.469214"><ele>571.6</ele></trkpt>
            <trkpt lat="51.854162" lon="10.469335"><ele>571.8</ele></trkpt>
            <trkpt lat="51.854225" lon="10.469311"><ele>571.3</ele></trkpt>
            <trkpt lat="51.85442" lon="10.469067"><ele>571.2</ele></trkpt>
            <trkpt lat="51.854427" lon="10.469085"><ele>571.3</ele></trkpt>
            <trkpt lat="51.854398" lon="10.469261"><ele>571.1</ele></trkpt>
            <trkpt lat="51.854411" lon="10.469308"><ele>570.9</ele></trkpt>
            <trkpt lat="51.854439" lon="10.469295"><ele>570.7</ele></trkpt>
            <trkpt lat="51.854486" lon="10.469207"><ele>570.5</ele></trkpt>
            <trkpt lat="51.854585" lon="10.469127"><ele>570.4</ele></trkpt>
            <trkpt lat="51.854677" lon="10.469092"><ele>570.6</ele></trkpt>
            <trkpt lat="51.85469" lon="10.469112"><ele>570.7</ele></trkpt>
            <trkpt lat="51.854587" lon="10.469249"><ele>570.3</ele></trkpt>
            <trkpt lat="51.85459" lon="10.46929"><ele>570.2</ele></trkpt>
            <trkpt lat="51.854611" lon="10.469296"><ele>570</ele></trkpt>
            <trkpt lat="51.85476" lon="10.469216"><ele>569.6</ele></trkpt>
            <trkpt lat="51.85482" lon="10.469165"><ele>569.7</ele></trkpt>
            <trkpt lat="51.854848" lon="10.469099"><ele>569.9</ele></trkpt>
            <trkpt lat="51.854862" lon="10.469104"><ele>570</ele></trkpt>
            <trkpt lat="51.854876" lon="10.469184"><ele>569.8</ele></trkpt>
            <trkpt lat="51.854796" lon="10.4694"><ele>569.5</ele></trkpt>
            <trkpt lat="51.854798" lon="10.469471"><ele>569.3</ele></trkpt>
            <trkpt lat="51.854886" lon="10.469436"><ele>568.9</ele></trkpt>
            <trkpt lat="51.854915" lon="10.469467"><ele>568.8</ele></trkpt>
            <trkpt lat="51.854964" lon="10.469468"><ele>559</ele></trkpt>
            <trkpt lat="51.854985" lon="10.469547"><ele>559</ele></trkpt>
            <trkpt lat="51.854788" lon="10.469752"><ele>535.9</ele></trkpt>
            <trkpt lat="51.85468" lon="10.469911"><ele>536.4</ele></trkpt>
            <trkpt lat="51.854628" lon="10.470048"><ele>535.7</ele></trkpt>
            <trkpt lat="51.854591" lon="10.470228"><ele>536</ele></trkpt>
            <trkpt lat="51.854589" lon="10.470566"><ele>535.6</ele></trkpt>
            <trkpt lat="51.854648" lon="10.471002"><ele>532.9</ele></trkpt>
            <trkpt lat="51.854637" lon="10.471102"><ele>531.1</ele></trkpt>
            <trkpt lat="51.854608" lon="10.47117"><ele>530.3</ele></trkpt>
            <trkpt lat="51.854569" lon="10.471222"><ele>528.8</ele></trkpt>
            <trkpt lat="51.854371" lon="10.471372"><ele>526.7</ele></trkpt>
            <trkpt lat="51.854212" lon="10.471557"><ele>523.2</ele></trkpt>
            <trkpt lat="51.854036" lon="10.471916"><ele>519.4</ele></trkpt>
            <trkpt lat="51.853867" lon="10.472519"><ele>514.7</ele></trkpt>
            <trkpt lat="51.853697" lon="10.472799"><ele>512</ele></trkpt>
            <trkpt lat="51.853621" lon="10.47288"><ele>511.2</ele></trkpt>
            <trkpt lat="51.853415" lon="10.472995"><ele>509.7</ele></trkpt>
            <trkpt lat="51.853198" lon="10.473044"><ele>512.3</ele></trkpt>
            <trkpt lat="51.853052" lon="10.473312"><ele>514.2</ele></trkpt>
            <trkpt lat="51.852923" lon="10.473452"><ele>503</ele></trkpt>
            <trkpt lat="51.852902" lon="10.473605"><ele>494.6</ele></trkpt>
            <trkpt lat="51.852983" lon="10.474193"><ele>495.3</ele></trkpt>
            <trkpt lat="51.852979" lon="10.474326"><ele>494.8</ele></trkpt>
            <trkpt lat="51.852959" lon="10.474507"><ele>494.4</ele></trkpt>
            <trkpt lat="51.852866" lon="10.474828"><ele>493.7</ele></trkpt>
            <trkpt lat="51.85285" lon="10.474933"><ele>493.4</ele></trkpt>
            <trkpt lat="51.852955" lon="10.475428"><ele>474</ele></trkpt>
            <trkpt lat="51.852959" lon="10.475681"><ele>462.6</ele></trkpt>
            <trkpt lat="51.852933" lon="10.47594"><ele>460.3</ele></trkpt>
            <trkpt lat="51.85287" lon="10.476206"><ele>461.4</ele></trkpt>
            <trkpt lat="51.852763" lon="10.476523"><ele>455</ele></trkpt>
            <trkpt lat="51.852921" lon="10.476411"><ele>441</ele></trkpt>
            <trkpt lat="51.85307" lon="10.476354"><ele>439.3</ele></trkpt>
            <trkpt lat="51.853222" lon="10.476328"><ele>437.9</ele></trkpt>
            <trkpt lat="51.853288" lon="10.476277"><ele>436.5</ele></trkpt>
            <trkpt lat="51.853369" lon="10.476164"><ele>434.1</ele></trkpt>
            <trkpt lat="51.853475" lon="10.475959"><ele>435.1</ele></trkpt>
            <trkpt lat="51.853597" lon="10.47566"><ele>436.3</ele></trkpt>
            <trkpt lat="51.853667" lon="10.475558"><ele>435.5</ele></trkpt>
            <trkpt lat="51.853937" lon="10.475262"><ele>434.9</ele></trkpt>
            <trkpt lat="51.854049" lon="10.475107"><ele>434.5</ele></trkpt>
            <trkpt lat="51.854391" lon="10.474806"><ele>430.7</ele></trkpt>
            <trkpt lat="51.854993" lon="10.474047"><ele>422.7</ele></trkpt>
            <trkpt lat="51.855289" lon="10.473701"><ele>416.3</ele></trkpt>
            <trkpt lat="51.855634" lon="10.47336"><ele>418.3</ele></trkpt>
            <trkpt lat="51.85572" lon="10.473319"><ele>427</ele></trkpt>
            <trkpt lat="51.855811" lon="10.473323"><ele>427</ele></trkpt>
            <trkpt lat="51.855859" lon="10.473336"><ele>374</ele></trkpt>
            <trkpt lat="51.855958" lon="10.473268"><ele>386.3</ele></trkpt>
            <trkpt lat="51.856845" lon="10.472403"><ele>375.5</ele></trkpt>
            <trkpt lat="51.857604" lon="10.47178"><ele>350</ele></trkpt>
            <trkpt lat="51.857722" lon="10.471679"><ele>350</ele></trkpt>
            <trkpt lat="51.85793" lon="10.471477"><ele>349.3</ele></trkpt>
            <trkpt lat="51.858069" lon="10.471372"><ele>349</ele></trkpt>
            <trkpt lat="51.858454" lon="10.471528"><ele>351.1</ele></trkpt>
            <trkpt lat="51.858686" lon="10.471553"><ele>354</ele></trkpt>
            <trkpt lat="51.858879" lon="10.471491"><ele>354</ele></trkpt>
            <trkpt lat="51.85897" lon="10.471433"><ele>354</ele></trkpt>
            <trkpt lat="51.859006" lon="10.471335"><ele>354</ele></trkpt>
            <trkpt lat="51.85893" lon="10.471309"><ele>354</ele></trkpt>
            <trkpt lat="51.858775" lon="10.471234"><ele>354</ele></trkpt>
            <trkpt lat="51.858705" lon="10.471187"><ele>354</ele></trkpt>
            <trkpt lat="51.858445" lon="10.470933"><ele>354</ele></trkpt>
            <trkpt lat="51.858057" lon="10.470462"><ele>348</ele></trkpt>
            <trkpt lat="51.857914" lon="10.470247"><ele>348</ele></trkpt>
            <trkpt lat="51.857673" lon="10.469849"><ele>363.3</ele></trkpt>
            <trkpt lat="51.857554" lon="10.469612"><ele>365</ele></trkpt>
            <trkpt lat="51.857432" lon="10.46925"><ele>367</ele></trkpt>
            <trkpt lat="51.857395" lon="10.469023"><ele>377</ele></trkpt>
            <trkpt lat="51.857383" lon="10.468757"><ele>366.9</ele></trkpt>
            <trkpt lat="51.857402" lon="10.468454"><ele>365.1</ele></trkpt>
            <trkpt lat="51.857531" lon="10.467799"><ele>360.1</ele></trkpt>
            <trkpt lat="51.857642" lon="10.46742"><ele>361.7</ele></trkpt>
            <trkpt lat="51.857721" lon="10.467243"><ele>361.9</ele></trkpt>
            <trkpt lat="51.857814" lon="10.467095"><ele>362.1</ele></trkpt>
            <trkpt lat="51.858259" lon="10.466447"><ele>360.2</ele></trkpt>
            <trkpt lat="51.858483" lon="10.466089"><ele>360.3</ele></trkpt>
            <trkpt lat="51.858565" lon="10.465931"><ele>360.1</ele></trkpt>
            <trkpt lat="51.858621" lon="10.465763"><ele>359.8</ele></trkpt>
            <trkpt lat="51.858665" lon="10.465493"><ele>360</ele></trkpt>
            <trkpt lat="51.858666" lon="10.465307"><ele>360.2</ele></trkpt>
            <trkpt lat="51.858626" lon="10.465051"><ele>360.6</ele></trkpt>
            <trkpt lat="51.85857" lon="10.464876"><ele>368</ele></trkpt>
            <trkpt lat="51.858693" lon="10.464695"><ele>379</ele></trkpt>
            <trkpt lat="51.85881" lon="10.464599"><ele>381.2</ele></trkpt>
            <trkpt lat="51.859808" lon="10.464211"><ele>387.2</ele></trkpt>
            <trkpt lat="51.859939" lon="10.464111"><ele>390.6</ele></trkpt>
            <trkpt lat="51.860014" lon="10.463986"><ele>393.1</ele></trkpt>
            <trkpt lat="51.860047" lon="10.463792"><ele>393.4</ele></trkpt>
            <trkpt lat="51.860049" lon="10.463636"><ele>396.9</ele></trkpt>
            <trkpt lat="51.860005" lon="10.46338"><ele>396.8</ele></trkpt>
            <trkpt lat="51.859845" lon="10.462838"><ele>398.3</ele></trkpt>
            <trkpt lat="51.859643" lon="10.462339"><ele>399.6</ele></trkpt>
            <trkpt lat="51.859499" lon="10.462069"><ele>401.2</ele></trkpt>
            <trkpt lat="51.859338" lon="10.461834"><ele>403.8</ele></trkpt>
            <trkpt lat="51.858919" lon="10.461409"><ele>407.3</ele></trkpt>
            <trkpt lat="51.858728" lon="10.461139"><ele>408.6</ele></trkpt>
            <trkpt lat="51.858641" lon="10.460926"><ele>409.1</ele></trkpt>
            <trkpt lat="51.858583" lon="10.46068"><ele>412.1</ele></trkpt>
            <trkpt lat="51.858515" lon="10.460488"><ele>413.5</ele></trkpt>
            <trkpt lat="51.858378" lon="10.460259"><ele>415.3</ele></trkpt>
            <trkpt lat="51.858125" lon="10.459985"><ele>416.9</ele></trkpt>
            <trkpt lat="51.85788" lon="10.459599"><ele>418.7</ele></trkpt>
            <trkpt lat="51.857703" lon="10.459119"><ele>435</ele></trkpt>
            <trkpt lat="51.857634" lon="10.458861"><ele>442.3</ele></trkpt>
            <trkpt lat="51.857463" lon="10.457787"><ele>457</ele></trkpt>
            <trkpt lat="51.857382" lon="10.457271"><ele>467.7</ele></trkpt>
            <trkpt lat="51.857319" lon="10.456411"><ele>470.5</ele></trkpt>
            <trkpt lat="51.857275" lon="10.455478"><ele>476.6</ele></trkpt>
            <trkpt lat="51.857316" lon="10.454728"><ele>482.4</ele></trkpt>
            <trkpt lat="51.857177" lon="10.453891"><ele>484.4</ele></trkpt>
            <trkpt lat="51.85717" lon="10.453409"><ele>484.5</ele></trkpt>
            <trkpt lat="51.857484" lon="10.450776"><ele>516.5</ele></trkpt>
            <trkpt lat="51.857526" lon="10.450571"><ele>518.1</ele></trkpt>
            <trkpt lat="51.857605" lon="10.450316"><ele>517.3</ele></trkpt>
            <trkpt lat="51.857799" lon="10.449865"><ele>517.5</ele></trkpt>
            <trkpt lat="51.857863" lon="10.449656"><ele>517.6</ele></trkpt>
            <trkpt lat="51.857901" lon="10.449452"><ele>517.8</ele></trkpt>
            <trkpt lat="51.85792" lon="10.449246"><ele>517.9</ele></trkpt>
            <trkpt lat="51.857935" lon="10.449032"><ele>518.9</ele></trkpt>
            <trkpt lat="51.857918" lon="10.448932"><ele>528</ele></trkpt>
            <trkpt lat="51.857817" lon="10.448835"><ele>525</ele></trkpt>
            <trkpt lat="51.857739" lon="10.448812"><ele>524.7</ele></trkpt>
            <trkpt lat="51.85751" lon="10.448805"><ele>523.9</ele></trkpt>
            <trkpt lat="51.857431" lon="10.448749"><ele>523.5</ele></trkpt>
            <trkpt lat="51.857367" lon="10.448668"><ele>523.9</ele></trkpt>
            <trkpt lat="51.857307" lon="10.448541"><ele>520</ele></trkpt>
            <trkpt lat="51.857422" lon="10.448414"><ele>520</ele></trkpt>
            <trkpt lat="51.858188" lon="10.447924"><ele>549.2</ele></trkpt>
            <trkpt lat="51.858688" lon="10.447719"><ele>553.5</ele></trkpt>
            <trkpt lat="51.858836" lon="10.447719"><ele>556.3</ele></trkpt>
            <trkpt lat="51.859062" lon="10.447756"><ele>557.9</ele></trkpt>
            <trkpt lat="51.859199" lon="10.447731"><ele>560.8</ele></trkpt>
            <trkpt lat="51.859947" lon="10.447333"><ele>575.2</ele></trkpt>
            <trkpt lat="51.86018" lon="10.447175"><ele>583.2</ele></trkpt>
            <trkpt lat="51.860497" lon="10.446857"><ele>591.1</ele></trkpt>
            <trkpt lat="51.860708" lon="10.446735"><ele>593.4</ele></trkpt>
            <trkpt lat="51.860924" lon="10.446674"><ele>594.7</ele></trkpt>
            <trkpt lat="51.861044" lon="10.446615"><ele>599.7</ele></trkpt>
            <trkpt lat="51.861193" lon="10.446457"><ele>620</ele></trkpt>
            <trkpt lat="51.861302" lon="10.446398"><ele>623.4</ele></trkpt>
            <trkpt lat="51.861918" lon="10.446322"><ele>624.5</ele></trkpt>
            <trkpt lat="51.862302" lon="10.446146"><ele>629</ele></trkpt>
            <trkpt lat="51.86276" lon="10.445852"><ele>636</ele></trkpt>
            <trkpt lat="51.863324" lon="10.44622"><ele>639.1</ele></trkpt>
            <trkpt lat="51.864243" lon="10.446302"><ele>645.2</ele></trkpt>
            <trkpt lat="51.865283" lon="10.446731"><ele>653.6</ele></trkpt>
            <trkpt lat="51.866034" lon="10.446862"><ele>655.7</ele></trkpt>
            <trkpt lat="51.866276" lon="10.446716"><ele>655.8</ele></trkpt>
            <trkpt lat="51.867173" lon="10.44636"><ele>654.2</ele></trkpt>
            <trkpt lat="51.86763" lon="10.446189"><ele>653.9</ele></trkpt>
            <trkpt lat="51.867839" lon="10.446147"><ele>654.1</ele></trkpt>
            <trkpt lat="51.86812" lon="10.445616"><ele>654.1</ele></trkpt>
            <trkpt lat="51.869248" lon="10.442578"><ele>657</ele></trkpt>
            <trkpt lat="51.869461" lon="10.44205"><ele>657</ele></trkpt>
            <trkpt lat="51.869538" lon="10.44166"><ele>663.2</ele></trkpt>
            <trkpt lat="51.869953" lon="10.440244"><ele>665</ele></trkpt>
            <trkpt lat="51.870113" lon="10.439872"><ele>665.5</ele></trkpt>
            <trkpt lat="51.870551" lon="10.43938"><ele>664.4</ele></trkpt>
            <trkpt lat="51.87087" lon="10.438721"><ele>661.9</ele></trkpt>
            <trkpt lat="51.871022" lon="10.437951"><ele>660.5</ele></trkpt>
            <trkpt lat="51.871226" lon="10.437112"><ele>660.8</ele></trkpt>
            <trkpt lat="51.871246" lon="10.436331"><ele>664</ele></trkpt>
            <trkpt lat="51.871335" lon="10.435653"><ele>661</ele></trkpt>
            <trkpt lat="51.871538" lon="10.434978"><ele>658.8</ele></trkpt>
            <trkpt lat="51.871708" lon="10.43406"><ele>653.1</ele></trkpt>
            <trkpt lat="51.871901" lon="10.433342"><ele>649.5</ele></trkpt>
            <trkpt lat="51.872025" lon="10.433084"><ele>648.9</ele></trkpt>
            <trkpt lat="51.872222" lon="10.432839"><ele>645.8</ele></trkpt>
            <trkpt lat="51.872466" lon="10.432662"><ele>645.7</ele></trkpt>
            <trkpt lat="51.87277" lon="10.432485"><ele>639</ele></trkpt>
            <trkpt lat="51.873412" lon="10.432444"><ele>641.8</ele></trkpt>
            <trkpt lat="51.873552" lon="10.432456"><ele>641.2</ele></trkpt>
            <trkpt lat="51.873722" lon="10.432558"><ele>639.8</ele></trkpt>
            <trkpt lat="51.874418" lon="10.433313"><ele>637.9</ele></trkpt>
            <trkpt lat="51.874779" lon="10.433646"><ele>636.1</ele></trkpt>
            <trkpt lat="51.875609" lon="10.434289"><ele>632.1</ele></trkpt>
            <trkpt lat="51.876145" lon="10.434643"><ele>630.1</ele></trkpt>
            <trkpt lat="51.876439" lon="10.434773"><ele>629.3</ele></trkpt>
            <trkpt lat="51.876699" lon="10.434935"><ele>628.9</ele></trkpt>
            <trkpt lat="51.876963" lon="10.435037"><ele>628.3</ele></trkpt>
            <trkpt lat="51.877224" lon="10.435056"><ele>628.5</ele></trkpt>
            <trkpt lat="51.877465" lon="10.435025"><ele>627</ele></trkpt>
            <trkpt lat="51.877733" lon="10.434968"><ele>625.9</ele></trkpt>
            <trkpt lat="51.877838" lon="10.434921"><ele>625.9</ele></trkpt>
            <trkpt lat="51.877908" lon="10.434861"><ele>625.9</ele></trkpt>
            <trkpt lat="51.877968" lon="10.43475"><ele>625.9</ele></trkpt>
            <trkpt lat="51.878035" lon="10.434424"><ele>625.9</ele></trkpt>
            <trkpt lat="51.878074" lon="10.434094"><ele>624.4</ele></trkpt>
            <trkpt lat="51.878088" lon="10.43375"><ele>622.1</ele></trkpt>
            <trkpt lat="51.878113" lon="10.433544"><ele>621.8</ele></trkpt>
            <trkpt lat="51.87819" lon="10.433127"><ele>619.4</ele></trkpt>
            <trkpt lat="51.878507" lon="10.43202"><ele>614.2</ele></trkpt>
            <trkpt lat="51.878616" lon="10.431804"><ele>614.7</ele></trkpt>
            <trkpt lat="51.878996" lon="10.431415"><ele>601</ele></trkpt>
            <trkpt lat="51.879106" lon="10.431129"><ele>592.7</ele></trkpt>
            <trkpt lat="51.879193" lon="10.430845"><ele>592.3</ele></trkpt>
            <trkpt lat="51.879338" lon="10.430626"><ele>591.1</ele></trkpt>
            <trkpt lat="51.879448" lon="10.430564"><ele>591</ele></trkpt>
            <trkpt lat="51.879571" lon="10.430581"><ele>590.9</ele></trkpt>
            <trkpt lat="51.879916" lon="10.430723"><ele>589.9</ele></trkpt>
            <trkpt lat="51.880086" lon="10.430714"><ele>587.6</ele></trkpt>
            <trkpt lat="51.880441" lon="10.430599"><ele>585</ele></trkpt>
            <trkpt lat="51.880666" lon="10.430448"><ele>580.7</ele></trkpt>
            <trkpt lat="51.881009" lon="10.430002"><ele>577.2</ele></trkpt>
            <trkpt lat="51.88123" lon="10.429683"><ele>564.5</ele></trkpt>
            <trkpt lat="51.881537" lon="10.429071"><ele>552.8</ele></trkpt>
            <trkpt lat="51.88186" lon="10.428296"><ele>527</ele></trkpt>
            <trkpt lat="51.88223" lon="10.427052"><ele>501.9</ele></trkpt>
            <trkpt lat="51.882468" lon="10.426063"><ele>487.7</ele></trkpt>
            <trkpt lat="51.882733" lon="10.425436"><ele>488.8</ele></trkpt>
            <trkpt lat="51.882997" lon="10.42496"><ele>485.2</ele></trkpt>
            <trkpt lat="51.883318" lon="10.424808"><ele>483.3</ele></trkpt>
            <trkpt lat="51.883631" lon="10.424968"><ele>482.7</ele></trkpt>
            <trkpt lat="51.883821" lon="10.425232"><ele>488.1</ele></trkpt>
            <trkpt lat="51.884108" lon="10.426002"><ele>494</ele></trkpt>
            <trkpt lat="51.884763" lon="10.427571"><ele>502</ele></trkpt>
            <trkpt lat="51.885075" lon="10.427995"><ele>495.3</ele></trkpt>
            <trkpt lat="51.885189" lon="10.428085"><ele>493.4</ele></trkpt>
            <trkpt lat="51.885277" lon="10.428034"><ele>486.6</ele></trkpt>
            <trkpt lat="51.885571" lon="10.427174"><ele>477.9</ele></trkpt>
            <trkpt lat="51.885996" lon="10.426212"><ele>450.3</ele></trkpt>
            <trkpt lat="51.886314" lon="10.424433"><ele>422.8</ele></trkpt>
            <trkpt lat="51.886465" lon="10.42403"><ele>414.7</ele></trkpt>
            <trkpt lat="51.886795" lon="10.42359"><ele>415.5</ele></trkpt>
            <trkpt lat="51.887177" lon="10.422951"><ele>408.8</ele></trkpt>
            <trkpt lat="51.887644" lon="10.422522"><ele>410.5</ele></trkpt>
            <trkpt lat="51.887895" lon="10.422338"><ele>408.2</ele></trkpt>
            <trkpt lat="51.888302" lon="10.422231"><ele>401</ele></trkpt>
            <trkpt lat="51.888418" lon="10.422149"><ele>401</ele></trkpt>
            <trkpt lat="51.888513" lon="10.422252"><ele>401</ele></trkpt>
            <trkpt lat="51.888771" lon="10.422348"><ele>401</ele></trkpt>
            <trkpt lat="51.889021" lon="10.422472"><ele>401</ele></trkpt>
            <trkpt lat="51.889265" lon="10.422553"><ele>414</ele></trkpt>
            <trkpt lat="51.889539" lon="10.4228"><ele>414</ele></trkpt>
            <trkpt lat="51.889966" lon="10.42328"><ele>414</ele></trkpt>
            <trkpt lat="51.889933" lon="10.423164"><ele>414</ele></trkpt>
            <trkpt lat="51.889861" lon="10.423012"><ele>414</ele></trkpt>
            <trkpt lat="51.889777" lon="10.422895"><ele>414</ele></trkpt>
            <trkpt lat="51.88969" lon="10.422701"><ele>414</ele></trkpt>
            <trkpt lat="51.889665" lon="10.422581"><ele>414</ele></trkpt>
            <trkpt lat="51.889686" lon="10.422556"><ele>414</ele></trkpt>
            <trkpt lat="51.889711" lon="10.422563"><ele>395</ele></trkpt>
            <trkpt lat="51.889766" lon="10.422658"><ele>394</ele></trkpt>
            <trkpt lat="51.88986" lon="10.422676"><ele>391.9</ele></trkpt>
            <trkpt lat="51.889921" lon="10.422566"><ele>389.7</ele></trkpt>
            <trkpt lat="51.889936" lon="10.422465"><ele>388.5</ele></trkpt>
            <trkpt lat="51.889916" lon="10.422321"><ele>388.2</ele></trkpt>
            <trkpt lat="51.88989" lon="10.42224"><ele>387.9</ele></trkpt>
            <trkpt lat="51.889816" lon="10.422126"><ele>387.6</ele></trkpt>
            <trkpt lat="51.889767" lon="10.421898"><ele>386.6</ele></trkpt>
            <trkpt lat="51.889555" lon="10.421485"><ele>385.8</ele></trkpt>
            <trkpt lat="51.889513" lon="10.421372"><ele>386.7</ele></trkpt>
            <trkpt lat="51.889039" lon="10.421056"><ele>373</ele></trkpt>
            <trkpt lat="51.888913" lon="10.420909"><ele>363.5</ele></trkpt>
            <trkpt lat="51.888781" lon="10.42081"><ele>362.3</ele></trkpt>
            <trkpt lat="51.888652" lon="10.420786"><ele>364.5</ele></trkpt>
            <trkpt lat="51.88809" lon="10.420863"><ele>366.8</ele></trkpt>
            <trkpt lat="51.887896" lon="10.420866"><ele>368</ele></trkpt>
            <trkpt lat="51.88815" lon="10.420588"><ele>349.4</ele></trkpt>
            <trkpt lat="51.888378" lon="10.420098"><ele>350.5</ele></trkpt>
            <trkpt lat="51.888613" lon="10.419723"><ele>345</ele></trkpt>
            <trkpt lat="51.888698" lon="10.419659"><ele>345</ele></trkpt>
            <trkpt lat="51.888932" lon="10.419496"><ele>345</ele></trkpt>
            <trkpt lat="51.888996" lon="10.419405"><ele>345</ele></trkpt>
            <trkpt lat="51.889086" lon="10.419189"><ele>345</ele></trkpt>
            <trkpt lat="51.889143" lon="10.418936"><ele>341</ele></trkpt>
            <trkpt lat="51.889208" lon="10.418748"><ele>333</ele></trkpt>
            <trkpt lat="51.889268" lon="10.41864"><ele>335.6</ele></trkpt>
            <trkpt lat="51.889345" lon="10.418554"><ele>335.2</ele></trkpt>
            <trkpt lat="51.889448" lon="10.418478"><ele>334.9</ele></trkpt>
            <trkpt lat="51.889808" lon="10.418263"><ele>337.3</ele></trkpt>
            <trkpt lat="51.89007" lon="10.41818"><ele>340</ele></trkpt>
            <trkpt lat="51.890161" lon="10.418141"><ele>340</ele></trkpt>
            <trkpt lat="51.890172" lon="10.41825"><ele>340</ele></trkpt>
            <trkpt lat="51.890185" lon="10.418373"><ele>326</ele></trkpt>
            <trkpt lat="51.890233" lon="10.418898"><ele>326</ele></trkpt>
            <trkpt lat="51.890185" lon="10.418373"><ele>326</ele></trkpt>
            <trkpt lat="51.890172" lon="10.41825"><ele>340</ele></trkpt>
            <trkpt lat="51.890161" lon="10.418141"><ele>340</ele></trkpt>
            <trkpt lat="51.89007" lon="10.41818"><ele>340</ele></trkpt>
            <trkpt lat="51.889808" lon="10.418263"><ele>337.3</ele></trkpt>
            <trkpt lat="51.889448" lon="10.418478"><ele>334.9</ele></trkpt>
            <trkpt lat="51.889345" lon="10.418554"><ele>335.2</ele></trkpt>
            <trkpt lat="51.889268" lon="10.41864"><ele>335.6</ele></trkpt>
            <trkpt lat="51.889208" lon="10.418748"><ele>333</ele></trkpt>
            <trkpt lat="51.889143" lon="10.418936"><ele>341</ele></trkpt>
            <trkpt lat="51.889086" lon="10.419189"><ele>345</ele></trkpt>
            <trkpt lat="51.888996" lon="10.419405"><ele>345</ele></trkpt>
            <trkpt lat="51.888932" lon="10.419496"><ele>345</ele></trkpt>
            <trkpt lat="51.888698" lon="10.419659"><ele>345</ele></trkpt>
            <trkpt lat="51.888613" lon="10.419723"><ele>345</ele></trkpt>
            <trkpt lat="51.888378" lon="10.420098"><ele>350.5</ele></trkpt>
            <trkpt lat="51.88815" lon="10.420588"><ele>349.4</ele></trkpt>
            <trkpt lat="51.887896" lon="10.420866"><ele>368</ele></trkpt>
            <trkpt lat="51.88809" lon="10.420863"><ele>366.8</ele></trkpt>
            <trkpt lat="51.888652" lon="10.420786"><ele>364.5</ele></trkpt>
            <trkpt lat="51.888781" lon="10.42081"><ele>362.3</ele></trkpt>
            <trkpt lat="51.888913" lon="10.420909"><ele>363.5</ele></trkpt>
            <trkpt lat="51.889039" lon="10.421056"><ele>373</ele></trkpt>
            <trkpt lat="51.889513" lon="10.421372"><ele>386.7</ele></trkpt>
            <trkpt lat="51.889555" lon="10.421485"><ele>385.8</ele></trkpt>
            <trkpt lat="51.889767" lon="10.421898"><ele>386.6</ele></trkpt>
            <trkpt lat="51.889816" lon="10.422126"><ele>387.6</ele></trkpt>
            <trkpt lat="51.88989" lon="10.42224"><ele>387.9</ele></trkpt>
            <trkpt lat="51.889916" lon="10.422321"><ele>388.2</ele></trkpt>
            <trkpt lat="51.889936" lon="10.422465"><ele>388.5</ele></trkpt>
            <trkpt lat="51.889921" lon="10.422566"><ele>389.7</ele></trkpt>
            <trkpt lat="51.88986" lon="10.422676"><ele>391.9</ele></trkpt>
            <trkpt lat="51.889766" lon="10.422658"><ele>394</ele></trkpt>
            <trkpt lat="51.889711" lon="10.422563"><ele>395</ele></trkpt>
            <trkpt lat="51.889686" lon="10.422556"><ele>414</ele></trkpt>
            <trkpt lat="51.889665" lon="10.422581"><ele>414</ele></trkpt>
            <trkpt lat="51.88969" lon="10.422701"><ele>414</ele></trkpt>
            <trkpt lat="51.889777" lon="10.422895"><ele>414</ele></trkpt>
            <trkpt lat="51.889861" lon="10.423012"><ele>414</ele></trkpt>
            <trkpt lat="51.889933" lon="10.423164"><ele>414</ele></trkpt>
            <trkpt lat="51.889966" lon="10.42328"><ele>414</ele></trkpt>
            <trkpt lat="51.890015" lon="10.423354"><ele>412.5</ele></trkpt>
            <trkpt lat="51.890226" lon="10.423565"><ele>412.6</ele></trkpt>
            <trkpt lat="51.890721" lon="10.423916"><ele>412.7</ele></trkpt>
            <trkpt lat="51.890885" lon="10.424076"><ele>411</ele></trkpt>
            <trkpt lat="51.890984" lon="10.424249"><ele>411.2</ele></trkpt>
            <trkpt lat="51.891041" lon="10.424398"><ele>413</ele></trkpt>
            <trkpt lat="51.891124" lon="10.424663"><ele>416.9</ele></trkpt>
            <trkpt lat="51.891189" lon="10.424781"><ele>416.3</ele></trkpt>
            <trkpt lat="51.891426" lon="10.425098"><ele>430</ele></trkpt>
            <trkpt lat="51.891626" lon="10.425349"><ele>430</ele></trkpt>
            <trkpt lat="51.891682" lon="10.425429"><ele>411</ele></trkpt>
            <trkpt lat="51.891515" lon="10.425602"><ele>451.5</ele></trkpt>
            <trkpt lat="51.891422" lon="10.425669"><ele>452.1</ele></trkpt>
            <trkpt lat="51.891358" lon="10.425675"><ele>452.8</ele></trkpt>
            <trkpt lat="51.891294" lon="10.425633"><ele>453.5</ele></trkpt>
            <trkpt lat="51.89124" lon="10.425657"><ele>454.3</ele></trkpt>
            <trkpt lat="51.891231" lon="10.425921"><ele>456.6</ele></trkpt>
            <trkpt lat="51.89132" lon="10.426288"><ele>457.1</ele></trkpt>
            <trkpt lat="51.891309" lon="10.42632"><ele>457.4</ele></trkpt>
            <trkpt lat="51.891248" lon="10.426273"><ele>457.9</ele></trkpt>
            <trkpt lat="51.891232" lon="10.426363"><ele>458.2</ele></trkpt>
            <trkpt lat="51.890963" lon="10.426123"><ele>459.1</ele></trkpt>
            <trkpt lat="51.890927" lon="10.426123"><ele>459.4</ele></trkpt>
            <trkpt lat="51.890918" lon="10.426166"><ele>459.7</ele></trkpt>
            <trkpt lat="51.890942" lon="10.42635"><ele>460.4</ele></trkpt>
            <trkpt lat="51.89088" lon="10.426329"><ele>460.7</ele></trkpt>
            <trkpt lat="51.890724" lon="10.426208"><ele>461.1</ele></trkpt>
            <trkpt lat="51.890684" lon="10.426225"><ele>460.5</ele></trkpt>
            <trkpt lat="51.890571" lon="10.426084"><ele>459.9</ele></trkpt>
            <trkpt lat="51.890502" lon="10.426036"><ele>459.3</ele></trkpt>
            <trkpt lat="51.89048" lon="10.426043"><ele>458.6</ele></trkpt>
            <trkpt lat="51.890479" lon="10.426134"><ele>457.3</ele></trkpt>
            <trkpt lat="51.890458" lon="10.426158"><ele>480</ele></trkpt>
            <trkpt lat="51.890458" lon="10.426328"><ele>480</ele></trkpt>
            <trkpt lat="51.890442" lon="10.426373"><ele>487.1</ele></trkpt>
            <trkpt lat="51.890499" lon="10.426598"><ele>487.7</ele></trkpt>
            <trkpt lat="51.890426" lon="10.426543"><ele>488.4</ele></trkpt>
            <trkpt lat="51.890328" lon="10.426396"><ele>489.2</ele></trkpt>
            <trkpt lat="51.890243" lon="10.426423"><ele>491</ele></trkpt>
            <trkpt lat="51.89023" lon="10.426694"><ele>493</ele></trkpt>
            <trkpt lat="51.89026" lon="10.426862"><ele>506</ele></trkpt>
            <trkpt lat="51.890261" lon="10.426892"><ele>506</ele></trkpt>
            <trkpt lat="51.890216" lon="10.426882"><ele>506</ele></trkpt>
            <trkpt lat="51.890105" lon="10.426931"><ele>506</ele></trkpt>
            <trkpt lat="51.890076" lon="10.426778"><ele>506</ele></trkpt>
            <trkpt lat="51.889964" lon="10.426764"><ele>547</ele></trkpt>
            <trkpt lat="51.889877" lon="10.426738"><ele>547</ele></trkpt>
            <trkpt lat="51.889833" lon="10.426696"><ele>547</ele></trkpt>
            <trkpt lat="51.889831" lon="10.426918"><ele>547</ele></trkpt>
            <trkpt lat="51.889859" lon="10.426967"><ele>547</ele></trkpt>
            <trkpt lat="51.889849" lon="10.426995"><ele>547</ele></trkpt>
            <trkpt lat="51.889799" lon="10.426948"><ele>547</ele></trkpt>
            <trkpt lat="51.889774" lon="10.426972"><ele>547</ele></trkpt>
            <trkpt lat="51.889758" lon="10.427065"><ele>547</ele></trkpt>
            <trkpt lat="51.889722" lon="10.427033"><ele>547</ele></trkpt>
            <trkpt lat="51.889622" lon="10.42718"><ele>547</ele></trkpt>
            <trkpt lat="51.889594" lon="10.427252"><ele>547</ele></trkpt>
            <trkpt lat="51.889542" lon="10.42718"><ele>549.1</ele></trkpt>
            <trkpt lat="51.889496" lon="10.427157"><ele>549.3</ele></trkpt>
            <trkpt lat="51.889494" lon="10.427225"><ele>549.5</ele></trkpt>
            <trkpt lat="51.889343" lon="10.42717"><ele>550.1</ele></trkpt>
            <trkpt lat="51.889181" lon="10.427183"><ele>550.7</ele></trkpt>
            <trkpt lat="51.889151" lon="10.427214"><ele>566</ele></trkpt>
            <trkpt lat="51.888889" lon="10.426983"><ele>566</ele></trkpt>
            <trkpt lat="51.888672" lon="10.426759"><ele>566</ele></trkpt>
            <trkpt lat="51.888503" lon="10.426605"><ele>541.7</ele></trkpt>
            <trkpt lat="51.888481" lon="10.426604"><ele>541</ele></trkpt>
            <trkpt lat="51.888503" lon="10.426605"><ele>541.7</ele></trkpt>
            <trkpt lat="51.888672" lon="10.426759"><ele>566</ele></trkpt>
            <trkpt lat="51.888889" lon="10.426983"><ele>566</ele></trkpt>
            <trkpt lat="51.889151" lon="10.427214"><ele>566</ele></trkpt>
            <trkpt lat="51.889352" lon="10.427526"><ele>571</ele></trkpt>
            <trkpt lat="51.889433" lon="10.427706"><ele>571.9</ele></trkpt>
            <trkpt lat="51.889677" lon="10.428449"><ele>575.2</ele></trkpt>
            <trkpt lat="51.88981" lon="10.428633"><ele>582</ele></trkpt>
            <trkpt lat="51.889918" lon="10.428793"><ele>582</ele></trkpt>
            <trkpt lat="51.889983" lon="10.428903"><ele>572</ele></trkpt>
            <trkpt lat="51.890671" lon="10.429819"><ele>562</ele></trkpt>
            <trkpt lat="51.890715" lon="10.43012"><ele>564.8</ele></trkpt>
            <trkpt lat="51.890819" lon="10.430524"><ele>562.8</ele></trkpt>
            <trkpt lat="51.890887" lon="10.431056"><ele>560.4</ele></trkpt>
            <trkpt lat="51.890923" lon="10.432082"><ele>565</ele></trkpt>
            <trkpt lat="51.890902" lon="10.433002"><ele>580</ele></trkpt>
            <trkpt lat="51.890812" lon="10.433567"><ele>582.8</ele></trkpt>
            <trkpt lat="51.890529" lon="10.434074"><ele>593</ele></trkpt>
            <trkpt lat="51.890776" lon="10.434325"><ele>573.3</ele></trkpt>
            <trkpt lat="51.892402" lon="10.436217"><ele>521.8</ele></trkpt>
            <trkpt lat="51.892926" lon="10.436907"><ele>509.9</ele></trkpt>
            <trkpt lat="51.893246" lon="10.437284"><ele>498.5</ele></trkpt>
            <trkpt lat="51.894121" lon="10.438178"><ele>487.1</ele></trkpt>
            <trkpt lat="51.894319" lon="10.438455"><ele>466</ele></trkpt>
            <trkpt lat="51.894426" lon="10.438616"><ele>454.5</ele></trkpt>
            <trkpt lat="51.894502" lon="10.438685"><ele>453.4</ele></trkpt>
            <trkpt lat="51.89463" lon="10.438755"><ele>452.1</ele></trkpt>
            <trkpt lat="51.894738" lon="10.438707"><ele>450.7</ele></trkpt>
            <trkpt lat="51.895057" lon="10.438116"><ele>449.2</ele></trkpt>
            <trkpt lat="51.895116" lon="10.437977"><ele>449.8</ele></trkpt>
            <trkpt lat="51.895331" lon="10.437851"><ele>450.5</ele></trkpt>
            <trkpt lat="51.895573" lon="10.437958"><ele>451.2</ele></trkpt>
            <trkpt lat="51.895675" lon="10.437883"><ele>443</ele></trkpt>
            <trkpt lat="51.895757" lon="10.438069"><ele>443</ele></trkpt>
            <trkpt lat="51.895987" lon="10.43815"><ele>424.5</ele></trkpt>
            <trkpt lat="51.896422" lon="10.43865"><ele>425.7</ele></trkpt>
            <trkpt lat="51.896605" lon="10.438835"><ele>426.2</ele></trkpt>
            <trkpt lat="51.896791" lon="10.438931"><ele>407</ele></trkpt>
            <trkpt lat="51.897026" lon="10.43928"><ele>401.7</ele></trkpt>
            <trkpt lat="51.89725" lon="10.439776"><ele>401.1</ele></trkpt>
            <trkpt lat="51.897809" lon="10.4409"><ele>393.1</ele></trkpt>
            <trkpt lat="51.898153" lon="10.441178"><ele>390.8</ele></trkpt>
            <trkpt lat="51.898809" lon="10.441311"><ele>372</ele></trkpt>
            <trkpt lat="51.89928" lon="10.441374"><ele>342</ele></trkpt>
            <trkpt lat="51.899372" lon="10.441395"><ele>342</ele></trkpt>
            <trkpt lat="51.899433" lon="10.441825"><ele>342.8</ele></trkpt>
            <trkpt lat="51.899476" lon="10.441991"><ele>342.7</ele></trkpt>
            <trkpt lat="51.899559" lon="10.442195"><ele>343</ele></trkpt>
            <trkpt lat="51.89971" lon="10.44334"><ele>343</ele></trkpt>
            <trkpt lat="51.899738" lon="10.443635"><ele>343</ele></trkpt>
            <trkpt lat="51.89977" lon="10.443964"><ele>341.6</ele></trkpt>
            <trkpt lat="51.89976" lon="10.444283"><ele>341.4</ele></trkpt>
            <trkpt lat="51.899836" lon="10.444667"><ele>341.4</ele></trkpt>
            <trkpt lat="51.899817" lon="10.44475"><ele>341.5</ele></trkpt>
            <trkpt lat="51.899712" lon="10.444838"><ele>341.5</ele></trkpt>
            <trkpt lat="51.899662" lon="10.444942"><ele>341</ele></trkpt>
            <trkpt lat="51.899492" lon="10.445026"><ele>339.1</ele></trkpt>
            <trkpt lat="51.899428" lon="10.445099"><ele>338</ele></trkpt>
            <trkpt lat="51.899402" lon="10.445237"><ele>338.3</ele></trkpt>
            <trkpt lat="51.899404" lon="10.445703"><ele>338.3</ele></trkpt>
            <trkpt lat="51.899434" lon="10.445822"><ele>338.4</ele></trkpt>
            <trkpt lat="51.899556" lon="10.445961"><ele>337.6</ele></trkpt>
            <trkpt lat="51.899998" lon="10.446172"><ele>336.4</ele></trkpt>
            <trkpt lat="51.900693" lon="10.4471"><ele>332</ele></trkpt>
            <trkpt lat="51.900961" lon="10.447393"><ele>320</ele></trkpt>
            <trkpt lat="51.900838" lon="10.447543"><ele>320</ele></trkpt>
            <trkpt lat="51.900729" lon="10.447677"><ele>331</ele></trkpt>
            <trkpt lat="51.90058" lon="10.447873"><ele>330.6</ele></trkpt>
            <trkpt lat="51.900483" lon="10.448058"><ele>330.5</ele></trkpt>
            <trkpt lat="51.900244" lon="10.449054"><ele>330</ele></trkpt>
            <trkpt lat="51.900085" lon="10.449616"><ele>327.9</ele></trkpt>
            <trkpt lat="51.899949" lon="10.449859"><ele>329.2</ele></trkpt>
            <trkpt lat="51.899745" lon="10.450107"><ele>321</ele></trkpt>
            <trkpt lat="51.899838" lon="10.450418"><ele>315</ele></trkpt>
            <trkpt lat="51.899962" lon="10.450642"><ele>314</ele></trkpt>
            <trkpt lat="51.900055" lon="10.450861"><ele>312.8</ele></trkpt>
            <trkpt lat="51.900076" lon="10.451093"><ele>313.5</ele></trkpt>
            <trkpt lat="51.900043" lon="10.4514"><ele>309</ele></trkpt>
            <trkpt lat="51.899744" lon="10.451479"><ele>305.5</ele></trkpt>
            <trkpt lat="51.899574" lon="10.451575"><ele>305.8</ele></trkpt>
            <trkpt lat="51.899239" lon="10.451817"><ele>304.1</ele></trkpt>
            <trkpt lat="51.899066" lon="10.451833"><ele>303.6</ele></trkpt>
            <trkpt lat="51.898912" lon="10.451974"><ele>303.1</ele></trkpt>
            <trkpt lat="51.898817" lon="10.452224"><ele>302.6</ele></trkpt>
            <trkpt lat="51.898627" lon="10.452516"><ele>304</ele></trkpt>
            <trkpt lat="51.898586" lon="10.452607"><ele>304</ele></trkpt>
            <trkpt lat="51.898471" lon="10.452802"><ele>304</ele></trkpt>
            <trkpt lat="51.898442" lon="10.452855"><ele>304</ele></trkpt>
            <trkpt lat="51.898489" lon="10.453022"><ele>304</ele></trkpt>
            <trkpt lat="51.898521" lon="10.453055"><ele>304</ele></trkpt>
            <trkpt lat="51.898501" lon="10.453451"><ele>315.5</ele></trkpt>
            <trkpt lat="51.898485" lon="10.454937"><ele>316.2</ele></trkpt>
            <trkpt lat="51.898392" lon="10.455511"><ele>320</ele></trkpt>
            <trkpt lat="51.898363" lon="10.455559"><ele>327</ele></trkpt>
            <trkpt lat="51.898343" lon="10.455786"><ele>343.6</ele></trkpt>
            <trkpt lat="51.898215" lon="10.456511"><ele>347.9</ele></trkpt>
            <trkpt lat="51.897982" lon="10.457436"><ele>348.1</ele></trkpt>
            <trkpt lat="51.897903" lon="10.457581"><ele>347.5</ele></trkpt>
            <trkpt lat="51.897787" lon="10.457716"><ele>350.4</ele></trkpt>
            <trkpt lat="51.897374" lon="10.458054"><ele>352.4</ele></trkpt>
            <trkpt lat="51.897174" lon="10.458187"><ele>351.8</ele></trkpt>
            <trkpt lat="51.896927" lon="10.45831"><ele>350.9</ele></trkpt>
            <trkpt lat="51.896793" lon="10.458431"><ele>344</ele></trkpt>
            <trkpt lat="51.896734" lon="10.458523"><ele>355.7</ele></trkpt>
            <trkpt lat="51.896664" lon="10.458682"><ele>361.1</ele></trkpt>
            <trkpt lat="51.896626" lon="10.458895"><ele>360.6</ele></trkpt>
            <trkpt lat="51.896671" lon="10.460335"><ele>358.1</ele></trkpt>
            <trkpt lat="51.896608" lon="10.460828"><ele>374</ele></trkpt>
            <trkpt lat="51.896537" lon="10.461105"><ele>364</ele></trkpt>
            <trkpt lat="51.896378" lon="10.46142"><ele>359</ele></trkpt>
            <trkpt lat="51.896214" lon="10.461698"><ele>353.5</ele></trkpt>
            <trkpt lat="51.895944" lon="10.462043"><ele>355.4</ele></trkpt>
            <trkpt lat="51.895729" lon="10.462282"><ele>366</ele></trkpt>
            <trkpt lat="51.895544" lon="10.462447"><ele>362.7</ele></trkpt>
            <trkpt lat="51.895508" lon="10.462541"><ele>356</ele></trkpt>
            <trkpt lat="51.895468" lon="10.462735"><ele>356</ele></trkpt>
            <trkpt lat="51.895459" lon="10.462917"><ele>356</ele></trkpt>
            <trkpt lat="51.895482" lon="10.463104"><ele>356</ele></trkpt>
            <trkpt lat="51.895563" lon="10.463403"><ele>337.4</ele></trkpt>
            <trkpt lat="51.89592" lon="10.464052"><ele>335.8</ele></trkpt>
            <trkpt lat="51.89614" lon="10.464618"><ele>338.1</ele></trkpt>
            <trkpt lat="51.896312" lon="10.465183"><ele>337.7</ele></trkpt>
            <trkpt lat="51.896314" lon="10.465729"><ele>338.2</ele></trkpt>
            <trkpt lat="51.896384" lon="10.466056"><ele>338.8</ele></trkpt>
            <trkpt lat="51.896439" lon="10.466727"><ele>338.1</ele></trkpt>
            <trkpt lat="51.896463" lon="10.467263"><ele>332.3</ele></trkpt>
            <trkpt lat="51.896655" lon="10.468368"><ele>315.5</ele></trkpt>
            <trkpt lat="51.896725" lon="10.469131"><ele>310.1</ele></trkpt>
            <trkpt lat="51.896749" lon="10.469644"><ele>307.9</ele></trkpt>
            <trkpt lat="51.896691" lon="10.470028"><ele>309.8</ele></trkpt>
            <trkpt lat="51.896614" lon="10.470408"><ele>312.5</ele></trkpt>
            <trkpt lat="51.896406" lon="10.471175"><ele>315</ele></trkpt>
            <trkpt lat="51.896292" lon="10.471747"><ele>313.7</ele></trkpt>
            <trkpt lat="51.896129" lon="10.472457"><ele>313</ele></trkpt>
            <trkpt lat="51.895662" lon="10.47404"><ele>322</ele></trkpt>
            <trkpt lat="51.895254" lon="10.474934"><ele>312.5</ele></trkpt>
            <trkpt lat="51.894878" lon="10.475919"><ele>306.9</ele></trkpt>
            <trkpt lat="51.894567" lon="10.476397"><ele>305.3</ele></trkpt>
            <trkpt lat="51.894208" lon="10.47654"><ele>303.5</ele></trkpt>
            <trkpt lat="51.893477" lon="10.476325"><ele>302.5</ele></trkpt>
            <trkpt lat="51.892558" lon="10.475814"><ele>304</ele></trkpt>
            <trkpt lat="51.89236" lon="10.475615"><ele>286.1</ele></trkpt>
            <trkpt lat="51.892242" lon="10.475425"><ele>286.3</ele></trkpt>
            <trkpt lat="51.892178" lon="10.475371"><ele>286.5</ele></trkpt>
            <trkpt lat="51.891293" lon="10.475262"><ele>273</ele></trkpt>
            <trkpt lat="51.890647" lon="10.475018"><ele>262</ele></trkpt>
            <trkpt lat="51.889957" lon="10.474856"><ele>274.4</ele></trkpt>
            <trkpt lat="51.889531" lon="10.47471"><ele>273.8</ele></trkpt>
            <trkpt lat="51.889044" lon="10.474583"><ele>273.9</ele></trkpt>
            <trkpt lat="51.888562" lon="10.474556"><ele>273.2</ele></trkpt>
            <trkpt lat="51.888354" lon="10.474443"><ele>273</ele></trkpt>
            <trkpt lat="51.887861" lon="10.474398"><ele>272.8</ele></trkpt>
            <trkpt lat="51.887582" lon="10.47439"><ele>272.6</ele></trkpt>
            <trkpt lat="51.887505" lon="10.474413"><ele>272.5</ele></trkpt>
            <trkpt lat="51.887347" lon="10.474639"><ele>272.4</ele></trkpt>
            <trkpt lat="51.887237" lon="10.474763"><ele>272.5</ele></trkpt>
            <trkpt lat="51.887138" lon="10.474824"><ele>272.4</ele></trkpt>
            <trkpt lat="51.887076" lon="10.474827"><ele>272.5</ele></trkpt>
            <trkpt lat="51.886996" lon="10.474791"><ele>272.5</ele></trkpt>
            <trkpt lat="51.886811" lon="10.474652"><ele>272</ele></trkpt>
            <trkpt lat="51.886657" lon="10.474451"><ele>257</ele></trkpt>
            <trkpt lat="51.885973" lon="10.474479"><ele>257.3</ele></trkpt>
            <trkpt lat="51.88573" lon="10.473831"><ele>244</ele></trkpt>
            <trkpt lat="51.885544" lon="10.4734"><ele>247</ele></trkpt>
            <trkpt lat="51.885434" lon="10.473038"><ele>247.8</ele></trkpt>
            <trkpt lat="51.885344" lon="10.47307"><ele>250</ele></trkpt>
            <trkpt lat="51.88523" lon="10.472801"><ele>250</ele></trkpt>
            <trkpt lat="51.885151" lon="10.472675"><ele>250.3</ele></trkpt>
            <trkpt lat="51.885068" lon="10.472595"><ele>250.3</ele></trkpt>
            <trkpt lat="51.884971" lon="10.472545"><ele>251</ele></trkpt>
            <trkpt lat="51.884977" lon="10.472466"><ele>249</ele></trkpt>
            <trkpt lat="51.884941" lon="10.47232"><ele>249</ele></trkpt>
            <trkpt lat="51.884905" lon="10.471766"><ele>249</ele></trkpt>
            <trkpt lat="51.884855" lon="10.471374"><ele>261.2</ele></trkpt>
            <trkpt lat="51.884776" lon="10.470986"><ele>261.4</ele></trkpt>
            <trkpt lat="51.884567" lon="10.470697"><ele>262.2</ele></trkpt>
            <trkpt lat="51.884031" lon="10.470308"><ele>261.1</ele></trkpt>
            <trkpt lat="51.883714" lon="10.470266"><ele>263.1</ele></trkpt>
            <trkpt lat="51.883259" lon="10.470303"><ele>264.9</ele></trkpt>
            <trkpt lat="51.882521" lon="10.470304"><ele>267</ele></trkpt>
            <trkpt lat="51.881977" lon="10.470348"><ele>269.7</ele></trkpt>
            <trkpt lat="51.881428" lon="10.470285"><ele>272.7</ele></trkpt>
            <trkpt lat="51.881131" lon="10.470199"><ele>273.6</ele></trkpt>
            <trkpt lat="51.880737" lon="10.470143"><ele>274</ele></trkpt>
            <trkpt lat="51.880466" lon="10.470002"><ele>274.2</ele></trkpt>
            <trkpt lat="51.880387" lon="10.470014"><ele>274.2</ele></trkpt>
            <trkpt lat="51.880293" lon="10.470097"><ele>275</ele></trkpt>
            <trkpt lat="51.880211" lon="10.47023"><ele>275</ele></trkpt>
            <trkpt lat="51.880098" lon="10.470651"><ele>275</ele></trkpt>
            <trkpt lat="51.880028" lon="10.470858"><ele>273</ele></trkpt>
            <trkpt lat="51.879947" lon="10.470883"><ele>298</ele></trkpt>
            <trkpt lat="51.879911" lon="10.470885"><ele>298</ele></trkpt>
            <trkpt lat="51.879818" lon="10.470948"><ele>301</ele></trkpt>
            <trkpt lat="51.879649" lon="10.470987"><ele>303.7</ele></trkpt>
            <trkpt lat="51.879506" lon="10.471061"><ele>306.1</ele></trkpt>
            <trkpt lat="51.879403" lon="10.471159"><ele>306.9</ele></trkpt>
            <trkpt lat="51.879306" lon="10.471353"><ele>306.9</ele></trkpt>
            <trkpt lat="51.879202" lon="10.471505"><ele>310.5</ele></trkpt>
            <trkpt lat="51.878833" lon="10.471789"><ele>313.9</ele></trkpt>
            <trkpt lat="51.878634" lon="10.472122"><ele>315.5</ele></trkpt>
            <trkpt lat="51.878459" lon="10.472338"><ele>315.6</ele></trkpt>
            <trkpt lat="51.878343" lon="10.472621"><ele>322.2</ele></trkpt>
            <trkpt lat="51.8782" lon="10.472879"><ele>326.8</ele></trkpt>
            <trkpt lat="51.877877" lon="10.473148"><ele>326.8</ele></trkpt>
            <trkpt lat="51.877721" lon="10.4734"><ele>326.7</ele></trkpt>
            <trkpt lat="51.877504" lon="10.473644"><ele>329</ele></trkpt>
            <trkpt lat="51.877419" lon="10.473786"><ele>332</ele></trkpt>
            <trkpt lat="51.877332" lon="10.474102"><ele>329.2</ele></trkpt>
            <trkpt lat="51.877286" lon="10.474207"><ele>327</ele></trkpt>
            <trkpt lat="51.877278" lon="10.474334"><ele>321</ele></trkpt>
            <trkpt lat="51.87727" lon="10.474362"><ele>321</ele></trkpt>
            <trkpt lat="51.87725" lon="10.474376"><ele>321</ele></trkpt>
            <trkpt lat="51.877092" lon="10.474435"><ele>321</ele></trkpt>
            <trkpt lat="51.87706" lon="10.474499"><ele>321</ele></trkpt>
            <trkpt lat="51.877042" lon="10.474533"><ele>321</ele></trkpt>
            <trkpt lat="51.876956" lon="10.4746"><ele>321</ele></trkpt>
            <trkpt lat="51.876919" lon="10.474545"><ele>321</ele></trkpt>
            <trkpt lat="51.876837" lon="10.474625"><ele>319</ele></trkpt>
            <trkpt lat="51.876718" lon="10.474681"><ele>318.8</ele></trkpt>
            <trkpt lat="51.876374" lon="10.474948"><ele>317</ele></trkpt>
            <trkpt lat="51.876309" lon="10.475005"><ele>292</ele></trkpt>
            <trkpt lat="51.876299" lon="10.475049"><ele>292</ele></trkpt>
            <trkpt lat="51.876229" lon="10.475"><ele>312</ele></trkpt>
            <trkpt lat="51.87608" lon="10.474837"><ele>309.8</ele></trkpt>
            <trkpt lat="51.876046" lon="10.474833"><ele>317</ele></trkpt>
            <trkpt lat="51.876014" lon="10.474874"><ele>317</ele></trkpt>
            <trkpt lat="51.875963" lon="10.475044"><ele>292</ele></trkpt>
            <trkpt lat="51.875934" lon="10.475098"><ele>292</ele></trkpt>
            <trkpt lat="51.875892" lon="10.475127"><ele>292</ele></trkpt>
            <trkpt lat="51.875809" lon="10.475151"><ele>292</ele></trkpt>
            <trkpt lat="51.875639" lon="10.475051"><ele>293.1</ele></trkpt>
            <trkpt lat="51.875476" lon="10.475006"><ele>293</ele></trkpt>
            <trkpt lat="51.875303" lon="10.475054"><ele>293.2</ele></trkpt>
            <trkpt lat="51.874565" lon="10.475368"><ele>293.7</ele></trkpt>
            <trkpt lat="51.874419" lon="10.47541"><ele>293.8</ele></trkpt>
            <trkpt lat="51.874007" lon="10.475466"><ele>295.9</ele></trkpt>
            <trkpt lat="51.873946" lon="10.475441"><ele>296.9</ele></trkpt>
            <trkpt lat="51.873891" lon="10.47545"><ele>303</ele></trkpt>
            <trkpt lat="51.873888" lon="10.475558"><ele>303</ele></trkpt>
            <trkpt lat="51.873323" lon="10.475579"><ele>312</ele></trkpt>
            <trkpt lat="51.873324" lon="10.475636"><ele>322</ele></trkpt>
            <trkpt lat="51.873282" lon="10.475726"><ele>323.3</ele></trkpt>
            <trkpt lat="51.873309" lon="10.47586"><ele>324.7</ele></trkpt>
            <trkpt lat="51.873327" lon="10.476071"><ele>324.2</ele></trkpt>
            <trkpt lat="51.873289" lon="10.476484"><ele>328</ele></trkpt>
            <trkpt lat="51.873294" lon="10.476615"><ele>336.6</ele></trkpt>
            <trkpt lat="51.87333" lon="10.476769"><ele>336.8</ele></trkpt>
            <trkpt lat="51.873393" lon="10.476903"><ele>336</ele></trkpt>
            <trkpt lat="51.873408" lon="10.476972"><ele>335.9</ele></trkpt>
            <trkpt lat="51.873503" lon="10.477097"><ele>337</ele></trkpt>
            <trkpt lat="51.873404" lon="10.477213"><ele>340.3</ele></trkpt>
            <trkpt lat="51.873282" lon="10.477283"><ele>340.8</ele></trkpt>
            <trkpt lat="51.873119" lon="10.477303"><ele>341.3</ele></trkpt>
            <trkpt lat="51.8729" lon="10.477207"><ele>341.7</ele></trkpt>
            <trkpt lat="51.872809" lon="10.477091"><ele>344</ele></trkpt>
            <trkpt lat="51.872801" lon="10.477132"><ele>352.9</ele></trkpt>
            <trkpt lat="51.872737" lon="10.47713"><ele>354</ele></trkpt>
            <trkpt lat="51.872677" lon="10.477405"><ele>355.2</ele></trkpt>
            <trkpt lat="51.872636" lon="10.477449"><ele>356.6</ele></trkpt>
            <trkpt lat="51.872644" lon="10.477532"><ele>358.2</ele></trkpt>
            <trkpt lat="51.872579" lon="10.477511"><ele>356.1</ele></trkpt>
            <trkpt lat="51.872453" lon="10.477377"><ele>353</ele></trkpt>
            <trkpt lat="51.872413" lon="10.477412"><ele>375.1</ele></trkpt>
            <trkpt lat="51.872392" lon="10.477553"><ele>378.3</ele></trkpt>
            <trkpt lat="51.872386" lon="10.477636"><ele>377.5</ele></trkpt>
            <trkpt lat="51.872426" lon="10.477737"><ele>376.6</ele></trkpt>
            <trkpt lat="51.87239" lon="10.477851"><ele>375.5</ele></trkpt>
            <trkpt lat="51.872381" lon="10.478037"><ele>384</ele></trkpt>
            <trkpt lat="51.872387" lon="10.478081"><ele>384</ele></trkpt>
            <trkpt lat="51.872431" lon="10.478144"><ele>384</ele></trkpt>
            <trkpt lat="51.872411" lon="10.478154"><ele>384</ele></trkpt>
            <trkpt lat="51.872407" lon="10.478198"><ele>421.9</ele></trkpt>
            <trkpt lat="51.872343" lon="10.478303"><ele>424.9</ele></trkpt>
            <trkpt lat="51.872347" lon="10.478363"><ele>426</ele></trkpt>
            <trkpt lat="51.872444" lon="10.478376"><ele>426.8</ele></trkpt>
            <trkpt lat="51.872364" lon="10.47854"><ele>427.4</ele></trkpt>
            <trkpt lat="51.872337" lon="10.478669"><ele>428.1</ele></trkpt>
            <trkpt lat="51.872306" lon="10.478678"><ele>428.4</ele></trkpt>
            <trkpt lat="51.872276" lon="10.478729"><ele>428.8</ele></trkpt>
            <trkpt lat="51.872261" lon="10.4788"><ele>429.1</ele></trkpt>
            <trkpt lat="51.872172" lon="10.478938"><ele>429.9</ele></trkpt>
            <trkpt lat="51.872189" lon="10.478983"><ele>430.2</ele></trkpt>
            <trkpt lat="51.872181" lon="10.479052"><ele>430.6</ele></trkpt>
            <trkpt lat="51.872243" lon="10.47911"><ele>431.4</ele></trkpt>
            <trkpt lat="51.872225" lon="10.479202"><ele>431.9</ele></trkpt>
            <trkpt lat="51.872194" lon="10.479266"><ele>431.7</ele></trkpt>
            <trkpt lat="51.872195" lon="10.479375"><ele>431.4</ele></trkpt>
            <trkpt lat="51.872231" lon="10.47939"><ele>431.2</ele></trkpt>
            <trkpt lat="51.872234" lon="10.479425"><ele>431</ele></trkpt>
            <trkpt lat="51.872212" lon="10.479465"><ele>430.8</ele></trkpt>
            <trkpt lat="51.872182" lon="10.479471"><ele>430.5</ele></trkpt>
            <trkpt lat="51.87215" lon="10.479549"><ele>430</ele></trkpt>
            <trkpt lat="51.872074" lon="10.479521"><ele>429.2</ele></trkpt>
            <trkpt lat="51.871988" lon="10.479605"><ele>428.1</ele></trkpt>
            <trkpt lat="51.871941" lon="10.479615"><ele>440</ele></trkpt>
            <trkpt lat="51.871837" lon="10.479965"><ele>463.1</ele></trkpt>
            <trkpt lat="51.871869" lon="10.480039"><ele>464.1</ele></trkpt>
            <trkpt lat="51.871836" lon="10.480051"><ele>464.1</ele></trkpt>
            <trkpt lat="51.871809" lon="10.480197"><ele>464</ele></trkpt>
            <trkpt lat="51.871752" lon="10.480313"><ele>463.9</ele></trkpt>
            <trkpt lat="51.871748" lon="10.48039"><ele>463.8</ele></trkpt>
            <trkpt lat="51.87173" lon="10.480436"><ele>463.8</ele></trkpt>
            <trkpt lat="51.871658" lon="10.480523"><ele>463.7</ele></trkpt>
            <trkpt lat="51.871699" lon="10.480659"><ele>463.2</ele></trkpt>
            <trkpt lat="51.871922" lon="10.480722"><ele>462.7</ele></trkpt>
            <trkpt lat="51.871927" lon="10.480752"><ele>462.6</ele></trkpt>
            <trkpt lat="51.871959" lon="10.480782"><ele>465</ele></trkpt>
            <trkpt lat="51.871905" lon="10.480952"><ele>482</ele></trkpt>
            <trkpt lat="51.871893" lon="10.481173"><ele>482</ele></trkpt>
            <trkpt lat="51.871889" lon="10.48126"><ele>482</ele></trkpt>
            <trkpt lat="51.871834" lon="10.481374"><ele>482</ele></trkpt>
        </trkseg>
    </trk>
</gpx>
