<?xml version="1.0" encoding="UTF-8"?>
<gpx version="1.1" creator="HWN Route Compare (OpenRouteService)" xmlns="http://www.topografix.com/GPX/1/1">
    <metadata>
        <name>OpenRouteService – Tour A5a</name>
    </metadata>
    <trk>
        <name>OpenRouteService – Tour A5a</name>
        <trkseg>
            <trkpt lat="51.871834" lon="10.481374"><ele>482</ele></trkpt>
            <trkpt lat="51.871889" lon="10.48126"><ele>482</ele></trkpt>
            <trkpt lat="51.871965" lon="10.481281"><ele>486.9</ele></trkpt>
            <trkpt lat="51.872028" lon="10.481354"><ele>486.1</ele></trkpt>
            <trkpt lat="51.872096" lon="10.481525"><ele>485.4</ele></trkpt>
            <trkpt lat="51.872164" lon="10.481903"><ele>499</ele></trkpt>
            <trkpt lat="51.872115" lon="10.481941"><ele>514.3</ele></trkpt>
            <trkpt lat="51.872005" lon="10.482197"><ele>517.6</ele></trkpt>
            <trkpt lat="51.871841" lon="10.482392"><ele>523</ele></trkpt>
            <trkpt lat="51.871809" lon="10.482504"><ele>525</ele></trkpt>
            <trkpt lat="51.871792" lon="10.482642"><ele>526.3</ele></trkpt>
            <trkpt lat="51.871702" lon="10.482874"><ele>530.1</ele></trkpt>
            <trkpt lat="51.871703" lon="10.483104"><ele>531.5</ele></trkpt>
            <trkpt lat="51.871679" lon="10.483211"><ele>532.2</ele></trkpt>
            <trkpt lat="51.871639" lon="10.483261"><ele>532.9</ele></trkpt>
            <trkpt lat="51.871525" lon="10.483577"><ele>532.7</ele></trkpt>
            <trkpt lat="51.871444" lon="10.483655"><ele>532.2</ele></trkpt>
            <trkpt lat="51.871406" lon="10.48383"><ele>533.9</ele></trkpt>
            <trkpt lat="51.871269" lon="10.484062"><ele>535</ele></trkpt>
            <trkpt lat="51.871188" lon="10.484098"><ele>535.2</ele></trkpt>
            <trkpt lat="51.870936" lon="10.484045"><ele>535</ele></trkpt>
            <trkpt lat="51.870731" lon="10.484114"><ele>535</ele></trkpt>
            <trkpt lat="51.870622" lon="10.484102"><ele>554</ele></trkpt>
            <trkpt lat="51.870494" lon="10.484137"><ele>554</ele></trkpt>
            <trkpt lat="51.870265" lon="10.484387"><ele>568.4</ele></trkpt>
            <trkpt lat="51.870006" lon="10.484523"><ele>569.3</ele></trkpt>
            <trkpt lat="51.869692" lon="10.484832"><ele>580</ele></trkpt>
            <trkpt lat="51.869643" lon="10.484742"><ele>584.7</ele></trkpt>
            <trkpt lat="51.869573" lon="10.484665"><ele>585.1</ele></trkpt>
            <trkpt lat="51.869509" lon="10.484641"><ele>585.4</ele></trkpt>
            <trkpt lat="51.869456" lon="10.48466"><ele>585.9</ele></trkpt>
            <trkpt lat="51.869394" lon="10.484716"><ele>586.3</ele></trkpt>
            <trkpt lat="51.869338" lon="10.484808"><ele>586.8</ele></trkpt>
            <trkpt lat="51.86929" lon="10.484951"><ele>587.3</ele></trkpt>
            <trkpt lat="51.869171" lon="10.485785"><ele>587.6</ele></trkpt>
            <trkpt lat="51.869074" lon="10.486068"><ele>587</ele></trkpt>
            <trkpt lat="51.868973" lon="10.486161"><ele>593</ele></trkpt>
            <trkpt lat="51.868902" lon="10.48589"><ele>592.3</ele></trkpt>
            <trkpt lat="51.86884" lon="10.485741"><ele>592.1</ele></trkpt>
            <trkpt lat="51.868562" lon="10.48507"><ele>591.9</ele></trkpt>
            <trkpt lat="51.86842" lon="10.48488"><ele>591.5</ele></trkpt>
            <trkpt lat="51.868213" lon="10.484828"><ele>591.5</ele></trkpt>
            <trkpt lat="51.868056" lon="10.484676"><ele>591.6</ele></trkpt>
            <trkpt lat="51.867986" lon="10.484576"><ele>590</ele></trkpt>
            <trkpt lat="51.867639" lon="10.484238"><ele>590</ele></trkpt>
            <trkpt lat="51.86762" lon="10.484192"><ele>590</ele></trkpt>
            <trkpt lat="51.867502" lon="10.484173"><ele>583.3</ele></trkpt>
            <trkpt lat="51.867376" lon="10.484048"><ele>582.2</ele></trkpt>
            <trkpt lat="51.867143" lon="10.483962"><ele>583</ele></trkpt>
            <trkpt lat="51.867053" lon="10.484052"><ele>580</ele></trkpt>
            <trkpt lat="51.866909" lon="10.48405"><ele>574.1</ele></trkpt>
            <trkpt lat="51.866743" lon="10.484132"><ele>572.7</ele></trkpt>
            <trkpt lat="51.866637" lon="10.484108"><ele>571.9</ele></trkpt>
            <trkpt lat="51.866505" lon="10.484186"><ele>573.2</ele></trkpt>
            <trkpt lat="51.866366" lon="10.484231"><ele>570</ele></trkpt>
            <trkpt lat="51.866336" lon="10.484073"><ele>564</ele></trkpt>
            <trkpt lat="51.86634" lon="10.483885"><ele>563.6</ele></trkpt>
            <trkpt lat="51.866372" lon="10.483626"><ele>563.1</ele></trkpt>
            <trkpt lat="51.86646" lon="10.483298"><ele>552</ele></trkpt>
            <trkpt lat="51.866365" lon="10.482176"><ele>525.5</ele></trkpt>
            <trkpt lat="51.865935" lon="10.480961"><ele>509.4</ele></trkpt>
            <trkpt lat="51.865963" lon="10.480678"><ele>507.8</ele></trkpt>
            <trkpt lat="51.865848" lon="10.479833"><ele>491.5</ele></trkpt>
            <trkpt lat="51.865773" lon="10.479005"><ele>482</ele></trkpt>
            <trkpt lat="51.8656" lon="10.47841"><ele>461</ele></trkpt>
            <trkpt lat="51.865305" lon="10.478158"><ele>434.4</ele></trkpt>
            <trkpt lat="51.864777" lon="10.477851"><ele>433.9</ele></trkpt>
            <trkpt lat="51.864482" lon="10.477593"><ele>432.9</ele></trkpt>
            <trkpt lat="51.864218" lon="10.477489"><ele>428.2</ele></trkpt>
            <trkpt lat="51.863836" lon="10.477581"><ele>430.7</ele></trkpt>
            <trkpt lat="51.863509" lon="10.477766"><ele>431.6</ele></trkpt>
            <trkpt lat="51.863194" lon="10.47788"><ele>431.5</ele></trkpt>
            <trkpt lat="51.862637" lon="10.478001"><ele>429.5</ele></trkpt>
            <trkpt lat="51.862213" lon="10.477925"><ele>428.4</ele></trkpt>
            <trkpt lat="51.861741" lon="10.477457"><ele>424.7</ele></trkpt>
            <trkpt lat="51.861443" lon="10.477102"><ele>425.2</ele></trkpt>
            <trkpt lat="51.861147" lon="10.476637"><ele>424.6</ele></trkpt>
            <trkpt lat="51.861046" lon="10.476578"><ele>424.1</ele></trkpt>
            <trkpt lat="51.860952" lon="10.476584"><ele>423</ele></trkpt>
            <trkpt lat="51.86069" lon="10.476189"><ele>413.6</ele></trkpt>
            <trkpt lat="51.86056" lon="10.475911"><ele>413.5</ele></trkpt>
            <trkpt lat="51.860391" lon="10.475447"><ele>410.7</ele></trkpt>
            <trkpt lat="51.860081" lon="10.475015"><ele>408.6</ele></trkpt>
            <trkpt lat="51.859584" lon="10.474202"><ele>386.4</ele></trkpt>
            <trkpt lat="51.859332" lon="10.473707"><ele>384</ele></trkpt>
            <trkpt lat="51.859206" lon="10.473279"><ele>379</ele></trkpt>
            <trkpt lat="51.859165" lon="10.472948"><ele>376.6</ele></trkpt>
            <trkpt lat="51.859162" lon="10.472592"><ele>374.6</ele></trkpt>
            <trkpt lat="51.859201" lon="10.472431"><ele>372.9</ele></trkpt>
            <trkpt lat="51.859249" lon="10.472337"><ele>361</ele></trkpt>
            <trkpt lat="51.859272" lon="10.472187"><ele>361</ele></trkpt>
            <trkpt lat="51.859542" lon="10.472219"><ele>361</ele></trkpt>
            <trkpt lat="51.859951" lon="10.472139"><ele>361</ele></trkpt>
            <trkpt lat="51.859995" lon="10.472036"><ele>364.6</ele></trkpt>
            <trkpt lat="51.860128" lon="10.471958"><ele>364.4</ele></trkpt>
            <trkpt lat="51.860132" lon="10.471907"><ele>364.4</ele></trkpt>
            <trkpt lat="51.860106" lon="10.471859"><ele>364.3</ele></trkpt>
            <trkpt lat="51.859995" lon="10.471737"><ele>364</ele></trkpt>
            <trkpt lat="51.859925" lon="10.471718"><ele>363.9</ele></trkpt>
            <trkpt lat="51.859903" lon="10.471687"><ele>363.7</ele></trkpt>
            <trkpt lat="51.859734" lon="10.471626"><ele>364.2</ele></trkpt>
            <trkpt lat="51.859646" lon="10.47163"><ele>364.6</ele></trkpt>
            <trkpt lat="51.85957" lon="10.471512"><ele>365</ele></trkpt>
            <trkpt lat="51.859478" lon="10.471522"><ele>365.4</ele></trkpt>
            <trkpt lat="51.859428" lon="10.471494"><ele>365.8</ele></trkpt>
            <trkpt lat="51.859311" lon="10.471511"><ele>366.1</ele></trkpt>
            <trkpt lat="51.859301" lon="10.471353"><ele>372</ele></trkpt>
            <trkpt lat="51.859006" lon="10.471335"><ele>354</ele></trkpt>
            <trkpt lat="51.85893" lon="10.471309"><ele>354</ele></trkpt>
            <trkpt lat="51.858775" lon="10.471234"><ele>354</ele></trkpt>
            <trkpt lat="51.858705" lon="10.471187"><ele>354</ele></trkpt>
            <trkpt lat="51.858766" lon="10.471079"><ele>362.5</ele></trkpt>
            <trkpt lat="51.85919" lon="10.470772"><ele>363.3</ele></trkpt>
            <trkpt lat="51.859231" lon="10.470774"><ele>382</ele></trkpt>
            <trkpt lat="51.859398" lon="10.470781"><ele>382</ele></trkpt>
            <trkpt lat="51.859654" lon="10.470847"><ele>377.9</ele></trkpt>
            <trkpt lat="51.859901" lon="10.470832"><ele>378.7</ele></trkpt>
            <trkpt lat="51.860189" lon="10.470869"><ele>378.2</ele></trkpt>
            <trkpt lat="51.860273" lon="10.470841"><ele>377.8</ele></trkpt>
            <trkpt lat="51.860323" lon="10.470851"><ele>374</ele></trkpt>
            <trkpt lat="51.860407" lon="10.47084"><ele>372.6</ele></trkpt>
            <trkpt lat="51.86047" lon="10.470872"><ele>372.7</ele></trkpt>
            <trkpt lat="51.860682" lon="10.470899"><ele>372.9</ele></trkpt>
            <trkpt lat="51.860773" lon="10.47098"><ele>373</ele></trkpt>
            <trkpt lat="51.860863" lon="10.471002"><ele>372.8</ele></trkpt>
            <trkpt lat="51.861125" lon="10.471326"><ele>372.3</ele></trkpt>
            <trkpt lat="51.861345" lon="10.471539"><ele>372.2</ele></trkpt>
            <trkpt lat="51.861485" lon="10.471592"><ele>370</ele></trkpt>
            <trkpt lat="51.861534" lon="10.471654"><ele>370</ele></trkpt>
            <trkpt lat="51.861681" lon="10.471845"><ele>359</ele></trkpt>
            <trkpt lat="51.861732" lon="10.472001"><ele>358.3</ele></trkpt>
            <trkpt lat="51.862056" lon="10.472526"><ele>357.6</ele></trkpt>
            <trkpt lat="51.862385" lon="10.473276"><ele>357.6</ele></trkpt>
            <trkpt lat="51.862565" lon="10.473734"><ele>357.1</ele></trkpt>
            <trkpt lat="51.862642" lon="10.473823"><ele>357.1</ele></trkpt>
            <trkpt lat="51.862805" lon="10.473923"><ele>357.1</ele></trkpt>
            <trkpt lat="51.863006" lon="10.474125"><ele>356.9</ele></trkpt>
            <trkpt lat="51.863203" lon="10.474227"><ele>357.3</ele></trkpt>
            <trkpt lat="51.863273" lon="10.474226"><ele>357.2</ele></trkpt>
            <trkpt lat="51.863434" lon="10.474383"><ele>357.7</ele></trkpt>
            <trkpt lat="51.863667" lon="10.474484"><ele>358.5</ele></trkpt>
            <trkpt lat="51.86379" lon="10.474488"><ele>358.7</ele></trkpt>
            <trkpt lat="51.86404" lon="10.474405"><ele>359.9</ele></trkpt>
            <trkpt lat="51.864205" lon="10.47438"><ele>360.7</ele></trkpt>
            <trkpt lat="51.86443" lon="10.47439"><ele>361.7</ele></trkpt>
            <trkpt lat="51.864511" lon="10.474422"><ele>361.7</ele></trkpt>
            <trkpt lat="51.864775" lon="10.474449"><ele>362.7</ele></trkpt>
            <trkpt lat="51.864818" lon="10.474466"><ele>362.8</ele></trkpt>
            <trkpt lat="51.864969" lon="10.474653"><ele>363</ele></trkpt>
            <trkpt lat="51.86523" lon="10.474808"><ele>363.1</ele></trkpt>
            <trkpt lat="51.865353" lon="10.474813"><ele>363.1</ele></trkpt>
            <trkpt lat="51.865395" lon="10.474773"><ele>363.2</ele></trkpt>
            <trkpt lat="51.865477" lon="10.474744"><ele>363.2</ele></trkpt>
            <trkpt lat="51.866076" lon="10.474781"><ele>364.1</ele></trkpt>
            <trkpt lat="51.866119" lon="10.474753"><ele>364.6</ele></trkpt>
            <trkpt lat="51.866203" lon="10.474616"><ele>368</ele></trkpt>
            <trkpt lat="51.866309" lon="10.474566"><ele>368</ele></trkpt>
            <trkpt lat="51.866333" lon="10.474608"><ele>368</ele></trkpt>
            <trkpt lat="51.866297" lon="10.4747"><ele>368</ele></trkpt>
            <trkpt lat="51.866463" lon="10.474663"><ele>362.4</ele></trkpt>
            <trkpt lat="51.866609" lon="10.474667"><ele>363.1</ele></trkpt>
            <trkpt lat="51.866762" lon="10.474613"><ele>361.3</ele></trkpt>
            <trkpt lat="51.866787" lon="10.474555"><ele>359.8</ele></trkpt>
            <trkpt lat="51.866809" lon="10.474349"><ele>358.4</ele></trkpt>
            <trkpt lat="51.866872" lon="10.474121"><ele>358</ele></trkpt>
            <trkpt lat="51.866965" lon="10.474179"><ele>349</ele></trkpt>
            <trkpt lat="51.867008" lon="10.474216"><ele>351.3</ele></trkpt>
            <trkpt lat="51.867024" lon="10.474174"><ele>351.8</ele></trkpt>
            <trkpt lat="51.867074" lon="10.474134"><ele>358</ele></trkpt>
            <trkpt lat="51.867024" lon="10.474174"><ele>351.8</ele></trkpt>
            <trkpt lat="51.867008" lon="10.474216"><ele>351.3</ele></trkpt>
            <trkpt lat="51.866965" lon="10.474179"><ele>349</ele></trkpt>
            <trkpt lat="51.866872" lon="10.474121"><ele>358</ele></trkpt>
            <trkpt lat="51.866809" lon="10.474349"><ele>358.4</ele></trkpt>
            <trkpt lat="51.866787" lon="10.474555"><ele>359.8</ele></trkpt>
            <trkpt lat="51.866762" lon="10.474613"><ele>361.3</ele></trkpt>
            <trkpt lat="51.866609" lon="10.474667"><ele>363.1</ele></trkpt>
            <trkpt lat="51.866463" lon="10.474663"><ele>362.4</ele></trkpt>
            <trkpt lat="51.866297" lon="10.4747"><ele>368</ele></trkpt>
            <trkpt lat="51.866333" lon="10.474608"><ele>368</ele></trkpt>
            <trkpt lat="51.866309" lon="10.474566"><ele>368</ele></trkpt>
            <trkpt lat="51.866203" lon="10.474616"><ele>368</ele></trkpt>
            <trkpt lat="51.866119" lon="10.474753"><ele>364.6</ele></trkpt>
            <trkpt lat="51.866076" lon="10.474781"><ele>364.1</ele></trkpt>
            <trkpt lat="51.865477" lon="10.474744"><ele>363.2</ele></trkpt>
            <trkpt lat="51.865395" lon="10.474773"><ele>363.2</ele></trkpt>
            <trkpt lat="51.865353" lon="10.474813"><ele>363.1</ele></trkpt>
            <trkpt lat="51.86523" lon="10.474808"><ele>363.1</ele></trkpt>
            <trkpt lat="51.864969" lon="10.474653"><ele>363</ele></trkpt>
            <trkpt lat="51.864818" lon="10.474466"><ele>362.8</ele></trkpt>
            <trkpt lat="51.864775" lon="10.474449"><ele>362.7</ele></trkpt>
            <trkpt lat="51.864511" lon="10.474422"><ele>361.7</ele></trkpt>
            <trkpt lat="51.86443" lon="10.47439"><ele>361.7</ele></trkpt>
            <trkpt lat="51.864205" lon="10.47438"><ele>360.7</ele></trkpt>
            <trkpt lat="51.86404" lon="10.474405"><ele>359.9</ele></trkpt>
            <trkpt lat="51.86379" lon="10.474488"><ele>358.7</ele></trkpt>
            <trkpt lat="51.863667" lon="10.474484"><ele>358.5</ele></trkpt>
            <trkpt lat="51.863434" lon="10.474383"><ele>357.7</ele></trkpt>
            <trkpt lat="51.863273" lon="10.474226"><ele>357.2</ele></trkpt>
            <trkpt lat="51.863203" lon="10.474227"><ele>357.3</ele></trkpt>
            <trkpt lat="51.863006" lon="10.474125"><ele>356.9</ele></trkpt>
            <trkpt lat="51.862805" lon="10.473923"><ele>357.1</ele></trkpt>
            <trkpt lat="51.862642" lon="10.473823"><ele>357.1</ele></trkpt>
            <trkpt lat="51.862565" lon="10.473734"><ele>357.1</ele></trkpt>
            <trkpt lat="51.862385" lon="10.473276"><ele>357.6</ele></trkpt>
            <trkpt lat="51.862056" lon="10.472526"><ele>357.6</ele></trkpt>
            <trkpt lat="51.861732" lon="10.472001"><ele>358.3</ele></trkpt>
            <trkpt lat="51.861681" lon="10.471845"><ele>359</ele></trkpt>
            <trkpt lat="51.861534" lon="10.471654"><ele>370</ele></trkpt>
            <trkpt lat="51.861485" lon="10.471592"><ele>370</ele></trkpt>
            <trkpt lat="51.861345" lon="10.471539"><ele>372.2</ele></trkpt>
            <trkpt lat="51.861125" lon="10.471326"><ele>372.3</ele></trkpt>
            <trkpt lat="51.860863" lon="10.471002"><ele>372.8</ele></trkpt>
            <trkpt lat="51.860773" lon="10.47098"><ele>373</ele></trkpt>
            <trkpt lat="51.860682" lon="10.470899"><ele>372.9</ele></trkpt>
            <trkpt lat="51.86047" lon="10.470872"><ele>372.7</ele></trkpt>
            <trkpt lat="51.860407" lon="10.47084"><ele>372.6</ele></trkpt>
            <trkpt lat="51.860323" lon="10.470851"><ele>374</ele></trkpt>
            <trkpt lat="51.860273" lon="10.470841"><ele>377.8</ele></trkpt>
            <trkpt lat="51.860189" lon="10.470869"><ele>378.2</ele></trkpt>
            <trkpt lat="51.859901" lon="10.470832"><ele>378.7</ele></trkpt>
            <trkpt lat="51.859654" lon="10.470847"><ele>377.9</ele></trkpt>
            <trkpt lat="51.859398" lon="10.470781"><ele>382</ele></trkpt>
            <trkpt lat="51.859231" lon="10.470774"><ele>382</ele></trkpt>
            <trkpt lat="51.85919" lon="10.470772"><ele>363.3</ele></trkpt>
            <trkpt lat="51.858766" lon="10.471079"><ele>362.5</ele></trkpt>
            <trkpt lat="51.858705" lon="10.471187"><ele>354</ele></trkpt>
            <trkpt lat="51.858775" lon="10.471234"><ele>354</ele></trkpt>
            <trkpt lat="51.85893" lon="10.471309"><ele>354</ele></trkpt>
            <trkpt lat="51.859006" lon="10.471335"><ele>354</ele></trkpt>
            <trkpt lat="51.85897" lon="10.471433"><ele>354</ele></trkpt>
            <trkpt lat="51.858879" lon="10.471491"><ele>354</ele></trkpt>
            <trkpt lat="51.858686" lon="10.471553"><ele>354</ele></trkpt>
            <trkpt lat="51.858454" lon="10.471528"><ele>351.1</ele></trkpt>
            <trkpt lat="51.858069" lon="10.471372"><ele>349</ele></trkpt>
            <trkpt lat="51.85793" lon="10.471477"><ele>349.3</ele></trkpt>
            <trkpt lat="51.857722" lon="10.471679"><ele>350</ele></trkpt>
            <trkpt lat="51.857604" lon="10.47178"><ele>350</ele></trkpt>
            <trkpt lat="51.856845" lon="10.472403"><ele>375.5</ele></trkpt>
            <trkpt lat="51.855958" lon="10.473268"><ele>386.3</ele></trkpt>
            <trkpt lat="51.855859" lon="10.473336"><ele>374</ele></trkpt>
            <trkpt lat="51.855811" lon="10.473323"><ele>427</ele></trkpt>
            <trkpt lat="51.85572" lon="10.473319"><ele>427</ele></trkpt>
            <trkpt lat="51.855634" lon="10.47336"><ele>418.3</ele></trkpt>
            <trkpt lat="51.855289" lon="10.473701"><ele>416.3</ele></trkpt>
            <trkpt lat="51.854993" lon="10.474047"><ele>422.7</ele></trkpt>
            <trkpt lat="51.854391" lon="10.474806"><ele>430.7</ele></trkpt>
            <trkpt lat="51.854049" lon="10.475107"><ele>434.5</ele></trkpt>
            <trkpt lat="51.853937" lon="10.475262"><ele>434.9</ele></trkpt>
            <trkpt lat="51.853667" lon="10.475558"><ele>435.5</ele></trkpt>
            <trkpt lat="51.853597" lon="10.47566"><ele>436.3</ele></trkpt>
            <trkpt lat="51.853475" lon="10.475959"><ele>435.1</ele></trkpt>
            <trkpt lat="51.853369" lon="10.476164"><ele>434.1</ele></trkpt>
            <trkpt lat="51.853288" lon="10.476277"><ele>436.5</ele></trkpt>
            <trkpt lat="51.853222" lon="10.476328"><ele>437.9</ele></trkpt>
            <trkpt lat="51.85307" lon="10.476354"><ele>439.3</ele></trkpt>
            <trkpt lat="51.852921" lon="10.476411"><ele>441</ele></trkpt>
            <trkpt lat="51.852763" lon="10.476523"><ele>455</ele></trkpt>
            <trkpt lat="51.85287" lon="10.476206"><ele>461.4</ele></trkpt>
            <trkpt lat="51.852933" lon="10.47594"><ele>460.3</ele></trkpt>
            <trkpt lat="51.852959" lon="10.475681"><ele>462.6</ele></trkpt>
            <trkpt lat="51.852955" lon="10.475428"><ele>474</ele></trkpt>
            <trkpt lat="51.85285" lon="10.474933"><ele>493.4</ele></trkpt>
            <trkpt lat="51.852866" lon="10.474828"><ele>493.7</ele></trkpt>
            <trkpt lat="51.852959" lon="10.474507"><ele>494.4</ele></trkpt>
            <trkpt lat="51.852979" lon="10.474326"><ele>494.8</ele></trkpt>
            <trkpt lat="51.852983" lon="10.474193"><ele>495.3</ele></trkpt>
            <trkpt lat="51.852902" lon="10.473605"><ele>494.6</ele></trkpt>
            <trkpt lat="51.852923" lon="10.473452"><ele>503</ele></trkpt>
            <trkpt lat="51.853052" lon="10.473312"><ele>514.2</ele></trkpt>
            <trkpt lat="51.853198" lon="10.473044"><ele>512.3</ele></trkpt>
            <trkpt lat="51.853415" lon="10.472995"><ele>509.7</ele></trkpt>
            <trkpt lat="51.853621" lon="10.47288"><ele>511.2</ele></trkpt>
            <trkpt lat="51.853697" lon="10.472799"><ele>512</ele></trkpt>
            <trkpt lat="51.853867" lon="10.472519"><ele>514.7</ele></trkpt>
            <trkpt lat="51.854036" lon="10.471916"><ele>519.4</ele></trkpt>
            <trkpt lat="51.854212" lon="10.471557"><ele>523.2</ele></trkpt>
            <trkpt lat="51.854371" lon="10.471372"><ele>526.7</ele></trkpt>
            <trkpt lat="51.854569" lon="10.471222"><ele>528.8</ele></trkpt>
            <trkpt lat="51.854608" lon="10.47117"><ele>530.3</ele></trkpt>
            <trkpt lat="51.854637" lon="10.471102"><ele>531.1</ele></trkpt>
            <trkpt lat="51.854648" lon="10.471002"><ele>532.9</ele></trkpt>
            <trkpt lat="51.854589" lon="10.470566"><ele>535.6</ele></trkpt>
            <trkpt lat="51.854591" lon="10.470228"><ele>536</ele></trkpt>
            <trkpt lat="51.854628" lon="10.470048"><ele>535.7</ele></trkpt>
            <trkpt lat="51.85468" lon="10.469911"><ele>536.4</ele></trkpt>
            <trkpt lat="51.854788" lon="10.469752"><ele>535.9</ele></trkpt>
            <trkpt lat="51.854985" lon="10.469547"><ele>559</ele></trkpt>
            <trkpt lat="51.854964" lon="10.469468"><ele>559</ele></trkpt>
            <trkpt lat="51.854915" lon="10.469467"><ele>568.8</ele></trkpt>
            <trkpt lat="51.854886" lon="10.469436"><ele>568.9</ele></trkpt>
            <trkpt lat="51.854798" lon="10.469471"><ele>569.3</ele></trkpt>
            <trkpt lat="51.854796" lon="10.4694"><ele>569.5</ele></trkpt>
            <trkpt lat="51.854876" lon="10.469184"><ele>569.8</ele></trkpt>
            <trkpt lat="51.854862" lon="10.469104"><ele>570</ele></trkpt>
            <trkpt lat="51.854848" lon="10.469099"><ele>569.9</ele></trkpt>
            <trkpt lat="51.85482" lon="10.469165"><ele>569.7</ele></trkpt>
            <trkpt lat="51.85476" lon="10.469216"><ele>569.6</ele></trkpt>
            <trkpt lat="51.854611" lon="10.469296"><ele>570</ele></trkpt>
            <trkpt lat="51.85459" lon="10.46929"><ele>570.2</ele></trkpt>
            <trkpt lat="51.854587" lon="10.469249"><ele>570.3</ele></trkpt>
            <trkpt lat="51.85469" lon="10.469112"><ele>570.7</ele></trkpt>
            <trkpt lat="51.854677" lon="10.469092"><ele>570.6</ele></trkpt>
            <trkpt lat="51.854585" lon="10.469127"><ele>570.4</ele></trkpt>
            <trkpt lat="51.854486" lon="10.469207"><ele>570.5</ele></trkpt>
            <trkpt lat="51.854439" lon="10.469295"><ele>570.7</ele></trkpt>
            <trkpt lat="51.854411" lon="10.469308"><ele>570.9</ele></trkpt>
            <trkpt lat="51.854398" lon="10.469261"><ele>571.1</ele></trkpt>
            <trkpt lat="51.854427" lon="10.469085"><ele>571.3</ele></trkpt>
            <trkpt lat="51.85442" lon="10.469067"><ele>571.2</ele></trkpt>
            <trkpt lat="51.854225" lon="10.469311"><ele>571.3</ele></trkpt>
            <trkpt lat="51.854162" lon="10.469335"><ele>571.8</ele></trkpt>
            <trkpt lat="51.854141" lon="10.469214"><ele>571.6</ele></trkpt>
            <trkpt lat="51.854209" lon="10.468883"><ele>571.3</ele></trkpt>
            <trkpt lat="51.854261" lon="10.468724"><ele>571.3</ele></trkpt>
            <trkpt lat="51.854358" lon="10.468503"><ele>571.2</ele></trkpt>
            <trkpt lat="51.854429" lon="10.468434"><ele>571.1</ele></trkpt>
            <trkpt lat="51.854484" lon="10.468277"><ele>571</ele></trkpt>
            <trkpt lat="51.854452" lon="10.468253"><ele>571</ele></trkpt>
            <trkpt lat="51.854461" lon="10.468184"><ele>570.9</ele></trkpt>
            <trkpt lat="51.854505" lon="10.468107"><ele>570.9</ele></trkpt>
            <trkpt lat="51.854495" lon="10.46809"><ele>570.9</ele></trkpt>
            <trkpt lat="51.854429" lon="10.468202"><ele>570.8</ele></trkpt>
            <trkpt lat="51.854391" lon="10.468216"><ele>570.7</ele></trkpt>
            <trkpt lat="51.854385" lon="10.468016"><ele>570.6</ele></trkpt>
            <trkpt lat="51.854352" lon="10.467992"><ele>570.6</ele></trkpt>
            <trkpt lat="51.854262" lon="10.467991"><ele>570.5</ele></trkpt>
            <trkpt lat="51.854242" lon="10.467961"><ele>570.5</ele></trkpt>
            <trkpt lat="51.854219" lon="10.467814"><ele>573</ele></trkpt>
            <trkpt lat="51.854168" lon="10.467911"><ele>577.2</ele></trkpt>
            <trkpt lat="51.854219" lon="10.467814"><ele>573</ele></trkpt>
            <trkpt lat="51.854242" lon="10.467961"><ele>570.5</ele></trkpt>
            <trkpt lat="51.854262" lon="10.467991"><ele>570.5</ele></trkpt>
            <trkpt lat="51.854352" lon="10.467992"><ele>570.6</ele></trkpt>
            <trkpt lat="51.854385" lon="10.468016"><ele>570.6</ele></trkpt>
            <trkpt lat="51.854391" lon="10.468216"><ele>570.7</ele></trkpt>
            <trkpt lat="51.854429" lon="10.468202"><ele>570.8</ele></trkpt>
            <trkpt lat="51.854495" lon="10.46809"><ele>570.9</ele></trkpt>
            <trkpt lat="51.854505" lon="10.468107"><ele>570.9</ele></trkpt>
            <trkpt lat="51.854461" lon="10.468184"><ele>570.9</ele></trkpt>
            <trkpt lat="51.854452" lon="10.468253"><ele>571</ele></trkpt>
            <trkpt lat="51.854484" lon="10.468277"><ele>571</ele></trkpt>
            <trkpt lat="51.854429" lon="10.468434"><ele>571.1</ele></trkpt>
            <trkpt lat="51.854358" lon="10.468503"><ele>571.2</ele></trkpt>
            <trkpt lat="51.854261" lon="10.468724"><ele>571.3</ele></trkpt>
            <trkpt lat="51.854209" lon="10.468883"><ele>571.3</ele></trkpt>
            <trkpt lat="51.854141" lon="10.469214"><ele>571.6</ele></trkpt>
            <trkpt lat="51.854162" lon="10.469335"><ele>571.8</ele></trkpt>
            <trkpt lat="51.854225" lon="10.469311"><ele>571.3</ele></trkpt>
            <trkpt lat="51.85442" lon="10.469067"><ele>571.2</ele></trkpt>
            <trkpt lat="51.854427" lon="10.469085"><ele>571.3</ele></trkpt>
            <trkpt lat="51.854398" lon="10.469261"><ele>571.1</ele></trkpt>
            <trkpt lat="51.854411" lon="10.469308"><ele>570.9</ele></trkpt>
            <trkpt lat="51.854439" lon="10.469295"><ele>570.7</ele></trkpt>
            <trkpt lat="51.854486" lon="10.469207"><ele>570.5</ele></trkpt>
            <trkpt lat="51.854585" lon="10.469127"><ele>570.4</ele></trkpt>
            <trkpt lat="51.854677" lon="10.469092"><ele>570.6</ele></trkpt>
            <trkpt lat="51.85469" lon="10.469112"><ele>570.7</ele></trkpt>
            <trkpt lat="51.854587" lon="10.469249"><ele>570.3</ele></trkpt>
            <trkpt lat="51.85459" lon="10.46929"><ele>570.2</ele></trkpt>
            <trkpt lat="51.854611" lon="10.469296"><ele>570</ele></trkpt>
            <trkpt lat="51.85476" lon="10.469216"><ele>569.6</ele></trkpt>
            <trkpt lat="51.85482" lon="10.469165"><ele>569.7</ele></trkpt>
            <trkpt lat="51.854848" lon="10.469099"><ele>569.9</ele></trkpt>
            <trkpt lat="51.854862" lon="10.469104"><ele>570</ele></trkpt>
            <trkpt lat="51.854876" lon="10.469184"><ele>569.8</ele></trkpt>
            <trkpt lat="51.854796" lon="10.4694"><ele>569.5</ele></trkpt>
            <trkpt lat="51.854798" lon="10.469471"><ele>569.3</ele></trkpt>
            <trkpt lat="51.854886" lon="10.469436"><ele>568.9</ele></trkpt>
            <trkpt lat="51.854915" lon="10.469467"><ele>568.8</ele></trkpt>
            <trkpt lat="51.854964" lon="10.469468"><ele>559</ele></trkpt>
            <trkpt lat="51.854985" lon="10.469547"><ele>559</ele></trkpt>
            <trkpt lat="51.854788" lon="10.469752"><ele>535.9</ele></trkpt>
            <trkpt lat="51.85468" lon="10.469911"><ele>536.4</ele></trkpt>
            <trkpt lat="51.854628" lon="10.470048"><ele>535.7</ele></trkpt>
            <trkpt lat="51.854591" lon="10.470228"><ele>536</ele></trkpt>
            <trkpt lat="51.854589" lon="10.470566"><ele>535.6</ele></trkpt>
            <trkpt lat="51.854648" lon="10.471002"><ele>532.9</ele></trkpt>
            <trkpt lat="51.854637" lon="10.471102"><ele>531.1</ele></trkpt>
            <trkpt lat="51.854608" lon="10.47117"><ele>530.3</ele></trkpt>
            <trkpt lat="51.854569" lon="10.471222"><ele>528.8</ele></trkpt>
            <trkpt lat="51.854371" lon="10.471372"><ele>526.7</ele></trkpt>
            <trkpt lat="51.854212" lon="10.471557"><ele>523.2</ele></trkpt>
            <trkpt lat="51.854036" lon="10.471916"><ele>519.4</ele></trkpt>
            <trkpt lat="51.853867" lon="10.472519"><ele>514.7</ele></trkpt>
            <trkpt lat="51.853697" lon="10.472799"><ele>512</ele></trkpt>
            <trkpt lat="51.853621" lon="10.47288"><ele>511.2</ele></trkpt>
            <trkpt lat="51.853415" lon="10.472995"><ele>509.7</ele></trkpt>
            <trkpt lat="51.853198" lon="10.473044"><ele>512.3</ele></trkpt>
            <trkpt lat="51.853052" lon="10.473312"><ele>514.2</ele></trkpt>
            <trkpt lat="51.852923" lon="10.473452"><ele>503</ele></trkpt>
            <trkpt lat="51.852902" lon="10.473605"><ele>494.6</ele></trkpt>
            <trkpt lat="51.852983" lon="10.474193"><ele>495.3</ele></trkpt>
            <trkpt lat="51.852979" lon="10.474326"><ele>494.8</ele></trkpt>
            <trkpt lat="51.852959" lon="10.474507"><ele>494.4</ele></trkpt>
            <trkpt lat="51.852866" lon="10.474828"><ele>493.7</ele></trkpt>
            <trkpt lat="51.85285" lon="10.474933"><ele>493.4</ele></trkpt>
            <trkpt lat="51.852955" lon="10.475428"><ele>474</ele></trkpt>
            <trkpt lat="51.852959" lon="10.475681"><ele>462.6</ele></trkpt>
            <trkpt lat="51.852933" lon="10.47594"><ele>460.3</ele></trkpt>
            <trkpt lat="51.85287" lon="10.476206"><ele>461.4</ele></trkpt>
            <trkpt lat="51.852763" lon="10.476523"><ele>455</ele></trkpt>
            <trkpt lat="51.852921" lon="10.476411"><ele>441</ele></trkpt>
            <trkpt lat="51.85307" lon="10.476354"><ele>439.3</ele></trkpt>
            <trkpt lat="51.853222" lon="10.476328"><ele>437.9</ele></trkpt>
            <trkpt lat="51.853288" lon="10.476277"><ele>436.5</ele></trkpt>
            <trkpt lat="51.853369" lon="10.476164"><ele>434.1</ele></trkpt>
            <trkpt lat="51.853475" lon="10.475959"><ele>435.1</ele></trkpt>
            <trkpt lat="51.853597" lon="10.47566"><ele>436.3</ele></trkpt>
            <trkpt lat="51.853667" lon="10.475558"><ele>435.5</ele></trkpt>
            <trkpt lat="51.853937" lon="10.475262"><ele>434.9</ele></trkpt>
            <trkpt lat="51.854049" lon="10.475107"><ele>434.5</ele></trkpt>
            <trkpt lat="51.854391" lon="10.474806"><ele>430.7</ele></trkpt>
            <trkpt lat="51.854993" lon="10.474047"><ele>422.7</ele></trkpt>
            <trkpt lat="51.855289" lon="10.473701"><ele>416.3</ele></trkpt>
            <trkpt lat="51.855634" lon="10.47336"><ele>418.3</ele></trkpt>
            <trkpt lat="51.85572" lon="10.473319"><ele>427</ele></trkpt>
            <trkpt lat="51.855811" lon="10.473323"><ele>427</ele></trkpt>
            <trkpt lat="51.855859" lon="10.473336"><ele>374</ele></trkpt>
            <trkpt lat="51.855958" lon="10.473268"><ele>386.3</ele></trkpt>
            <trkpt lat="51.856845" lon="10.472403"><ele>375.5</ele></trkpt>
            <trkpt lat="51.857604" lon="10.47178"><ele>350</ele></trkpt>
            <trkpt lat="51.857722" lon="10.471679"><ele>350</ele></trkpt>
            <trkpt lat="51.85793" lon="10.471477"><ele>349.3</ele></trkpt>
            <trkpt lat="51.858069" lon="10.471372"><ele>349</ele></trkpt>
            <trkpt lat="51.858454" lon="10.471528"><ele>351.1</ele></trkpt>
            <trkpt lat="51.858686" lon="10.471553"><ele>354</ele></trkpt>
            <trkpt lat="51.858879" lon="10.471491"><ele>354</ele></trkpt>
            <trkpt lat="51.85897" lon="10.471433"><ele>354</ele></trkpt>
            <trkpt lat="51.859006" lon="10.471335"><ele>354</ele></trkpt>
            <trkpt lat="51.859301" lon="10.471353"><ele>372</ele></trkpt>
            <trkpt lat="51.859311" lon="10.471511"><ele>366.1</ele></trkpt>
            <trkpt lat="51.859428" lon="10.471494"><ele>365.8</ele></trkpt>
            <trkpt lat="51.859478" lon="10.471522"><ele>365.4</ele></trkpt>
            <trkpt lat="51.85957" lon="10.471512"><ele>365</ele></trkpt>
            <trkpt lat="51.859646" lon="10.47163"><ele>364.6</ele></trkpt>
            <trkpt lat="51.859734" lon="10.471626"><ele>364.2</ele></trkpt>
            <trkpt lat="51.859903" lon="10.471687"><ele>363.7</ele></trkpt>
            <trkpt lat="51.859925" lon="10.471718"><ele>363.9</ele></trkpt>
            <trkpt lat="51.859995" lon="10.471737"><ele>364</ele></trkpt>
            <trkpt lat="51.860106" lon="10.471859"><ele>364.3</ele></trkpt>
            <trkpt lat="51.860132" lon="10.471907"><ele>364.4</ele></trkpt>
            <trkpt lat="51.860128" lon="10.471958"><ele>364.4</ele></trkpt>
            <trkpt lat="51.859995" lon="10.472036"><ele>364.6</ele></trkpt>
            <trkpt lat="51.859951" lon="10.472139"><ele>361</ele></trkpt>
            <trkpt lat="51.859542" lon="10.472219"><ele>361</ele></trkpt>
            <trkpt lat="51.859272" lon="10.472187"><ele>361</ele></trkpt>
            <trkpt lat="51.859249" lon="10.472337"><ele>361</ele></trkpt>
            <trkpt lat="51.859201" lon="10.472431"><ele>372.9</ele></trkpt>
            <trkpt lat="51.859162" lon="10.472592"><ele>374.6</ele></trkpt>
            <trkpt lat="51.859165" lon="10.472948"><ele>376.6</ele></trkpt>
            <trkpt lat="51.859206" lon="10.473279"><ele>379</ele></trkpt>
            <trkpt lat="51.859332" lon="10.473707"><ele>384</ele></trkpt>
            <trkpt lat="51.859584" lon="10.474202"><ele>386.4</ele></trkpt>
            <trkpt lat="51.860081" lon="10.475015"><ele>408.6</ele></trkpt>
            <trkpt lat="51.860391" lon="10.475447"><ele>410.7</ele></trkpt>
            <trkpt lat="51.86056" lon="10.475911"><ele>413.5</ele></trkpt>
            <trkpt lat="51.86069" lon="10.476189"><ele>413.6</ele></trkpt>
            <trkpt lat="51.860952" lon="10.476584"><ele>423</ele></trkpt>
            <trkpt lat="51.861046" lon="10.476578"><ele>424.1</ele></trkpt>
            <trkpt lat="51.861147" lon="10.476637"><ele>424.6</ele></trkpt>
            <trkpt lat="51.861443" lon="10.477102"><ele>425.2</ele></trkpt>
            <trkpt lat="51.861741" lon="10.477457"><ele>424.7</ele></trkpt>
            <trkpt lat="51.862213" lon="10.477925"><ele>428.4</ele></trkpt>
            <trkpt lat="51.862637" lon="10.478001"><ele>429.5</ele></trkpt>
            <trkpt lat="51.863194" lon="10.47788"><ele>431.5</ele></trkpt>
            <trkpt lat="51.863509" lon="10.477766"><ele>431.6</ele></trkpt>
            <trkpt lat="51.863836" lon="10.477581"><ele>430.7</ele></trkpt>
            <trkpt lat="51.864218" lon="10.477489"><ele>428.2</ele></trkpt>
            <trkpt lat="51.864482" lon="10.477593"><ele>432.9</ele></trkpt>
            <trkpt lat="51.864777" lon="10.477851"><ele>433.9</ele></trkpt>
            <trkpt lat="51.865305" lon="10.478158"><ele>434.4</ele></trkpt>
            <trkpt lat="51.8656" lon="10.47841"><ele>461</ele></trkpt>
            <trkpt lat="51.865688" lon="10.478486"><ele>461</ele></trkpt>
            <trkpt lat="51.866067" lon="10.478448"><ele>446</ele></trkpt>
            <trkpt lat="51.866439" lon="10.478277"><ele>426.5</ele></trkpt>
            <trkpt lat="51.866873" lon="10.478006"><ele>425.6</ele></trkpt>
            <trkpt lat="51.867235" lon="10.477817"><ele>424.8</ele></trkpt>
            <trkpt lat="51.867497" lon="10.477709"><ele>421</ele></trkpt>
            <trkpt lat="51.86788" lon="10.477567"><ele>436.5</ele></trkpt>
            <trkpt lat="51.868129" lon="10.477381"><ele>437.7</ele></trkpt>
            <trkpt lat="51.868286" lon="10.477337"><ele>435.2</ele></trkpt>
            <trkpt lat="51.868395" lon="10.477386"><ele>434.8</ele></trkpt>
            <trkpt lat="51.868519" lon="10.477597"><ele>436.4</ele></trkpt>
            <trkpt lat="51.868599" lon="10.477858"><ele>437.9</ele></trkpt>
            <trkpt lat="51.868825" lon="10.478435"><ele>443.4</ele></trkpt>
            <trkpt lat="51.869059" lon="10.478876"><ele>476</ele></trkpt>
            <trkpt lat="51.869097" lon="10.478947"><ele>472.7</ele></trkpt>
            <trkpt lat="51.869407" lon="10.479226"><ele>473.5</ele></trkpt>
            <trkpt lat="51.870036" lon="10.479572"><ele>464</ele></trkpt>
            <trkpt lat="51.870083" lon="10.479596"><ele>471.8</ele></trkpt>
            <trkpt lat="51.870499" lon="10.480313"><ele>475.3</ele></trkpt>
            <trkpt lat="51.871034" lon="10.480683"><ele>477.4</ele></trkpt>
            <trkpt lat="51.871414" lon="10.481101"><ele>482.1</ele></trkpt>
            <trkpt lat="51.871645" lon="10.481196"><ele>485.7</ele></trkpt>
            <trkpt lat="51.871889" lon="10.48126"><ele>482</ele></trkpt>
            <trkpt lat="51.871834" lon="10.481374"><ele>482</ele></trkpt>
        </trkseg>
    </trk>
</gpx>
