<?xml version="1.0" encoding="UTF-8"?>
<gpx version="1.1" creator="HWN Route Compare (OpenRouteService)" xmlns="http://www.topografix.com/GPX/1/1">
    <metadata>
        <name>OpenRouteService – Tour A5b</name>
    </metadata>
    <trk>
        <name>OpenRouteService – Tour A5b</name>
        <trkseg>
            <trkpt lat="51.890233" lon="10.418898"><ele>326</ele></trkpt>
            <trkpt lat="51.890185" lon="10.418373"><ele>326</ele></trkpt>
            <trkpt lat="51.890172" lon="10.41825"><ele>340</ele></trkpt>
            <trkpt lat="51.890161" lon="10.418141"><ele>340</ele></trkpt>
            <trkpt lat="51.89007" lon="10.41818"><ele>340</ele></trkpt>
            <trkpt lat="51.889808" lon="10.418263"><ele>337.3</ele></trkpt>
            <trkpt lat="51.889448" lon="10.418478"><ele>334.9</ele></trkpt>
            <trkpt lat="51.889345" lon="10.418554"><ele>335.2</ele></trkpt>
            <trkpt lat="51.889268" lon="10.41864"><ele>335.6</ele></trkpt>
            <trkpt lat="51.889208" lon="10.418748"><ele>333</ele></trkpt>
            <trkpt lat="51.889143" lon="10.418936"><ele>341</ele></trkpt>
            <trkpt lat="51.889086" lon="10.419189"><ele>345</ele></trkpt>
            <trkpt lat="51.888996" lon="10.419405"><ele>345</ele></trkpt>
            <trkpt lat="51.888932" lon="10.419496"><ele>345</ele></trkpt>
            <trkpt lat="51.888698" lon="10.419659"><ele>345</ele></trkpt>
            <trkpt lat="51.888613" lon="10.419723"><ele>345</ele></trkpt>
            <trkpt lat="51.888378" lon="10.420098"><ele>350.5</ele></trkpt>
            <trkpt lat="51.88815" lon="10.420588"><ele>349.4</ele></trkpt>
            <trkpt lat="51.887896" lon="10.420866"><ele>368</ele></trkpt>
            <trkpt lat="51.88809" lon="10.420863"><ele>366.8</ele></trkpt>
            <trkpt lat="51.888652" lon="10.420786"><ele>364.5</ele></trkpt>
            <trkpt lat="51.888781" lon="10.42081"><ele>362.3</ele></trkpt>
            <trkpt lat="51.888913" lon="10.420909"><ele>363.5</ele></trkpt>
            <trkpt lat="51.889039" lon="10.421056"><ele>373</ele></trkpt>
            <trkpt lat="51.889513" lon="10.421372"><ele>386.7</ele></trkpt>
            <trkpt lat="51.889555" lon="10.421485"><ele>385.8</ele></trkpt>
            <trkpt lat="51.889767" lon="10.421898"><ele>386.6</ele></trkpt>
            <trkpt lat="51.889816" lon="10.422126"><ele>387.6</ele></trkpt>
            <trkpt lat="51.88989" lon="10.42224"><ele>387.9</ele></trkpt>
            <trkpt lat="51.889916" lon="10.422321"><ele>388.2</ele></trkpt>
            <trkpt lat="51.889936" lon="10.422465"><ele>388.5</ele></trkpt>
            <trkpt lat="51.889921" lon="10.422566"><ele>389.7</ele></trkpt>
            <trkpt lat="51.88986" lon="10.422676"><ele>391.9</ele></trkpt>
            <trkpt lat="51.889766" lon="10.422658"><ele>394</ele></trkpt>
            <trkpt lat="51.889711" lon="10.422563"><ele>395</ele></trkpt>
            <trkpt lat="51.889686" lon="10.422556"><ele>414</ele></trkpt>
            <trkpt lat="51.889665" lon="10.422581"><ele>414</ele></trkpt>
            <trkpt lat="51.88969" lon="10.422701"><ele>414</ele></trkpt>
            <trkpt lat="51.889777" lon="10.422895"><ele>414</ele></trkpt>
            <trkpt lat="51.889861" lon="10.423012"><ele>414</ele></trkpt>
            <trkpt lat="51.889933" lon="10.423164"><ele>414</ele></trkpt>
            <trkpt lat="51.889966" lon="10.42328"><ele>414</ele></trkpt>
            <trkpt lat="51.890015" lon="10.423354"><ele>412.5</ele></trkpt>
            <trkpt lat="51.890226" lon="10.423565"><ele>412.6</ele></trkpt>
            <trkpt lat="51.890721" lon="10.423916"><ele>412.7</ele></trkpt>
            <trkpt lat="51.890885" lon="10.424076"><ele>411</ele></trkpt>
            <trkpt lat="51.890984" lon="10.424249"><ele>411.2</ele></trkpt>
            <trkpt lat="51.891041" lon="10.424398"><ele>413</ele></trkpt>
            <trkpt lat="51.891124" lon="10.424663"><ele>416.9</ele></trkpt>
            <trkpt lat="51.891189" lon="10.424781"><ele>416.3</ele></trkpt>
            <trkpt lat="51.891426" lon="10.425098"><ele>430</ele></trkpt>
            <trkpt lat="51.891626" lon="10.425349"><ele>430</ele></trkpt>
            <trkpt lat="51.891682" lon="10.425429"><ele>411</ele></trkpt>
            <trkpt lat="51.891515" lon="10.425602"><ele>451.5</ele></trkpt>
            <trkpt lat="51.891422" lon="10.425669"><ele>452.1</ele></trkpt>
            <trkpt lat="51.891358" lon="10.425675"><ele>452.8</ele></trkpt>
            <trkpt lat="51.891294" lon="10.425633"><ele>453.5</ele></trkpt>
            <trkpt lat="51.89124" lon="10.425657"><ele>454.3</ele></trkpt>
            <trkpt lat="51.891231" lon="10.425921"><ele>456.6</ele></trkpt>
            <trkpt lat="51.89132" lon="10.426288"><ele>457.1</ele></trkpt>
            <trkpt lat="51.891309" lon="10.42632"><ele>457.4</ele></trkpt>
            <trkpt lat="51.891248" lon="10.426273"><ele>457.9</ele></trkpt>
            <trkpt lat="51.891232" lon="10.426363"><ele>458.2</ele></trkpt>
            <trkpt lat="51.890963" lon="10.426123"><ele>459.1</ele></trkpt>
            <trkpt lat="51.890927" lon="10.426123"><ele>459.4</ele></trkpt>
            <trkpt lat="51.890918" lon="10.426166"><ele>459.7</ele></trkpt>
            <trkpt lat="51.890942" lon="10.42635"><ele>460.4</ele></trkpt>
            <trkpt lat="51.89088" lon="10.426329"><ele>460.7</ele></trkpt>
            <trkpt lat="51.890724" lon="10.426208"><ele>461.1</ele></trkpt>
            <trkpt lat="51.890684" lon="10.426225"><ele>460.5</ele></trkpt>
            <trkpt lat="51.890571" lon="10.426084"><ele>459.9</ele></trkpt>
            <trkpt lat="51.890502" lon="10.426036"><ele>459.3</ele></trkpt>
            <trkpt lat="51.89048" lon="10.426043"><ele>458.6</ele></trkpt>
            <trkpt lat="51.890479" lon="10.426134"><ele>457.3</ele></trkpt>
            <trkpt lat="51.890458" lon="10.426158"><ele>480</ele></trkpt>
            <trkpt lat="51.890458" lon="10.426328"><ele>480</ele></trkpt>
            <trkpt lat="51.890442" lon="10.426373"><ele>487.1</ele></trkpt>
            <trkpt lat="51.890499" lon="10.426598"><ele>487.7</ele></trkpt>
            <trkpt lat="51.890426" lon="10.426543"><ele>488.4</ele></trkpt>
            <trkpt lat="51.890328" lon="10.426396"><ele>489.2</ele></trkpt>
            <trkpt lat="51.890243" lon="10.426423"><ele>491</ele></trkpt>
            <trkpt lat="51.89023" lon="10.426694"><ele>493</ele></trkpt>
            <trkpt lat="51.89026" lon="10.426862"><ele>506</ele></trkpt>
            <trkpt lat="51.890261" lon="10.426892"><ele>506</ele></trkpt>
            <trkpt lat="51.890216" lon="10.426882"><ele>506</ele></trkpt>
            <trkpt lat="51.890105" lon="10.426931"><ele>506</ele></trkpt>
            <trkpt lat="51.890076" lon="10.426778"><ele>506</ele></trkpt>
            <trkpt lat="51.889964" lon="10.426764"><ele>547</ele></trkpt>
            <trkpt lat="51.889877" lon="10.426738"><ele>547</ele></trkpt>
            <trkpt lat="51.889833" lon="10.426696"><ele>547</ele></trkpt>
            <trkpt lat="51.889831" lon="10.426918"><ele>547</ele></trkpt>
            <trkpt lat="51.889859" lon="10.426967"><ele>547</ele></trkpt>
            <trkpt lat="51.889849" lon="10.426995"><ele>547</ele></trkpt>
            <trkpt lat="51.889799" lon="10.426948"><ele>547</ele></trkpt>
            <trkpt lat="51.889774" lon="10.426972"><ele>547</ele></trkpt>
            <trkpt lat="51.889758" lon="10.427065"><ele>547</ele></trkpt>
            <trkpt lat="51.889722" lon="10.427033"><ele>547</ele></trkpt>
            <trkpt lat="51.889622" lon="10.42718"><ele>547</ele></trkpt>
            <trkpt lat="51.889594" lon="10.427252"><ele>547</ele></trkpt>
            <trkpt lat="51.889542" lon="10.42718"><ele>549.1</ele></trkpt>
            <trkpt lat="51.889496" lon="10.427157"><ele>549.3</ele></trkpt>
            <trkpt lat="51.889494" lon="10.427225"><ele>549.5</ele></trkpt>
            <trkpt lat="51.889343" lon="10.42717"><ele>550.1</ele></trkpt>
            <trkpt lat="51.889181" lon="10.427183"><ele>550.7</ele></trkpt>
            <trkpt lat="51.889151" lon="10.427214"><ele>566</ele></trkpt>
            <trkpt lat="51.888889" lon="10.426983"><ele>566</ele></trkpt>
            <trkpt lat="51.888672" lon="10.426759"><ele>566</ele></trkpt>
            <trkpt lat="51.888503" lon="10.426605"><ele>541.7</ele></trkpt>
            <trkpt lat="51.888481" lon="10.426604"><ele>541</ele></trkpt>
            <trkpt lat="51.888503" lon="10.426605"><ele>541.7</ele></trkpt>
            <trkpt lat="51.888672" lon="10.426759"><ele>566</ele></trkpt>
            <trkpt lat="51.888889" lon="10.426983"><ele>566</ele></trkpt>
            <trkpt lat="51.889151" lon="10.427214"><ele>566</ele></trkpt>
            <trkpt lat="51.889181" lon="10.427183"><ele>550.7</ele></trkpt>
            <trkpt lat="51.889343" lon="10.42717"><ele>550.1</ele></trkpt>
            <trkpt lat="51.889494" lon="10.427225"><ele>549.5</ele></trkpt>
            <trkpt lat="51.889496" lon="10.427157"><ele>549.3</ele></trkpt>
            <trkpt lat="51.889542" lon="10.42718"><ele>549.1</ele></trkpt>
            <trkpt lat="51.889594" lon="10.427252"><ele>547</ele></trkpt>
            <trkpt lat="51.889622" lon="10.42718"><ele>547</ele></trkpt>
            <trkpt lat="51.889722" lon="10.427033"><ele>547</ele></trkpt>
            <trkpt lat="51.889758" lon="10.427065"><ele>547</ele></trkpt>
            <trkpt lat="51.889774" lon="10.426972"><ele>547</ele></trkpt>
            <trkpt lat="51.889799" lon="10.426948"><ele>547</ele></trkpt>
            <trkpt lat="51.889849" lon="10.426995"><ele>547</ele></trkpt>
            <trkpt lat="51.889859" lon="10.426967"><ele>547</ele></trkpt>
            <trkpt lat="51.889831" lon="10.426918"><ele>547</ele></trkpt>
            <trkpt lat="51.889833" lon="10.426696"><ele>547</ele></trkpt>
            <trkpt lat="51.889877" lon="10.426738"><ele>547</ele></trkpt>
            <trkpt lat="51.889964" lon="10.426764"><ele>547</ele></trkpt>
            <trkpt lat="51.890076" lon="10.426778"><ele>506</ele></trkpt>
            <trkpt lat="51.890105" lon="10.426931"><ele>506</ele></trkpt>
            <trkpt lat="51.890216" lon="10.426882"><ele>506</ele></trkpt>
            <trkpt lat="51.890261" lon="10.426892"><ele>506</ele></trkpt>
            <trkpt lat="51.89026" lon="10.426862"><ele>506</ele></trkpt>
            <trkpt lat="51.89023" lon="10.426694"><ele>493</ele></trkpt>
            <trkpt lat="51.890243" lon="10.426423"><ele>491</ele></trkpt>
            <trkpt lat="51.890328" lon="10.426396"><ele>489.2</ele></trkpt>
            <trkpt lat="51.890426" lon="10.426543"><ele>488.4</ele></trkpt>
            <trkpt lat="51.890499" lon="10.426598"><ele>487.7</ele></trkpt>
            <trkpt lat="51.890442" lon="10.426373"><ele>487.1</ele></trkpt>
            <trkpt lat="51.890458" lon="10.426328"><ele>480</ele></trkpt>
            <trkpt lat="51.890458" lon="10.426158"><ele>480</ele></trkpt>
            <trkpt lat="51.890479" lon="10.426134"><ele>457.3</ele></trkpt>
            <trkpt lat="51.89048" lon="10.426043"><ele>458.6</ele></trkpt>
            <trkpt lat="51.890502" lon="10.426036"><ele>459.3</ele></trkpt>
            <trkpt lat="51.890571" lon="10.426084"><ele>459.9</ele></trkpt>
            <trkpt lat="51.890684" lon="10.426225"><ele>460.5</ele></trkpt>
            <trkpt lat="51.890724" lon="10.426208"><ele>461.1</ele></trkpt>
            <trkpt lat="51.89088" lon="10.426329"><ele>460.7</ele></trkpt>
            <trkpt lat="51.890942" lon="10.42635"><ele>460.4</ele></trkpt>
            <trkpt lat="51.890918" lon="10.426166"><ele>459.7</ele></trkpt>
            <trkpt lat="51.890927" lon="10.426123"><ele>459.4</ele></trkpt>
            <trkpt lat="51.890963" lon="10.426123"><ele>459.1</ele></trkpt>
            <trkpt lat="51.891232" lon="10.426363"><ele>458.2</ele></trkpt>
            <trkpt lat="51.891248" lon="10.426273"><ele>457.9</ele></trkpt>
            <trkpt lat="51.891309" lon="10.42632"><ele>457.4</ele></trkpt>
            <trkpt lat="51.89132" lon="10.426288"><ele>457.1</ele></trkpt>
            <trkpt lat="51.891231" lon="10.425921"><ele>456.6</ele></trkpt>
            <trkpt lat="51.89124" lon="10.425657"><ele>454.3</ele></trkpt>
            <trkpt lat="51.891294" lon="10.425633"><ele>453.5</ele></trkpt>
            <trkpt lat="51.891358" lon="10.425675"><ele>452.8</ele></trkpt>
            <trkpt lat="51.891422" lon="10.425669"><ele>452.1</ele></trkpt>
            <trkpt lat="51.891515" lon="10.425602"><ele>451.5</ele></trkpt>
            <trkpt lat="51.891682" lon="10.425429"><ele>411</ele></trkpt>
            <trkpt lat="51.891626" lon="10.425349"><ele>430</ele></trkpt>
            <trkpt lat="51.891426" lon="10.425098"><ele>430</ele></trkpt>
            <trkpt lat="51.891189" lon="10.424781"><ele>416.3</ele></trkpt>
            <trkpt lat="51.891124" lon="10.424663"><ele>416.9</ele></trkpt>
            <trkpt lat="51.891041" lon="10.424398"><ele>413</ele></trkpt>
            <trkpt lat="51.890984" lon="10.424249"><ele>411.2</ele></trkpt>
            <trkpt lat="51.890885" lon="10.424076"><ele>411</ele></trkpt>
            <trkpt lat="51.890721" lon="10.423916"><ele>412.7</ele></trkpt>
            <trkpt lat="51.890226" lon="10.423565"><ele>412.6</ele></trkpt>
            <trkpt lat="51.890015" lon="10.423354"><ele>412.5</ele></trkpt>
            <trkpt lat="51.889966" lon="10.42328"><ele>414</ele></trkpt>
            <trkpt lat="51.889933" lon="10.423164"><ele>414</ele></trkpt>
            <trkpt lat="51.889861" lon="10.423012"><ele>414</ele></trkpt>
            <trkpt lat="51.889777" lon="10.422895"><ele>414</ele></trkpt>
            <trkpt lat="51.88969" lon="10.422701"><ele>414</ele></trkpt>
            <trkpt lat="51.889665" lon="10.422581"><ele>414</ele></trkpt>
            <trkpt lat="51.889686" lon="10.422556"><ele>414</ele></trkpt>
            <trkpt lat="51.889711" lon="10.422563"><ele>395</ele></trkpt>
            <trkpt lat="51.889766" lon="10.422658"><ele>394</ele></trkpt>
            <trkpt lat="51.88986" lon="10.422676"><ele>391.9</ele></trkpt>
            <trkpt lat="51.889921" lon="10.422566"><ele>389.7</ele></trkpt>
            <trkpt lat="51.889936" lon="10.422465"><ele>388.5</ele></trkpt>
            <trkpt lat="51.889916" lon="10.422321"><ele>388.2</ele></trkpt>
            <trkpt lat="51.88989" lon="10.42224"><ele>387.9</ele></trkpt>
            <trkpt lat="51.889816" lon="10.422126"><ele>387.6</ele></trkpt>
            <trkpt lat="51.889767" lon="10.421898"><ele>386.6</ele></trkpt>
            <trkpt lat="51.889555" lon="10.421485"><ele>385.8</ele></trkpt>
            <trkpt lat="51.889513" lon="10.421372"><ele>386.7</ele></trkpt>
            <trkpt lat="51.889039" lon="10.421056"><ele>373</ele></trkpt>
            <trkpt lat="51.888913" lon="10.420909"><ele>363.5</ele></trkpt>
            <trkpt lat="51.888781" lon="10.42081"><ele>362.3</ele></trkpt>
            <trkpt lat="51.888652" lon="10.420786"><ele>364.5</ele></trkpt>
            <trkpt lat="51.88809" lon="10.420863"><ele>366.8</ele></trkpt>
            <trkpt lat="51.887896" lon="10.420866"><ele>368</ele></trkpt>
            <trkpt lat="51.88815" lon="10.420588"><ele>349.4</ele></trkpt>
            <trkpt lat="51.888378" lon="10.420098"><ele>350.5</ele></trkpt>
            <trkpt lat="51.888613" lon="10.419723"><ele>345</ele></trkpt>
            <trkpt lat="51.888698" lon="10.419659"><ele>345</ele></trkpt>
            <trkpt lat="51.888932" lon="10.419496"><ele>345</ele></trkpt>
            <trkpt lat="51.888996" lon="10.419405"><ele>345</ele></trkpt>
            <trkpt lat="51.889086" lon="10.419189"><ele>345</ele></trkpt>
            <trkpt lat="51.889143" lon="10.418936"><ele>341</ele></trkpt>
            <trkpt lat="51.889208" lon="10.418748"><ele>333</ele></trkpt>
            <trkpt lat="51.889268" lon="10.41864"><ele>335.6</ele></trkpt>
            <trkpt lat="51.889345" lon="10.418554"><ele>335.2</ele></trkpt>
            <trkpt lat="51.889448" lon="10.418478"><ele>334.9</ele></trkpt>
            <trkpt lat="51.889808" lon="10.418263"><ele>337.3</ele></trkpt>
            <trkpt lat="51.89007" lon="10.41818"><ele>340</ele></trkpt>
            <trkpt lat="51.890161" lon="10.418141"><ele>340</ele></trkpt>
            <trkpt lat="51.890172" lon="10.41825"><ele>340</ele></trkpt>
            <trkpt lat="51.890185" lon="10.418373"><ele>326</ele></trkpt>
            <trkpt lat="51.890233" lon="10.418898"><ele>326</ele></trkpt>
        </trkseg>
    </trk>
</gpx>
