<?xml version="1.0" encoding="UTF-8"?>
<gpx version="1.1" creator="HWN Route Compare (OpenRouteService)" xmlns="http://www.topografix.com/GPX/1/1">
    <metadata>
        <name>OpenRouteService – Tour A6</name>
    </metadata>
    <trk>
        <name>OpenRouteService – Tour A6</name>
        <trkseg>
            <trkpt lat="51.914911" lon="10.467997"><ele>337.9</ele></trkpt>
            <trkpt lat="51.914906" lon="10.468001"><ele>333.8</ele></trkpt>
            <trkpt lat="51.914909" lon="10.468172"><ele>335.6</ele></trkpt>
            <trkpt lat="51.914889" lon="10.468247"><ele>336.7</ele></trkpt>
            <trkpt lat="51.914786" lon="10.468369"><ele>345</ele></trkpt>
            <trkpt lat="51.914638" lon="10.468522"><ele>345</ele></trkpt>
            <trkpt lat="51.914535" lon="10.468737"><ele>341.3</ele></trkpt>
            <trkpt lat="51.914515" lon="10.469064"><ele>341.8</ele></trkpt>
            <trkpt lat="51.914247" lon="10.469536"><ele>342.1</ele></trkpt>
            <trkpt lat="51.914171" lon="10.469944"><ele>342.4</ele></trkpt>
            <trkpt lat="51.913899" lon="10.470486"><ele>331.3</ele></trkpt>
            <trkpt lat="51.91288" lon="10.471306"><ele>284.1</ele></trkpt>
            <trkpt lat="51.912615" lon="10.47129"><ele>276.9</ele></trkpt>
            <trkpt lat="51.91252" lon="10.471119"><ele>279.5</ele></trkpt>
            <trkpt lat="51.912383" lon="10.470445"><ele>248</ele></trkpt>
            <trkpt lat="51.912352" lon="10.470849"><ele>253.4</ele></trkpt>
            <trkpt lat="51.912179" lon="10.471457"><ele>259.4</ele></trkpt>
            <trkpt lat="51.912" lon="10.472269"><ele>261.1</ele></trkpt>
            <trkpt lat="51.91206" lon="10.472704"><ele>263.4</ele></trkpt>
            <trkpt lat="51.912141" lon="10.473126"><ele>264.4</ele></trkpt>
            <trkpt lat="51.912251" lon="10.473238"><ele>265.2</ele></trkpt>
            <trkpt lat="51.912437" lon="10.47322"><ele>266.1</ele></trkpt>
            <trkpt lat="51.912651" lon="10.473165"><ele>264.8</ele></trkpt>
            <trkpt lat="51.912785" lon="10.473301"><ele>263.5</ele></trkpt>
            <trkpt lat="51.913052" lon="10.473953"><ele>259.2</ele></trkpt>
            <trkpt lat="51.91306" lon="10.474576"><ele>256.7</ele></trkpt>
            <trkpt lat="51.913049" lon="10.475198"><ele>253.7</ele></trkpt>
            <trkpt lat="51.913563" lon="10.476277"><ele>248.4</ele></trkpt>
            <trkpt lat="51.913955" lon="10.477257"><ele>232</ele></trkpt>
            <trkpt lat="51.913682" lon="10.477194"><ele>230.7</ele></trkpt>
            <trkpt lat="51.912572" lon="10.475756"><ele>228.8</ele></trkpt>
            <trkpt lat="51.912504" lon="10.475481"><ele>230.5</ele></trkpt>
            <trkpt lat="51.912425" lon="10.475328"><ele>225.5</ele></trkpt>
            <trkpt lat="51.912084" lon="10.475162"><ele>222.9</ele></trkpt>
            <trkpt lat="51.911328" lon="10.474371"><ele>214.4</ele></trkpt>
            <trkpt lat="51.91126" lon="10.474377"><ele>214.9</ele></trkpt>
            <trkpt lat="51.91091" lon="10.475679"><ele>214.3</ele></trkpt>
            <trkpt lat="51.910864" lon="10.475786"><ele>214.5</ele></trkpt>
            <trkpt lat="51.91077" lon="10.475812"><ele>212.7</ele></trkpt>
            <trkpt lat="51.910625" lon="10.475489"><ele>211.8</ele></trkpt>
            <trkpt lat="51.910386" lon="10.475028"><ele>210.3</ele></trkpt>
            <trkpt lat="51.910227" lon="10.474964"><ele>205</ele></trkpt>
            <trkpt lat="51.910155" lon="10.474989"><ele>205</ele></trkpt>
            <trkpt lat="51.90998" lon="10.47502"><ele>207</ele></trkpt>
            <trkpt lat="51.909647" lon="10.475079"><ele>207</ele></trkpt>
            <trkpt lat="51.909404" lon="10.475047"><ele>207</ele></trkpt>
            <trkpt lat="51.909408" lon="10.474724"><ele>208.5</ele></trkpt>
            <trkpt lat="51.909386" lon="10.474646"><ele>208.6</ele></trkpt>
            <trkpt lat="51.909326" lon="10.474526"><ele>209</ele></trkpt>
            <trkpt lat="51.909274" lon="10.47445"><ele>209</ele></trkpt>
            <trkpt lat="51.909159" lon="10.474615"><ele>212.3</ele></trkpt>
            <trkpt lat="51.90901" lon="10.474777"><ele>212.2</ele></trkpt>
            <trkpt lat="51.908798" lon="10.474948"><ele>212.2</ele></trkpt>
            <trkpt lat="51.908379" lon="10.475233"><ele>212.1</ele></trkpt>
            <trkpt lat="51.90828" lon="10.475351"><ele>212.1</ele></trkpt>
            <trkpt lat="51.908053" lon="10.475533"><ele>213</ele></trkpt>
            <trkpt lat="51.906989" lon="10.47635"><ele>212.9</ele></trkpt>
            <trkpt lat="51.906281" lon="10.476958"><ele>212</ele></trkpt>
            <trkpt lat="51.905937" lon="10.477305"><ele>212.3</ele></trkpt>
            <trkpt lat="51.905609" lon="10.477842"><ele>212.2</ele></trkpt>
            <trkpt lat="51.905337" lon="10.478338"><ele>212.1</ele></trkpt>
            <trkpt lat="51.90525" lon="10.478537"><ele>212</ele></trkpt>
            <trkpt lat="51.905125" lon="10.478884"><ele>212</ele></trkpt>
            <trkpt lat="51.905106" lon="10.478931"><ele>212</ele></trkpt>
            <trkpt lat="51.904896" lon="10.479422"><ele>211.4</ele></trkpt>
            <trkpt lat="51.904863" lon="10.479551"><ele>211</ele></trkpt>
            <trkpt lat="51.904697" lon="10.479967"><ele>210.2</ele></trkpt>
            <trkpt lat="51.904345" lon="10.480672"><ele>209.7</ele></trkpt>
            <trkpt lat="51.904234" lon="10.480771"><ele>209.7</ele></trkpt>
            <trkpt lat="51.904134" lon="10.480818"><ele>209.7</ele></trkpt>
            <trkpt lat="51.903428" lon="10.480942"><ele>209.5</ele></trkpt>
            <trkpt lat="51.903335" lon="10.480978"><ele>209</ele></trkpt>
            <trkpt lat="51.903067" lon="10.481117"><ele>208</ele></trkpt>
            <trkpt lat="51.902829" lon="10.481317"><ele>208</ele></trkpt>
            <trkpt lat="51.902844" lon="10.48138"><ele>208</ele></trkpt>
            <trkpt lat="51.902762" lon="10.481447"><ele>208</ele></trkpt>
            <trkpt lat="51.90293" lon="10.482372"><ele>207</ele></trkpt>
            <trkpt lat="51.902866" lon="10.482476"><ele>207.4</ele></trkpt>
            <trkpt lat="51.901754" lon="10.482439"><ele>208</ele></trkpt>
            <trkpt lat="51.901395" lon="10.482429"><ele>208.8</ele></trkpt>
            <trkpt lat="51.901362" lon="10.48239"><ele>208.8</ele></trkpt>
            <trkpt lat="51.901335" lon="10.482196"><ele>209</ele></trkpt>
            <trkpt lat="51.90019" lon="10.482566"><ele>209</ele></trkpt>
            <trkpt lat="51.900138" lon="10.482646"><ele>209</ele></trkpt>
            <trkpt lat="51.900087" lon="10.482646"><ele>209</ele></trkpt>
            <trkpt lat="51.900052" lon="10.482649"><ele>209</ele></trkpt>
            <trkpt lat="51.900039" lon="10.482654"><ele>209</ele></trkpt>
            <trkpt lat="51.900006" lon="10.482657"><ele>209</ele></trkpt>
            <trkpt lat="51.899879" lon="10.482687"><ele>211</ele></trkpt>
            <trkpt lat="51.899065" lon="10.482875"><ele>211</ele></trkpt>
            <trkpt lat="51.898959" lon="10.482924"><ele>211</ele></trkpt>
            <trkpt lat="51.898897" lon="10.483014"><ele>211</ele></trkpt>
            <trkpt lat="51.898862" lon="10.483171"><ele>211.4</ele></trkpt>
            <trkpt lat="51.898788" lon="10.483172"><ele>211.3</ele></trkpt>
            <trkpt lat="51.898723" lon="10.483173"><ele>211.4</ele></trkpt>
            <trkpt lat="51.898692" lon="10.483174"><ele>211.4</ele></trkpt>
            <trkpt lat="51.898694" lon="10.483356"><ele>212</ele></trkpt>
            <trkpt lat="51.898689" lon="10.483627"><ele>212</ele></trkpt>
            <trkpt lat="51.898715" lon="10.484141"><ele>214.2</ele></trkpt>
            <trkpt lat="51.898686" lon="10.48417"><ele>214.4</ele></trkpt>
            <trkpt lat="51.89865" lon="10.48417"><ele>213.8</ele></trkpt>
            <trkpt lat="51.898618" lon="10.484121"><ele>213.1</ele></trkpt>
            <trkpt lat="51.89854" lon="10.48409"><ele>213.3</ele></trkpt>
            <trkpt lat="51.898488" lon="10.484108"><ele>212</ele></trkpt>
            <trkpt lat="51.898173" lon="10.483958"><ele>215.2</ele></trkpt>
            <trkpt lat="51.898033" lon="10.483949"><ele>215.5</ele></trkpt>
            <trkpt lat="51.897816" lon="10.484008"><ele>215.9</ele></trkpt>
            <trkpt lat="51.897744" lon="10.4842"><ele>225</ele></trkpt>
            <trkpt lat="51.897726" lon="10.484294"><ele>225</ele></trkpt>
            <trkpt lat="51.897658" lon="10.484547"><ele>231</ele></trkpt>
            <trkpt lat="51.897223" lon="10.485126"><ele>243</ele></trkpt>
            <trkpt lat="51.897083" lon="10.485128"><ele>243</ele></trkpt>
            <trkpt lat="51.897045" lon="10.485146"><ele>243</ele></trkpt>
            <trkpt lat="51.896935" lon="10.485247"><ele>245.5</ele></trkpt>
            <trkpt lat="51.896884" lon="10.485375"><ele>245</ele></trkpt>
            <trkpt lat="51.896788" lon="10.485859"><ele>251</ele></trkpt>
            <trkpt lat="51.896781" lon="10.486045"><ele>251</ele></trkpt>
            <trkpt lat="51.896808" lon="10.48621"><ele>251</ele></trkpt>
            <trkpt lat="51.896724" lon="10.486257"><ele>260</ele></trkpt>
            <trkpt lat="51.896664" lon="10.486449"><ele>262.3</ele></trkpt>
            <trkpt lat="51.896606" lon="10.486782"><ele>275</ele></trkpt>
            <trkpt lat="51.896489" lon="10.487401"><ele>284</ele></trkpt>
            <trkpt lat="51.896181" lon="10.487974"><ele>285.8</ele></trkpt>
            <trkpt lat="51.896153" lon="10.488562"><ele>286.2</ele></trkpt>
            <trkpt lat="51.896176" lon="10.489002"><ele>293</ele></trkpt>
            <trkpt lat="51.896185" lon="10.490291"><ele>301.5</ele></trkpt>
            <trkpt lat="51.8961" lon="10.491105"><ele>300.6</ele></trkpt>
            <trkpt lat="51.896072" lon="10.491541"><ele>304</ele></trkpt>
            <trkpt lat="51.896032" lon="10.491747"><ele>303</ele></trkpt>
            <trkpt lat="51.895761" lon="10.492342"><ele>327</ele></trkpt>
            <trkpt lat="51.8957" lon="10.493245"><ele>335</ele></trkpt>
            <trkpt lat="51.895584" lon="10.49385"><ele>325.8</ele></trkpt>
            <trkpt lat="51.895384" lon="10.494538"><ele>325.7</ele></trkpt>
            <trkpt lat="51.895094" lon="10.495088"><ele>319</ele></trkpt>
            <trkpt lat="51.894854" lon="10.495504"><ele>344</ele></trkpt>
            <trkpt lat="51.894836" lon="10.495533"><ele>342.5</ele></trkpt>
            <trkpt lat="51.894809" lon="10.495694"><ele>342.3</ele></trkpt>
            <trkpt lat="51.894758" lon="10.496235"><ele>341.4</ele></trkpt>
            <trkpt lat="51.894652" lon="10.496941"><ele>341.2</ele></trkpt>
            <trkpt lat="51.894542" lon="10.498071"><ele>338</ele></trkpt>
            <trkpt lat="51.894327" lon="10.498752"><ele>333</ele></trkpt>
            <trkpt lat="51.893966" lon="10.499681"><ele>351.1</ele></trkpt>
            <trkpt lat="51.893812" lon="10.499935"><ele>351</ele></trkpt>
            <trkpt lat="51.8937" lon="10.500164"><ele>350.8</ele></trkpt>
            <trkpt lat="51.893181" lon="10.500918"><ele>358.9</ele></trkpt>
            <trkpt lat="51.893028" lon="10.501083"><ele>358</ele></trkpt>
            <trkpt lat="51.892826" lon="10.501189"><ele>358.1</ele></trkpt>
            <trkpt lat="51.892395" lon="10.501524"><ele>358.5</ele></trkpt>
            <trkpt lat="51.89217" lon="10.501604"><ele>357.8</ele></trkpt>
            <trkpt lat="51.891951" lon="10.501651"><ele>357.3</ele></trkpt>
            <trkpt lat="51.891878" lon="10.501723"><ele>356.9</ele></trkpt>
            <trkpt lat="51.891848" lon="10.501862"><ele>357.1</ele></trkpt>
            <trkpt lat="51.891802" lon="10.502342"><ele>357.7</ele></trkpt>
            <trkpt lat="51.891537" lon="10.503535"><ele>359.2</ele></trkpt>
            <trkpt lat="51.89137" lon="10.504904"><ele>359.4</ele></trkpt>
            <trkpt lat="51.891127" lon="10.505962"><ele>358.1</ele></trkpt>
            <trkpt lat="51.890759" lon="10.506946"><ele>362</ele></trkpt>
            <trkpt lat="51.890039" lon="10.508286"><ele>355</ele></trkpt>
            <trkpt lat="51.889822" lon="10.508961"><ele>359</ele></trkpt>
            <trkpt lat="51.889698" lon="10.509187"><ele>355.8</ele></trkpt>
            <trkpt lat="51.889496" lon="10.509312"><ele>355.8</ele></trkpt>
            <trkpt lat="51.889349" lon="10.509465"><ele>355.8</ele></trkpt>
            <trkpt lat="51.889236" lon="10.509725"><ele>355.7</ele></trkpt>
            <trkpt lat="51.889192" lon="10.510304"><ele>352</ele></trkpt>
            <trkpt lat="51.889222" lon="10.510823"><ele>353.3</ele></trkpt>
            <trkpt lat="51.889295" lon="10.511463"><ele>353.4</ele></trkpt>
            <trkpt lat="51.889314" lon="10.511769"><ele>353.7</ele></trkpt>
            <trkpt lat="51.889309" lon="10.511993"><ele>354.2</ele></trkpt>
            <trkpt lat="51.889269" lon="10.512213"><ele>354.7</ele></trkpt>
            <trkpt lat="51.889174" lon="10.512467"><ele>355.3</ele></trkpt>
            <trkpt lat="51.889052" lon="10.512717"><ele>371</ele></trkpt>
            <trkpt lat="51.888865" lon="10.513015"><ele>373.4</ele></trkpt>
            <trkpt lat="51.888702" lon="10.513214"><ele>373.1</ele></trkpt>
            <trkpt lat="51.888606" lon="10.513285"><ele>373.3</ele></trkpt>
            <trkpt lat="51.888352" lon="10.513408"><ele>373.5</ele></trkpt>
            <trkpt lat="51.888176" lon="10.513428"><ele>374.8</ele></trkpt>
            <trkpt lat="51.888034" lon="10.513474"><ele>374.5</ele></trkpt>
            <trkpt lat="51.887962" lon="10.513552"><ele>374.1</ele></trkpt>
            <trkpt lat="51.887769" lon="10.514009"><ele>373.7</ele></trkpt>
            <trkpt lat="51.887688" lon="10.514315"><ele>368</ele></trkpt>
            <trkpt lat="51.887513" lon="10.515105"><ele>358</ele></trkpt>
            <trkpt lat="51.887459" lon="10.515913"><ele>374.1</ele></trkpt>
            <trkpt lat="51.887366" lon="10.516204"><ele>373</ele></trkpt>
            <trkpt lat="51.887206" lon="10.516371"><ele>371.7</ele></trkpt>
            <trkpt lat="51.887025" lon="10.516769"><ele>371.8</ele></trkpt>
            <trkpt lat="51.886781" lon="10.517465"><ele>370.1</ele></trkpt>
            <trkpt lat="51.886548" lon="10.518309"><ele>362.6</ele></trkpt>
            <trkpt lat="51.886251" lon="10.519188"><ele>358.9</ele></trkpt>
            <trkpt lat="51.886096" lon="10.519409"><ele>358.7</ele></trkpt>
            <trkpt lat="51.885585" lon="10.519693"><ele>361.7</ele></trkpt>
            <trkpt lat="51.88553" lon="10.519828"><ele>366</ele></trkpt>
            <trkpt lat="51.885372" lon="10.520984"><ele>356.2</ele></trkpt>
            <trkpt lat="51.885345" lon="10.521469"><ele>356</ele></trkpt>
            <trkpt lat="51.88529" lon="10.522029"><ele>353.3</ele></trkpt>
            <trkpt lat="51.885139" lon="10.522954"><ele>345</ele></trkpt>
            <trkpt lat="51.885117" lon="10.523088"><ele>354</ele></trkpt>
            <trkpt lat="51.884933" lon="10.523602"><ele>353.6</ele></trkpt>
            <trkpt lat="51.884746" lon="10.52399"><ele>351.5</ele></trkpt>
            <trkpt lat="51.884394" lon="10.524458"><ele>349.2</ele></trkpt>
            <trkpt lat="51.884044" lon="10.525206"><ele>342</ele></trkpt>
            <trkpt lat="51.883976" lon="10.525127"><ele>342</ele></trkpt>
            <trkpt lat="51.883812" lon="10.525097"><ele>342.5</ele></trkpt>
            <trkpt lat="51.883769" lon="10.525045"><ele>342.4</ele></trkpt>
            <trkpt lat="51.883649" lon="10.524989"><ele>344</ele></trkpt>
            <trkpt lat="51.883556" lon="10.525035"><ele>342</ele></trkpt>
            <trkpt lat="51.883518" lon="10.525076"><ele>342</ele></trkpt>
            <trkpt lat="51.883387" lon="10.525057"><ele>343.1</ele></trkpt>
            <trkpt lat="51.883341" lon="10.525124"><ele>342.9</ele></trkpt>
            <trkpt lat="51.88333" lon="10.525235"><ele>346.6</ele></trkpt>
            <trkpt lat="51.883356" lon="10.525518"><ele>342</ele></trkpt>
            <trkpt lat="51.883373" lon="10.525768"><ele>342</ele></trkpt>
            <trkpt lat="51.883341" lon="10.526167"><ele>361.8</ele></trkpt>
            <trkpt lat="51.883228" lon="10.526513"><ele>363.6</ele></trkpt>
            <trkpt lat="51.882916" lon="10.527237"><ele>384</ele></trkpt>
            <trkpt lat="51.882599" lon="10.528192"><ele>376.7</ele></trkpt>
            <trkpt lat="51.882535" lon="10.528335"><ele>375.6</ele></trkpt>
            <trkpt lat="51.882514" lon="10.528434"><ele>370</ele></trkpt>
            <trkpt lat="51.882518" lon="10.528754"><ele>370</ele></trkpt>
            <trkpt lat="51.88242" lon="10.52878"><ele>393.3</ele></trkpt>
            <trkpt lat="51.882199" lon="10.529143"><ele>401</ele></trkpt>
            <trkpt lat="51.882087" lon="10.529301"><ele>395.4</ele></trkpt>
            <trkpt lat="51.881928" lon="10.529477"><ele>396</ele></trkpt>
            <trkpt lat="51.881876" lon="10.529505"><ele>394</ele></trkpt>
            <trkpt lat="51.881756" lon="10.529394"><ele>394</ele></trkpt>
            <trkpt lat="51.881714" lon="10.528972"><ele>414.4</ele></trkpt>
            <trkpt lat="51.881655" lon="10.528965"><ele>417.8</ele></trkpt>
            <trkpt lat="51.881363" lon="10.529196"><ele>417.2</ele></trkpt>
            <trkpt lat="51.881172" lon="10.529454"><ele>417.2</ele></trkpt>
            <trkpt lat="51.881019" lon="10.52981"><ele>417.2</ele></trkpt>
            <trkpt lat="51.880897" lon="10.530038"><ele>417.2</ele></trkpt>
            <trkpt lat="51.880802" lon="10.530151"><ele>417.9</ele></trkpt>
            <trkpt lat="51.88062" lon="10.530256"><ele>435</ele></trkpt>
            <trkpt lat="51.880333" lon="10.530442"><ele>433.1</ele></trkpt>
            <trkpt lat="51.880274" lon="10.530599"><ele>432.9</ele></trkpt>
            <trkpt lat="51.880265" lon="10.530756"><ele>432.6</ele></trkpt>
            <trkpt lat="51.880207" lon="10.53103"><ele>432.3</ele></trkpt>
            <trkpt lat="51.880191" lon="10.531214"><ele>429</ele></trkpt>
            <trkpt lat="51.880148" lon="10.531177"><ele>443.5</ele></trkpt>
            <trkpt lat="51.880075" lon="10.531021"><ele>445.9</ele></trkpt>
            <trkpt lat="51.879973" lon="10.530617"><ele>448.7</ele></trkpt>
            <trkpt lat="51.879946" lon="10.530383"><ele>447.7</ele></trkpt>
            <trkpt lat="51.879936" lon="10.529935"><ele>464</ele></trkpt>
            <trkpt lat="51.879901" lon="10.529872"><ele>464</ele></trkpt>
            <trkpt lat="51.879861" lon="10.529739"><ele>464</ele></trkpt>
            <trkpt lat="51.879756" lon="10.529666"><ele>464</ele></trkpt>
            <trkpt lat="51.879738" lon="10.529571"><ele>464</ele></trkpt>
            <trkpt lat="51.879518" lon="10.529875"><ele>456.3</ele></trkpt>
            <trkpt lat="51.879328" lon="10.530375"><ele>455.6</ele></trkpt>
            <trkpt lat="51.879247" lon="10.530455"><ele>455.7</ele></trkpt>
            <trkpt lat="51.879128" lon="10.530503"><ele>455.8</ele></trkpt>
            <trkpt lat="51.879003" lon="10.530484"><ele>451</ele></trkpt>
            <trkpt lat="51.878956" lon="10.530149"><ele>460.3</ele></trkpt>
            <trkpt lat="51.878934" lon="10.52986"><ele>460.4</ele></trkpt>
            <trkpt lat="51.878841" lon="10.52943"><ele>460.4</ele></trkpt>
            <trkpt lat="51.878823" lon="10.529283"><ele>460.5</ele></trkpt>
            <trkpt lat="51.878868" lon="10.528883"><ele>461.5</ele></trkpt>
            <trkpt lat="51.878842" lon="10.528259"><ele>475</ele></trkpt>
            <trkpt lat="51.878905" lon="10.528137"><ele>475.3</ele></trkpt>
            <trkpt lat="51.878949" lon="10.527976"><ele>475.2</ele></trkpt>
            <trkpt lat="51.879028" lon="10.527795"><ele>475.2</ele></trkpt>
            <trkpt lat="51.879174" lon="10.527651"><ele>476</ele></trkpt>
            <trkpt lat="51.879149" lon="10.527437"><ele>478.1</ele></trkpt>
            <trkpt lat="51.879064" lon="10.527286"><ele>478.2</ele></trkpt>
            <trkpt lat="51.879149" lon="10.527437"><ele>478.1</ele></trkpt>
            <trkpt lat="51.879174" lon="10.527651"><ele>476</ele></trkpt>
            <trkpt lat="51.879028" lon="10.527795"><ele>475.2</ele></trkpt>
            <trkpt lat="51.878949" lon="10.527976"><ele>475.2</ele></trkpt>
            <trkpt lat="51.878905" lon="10.528137"><ele>475.3</ele></trkpt>
            <trkpt lat="51.878842" lon="10.528259"><ele>475</ele></trkpt>
            <trkpt lat="51.878868" lon="10.528883"><ele>461.5</ele></trkpt>
            <trkpt lat="51.878823" lon="10.529283"><ele>460.5</ele></trkpt>
            <trkpt lat="51.878841" lon="10.52943"><ele>460.4</ele></trkpt>
            <trkpt lat="51.878934" lon="10.52986"><ele>460.4</ele></trkpt>
            <trkpt lat="51.878956" lon="10.530149"><ele>460.3</ele></trkpt>
            <trkpt lat="51.879003" lon="10.530484"><ele>451</ele></trkpt>
            <trkpt lat="51.879128" lon="10.530503"><ele>455.8</ele></trkpt>
            <trkpt lat="51.879247" lon="10.530455"><ele>455.7</ele></trkpt>
            <trkpt lat="51.879328" lon="10.530375"><ele>455.6</ele></trkpt>
            <trkpt lat="51.879518" lon="10.529875"><ele>456.3</ele></trkpt>
            <trkpt lat="51.879738" lon="10.529571"><ele>464</ele></trkpt>
            <trkpt lat="51.879756" lon="10.529666"><ele>464</ele></trkpt>
            <trkpt lat="51.879861" lon="10.529739"><ele>464</ele></trkpt>
            <trkpt lat="51.879901" lon="10.529872"><ele>464</ele></trkpt>
            <trkpt lat="51.879936" lon="10.529935"><ele>464</ele></trkpt>
            <trkpt lat="51.879946" lon="10.530383"><ele>447.7</ele></trkpt>
            <trkpt lat="51.879973" lon="10.530617"><ele>448.7</ele></trkpt>
            <trkpt lat="51.880075" lon="10.531021"><ele>445.9</ele></trkpt>
            <trkpt lat="51.880148" lon="10.531177"><ele>443.5</ele></trkpt>
            <trkpt lat="51.880191" lon="10.531214"><ele>429</ele></trkpt>
            <trkpt lat="51.880207" lon="10.53103"><ele>432.3</ele></trkpt>
            <trkpt lat="51.880265" lon="10.530756"><ele>432.6</ele></trkpt>
            <trkpt lat="51.880274" lon="10.530599"><ele>432.9</ele></trkpt>
            <trkpt lat="51.880333" lon="10.530442"><ele>433.1</ele></trkpt>
            <trkpt lat="51.88062" lon="10.530256"><ele>435</ele></trkpt>
            <trkpt lat="51.880802" lon="10.530151"><ele>417.9</ele></trkpt>
            <trkpt lat="51.880897" lon="10.530038"><ele>417.2</ele></trkpt>
            <trkpt lat="51.881019" lon="10.52981"><ele>417.2</ele></trkpt>
            <trkpt lat="51.881172" lon="10.529454"><ele>417.2</ele></trkpt>
            <trkpt lat="51.881363" lon="10.529196"><ele>417.2</ele></trkpt>
            <trkpt lat="51.881655" lon="10.528965"><ele>417.8</ele></trkpt>
            <trkpt lat="51.881714" lon="10.528972"><ele>414.4</ele></trkpt>
            <trkpt lat="51.881756" lon="10.529394"><ele>394</ele></trkpt>
            <trkpt lat="51.881876" lon="10.529505"><ele>394</ele></trkpt>
            <trkpt lat="51.881928" lon="10.529477"><ele>396</ele></trkpt>
            <trkpt lat="51.882087" lon="10.529301"><ele>395.4</ele></trkpt>
            <trkpt lat="51.882199" lon="10.529143"><ele>401</ele></trkpt>
            <trkpt lat="51.88242" lon="10.52878"><ele>393.3</ele></trkpt>
            <trkpt lat="51.882518" lon="10.528754"><ele>370</ele></trkpt>
            <trkpt lat="51.882514" lon="10.528434"><ele>370</ele></trkpt>
            <trkpt lat="51.882535" lon="10.528335"><ele>375.6</ele></trkpt>
            <trkpt lat="51.882599" lon="10.528192"><ele>376.7</ele></trkpt>
            <trkpt lat="51.882916" lon="10.527237"><ele>384</ele></trkpt>
            <trkpt lat="51.883228" lon="10.526513"><ele>363.6</ele></trkpt>
            <trkpt lat="51.883341" lon="10.526167"><ele>361.8</ele></trkpt>
            <trkpt lat="51.883373" lon="10.525768"><ele>342</ele></trkpt>
            <trkpt lat="51.883356" lon="10.525518"><ele>342</ele></trkpt>
            <trkpt lat="51.88333" lon="10.525235"><ele>346.6</ele></trkpt>
            <trkpt lat="51.883341" lon="10.525124"><ele>342.9</ele></trkpt>
            <trkpt lat="51.883387" lon="10.525057"><ele>343.1</ele></trkpt>
            <trkpt lat="51.883518" lon="10.525076"><ele>342</ele></trkpt>
            <trkpt lat="51.883556" lon="10.525035"><ele>342</ele></trkpt>
            <trkpt lat="51.883649" lon="10.524989"><ele>344</ele></trkpt>
            <trkpt lat="51.883769" lon="10.525045"><ele>342.4</ele></trkpt>
            <trkpt lat="51.883812" lon="10.525097"><ele>342.5</ele></trkpt>
            <trkpt lat="51.883976" lon="10.525127"><ele>342</ele></trkpt>
            <trkpt lat="51.884044" lon="10.525206"><ele>342</ele></trkpt>
            <trkpt lat="51.884394" lon="10.524458"><ele>349.2</ele></trkpt>
            <trkpt lat="51.884746" lon="10.52399"><ele>351.5</ele></trkpt>
            <trkpt lat="51.884933" lon="10.523602"><ele>353.6</ele></trkpt>
            <trkpt lat="51.885117" lon="10.523088"><ele>354</ele></trkpt>
            <trkpt lat="51.885139" lon="10.522954"><ele>345</ele></trkpt>
            <trkpt lat="51.88529" lon="10.522029"><ele>353.3</ele></trkpt>
            <trkpt lat="51.885345" lon="10.521469"><ele>356</ele></trkpt>
            <trkpt lat="51.885372" lon="10.520984"><ele>356.2</ele></trkpt>
            <trkpt lat="51.88553" lon="10.519828"><ele>366</ele></trkpt>
            <trkpt lat="51.885585" lon="10.519693"><ele>361.7</ele></trkpt>
            <trkpt lat="51.886096" lon="10.519409"><ele>358.7</ele></trkpt>
            <trkpt lat="51.886251" lon="10.519188"><ele>358.9</ele></trkpt>
            <trkpt lat="51.886548" lon="10.518309"><ele>362.6</ele></trkpt>
            <trkpt lat="51.886781" lon="10.517465"><ele>370.1</ele></trkpt>
            <trkpt lat="51.887025" lon="10.516769"><ele>371.8</ele></trkpt>
            <trkpt lat="51.887206" lon="10.516371"><ele>371.7</ele></trkpt>
            <trkpt lat="51.887366" lon="10.516204"><ele>373</ele></trkpt>
            <trkpt lat="51.887459" lon="10.515913"><ele>374.1</ele></trkpt>
            <trkpt lat="51.887513" lon="10.515105"><ele>358</ele></trkpt>
            <trkpt lat="51.887688" lon="10.514315"><ele>368</ele></trkpt>
            <trkpt lat="51.887769" lon="10.514009"><ele>373.7</ele></trkpt>
            <trkpt lat="51.887962" lon="10.513552"><ele>374.1</ele></trkpt>
            <trkpt lat="51.888034" lon="10.513474"><ele>374.5</ele></trkpt>
            <trkpt lat="51.888176" lon="10.513428"><ele>374.8</ele></trkpt>
            <trkpt lat="51.888352" lon="10.513408"><ele>373.5</ele></trkpt>
            <trkpt lat="51.888606" lon="10.513285"><ele>373.3</ele></trkpt>
            <trkpt lat="51.888702" lon="10.513214"><ele>373.1</ele></trkpt>
            <trkpt lat="51.888865" lon="10.513015"><ele>373.4</ele></trkpt>
            <trkpt lat="51.889052" lon="10.512717"><ele>371</ele></trkpt>
            <trkpt lat="51.889174" lon="10.512467"><ele>355.3</ele></trkpt>
            <trkpt lat="51.889269" lon="10.512213"><ele>354.7</ele></trkpt>
            <trkpt lat="51.889309" lon="10.511993"><ele>354.2</ele></trkpt>
            <trkpt lat="51.889314" lon="10.511769"><ele>353.7</ele></trkpt>
            <trkpt lat="51.889295" lon="10.511463"><ele>353.4</ele></trkpt>
            <trkpt lat="51.889222" lon="10.510823"><ele>353.3</ele></trkpt>
            <trkpt lat="51.889192" lon="10.510304"><ele>352</ele></trkpt>
            <trkpt lat="51.889236" lon="10.509725"><ele>355.7</ele></trkpt>
            <trkpt lat="51.889349" lon="10.509465"><ele>355.8</ele></trkpt>
            <trkpt lat="51.889496" lon="10.509312"><ele>355.8</ele></trkpt>
            <trkpt lat="51.889698" lon="10.509187"><ele>355.8</ele></trkpt>
            <trkpt lat="51.889822" lon="10.508961"><ele>359</ele></trkpt>
            <trkpt lat="51.890039" lon="10.508286"><ele>355</ele></trkpt>
            <trkpt lat="51.890759" lon="10.506946"><ele>362</ele></trkpt>
            <trkpt lat="51.891127" lon="10.505962"><ele>358.1</ele></trkpt>
            <trkpt lat="51.89137" lon="10.504904"><ele>359.4</ele></trkpt>
            <trkpt lat="51.891537" lon="10.503535"><ele>359.2</ele></trkpt>
            <trkpt lat="51.891802" lon="10.502342"><ele>357.7</ele></trkpt>
            <trkpt lat="51.891848" lon="10.501862"><ele>357.1</ele></trkpt>
            <trkpt lat="51.891878" lon="10.501723"><ele>356.9</ele></trkpt>
            <trkpt lat="51.891951" lon="10.501651"><ele>357.3</ele></trkpt>
            <trkpt lat="51.89217" lon="10.501604"><ele>357.8</ele></trkpt>
            <trkpt lat="51.892395" lon="10.501524"><ele>358.5</ele></trkpt>
            <trkpt lat="51.892826" lon="10.501189"><ele>358.1</ele></trkpt>
            <trkpt lat="51.893028" lon="10.501083"><ele>358</ele></trkpt>
            <trkpt lat="51.893181" lon="10.500918"><ele>358.9</ele></trkpt>
            <trkpt lat="51.8937" lon="10.500164"><ele>350.8</ele></trkpt>
            <trkpt lat="51.893812" lon="10.499935"><ele>351</ele></trkpt>
            <trkpt lat="51.893966" lon="10.499681"><ele>351.1</ele></trkpt>
            <trkpt lat="51.894327" lon="10.498752"><ele>333</ele></trkpt>
            <trkpt lat="51.894542" lon="10.498071"><ele>338</ele></trkpt>
            <trkpt lat="51.894652" lon="10.496941"><ele>341.2</ele></trkpt>
            <trkpt lat="51.894758" lon="10.496235"><ele>341.4</ele></trkpt>
            <trkpt lat="51.894809" lon="10.495694"><ele>342.3</ele></trkpt>
            <trkpt lat="51.894836" lon="10.495533"><ele>342.5</ele></trkpt>
            <trkpt lat="51.894854" lon="10.495504"><ele>344</ele></trkpt>
            <trkpt lat="51.895094" lon="10.495088"><ele>319</ele></trkpt>
            <trkpt lat="51.895384" lon="10.494538"><ele>325.7</ele></trkpt>
            <trkpt lat="51.895584" lon="10.49385"><ele>325.8</ele></trkpt>
            <trkpt lat="51.8957" lon="10.493245"><ele>335</ele></trkpt>
            <trkpt lat="51.895761" lon="10.492342"><ele>327</ele></trkpt>
            <trkpt lat="51.896032" lon="10.491747"><ele>303</ele></trkpt>
            <trkpt lat="51.896072" lon="10.491541"><ele>304</ele></trkpt>
            <trkpt lat="51.8961" lon="10.491105"><ele>300.6</ele></trkpt>
            <trkpt lat="51.896185" lon="10.490291"><ele>301.5</ele></trkpt>
            <trkpt lat="51.896176" lon="10.489002"><ele>293</ele></trkpt>
            <trkpt lat="51.896153" lon="10.488562"><ele>286.2</ele></trkpt>
            <trkpt lat="51.896181" lon="10.487974"><ele>285.8</ele></trkpt>
            <trkpt lat="51.896489" lon="10.487401"><ele>284</ele></trkpt>
            <trkpt lat="51.896606" lon="10.486782"><ele>275</ele></trkpt>
            <trkpt lat="51.896664" lon="10.486449"><ele>262.3</ele></trkpt>
            <trkpt lat="51.896724" lon="10.486257"><ele>260</ele></trkpt>
            <trkpt lat="51.896808" lon="10.48621"><ele>251</ele></trkpt>
            <trkpt lat="51.896781" lon="10.486045"><ele>251</ele></trkpt>
            <trkpt lat="51.896788" lon="10.485859"><ele>251</ele></trkpt>
            <trkpt lat="51.896884" lon="10.485375"><ele>245</ele></trkpt>
            <trkpt lat="51.896935" lon="10.485247"><ele>245.5</ele></trkpt>
            <trkpt lat="51.897045" lon="10.485146"><ele>243</ele></trkpt>
            <trkpt lat="51.897083" lon="10.485128"><ele>243</ele></trkpt>
            <trkpt lat="51.897223" lon="10.485126"><ele>243</ele></trkpt>
            <trkpt lat="51.897658" lon="10.484547"><ele>231</ele></trkpt>
            <trkpt lat="51.897726" lon="10.484294"><ele>225</ele></trkpt>
            <trkpt lat="51.897744" lon="10.4842"><ele>225</ele></trkpt>
            <trkpt lat="51.897816" lon="10.484008"><ele>215.9</ele></trkpt>
            <trkpt lat="51.898033" lon="10.483949"><ele>215.5</ele></trkpt>
            <trkpt lat="51.898173" lon="10.483958"><ele>215.2</ele></trkpt>
            <trkpt lat="51.898488" lon="10.484108"><ele>212</ele></trkpt>
            <trkpt lat="51.89854" lon="10.48409"><ele>213.3</ele></trkpt>
            <trkpt lat="51.898618" lon="10.484121"><ele>213.1</ele></trkpt>
            <trkpt lat="51.89865" lon="10.48417"><ele>213.8</ele></trkpt>
            <trkpt lat="51.898686" lon="10.48417"><ele>214.4</ele></trkpt>
            <trkpt lat="51.898715" lon="10.484141"><ele>214.2</ele></trkpt>
            <trkpt lat="51.898689" lon="10.483627"><ele>212</ele></trkpt>
            <trkpt lat="51.898694" lon="10.483356"><ele>212</ele></trkpt>
            <trkpt lat="51.898692" lon="10.483174"><ele>211.4</ele></trkpt>
            <trkpt lat="51.898723" lon="10.483173"><ele>211.4</ele></trkpt>
            <trkpt lat="51.898788" lon="10.483172"><ele>211.3</ele></trkpt>
            <trkpt lat="51.898862" lon="10.483171"><ele>211.4</ele></trkpt>
            <trkpt lat="51.898897" lon="10.483014"><ele>211</ele></trkpt>
            <trkpt lat="51.898959" lon="10.482924"><ele>211</ele></trkpt>
            <trkpt lat="51.899065" lon="10.482875"><ele>211</ele></trkpt>
            <trkpt lat="51.899879" lon="10.482687"><ele>211</ele></trkpt>
            <trkpt lat="51.900006" lon="10.482657"><ele>209</ele></trkpt>
            <trkpt lat="51.900039" lon="10.482654"><ele>209</ele></trkpt>
            <trkpt lat="51.900052" lon="10.482649"><ele>209</ele></trkpt>
            <trkpt lat="51.900087" lon="10.482646"><ele>209</ele></trkpt>
            <trkpt lat="51.900138" lon="10.482646"><ele>209</ele></trkpt>
            <trkpt lat="51.90019" lon="10.482566"><ele>209</ele></trkpt>
            <trkpt lat="51.901335" lon="10.482196"><ele>209</ele></trkpt>
            <trkpt lat="51.901362" lon="10.48239"><ele>208.8</ele></trkpt>
            <trkpt lat="51.901395" lon="10.482429"><ele>208.8</ele></trkpt>
            <trkpt lat="51.901754" lon="10.482439"><ele>208</ele></trkpt>
            <trkpt lat="51.902866" lon="10.482476"><ele>207.4</ele></trkpt>
            <trkpt lat="51.90293" lon="10.482372"><ele>207</ele></trkpt>
            <trkpt lat="51.902762" lon="10.481447"><ele>208</ele></trkpt>
            <trkpt lat="51.902844" lon="10.48138"><ele>208</ele></trkpt>
            <trkpt lat="51.902829" lon="10.481317"><ele>208</ele></trkpt>
            <trkpt lat="51.903067" lon="10.481117"><ele>208</ele></trkpt>
            <trkpt lat="51.903335" lon="10.480978"><ele>209</ele></trkpt>
            <trkpt lat="51.903428" lon="10.480942"><ele>209.5</ele></trkpt>
            <trkpt lat="51.904134" lon="10.480818"><ele>209.7</ele></trkpt>
            <trkpt lat="51.904234" lon="10.480771"><ele>209.7</ele></trkpt>
            <trkpt lat="51.904345" lon="10.480672"><ele>209.7</ele></trkpt>
            <trkpt lat="51.904697" lon="10.479967"><ele>210.2</ele></trkpt>
            <trkpt lat="51.904863" lon="10.479551"><ele>211</ele></trkpt>
            <trkpt lat="51.904896" lon="10.479422"><ele>211.4</ele></trkpt>
            <trkpt lat="51.905106" lon="10.478931"><ele>212</ele></trkpt>
            <trkpt lat="51.905125" lon="10.478884"><ele>212</ele></trkpt>
            <trkpt lat="51.90525" lon="10.478537"><ele>212</ele></trkpt>
            <trkpt lat="51.905337" lon="10.478338"><ele>212.1</ele></trkpt>
            <trkpt lat="51.905609" lon="10.477842"><ele>212.2</ele></trkpt>
            <trkpt lat="51.905937" lon="10.477305"><ele>212.3</ele></trkpt>
            <trkpt lat="51.906281" lon="10.476958"><ele>212</ele></trkpt>
            <trkpt lat="51.906989" lon="10.47635"><ele>212.9</ele></trkpt>
            <trkpt lat="51.908053" lon="10.475533"><ele>213</ele></trkpt>
            <trkpt lat="51.90828" lon="10.475351"><ele>212.1</ele></trkpt>
            <trkpt lat="51.908379" lon="10.475233"><ele>212.1</ele></trkpt>
            <trkpt lat="51.908798" lon="10.474948"><ele>212.2</ele></trkpt>
            <trkpt lat="51.90901" lon="10.474777"><ele>212.2</ele></trkpt>
            <trkpt lat="51.909159" lon="10.474615"><ele>212.3</ele></trkpt>
            <trkpt lat="51.909274" lon="10.47445"><ele>209</ele></trkpt>
            <trkpt lat="51.909326" lon="10.474526"><ele>209</ele></trkpt>
            <trkpt lat="51.909386" lon="10.474646"><ele>208.6</ele></trkpt>
            <trkpt lat="51.909408" lon="10.474724"><ele>208.5</ele></trkpt>
            <trkpt lat="51.909404" lon="10.475047"><ele>207</ele></trkpt>
            <trkpt lat="51.909647" lon="10.475079"><ele>207</ele></trkpt>
            <trkpt lat="51.90998" lon="10.47502"><ele>207</ele></trkpt>
            <trkpt lat="51.910155" lon="10.474989"><ele>205</ele></trkpt>
            <trkpt lat="51.910227" lon="10.474964"><ele>205</ele></trkpt>
            <trkpt lat="51.910386" lon="10.475028"><ele>210.3</ele></trkpt>
            <trkpt lat="51.910625" lon="10.475489"><ele>211.8</ele></trkpt>
            <trkpt lat="51.91077" lon="10.475812"><ele>212.7</ele></trkpt>
            <trkpt lat="51.910864" lon="10.475786"><ele>214.5</ele></trkpt>
            <trkpt lat="51.91091" lon="10.475679"><ele>214.3</ele></trkpt>
            <trkpt lat="51.91126" lon="10.474377"><ele>214.9</ele></trkpt>
            <trkpt lat="51.911328" lon="10.474371"><ele>214.4</ele></trkpt>
            <trkpt lat="51.912084" lon="10.475162"><ele>222.9</ele></trkpt>
            <trkpt lat="51.912425" lon="10.475328"><ele>225.5</ele></trkpt>
            <trkpt lat="51.912504" lon="10.475481"><ele>230.5</ele></trkpt>
            <trkpt lat="51.912572" lon="10.475756"><ele>228.8</ele></trkpt>
            <trkpt lat="51.913682" lon="10.477194"><ele>230.7</ele></trkpt>
            <trkpt lat="51.913955" lon="10.477257"><ele>232</ele></trkpt>
            <trkpt lat="51.913563" lon="10.476277"><ele>248.4</ele></trkpt>
            <trkpt lat="51.913049" lon="10.475198"><ele>253.7</ele></trkpt>
            <trkpt lat="51.91306" lon="10.474576"><ele>256.7</ele></trkpt>
            <trkpt lat="51.913052" lon="10.473953"><ele>259.2</ele></trkpt>
            <trkpt lat="51.912785" lon="10.473301"><ele>263.5</ele></trkpt>
            <trkpt lat="51.912651" lon="10.473165"><ele>264.8</ele></trkpt>
            <trkpt lat="51.912437" lon="10.47322"><ele>266.1</ele></trkpt>
            <trkpt lat="51.912251" lon="10.473238"><ele>265.2</ele></trkpt>
            <trkpt lat="51.912141" lon="10.473126"><ele>264.4</ele></trkpt>
            <trkpt lat="51.91206" lon="10.472704"><ele>263.4</ele></trkpt>
            <trkpt lat="51.912" lon="10.472269"><ele>261.1</ele></trkpt>
            <trkpt lat="51.912179" lon="10.471457"><ele>259.4</ele></trkpt>
            <trkpt lat="51.912352" lon="10.470849"><ele>253.4</ele></trkpt>
            <trkpt lat="51.912383" lon="10.470445"><ele>248</ele></trkpt>
            <trkpt lat="51.91252" lon="10.471119"><ele>279.5</ele></trkpt>
            <trkpt lat="51.912615" lon="10.47129"><ele>276.9</ele></trkpt>
            <trkpt lat="51.91288" lon="10.471306"><ele>284.1</ele></trkpt>
            <trkpt lat="51.913899" lon="10.470486"><ele>331.3</ele></trkpt>
            <trkpt lat="51.914171" lon="10.469944"><ele>342.4</ele></trkpt>
            <trkpt lat="51.914247" lon="10.469536"><ele>342.1</ele></trkpt>
            <trkpt lat="51.914515" lon="10.469064"><ele>341.8</ele></trkpt>
            <trkpt lat="51.914535" lon="10.468737"><ele>341.3</ele></trkpt>
            <trkpt lat="51.914638" lon="10.468522"><ele>345</ele></trkpt>
            <trkpt lat="51.914786" lon="10.468369"><ele>345</ele></trkpt>
            <trkpt lat="51.914889" lon="10.468247"><ele>336.7</ele></trkpt>
            <trkpt lat="51.914909" lon="10.468172"><ele>335.6</ele></trkpt>
            <trkpt lat="51.914906" lon="10.468001"><ele>333.8</ele></trkpt>
            <trkpt lat="51.914911" lon="10.467997"><ele>337.9</ele></trkpt>
        </trkseg>
    </trk>
</gpx>
