<?xml version="1.0" encoding="UTF-8"?>
<gpx version="1.1" creator="HWN Route Compare (OpenRouteService)" xmlns="http://www.topografix.com/GPX/1/1">
    <metadata>
        <name>OpenRouteService – Tour B1</name>
    </metadata>
    <trk>
        <name>OpenRouteService – Tour B1</name>
        <trkseg>
            <trkpt lat="51.781379" lon="10.580605"><ele>872</ele></trkpt>
            <trkpt lat="51.781399" lon="10.580561"><ele>872</ele></trkpt>
            <trkpt lat="51.78146" lon="10.580347"><ele>872</ele></trkpt>
            <trkpt lat="51.781602" lon="10.580472"><ele>872</ele></trkpt>
            <trkpt lat="51.781808" lon="10.580604"><ele>878</ele></trkpt>
            <trkpt lat="51.782237" lon="10.581011"><ele>880</ele></trkpt>
            <trkpt lat="51.782374" lon="10.581249"><ele>883.6</ele></trkpt>
            <trkpt lat="51.78254" lon="10.581449"><ele>884.7</ele></trkpt>
            <trkpt lat="51.782745" lon="10.581772"><ele>886</ele></trkpt>
            <trkpt lat="51.782997" lon="10.582076"><ele>886.8</ele></trkpt>
            <trkpt lat="51.783101" lon="10.582257"><ele>886.8</ele></trkpt>
            <trkpt lat="51.783694" lon="10.58303"><ele>887.2</ele></trkpt>
            <trkpt lat="51.783734" lon="10.583134"><ele>888</ele></trkpt>
            <trkpt lat="51.783753" lon="10.583626"><ele>884.6</ele></trkpt>
            <trkpt lat="51.783777" lon="10.583713"><ele>883</ele></trkpt>
            <trkpt lat="51.783877" lon="10.583821"><ele>881.6</ele></trkpt>
            <trkpt lat="51.783914" lon="10.583951"><ele>881.4</ele></trkpt>
            <trkpt lat="51.783954" lon="10.58403"><ele>881.3</ele></trkpt>
            <trkpt lat="51.784224" lon="10.584196"><ele>880.6</ele></trkpt>
            <trkpt lat="51.784275" lon="10.58424"><ele>880.8</ele></trkpt>
            <trkpt lat="51.784353" lon="10.584377"><ele>878</ele></trkpt>
            <trkpt lat="51.784831" lon="10.584827"><ele>878</ele></trkpt>
            <trkpt lat="51.784861" lon="10.584855"><ele>878</ele></trkpt>
            <trkpt lat="51.785512" lon="10.585415"><ele>886.8</ele></trkpt>
            <trkpt lat="51.786097" lon="10.586041"><ele>893.3</ele></trkpt>
            <trkpt lat="51.786551" lon="10.586575"><ele>894.9</ele></trkpt>
            <trkpt lat="51.78677" lon="10.586906"><ele>896.4</ele></trkpt>
            <trkpt lat="51.787288" lon="10.588121"><ele>899</ele></trkpt>
            <trkpt lat="51.787485" lon="10.587806"><ele>899.4</ele></trkpt>
            <trkpt lat="51.787592" lon="10.587591"><ele>899.5</ele></trkpt>
            <trkpt lat="51.787628" lon="10.587462"><ele>899.5</ele></trkpt>
            <trkpt lat="51.787673" lon="10.587072"><ele>899.4</ele></trkpt>
            <trkpt lat="51.787717" lon="10.586417"><ele>899.7</ele></trkpt>
            <trkpt lat="51.787673" lon="10.587072"><ele>899.4</ele></trkpt>
            <trkpt lat="51.787628" lon="10.587462"><ele>899.5</ele></trkpt>
            <trkpt lat="51.787592" lon="10.587591"><ele>899.5</ele></trkpt>
            <trkpt lat="51.787485" lon="10.587806"><ele>899.4</ele></trkpt>
            <trkpt lat="51.787288" lon="10.588121"><ele>899</ele></trkpt>
            <trkpt lat="51.78677" lon="10.586906"><ele>896.4</ele></trkpt>
            <trkpt lat="51.786551" lon="10.586575"><ele>894.9</ele></trkpt>
            <trkpt lat="51.786097" lon="10.586041"><ele>893.3</ele></trkpt>
            <trkpt lat="51.785512" lon="10.585415"><ele>886.8</ele></trkpt>
            <trkpt lat="51.784861" lon="10.584855"><ele>878</ele></trkpt>
            <trkpt lat="51.784831" lon="10.584827"><ele>878</ele></trkpt>
            <trkpt lat="51.784353" lon="10.584377"><ele>878</ele></trkpt>
            <trkpt lat="51.784275" lon="10.58424"><ele>880.8</ele></trkpt>
            <trkpt lat="51.784224" lon="10.584196"><ele>880.6</ele></trkpt>
            <trkpt lat="51.783954" lon="10.58403"><ele>881.3</ele></trkpt>
            <trkpt lat="51.783914" lon="10.583951"><ele>881.4</ele></trkpt>
            <trkpt lat="51.783877" lon="10.583821"><ele>881.6</ele></trkpt>
            <trkpt lat="51.783777" lon="10.583713"><ele>883</ele></trkpt>
            <trkpt lat="51.783753" lon="10.583626"><ele>884.6</ele></trkpt>
            <trkpt lat="51.783734" lon="10.583134"><ele>888</ele></trkpt>
            <trkpt lat="51.783694" lon="10.58303"><ele>887.2</ele></trkpt>
            <trkpt lat="51.783101" lon="10.582257"><ele>886.8</ele></trkpt>
            <trkpt lat="51.782997" lon="10.582076"><ele>886.8</ele></trkpt>
            <trkpt lat="51.782745" lon="10.581772"><ele>886</ele></trkpt>
            <trkpt lat="51.78254" lon="10.581449"><ele>884.7</ele></trkpt>
            <trkpt lat="51.782374" lon="10.581249"><ele>883.6</ele></trkpt>
            <trkpt lat="51.782237" lon="10.581011"><ele>880</ele></trkpt>
            <trkpt lat="51.781808" lon="10.580604"><ele>878</ele></trkpt>
            <trkpt lat="51.781602" lon="10.580472"><ele>872</ele></trkpt>
            <trkpt lat="51.781514" lon="10.580507"><ele>872</ele></trkpt>
            <trkpt lat="51.781451" lon="10.580562"><ele>872</ele></trkpt>
            <trkpt lat="51.781451" lon="10.580602"><ele>872</ele></trkpt>
            <trkpt lat="51.781361" lon="10.580644"><ele>872</ele></trkpt>
            <trkpt lat="51.780261" lon="10.581748"><ele>871.9</ele></trkpt>
            <trkpt lat="51.780166" lon="10.581873"><ele>872.1</ele></trkpt>
            <trkpt lat="51.779855" lon="10.582326"><ele>870.9</ele></trkpt>
            <trkpt lat="51.778777" lon="10.584094"><ele>864.5</ele></trkpt>
            <trkpt lat="51.778202" lon="10.584564"><ele>861.5</ele></trkpt>
            <trkpt lat="51.776931" lon="10.585322"><ele>838.9</ele></trkpt>
            <trkpt lat="51.776109" lon="10.585609"><ele>838.9</ele></trkpt>
            <trkpt lat="51.775339" lon="10.585915"><ele>832.4</ele></trkpt>
            <trkpt lat="51.774992" lon="10.58614"><ele>829.3</ele></trkpt>
            <trkpt lat="51.774505" lon="10.586572"><ele>824.3</ele></trkpt>
            <trkpt lat="51.773971" lon="10.587097"><ele>821.3</ele></trkpt>
            <trkpt lat="51.773531" lon="10.5876"><ele>816</ele></trkpt>
            <trkpt lat="51.772999" lon="10.588373"><ele>803</ele></trkpt>
            <trkpt lat="51.77255" lon="10.588964"><ele>801.8</ele></trkpt>
            <trkpt lat="51.772281" lon="10.589154"><ele>797.8</ele></trkpt>
            <trkpt lat="51.771971" lon="10.58928"><ele>796.6</ele></trkpt>
            <trkpt lat="51.771118" lon="10.589457"><ele>792.7</ele></trkpt>
            <trkpt lat="51.769987" lon="10.589855"><ele>797.4</ele></trkpt>
            <trkpt lat="51.768899" lon="10.590345"><ele>799.4</ele></trkpt>
            <trkpt lat="51.768755" lon="10.590449"><ele>799.6</ele></trkpt>
            <trkpt lat="51.768333" lon="10.590832"><ele>799</ele></trkpt>
            <trkpt lat="51.768127" lon="10.591091"><ele>798.6</ele></trkpt>
            <trkpt lat="51.768041" lon="10.591445"><ele>798.3</ele></trkpt>
            <trkpt lat="51.767984" lon="10.591764"><ele>795</ele></trkpt>
            <trkpt lat="51.767502" lon="10.59138"><ele>795.4</ele></trkpt>
            <trkpt lat="51.767342" lon="10.591148"><ele>793</ele></trkpt>
            <trkpt lat="51.767297" lon="10.591014"><ele>793</ele></trkpt>
            <trkpt lat="51.766767" lon="10.590985"><ele>790.5</ele></trkpt>
            <trkpt lat="51.7662" lon="10.59092"><ele>788.8</ele></trkpt>
            <trkpt lat="51.765622" lon="10.590935"><ele>786.6</ele></trkpt>
            <trkpt lat="51.765353" lon="10.591001"><ele>785</ele></trkpt>
            <trkpt lat="51.765231" lon="10.591102"><ele>784</ele></trkpt>
            <trkpt lat="51.765175" lon="10.591288"><ele>781.6</ele></trkpt>
            <trkpt lat="51.765001" lon="10.59207"><ele>781.2</ele></trkpt>
            <trkpt lat="51.764912" lon="10.592397"><ele>781</ele></trkpt>
            <trkpt lat="51.7648" lon="10.592648"><ele>780.8</ele></trkpt>
            <trkpt lat="51.764578" lon="10.593017"><ele>780</ele></trkpt>
            <trkpt lat="51.764348" lon="10.593208"><ele>779.2</ele></trkpt>
            <trkpt lat="51.764174" lon="10.593324"><ele>779</ele></trkpt>
            <trkpt lat="51.763027" lon="10.593905"><ele>777.5</ele></trkpt>
            <trkpt lat="51.762881" lon="10.593995"><ele>777.4</ele></trkpt>
            <trkpt lat="51.762404" lon="10.594366"><ele>776.7</ele></trkpt>
            <trkpt lat="51.762134" lon="10.594524"><ele>776.1</ele></trkpt>
            <trkpt lat="51.761322" lon="10.594892"><ele>772.1</ele></trkpt>
            <trkpt lat="51.760105" lon="10.595676"><ele>767.3</ele></trkpt>
            <trkpt lat="51.759655" lon="10.595946"><ele>766.4</ele></trkpt>
            <trkpt lat="51.759283" lon="10.596138"><ele>766</ele></trkpt>
            <trkpt lat="51.759029" lon="10.596237"><ele>766.2</ele></trkpt>
            <trkpt lat="51.758541" lon="10.596355"><ele>764.9</ele></trkpt>
            <trkpt lat="51.757965" lon="10.59644"><ele>761.1</ele></trkpt>
            <trkpt lat="51.757479" lon="10.596466"><ele>753.2</ele></trkpt>
            <trkpt lat="51.757034" lon="10.596571"><ele>746.6</ele></trkpt>
            <trkpt lat="51.756432" lon="10.59676"><ele>741.6</ele></trkpt>
            <trkpt lat="51.756107" lon="10.596872"><ele>739.6</ele></trkpt>
            <trkpt lat="51.755793" lon="10.597025"><ele>735.2</ele></trkpt>
            <trkpt lat="51.754825" lon="10.597654"><ele>725.4</ele></trkpt>
            <trkpt lat="51.754368" lon="10.597881"><ele>724.3</ele></trkpt>
            <trkpt lat="51.753991" lon="10.59792"><ele>716</ele></trkpt>
            <trkpt lat="51.753975" lon="10.59763"><ele>716</ele></trkpt>
            <trkpt lat="51.75397" lon="10.597475"><ele>715</ele></trkpt>
            <trkpt lat="51.753971" lon="10.597223"><ele>715</ele></trkpt>
            <trkpt lat="51.753952" lon="10.596958"><ele>719.7</ele></trkpt>
            <trkpt lat="51.753909" lon="10.596738"><ele>720.3</ele></trkpt>
            <trkpt lat="51.753858" lon="10.596628"><ele>720.7</ele></trkpt>
            <trkpt lat="51.753716" lon="10.596484"><ele>720.2</ele></trkpt>
            <trkpt lat="51.753295" lon="10.596265"><ele>718.4</ele></trkpt>
            <trkpt lat="51.752887" lon="10.596234"><ele>718</ele></trkpt>
            <trkpt lat="51.75262" lon="10.596181"><ele>717.7</ele></trkpt>
            <trkpt lat="51.752274" lon="10.596088"><ele>716.5</ele></trkpt>
            <trkpt lat="51.751951" lon="10.595925"><ele>716.6</ele></trkpt>
            <trkpt lat="51.751453" lon="10.595555"><ele>715.7</ele></trkpt>
            <trkpt lat="51.751203" lon="10.595326"><ele>714.9</ele></trkpt>
            <trkpt lat="51.751028" lon="10.595138"><ele>714.6</ele></trkpt>
            <trkpt lat="51.750471" lon="10.594445"><ele>714.5</ele></trkpt>
            <trkpt lat="51.750071" lon="10.593916"><ele>715.3</ele></trkpt>
            <trkpt lat="51.749714" lon="10.593659"><ele>715.5</ele></trkpt>
            <trkpt lat="51.749366" lon="10.593457"><ele>715.4</ele></trkpt>
            <trkpt lat="51.749224" lon="10.593405"><ele>716</ele></trkpt>
            <trkpt lat="51.749168" lon="10.593404"><ele>716</ele></trkpt>
            <trkpt lat="51.749086" lon="10.593402"><ele>726</ele></trkpt>
            <trkpt lat="51.748465" lon="10.59459"><ele>714</ele></trkpt>
            <trkpt lat="51.748267" lon="10.594915"><ele>707.1</ele></trkpt>
            <trkpt lat="51.748158" lon="10.59504"><ele>706.2</ele></trkpt>
            <trkpt lat="51.747801" lon="10.595379"><ele>706.2</ele></trkpt>
            <trkpt lat="51.74755" lon="10.595682"><ele>706.2</ele></trkpt>
            <trkpt lat="51.747464" lon="10.595747"><ele>706.2</ele></trkpt>
            <trkpt lat="51.747366" lon="10.595782"><ele>706.5</ele></trkpt>
            <trkpt lat="51.747217" lon="10.595788"><ele>703</ele></trkpt>
            <trkpt lat="51.746151" lon="10.59567"><ele>698</ele></trkpt>
            <trkpt lat="51.74463" lon="10.595324"><ele>689</ele></trkpt>
            <trkpt lat="51.744565" lon="10.595329"><ele>688.9</ele></trkpt>
            <trkpt lat="51.744385" lon="10.595397"><ele>686.8</ele></trkpt>
            <trkpt lat="51.743816" lon="10.595713"><ele>685.9</ele></trkpt>
            <trkpt lat="51.743589" lon="10.595805"><ele>685.7</ele></trkpt>
            <trkpt lat="51.743223" lon="10.595903"><ele>675</ele></trkpt>
            <trkpt lat="51.742944" lon="10.596038"><ele>671</ele></trkpt>
            <trkpt lat="51.742456" lon="10.596442"><ele>668</ele></trkpt>
            <trkpt lat="51.742224" lon="10.596722"><ele>666.9</ele></trkpt>
            <trkpt lat="51.741915" lon="10.597257"><ele>664.6</ele></trkpt>
            <trkpt lat="51.741702" lon="10.597577"><ele>663.5</ele></trkpt>
            <trkpt lat="51.741377" lon="10.597958"><ele>662.2</ele></trkpt>
            <trkpt lat="51.741283" lon="10.598099"><ele>662.2</ele></trkpt>
            <trkpt lat="51.741179" lon="10.598316"><ele>661.8</ele></trkpt>
            <trkpt lat="51.741108" lon="10.598532"><ele>661.4</ele></trkpt>
            <trkpt lat="51.740991" lon="10.598757"><ele>661.5</ele></trkpt>
            <trkpt lat="51.740781" lon="10.598976"><ele>661.3</ele></trkpt>
            <trkpt lat="51.740438" lon="10.599251"><ele>657</ele></trkpt>
            <trkpt lat="51.74042" lon="10.599064"><ele>658</ele></trkpt>
            <trkpt lat="51.740367" lon="10.598969"><ele>658.6</ele></trkpt>
            <trkpt lat="51.739906" lon="10.598364"><ele>659</ele></trkpt>
            <trkpt lat="51.73977" lon="10.598285"><ele>661</ele></trkpt>
            <trkpt lat="51.739573" lon="10.598139"><ele>661</ele></trkpt>
            <trkpt lat="51.738744" lon="10.59725"><ele>662</ele></trkpt>
            <trkpt lat="51.738557" lon="10.59712"><ele>662.2</ele></trkpt>
            <trkpt lat="51.738353" lon="10.597087"><ele>662.3</ele></trkpt>
            <trkpt lat="51.737727" lon="10.597083"><ele>662.2</ele></trkpt>
            <trkpt lat="51.737421" lon="10.597045"><ele>662.1</ele></trkpt>
            <trkpt lat="51.73721" lon="10.596976"><ele>661.6</ele></trkpt>
            <trkpt lat="51.736965" lon="10.596759"><ele>661</ele></trkpt>
            <trkpt lat="51.736835" lon="10.596602"><ele>661.2</ele></trkpt>
            <trkpt lat="51.736652" lon="10.596344"><ele>661.6</ele></trkpt>
            <trkpt lat="51.736402" lon="10.595875"><ele>665</ele></trkpt>
            <trkpt lat="51.73626" lon="10.59576"><ele>670</ele></trkpt>
            <trkpt lat="51.736134" lon="10.595611"><ele>669.7</ele></trkpt>
            <trkpt lat="51.735871" lon="10.59517"><ele>669.4</ele></trkpt>
            <trkpt lat="51.735655" lon="10.594695"><ele>678</ele></trkpt>
            <trkpt lat="51.735474" lon="10.59549"><ele>681</ele></trkpt>
            <trkpt lat="51.73515" lon="10.596418"><ele>681.3</ele></trkpt>
            <trkpt lat="51.734645" lon="10.597237"><ele>682.6</ele></trkpt>
            <trkpt lat="51.734418" lon="10.597457"><ele>682.9</ele></trkpt>
            <trkpt lat="51.733498" lon="10.597883"><ele>679.9</ele></trkpt>
            <trkpt lat="51.733333" lon="10.597911"><ele>678.7</ele></trkpt>
            <trkpt lat="51.732775" lon="10.598127"><ele>676.9</ele></trkpt>
            <trkpt lat="51.73248" lon="10.598179"><ele>675</ele></trkpt>
            <trkpt lat="51.732229" lon="10.598181"><ele>674.1</ele></trkpt>
            <trkpt lat="51.731998" lon="10.598106"><ele>673.2</ele></trkpt>
            <trkpt lat="51.731781" lon="10.598"><ele>672.3</ele></trkpt>
            <trkpt lat="51.731354" lon="10.597687"><ele>668.9</ele></trkpt>
            <trkpt lat="51.731209" lon="10.597533"><ele>668.1</ele></trkpt>
            <trkpt lat="51.730912" lon="10.597106"><ele>666.7</ele></trkpt>
            <trkpt lat="51.730563" lon="10.596452"><ele>662.2</ele></trkpt>
            <trkpt lat="51.730282" lon="10.596005"><ele>661.3</ele></trkpt>
            <trkpt lat="51.729845" lon="10.595216"><ele>658.1</ele></trkpt>
            <trkpt lat="51.72975" lon="10.594961"><ele>656</ele></trkpt>
            <trkpt lat="51.729566" lon="10.594473"><ele>654.7</ele></trkpt>
            <trkpt lat="51.729362" lon="10.594245"><ele>654.9</ele></trkpt>
            <trkpt lat="51.729188" lon="10.594197"><ele>655</ele></trkpt>
            <trkpt lat="51.728255" lon="10.594147"><ele>651</ele></trkpt>
            <trkpt lat="51.72823" lon="10.594437"><ele>648</ele></trkpt>
            <trkpt lat="51.72812" lon="10.594401"><ele>648</ele></trkpt>
            <trkpt lat="51.727987" lon="10.594438"><ele>648</ele></trkpt>
            <trkpt lat="51.727867" lon="10.594538"><ele>648</ele></trkpt>
            <trkpt lat="51.727438" lon="10.594362"><ele>648.3</ele></trkpt>
            <trkpt lat="51.725565" lon="10.593507"><ele>644</ele></trkpt>
            <trkpt lat="51.724591" lon="10.593045"><ele>642</ele></trkpt>
            <trkpt lat="51.724228" lon="10.592821"><ele>641</ele></trkpt>
            <trkpt lat="51.724039" lon="10.592807"><ele>638.3</ele></trkpt>
            <trkpt lat="51.723863" lon="10.592732"><ele>638</ele></trkpt>
            <trkpt lat="51.723689" lon="10.592561"><ele>637</ele></trkpt>
            <trkpt lat="51.723199" lon="10.591642"><ele>631</ele></trkpt>
            <trkpt lat="51.72314" lon="10.591533"><ele>631</ele></trkpt>
            <trkpt lat="51.723038" lon="10.591298"><ele>631</ele></trkpt>
            <trkpt lat="51.722957" lon="10.591013"><ele>631</ele></trkpt>
            <trkpt lat="51.723031" lon="10.59076"><ele>634.8</ele></trkpt>
            <trkpt lat="51.723305" lon="10.590093"><ele>635.4</ele></trkpt>
            <trkpt lat="51.723341" lon="10.589958"><ele>636</ele></trkpt>
            <trkpt lat="51.723347" lon="10.589732"><ele>636.5</ele></trkpt>
            <trkpt lat="51.72333" lon="10.589529"><ele>636.4</ele></trkpt>
            <trkpt lat="51.723364" lon="10.588528"><ele>639.2</ele></trkpt>
            <trkpt lat="51.723436" lon="10.588037"><ele>647</ele></trkpt>
            <trkpt lat="51.723379" lon="10.587943"><ele>647</ele></trkpt>
            <trkpt lat="51.72332" lon="10.586976"><ele>651</ele></trkpt>
            <trkpt lat="51.723307" lon="10.586056"><ele>649.4</ele></trkpt>
            <trkpt lat="51.723328" lon="10.585691"><ele>649.5</ele></trkpt>
            <trkpt lat="51.723382" lon="10.585438"><ele>648.7</ele></trkpt>
            <trkpt lat="51.723359" lon="10.585197"><ele>648.2</ele></trkpt>
            <trkpt lat="51.723356" lon="10.584977"><ele>647.4</ele></trkpt>
            <trkpt lat="51.723419" lon="10.584772"><ele>647</ele></trkpt>
            <trkpt lat="51.723376" lon="10.584528"><ele>646.3</ele></trkpt>
            <trkpt lat="51.723379" lon="10.584271"><ele>645</ele></trkpt>
            <trkpt lat="51.723352" lon="10.584127"><ele>644.2</ele></trkpt>
            <trkpt lat="51.723263" lon="10.583912"><ele>643.7</ele></trkpt>
            <trkpt lat="51.723225" lon="10.583761"><ele>643.1</ele></trkpt>
            <trkpt lat="51.723222" lon="10.583586"><ele>642.7</ele></trkpt>
            <trkpt lat="51.7231" lon="10.582915"><ele>640.7</ele></trkpt>
            <trkpt lat="51.723098" lon="10.582718"><ele>640.3</ele></trkpt>
            <trkpt lat="51.723048" lon="10.582217"><ele>640.2</ele></trkpt>
            <trkpt lat="51.723103" lon="10.581901"><ele>633</ele></trkpt>
            <trkpt lat="51.723105" lon="10.581902"><ele>630.2</ele></trkpt>
            <trkpt lat="51.723103" lon="10.581901"><ele>633</ele></trkpt>
            <trkpt lat="51.723069" lon="10.581876"><ele>633</ele></trkpt>
            <trkpt lat="51.723025" lon="10.581815"><ele>630.6</ele></trkpt>
            <trkpt lat="51.722909" lon="10.581571"><ele>630.3</ele></trkpt>
            <trkpt lat="51.722904" lon="10.581543"><ele>629.9</ele></trkpt>
            <trkpt lat="51.722922" lon="10.581533"><ele>629.7</ele></trkpt>
            <trkpt lat="51.722969" lon="10.581565"><ele>628</ele></trkpt>
            <trkpt lat="51.722984" lon="10.581539"><ele>628</ele></trkpt>
            <trkpt lat="51.722996" lon="10.581446"><ele>628</ele></trkpt>
            <trkpt lat="51.723052" lon="10.581144"><ele>626.1</ele></trkpt>
            <trkpt lat="51.72329" lon="10.5805"><ele>623</ele></trkpt>
            <trkpt lat="51.723234" lon="10.580303"><ele>630.2</ele></trkpt>
            <trkpt lat="51.723176" lon="10.580173"><ele>630</ele></trkpt>
            <trkpt lat="51.722971" lon="10.579814"><ele>630.6</ele></trkpt>
            <trkpt lat="51.722805" lon="10.579475"><ele>631.3</ele></trkpt>
            <trkpt lat="51.722657" lon="10.579365"><ele>631.8</ele></trkpt>
            <trkpt lat="51.722476" lon="10.578918"><ele>633.1</ele></trkpt>
            <trkpt lat="51.72237" lon="10.578461"><ele>634.6</ele></trkpt>
            <trkpt lat="51.722296" lon="10.57825"><ele>636.6</ele></trkpt>
            <trkpt lat="51.722021" lon="10.577728"><ele>637.5</ele></trkpt>
            <trkpt lat="51.721989" lon="10.577639"><ele>639</ele></trkpt>
            <trkpt lat="51.721777" lon="10.577415"><ele>638.6</ele></trkpt>
            <trkpt lat="51.721615" lon="10.577146"><ele>637.8</ele></trkpt>
            <trkpt lat="51.72151" lon="10.576936"><ele>634</ele></trkpt>
            <trkpt lat="51.721738" lon="10.57691"><ele>641.6</ele></trkpt>
            <trkpt lat="51.721858" lon="10.576816"><ele>641.7</ele></trkpt>
            <trkpt lat="51.722122" lon="10.576379"><ele>642.8</ele></trkpt>
            <trkpt lat="51.722348" lon="10.575711"><ele>644</ele></trkpt>
            <trkpt lat="51.722436" lon="10.575126"><ele>647.2</ele></trkpt>
            <trkpt lat="51.722472" lon="10.574534"><ele>649</ele></trkpt>
            <trkpt lat="51.722632" lon="10.573743"><ele>650.4</ele></trkpt>
            <trkpt lat="51.722765" lon="10.573302"><ele>651.2</ele></trkpt>
            <trkpt lat="51.722885" lon="10.573096"><ele>651.3</ele></trkpt>
            <trkpt lat="51.723134" lon="10.572824"><ele>652</ele></trkpt>
            <trkpt lat="51.723743" lon="10.572209"><ele>665.7</ele></trkpt>
            <trkpt lat="51.723917" lon="10.571887"><ele>667.5</ele></trkpt>
            <trkpt lat="51.724353" lon="10.570616"><ele>674.1</ele></trkpt>
            <trkpt lat="51.724632" lon="10.570176"><ele>676.8</ele></trkpt>
            <trkpt lat="51.724906" lon="10.569839"><ele>681</ele></trkpt>
            <trkpt lat="51.72528" lon="10.569642"><ele>681.4</ele></trkpt>
            <trkpt lat="51.725629" lon="10.569505"><ele>681.6</ele></trkpt>
            <trkpt lat="51.725998" lon="10.56945"><ele>681.5</ele></trkpt>
            <trkpt lat="51.726506" lon="10.569463"><ele>682.7</ele></trkpt>
            <trkpt lat="51.726765" lon="10.569519"><ele>684.2</ele></trkpt>
            <trkpt lat="51.728641" lon="10.570557"><ele>696.2</ele></trkpt>
            <trkpt lat="51.728854" lon="10.57057"><ele>698</ele></trkpt>
            <trkpt lat="51.729039" lon="10.570494"><ele>698</ele></trkpt>
            <trkpt lat="51.729136" lon="10.570432"><ele>700.9</ele></trkpt>
            <trkpt lat="51.729723" lon="10.569838"><ele>701.5</ele></trkpt>
            <trkpt lat="51.729913" lon="10.56974"><ele>701</ele></trkpt>
            <trkpt lat="51.730043" lon="10.569744"><ele>701.4</ele></trkpt>
            <trkpt lat="51.73014" lon="10.569782"><ele>701.7</ele></trkpt>
            <trkpt lat="51.730346" lon="10.569997"><ele>704.4</ele></trkpt>
            <trkpt lat="51.730601" lon="10.570401"><ele>708.3</ele></trkpt>
            <trkpt lat="51.730754" lon="10.5706"><ele>709.9</ele></trkpt>
            <trkpt lat="51.730946" lon="10.570775"><ele>712.7</ele></trkpt>
            <trkpt lat="51.731278" lon="10.571018"><ele>719.1</ele></trkpt>
            <trkpt lat="51.731424" lon="10.571102"><ele>720.8</ele></trkpt>
            <trkpt lat="51.731549" lon="10.571137"><ele>721.7</ele></trkpt>
            <trkpt lat="51.732142" lon="10.571211"><ele>725.2</ele></trkpt>
            <trkpt lat="51.732454" lon="10.571096"><ele>728.4</ele></trkpt>
            <trkpt lat="51.73267" lon="10.570921"><ele>731</ele></trkpt>
            <trkpt lat="51.733301" lon="10.570049"><ele>738.3</ele></trkpt>
            <trkpt lat="51.73346" lon="10.569802"><ele>740.8</ele></trkpt>
            <trkpt lat="51.733584" lon="10.569572"><ele>743.6</ele></trkpt>
            <trkpt lat="51.733738" lon="10.56916"><ele>751</ele></trkpt>
            <trkpt lat="51.733961" lon="10.568575"><ele>751.6</ele></trkpt>
            <trkpt lat="51.734139" lon="10.568241"><ele>752</ele></trkpt>
            <trkpt lat="51.734329" lon="10.568039"><ele>752</ele></trkpt>
            <trkpt lat="51.736003" lon="10.566883"><ele>750</ele></trkpt>
            <trkpt lat="51.736572" lon="10.566467"><ele>751.5</ele></trkpt>
            <trkpt lat="51.736925" lon="10.56624"><ele>751.5</ele></trkpt>
            <trkpt lat="51.737231" lon="10.566076"><ele>751.4</ele></trkpt>
            <trkpt lat="51.737351" lon="10.566043"><ele>751</ele></trkpt>
            <trkpt lat="51.737372" lon="10.56589"><ele>751</ele></trkpt>
            <trkpt lat="51.737351" lon="10.566043"><ele>751</ele></trkpt>
            <trkpt lat="51.737514" lon="10.566011"><ele>751.1</ele></trkpt>
            <trkpt lat="51.737851" lon="10.56599"><ele>751.1</ele></trkpt>
            <trkpt lat="51.73818" lon="10.566001"><ele>751.1</ele></trkpt>
            <trkpt lat="51.738795" lon="10.566039"><ele>751.3</ele></trkpt>
            <trkpt lat="51.739638" lon="10.566134"><ele>751.4</ele></trkpt>
            <trkpt lat="51.739861" lon="10.566095"><ele>751.4</ele></trkpt>
            <trkpt lat="51.740065" lon="10.565993"><ele>751.4</ele></trkpt>
            <trkpt lat="51.740389" lon="10.565781"><ele>751.4</ele></trkpt>
            <trkpt lat="51.740593" lon="10.565718"><ele>751.4</ele></trkpt>
            <trkpt lat="51.741065" lon="10.565661"><ele>751.5</ele></trkpt>
            <trkpt lat="51.741517" lon="10.565443"><ele>751.4</ele></trkpt>
            <trkpt lat="51.741672" lon="10.56543"><ele>751.1</ele></trkpt>
            <trkpt lat="51.741813" lon="10.565477"><ele>750</ele></trkpt>
            <trkpt lat="51.742082" lon="10.565695"><ele>750.3</ele></trkpt>
            <trkpt lat="51.743037" lon="10.567028"><ele>751</ele></trkpt>
            <trkpt lat="51.743175" lon="10.567265"><ele>751.4</ele></trkpt>
            <trkpt lat="51.743494" lon="10.568064"><ele>751.5</ele></trkpt>
            <trkpt lat="51.743888" lon="10.568948"><ele>752.4</ele></trkpt>
            <trkpt lat="51.745584" lon="10.572917"><ele>760</ele></trkpt>
            <trkpt lat="51.746201" lon="10.574399"><ele>758</ele></trkpt>
            <trkpt lat="51.746292" lon="10.574564"><ele>758</ele></trkpt>
            <trkpt lat="51.746197" lon="10.574819"><ele>758</ele></trkpt>
            <trkpt lat="51.746248" lon="10.574865"><ele>758</ele></trkpt>
            <trkpt lat="51.746308" lon="10.574914"><ele>758</ele></trkpt>
            <trkpt lat="51.746608" lon="10.574149"><ele>757</ele></trkpt>
            <trkpt lat="51.746673" lon="10.574203"><ele>758</ele></trkpt>
            <trkpt lat="51.746787" lon="10.574124"><ele>759</ele></trkpt>
            <trkpt lat="51.746959" lon="10.574133"><ele>761.8</ele></trkpt>
            <trkpt lat="51.747266" lon="10.574085"><ele>762.4</ele></trkpt>
            <trkpt lat="51.747725" lon="10.573922"><ele>763</ele></trkpt>
            <trkpt lat="51.748262" lon="10.573823"><ele>766</ele></trkpt>
            <trkpt lat="51.748518" lon="10.573725"><ele>770.1</ele></trkpt>
            <trkpt lat="51.748802" lon="10.573553"><ele>770.8</ele></trkpt>
            <trkpt lat="51.749128" lon="10.573259"><ele>772.7</ele></trkpt>
            <trkpt lat="51.749427" lon="10.572901"><ele>773.4</ele></trkpt>
            <trkpt lat="51.749846" lon="10.572504"><ele>774.9</ele></trkpt>
            <trkpt lat="51.750016" lon="10.572371"><ele>775.5</ele></trkpt>
            <trkpt lat="51.75035" lon="10.572197"><ele>779</ele></trkpt>
            <trkpt lat="51.751166" lon="10.573773"><ele>779</ele></trkpt>
            <trkpt lat="51.753434" lon="10.578392"><ele>796</ele></trkpt>
            <trkpt lat="51.754199" lon="10.579911"><ele>803.7</ele></trkpt>
            <trkpt lat="51.754304" lon="10.580009"><ele>803.7</ele></trkpt>
            <trkpt lat="51.754355" lon="10.58002"><ele>804.5</ele></trkpt>
            <trkpt lat="51.754477" lon="10.579965"><ele>804.8</ele></trkpt>
            <trkpt lat="51.754853" lon="10.579461"><ele>805.1</ele></trkpt>
            <trkpt lat="51.757166" lon="10.576182"><ele>835.1</ele></trkpt>
            <trkpt lat="51.757509" lon="10.575748"><ele>836.4</ele></trkpt>
            <trkpt lat="51.757704" lon="10.57556"><ele>836.2</ele></trkpt>
            <trkpt lat="51.75838" lon="10.575021"><ele>836.1</ele></trkpt>
            <trkpt lat="51.759746" lon="10.573985"><ele>872.7</ele></trkpt>
            <trkpt lat="51.760454" lon="10.573365"><ele>879.1</ele></trkpt>
            <trkpt lat="51.760954" lon="10.573007"><ele>883.9</ele></trkpt>
            <trkpt lat="51.761292" lon="10.572815"><ele>884.9</ele></trkpt>
            <trkpt lat="51.76159" lon="10.572613"><ele>885.3</ele></trkpt>
            <trkpt lat="51.762405" lon="10.571877"><ele>890</ele></trkpt>
            <trkpt lat="51.762466" lon="10.571581"><ele>896</ele></trkpt>
            <trkpt lat="51.762468" lon="10.571495"><ele>896</ele></trkpt>
            <trkpt lat="51.762423" lon="10.571395"><ele>896.1</ele></trkpt>
            <trkpt lat="51.762293" lon="10.571325"><ele>896.6</ele></trkpt>
            <trkpt lat="51.762256" lon="10.571289"><ele>896.7</ele></trkpt>
            <trkpt lat="51.762223" lon="10.571214"><ele>896.8</ele></trkpt>
            <trkpt lat="51.76215" lon="10.570789"><ele>897.2</ele></trkpt>
            <trkpt lat="51.762024" lon="10.57035"><ele>897</ele></trkpt>
            <trkpt lat="51.761892" lon="10.569644"><ele>897.2</ele></trkpt>
            <trkpt lat="51.761802" lon="10.569364"><ele>897.5</ele></trkpt>
            <trkpt lat="51.761756" lon="10.569147"><ele>900</ele></trkpt>
            <trkpt lat="51.76169" lon="10.569129"><ele>901.3</ele></trkpt>
            <trkpt lat="51.761536" lon="10.569178"><ele>901.6</ele></trkpt>
            <trkpt lat="51.761482" lon="10.569172"><ele>901.4</ele></trkpt>
            <trkpt lat="51.761447" lon="10.569142"><ele>901.2</ele></trkpt>
            <trkpt lat="51.761482" lon="10.569172"><ele>901.4</ele></trkpt>
            <trkpt lat="51.761536" lon="10.569178"><ele>901.6</ele></trkpt>
            <trkpt lat="51.76169" lon="10.569129"><ele>901.3</ele></trkpt>
            <trkpt lat="51.761756" lon="10.569147"><ele>900</ele></trkpt>
            <trkpt lat="51.761802" lon="10.569364"><ele>897.5</ele></trkpt>
            <trkpt lat="51.761892" lon="10.569644"><ele>897.2</ele></trkpt>
            <trkpt lat="51.762024" lon="10.57035"><ele>897</ele></trkpt>
            <trkpt lat="51.76215" lon="10.570789"><ele>897.2</ele></trkpt>
            <trkpt lat="51.762223" lon="10.571214"><ele>896.8</ele></trkpt>
            <trkpt lat="51.762256" lon="10.571289"><ele>896.7</ele></trkpt>
            <trkpt lat="51.762293" lon="10.571325"><ele>896.6</ele></trkpt>
            <trkpt lat="51.762423" lon="10.571395"><ele>896.1</ele></trkpt>
            <trkpt lat="51.762468" lon="10.571495"><ele>896</ele></trkpt>
            <trkpt lat="51.762466" lon="10.571581"><ele>896</ele></trkpt>
            <trkpt lat="51.762405" lon="10.571877"><ele>890</ele></trkpt>
            <trkpt lat="51.762386" lon="10.572125"><ele>880.4</ele></trkpt>
            <trkpt lat="51.76239" lon="10.572275"><ele>878.9</ele></trkpt>
            <trkpt lat="51.762432" lon="10.572422"><ele>878.3</ele></trkpt>
            <trkpt lat="51.762447" lon="10.572533"><ele>876.9</ele></trkpt>
            <trkpt lat="51.762426" lon="10.572797"><ele>875.2</ele></trkpt>
            <trkpt lat="51.762437" lon="10.572956"><ele>873.9</ele></trkpt>
            <trkpt lat="51.762461" lon="10.573059"><ele>872.7</ele></trkpt>
            <trkpt lat="51.762551" lon="10.573267"><ele>869.4</ele></trkpt>
            <trkpt lat="51.762565" lon="10.573376"><ele>869</ele></trkpt>
            <trkpt lat="51.762552" lon="10.573509"><ele>867.5</ele></trkpt>
            <trkpt lat="51.762332" lon="10.573978"><ele>865.4</ele></trkpt>
            <trkpt lat="51.762201" lon="10.574385"><ele>861.7</ele></trkpt>
            <trkpt lat="51.762156" lon="10.574594"><ele>860.4</ele></trkpt>
            <trkpt lat="51.762153" lon="10.574812"><ele>858.9</ele></trkpt>
            <trkpt lat="51.762203" lon="10.574931"><ele>858.8</ele></trkpt>
            <trkpt lat="51.762351" lon="10.575192"><ele>857.6</ele></trkpt>
            <trkpt lat="51.762523" lon="10.57537"><ele>856.7</ele></trkpt>
            <trkpt lat="51.762765" lon="10.575544"><ele>856.4</ele></trkpt>
            <trkpt lat="51.762812" lon="10.575602"><ele>856.8</ele></trkpt>
            <trkpt lat="51.762856" lon="10.575684"><ele>856.7</ele></trkpt>
            <trkpt lat="51.762893" lon="10.575849"><ele>856</ele></trkpt>
            <trkpt lat="51.762875" lon="10.576015"><ele>839</ele></trkpt>
            <trkpt lat="51.762771" lon="10.576203"><ele>835.1</ele></trkpt>
            <trkpt lat="51.762408" lon="10.576585"><ele>832.5</ele></trkpt>
            <trkpt lat="51.76217" lon="10.57691"><ele>826.3</ele></trkpt>
            <trkpt lat="51.762075" lon="10.576994"><ele>826</ele></trkpt>
            <trkpt lat="51.76179" lon="10.57708"><ele>825.4</ele></trkpt>
            <trkpt lat="51.761712" lon="10.57715"><ele>823.6</ele></trkpt>
            <trkpt lat="51.76163" lon="10.57731"><ele>823.2</ele></trkpt>
            <trkpt lat="51.761482" lon="10.577835"><ele>820.6</ele></trkpt>
            <trkpt lat="51.761385" lon="10.578081"><ele>819.2</ele></trkpt>
            <trkpt lat="51.761363" lon="10.578195"><ele>819</ele></trkpt>
            <trkpt lat="51.761376" lon="10.578311"><ele>818.8</ele></trkpt>
            <trkpt lat="51.761416" lon="10.578433"><ele>818.6</ele></trkpt>
            <trkpt lat="51.761531" lon="10.578741"><ele>818.4</ele></trkpt>
            <trkpt lat="51.761606" lon="10.578874"><ele>818.2</ele></trkpt>
            <trkpt lat="51.762061" lon="10.579255"><ele>815.5</ele></trkpt>
            <trkpt lat="51.762259" lon="10.579461"><ele>813.9</ele></trkpt>
            <trkpt lat="51.762319" lon="10.579565"><ele>813.8</ele></trkpt>
            <trkpt lat="51.762537" lon="10.580225"><ele>811.8</ele></trkpt>
            <trkpt lat="51.762597" lon="10.580356"><ele>811.4</ele></trkpt>
            <trkpt lat="51.762747" lon="10.580544"><ele>811</ele></trkpt>
            <trkpt lat="51.762838" lon="10.580698"><ele>811.4</ele></trkpt>
            <trkpt lat="51.762994" lon="10.580879"><ele>806</ele></trkpt>
            <trkpt lat="51.763107" lon="10.58088"><ele>807.3</ele></trkpt>
            <trkpt lat="51.763345" lon="10.580951"><ele>808</ele></trkpt>
            <trkpt lat="51.764426" lon="10.581394"><ele>808.7</ele></trkpt>
            <trkpt lat="51.764569" lon="10.581433"><ele>808.7</ele></trkpt>
            <trkpt lat="51.764803" lon="10.581586"><ele>809</ele></trkpt>
            <trkpt lat="51.765576" lon="10.582415"><ele>801.2</ele></trkpt>
            <trkpt lat="51.765738" lon="10.582546"><ele>800.8</ele></trkpt>
            <trkpt lat="51.766059" lon="10.582657"><ele>798.8</ele></trkpt>
            <trkpt lat="51.766302" lon="10.582599"><ele>797.6</ele></trkpt>
            <trkpt lat="51.766498" lon="10.582446"><ele>797.5</ele></trkpt>
            <trkpt lat="51.766654" lon="10.582287"><ele>797.3</ele></trkpt>
            <trkpt lat="51.766908" lon="10.581959"><ele>797</ele></trkpt>
            <trkpt lat="51.7671" lon="10.581643"><ele>797</ele></trkpt>
            <trkpt lat="51.7673" lon="10.581189"><ele>797.9</ele></trkpt>
            <trkpt lat="51.767898" lon="10.579615"><ele>802.5</ele></trkpt>
            <trkpt lat="51.768104" lon="10.579284"><ele>803.1</ele></trkpt>
            <trkpt lat="51.768369" lon="10.579066"><ele>803.2</ele></trkpt>
            <trkpt lat="51.768579" lon="10.578971"><ele>803.3</ele></trkpt>
            <trkpt lat="51.769046" lon="10.57891"><ele>803.8</ele></trkpt>
            <trkpt lat="51.76963" lon="10.578969"><ele>805.2</ele></trkpt>
            <trkpt lat="51.769959" lon="10.578953"><ele>807</ele></trkpt>
            <trkpt lat="51.770252" lon="10.578864"><ele>808.2</ele></trkpt>
            <trkpt lat="51.770449" lon="10.578832"><ele>809.6</ele></trkpt>
            <trkpt lat="51.770732" lon="10.578887"><ele>810.7</ele></trkpt>
            <trkpt lat="51.771021" lon="10.579049"><ele>812.3</ele></trkpt>
            <trkpt lat="51.771201" lon="10.579118"><ele>813</ele></trkpt>
            <trkpt lat="51.771396" lon="10.579141"><ele>813.9</ele></trkpt>
            <trkpt lat="51.771625" lon="10.579119"><ele>816</ele></trkpt>
            <trkpt lat="51.771806" lon="10.57904"><ele>816.8</ele></trkpt>
            <trkpt lat="51.772439" lon="10.578576"><ele>818.7</ele></trkpt>
            <trkpt lat="51.772675" lon="10.578423"><ele>820.2</ele></trkpt>
            <trkpt lat="51.772725" lon="10.578414"><ele>820.2</ele></trkpt>
            <trkpt lat="51.7728" lon="10.578426"><ele>820.2</ele></trkpt>
            <trkpt lat="51.772917" lon="10.578515"><ele>820.4</ele></trkpt>
            <trkpt lat="51.773158" lon="10.578758"><ele>821</ele></trkpt>
            <trkpt lat="51.773412" lon="10.578979"><ele>821.3</ele></trkpt>
            <trkpt lat="51.773594" lon="10.5791"><ele>821.5</ele></trkpt>
            <trkpt lat="51.773767" lon="10.57915"><ele>821.6</ele></trkpt>
            <trkpt lat="51.774113" lon="10.579048"><ele>822</ele></trkpt>
            <trkpt lat="51.774202" lon="10.578945"><ele>822.3</ele></trkpt>
            <trkpt lat="51.774389" lon="10.578634"><ele>822.7</ele></trkpt>
            <trkpt lat="51.774711" lon="10.578354"><ele>824.4</ele></trkpt>
            <trkpt lat="51.774969" lon="10.578014"><ele>826.9</ele></trkpt>
            <trkpt lat="51.775202" lon="10.577651"><ele>829.1</ele></trkpt>
            <trkpt lat="51.775524" lon="10.577322"><ele>833.7</ele></trkpt>
            <trkpt lat="51.77578" lon="10.57713"><ele>836.3</ele></trkpt>
            <trkpt lat="51.775861" lon="10.577024"><ele>837.1</ele></trkpt>
            <trkpt lat="51.776031" lon="10.576696"><ele>837.1</ele></trkpt>
            <trkpt lat="51.776225" lon="10.576409"><ele>837.9</ele></trkpt>
            <trkpt lat="51.776393" lon="10.575974"><ele>839.3</ele></trkpt>
            <trkpt lat="51.776453" lon="10.575671"><ele>840.2</ele></trkpt>
            <trkpt lat="51.776816" lon="10.575024"><ele>841.4</ele></trkpt>
            <trkpt lat="51.776866" lon="10.574784"><ele>841.7</ele></trkpt>
            <trkpt lat="51.776917" lon="10.574237"><ele>841.8</ele></trkpt>
            <trkpt lat="51.776934" lon="10.574142"><ele>842</ele></trkpt>
            <trkpt lat="51.776974" lon="10.574046"><ele>842.2</ele></trkpt>
            <trkpt lat="51.77706" lon="10.573971"><ele>842.5</ele></trkpt>
            <trkpt lat="51.777216" lon="10.573924"><ele>842.4</ele></trkpt>
            <trkpt lat="51.77752" lon="10.573957"><ele>842.2</ele></trkpt>
            <trkpt lat="51.777623" lon="10.573896"><ele>842.3</ele></trkpt>
            <trkpt lat="51.777718" lon="10.573893"><ele>843</ele></trkpt>
            <trkpt lat="51.777811" lon="10.573973"><ele>843</ele></trkpt>
            <trkpt lat="51.777857" lon="10.574009"><ele>843</ele></trkpt>
            <trkpt lat="51.778321" lon="10.574388"><ele>842.8</ele></trkpt>
            <trkpt lat="51.778385" lon="10.574419"><ele>842.8</ele></trkpt>
            <trkpt lat="51.77864" lon="10.574361"><ele>842.9</ele></trkpt>
            <trkpt lat="51.778704" lon="10.574371"><ele>842.9</ele></trkpt>
            <trkpt lat="51.778803" lon="10.574308"><ele>842.9</ele></trkpt>
            <trkpt lat="51.778971" lon="10.574133"><ele>842.9</ele></trkpt>
            <trkpt lat="51.779034" lon="10.574104"><ele>842.9</ele></trkpt>
            <trkpt lat="51.779148" lon="10.5741"><ele>843</ele></trkpt>
            <trkpt lat="51.779697" lon="10.574328"><ele>850.8</ele></trkpt>
            <trkpt lat="51.779954" lon="10.574479"><ele>852.1</ele></trkpt>
            <trkpt lat="51.780056" lon="10.57458"><ele>852.8</ele></trkpt>
            <trkpt lat="51.780142" lon="10.574732"><ele>853.1</ele></trkpt>
            <trkpt lat="51.780265" lon="10.575134"><ele>854</ele></trkpt>
            <trkpt lat="51.780503" lon="10.576147"><ele>857.6</ele></trkpt>
            <trkpt lat="51.780535" lon="10.576497"><ele>858.3</ele></trkpt>
            <trkpt lat="51.780534" lon="10.576842"><ele>858.3</ele></trkpt>
            <trkpt lat="51.780584" lon="10.577261"><ele>858.9</ele></trkpt>
            <trkpt lat="51.780623" lon="10.577493"><ele>858.7</ele></trkpt>
            <trkpt lat="51.780661" lon="10.577612"><ele>858.6</ele></trkpt>
            <trkpt lat="51.780706" lon="10.577711"><ele>858.5</ele></trkpt>
            <trkpt lat="51.780833" lon="10.577889"><ele>858.2</ele></trkpt>
            <trkpt lat="51.781201" lon="10.578089"><ele>860</ele></trkpt>
            <trkpt lat="51.781657" lon="10.578581"><ele>868</ele></trkpt>
            <trkpt lat="51.781608" lon="10.578669"><ele>868</ele></trkpt>
            <trkpt lat="51.781752" lon="10.579051"><ele>879</ele></trkpt>
            <trkpt lat="51.78146" lon="10.580347"><ele>872</ele></trkpt>
            <trkpt lat="51.781399" lon="10.580561"><ele>872</ele></trkpt>
            <trkpt lat="51.781379" lon="10.580605"><ele>872</ele></trkpt>
        </trkseg>
    </trk>
</gpx>
