<?xml version="1.0" encoding="UTF-8"?>
<gpx version="1.1" creator="HWN Route Compare (OpenRouteService)" xmlns="http://www.topografix.com/GPX/1/1">
    <metadata>
        <name>OpenRouteService – Tour B2</name>
    </metadata>
    <trk>
        <name>OpenRouteService – Tour B2</name>
        <trkseg>
            <trkpt lat="51.871626" lon="10.566463"><ele>429.5</ele></trkpt>
            <trkpt lat="51.871629" lon="10.566414"><ele>422</ele></trkpt>
            <trkpt lat="51.871521" lon="10.566526"><ele>422</ele></trkpt>
            <trkpt lat="51.871382" lon="10.566791"><ele>438.3</ele></trkpt>
            <trkpt lat="51.871331" lon="10.566911"><ele>437.1</ele></trkpt>
            <trkpt lat="51.87129" lon="10.567068"><ele>446</ele></trkpt>
            <trkpt lat="51.87124" lon="10.56729"><ele>446</ele></trkpt>
            <trkpt lat="51.871235" lon="10.567387"><ele>446</ele></trkpt>
            <trkpt lat="51.871218" lon="10.567543"><ele>458</ele></trkpt>
            <trkpt lat="51.87115" lon="10.567625"><ele>458</ele></trkpt>
            <trkpt lat="51.871089" lon="10.567659"><ele>458</ele></trkpt>
            <trkpt lat="51.871048" lon="10.567674"><ele>458</ele></trkpt>
            <trkpt lat="51.871005" lon="10.567658"><ele>458</ele></trkpt>
            <trkpt lat="51.870965" lon="10.567756"><ele>458</ele></trkpt>
            <trkpt lat="51.870922" lon="10.567889"><ele>448.5</ele></trkpt>
            <trkpt lat="51.870812" lon="10.568499"><ele>420</ele></trkpt>
            <trkpt lat="51.870795" lon="10.568732"><ele>420</ele></trkpt>
            <trkpt lat="51.870751" lon="10.56973"><ele>430.7</ele></trkpt>
            <trkpt lat="51.870706" lon="10.569928"><ele>430.9</ele></trkpt>
            <trkpt lat="51.870564" lon="10.570326"><ele>438</ele></trkpt>
            <trkpt lat="51.870469" lon="10.570361"><ele>435.3</ele></trkpt>
            <trkpt lat="51.870324" lon="10.570534"><ele>435.6</ele></trkpt>
            <trkpt lat="51.870164" lon="10.570781"><ele>435.8</ele></trkpt>
            <trkpt lat="51.86995" lon="10.570938"><ele>436.5</ele></trkpt>
            <trkpt lat="51.869636" lon="10.571297"><ele>423</ele></trkpt>
            <trkpt lat="51.869389" lon="10.571562"><ele>421.9</ele></trkpt>
            <trkpt lat="51.868821" lon="10.572103"><ele>419.8</ele></trkpt>
            <trkpt lat="51.86853" lon="10.572523"><ele>421.7</ele></trkpt>
            <trkpt lat="51.867991" lon="10.573093"><ele>417.1</ele></trkpt>
            <trkpt lat="51.867631" lon="10.57354"><ele>417.2</ele></trkpt>
            <trkpt lat="51.867284" lon="10.57407"><ele>412.3</ele></trkpt>
            <trkpt lat="51.867187" lon="10.574278"><ele>411.9</ele></trkpt>
            <trkpt lat="51.867108" lon="10.574605"><ele>411.5</ele></trkpt>
            <trkpt lat="51.867064" lon="10.574872"><ele>411.2</ele></trkpt>
            <trkpt lat="51.867051" lon="10.575116"><ele>412.1</ele></trkpt>
            <trkpt lat="51.867112" lon="10.576023"><ele>413.6</ele></trkpt>
            <trkpt lat="51.867092" lon="10.576158"><ele>430</ele></trkpt>
            <trkpt lat="51.867046" lon="10.576063"><ele>418.3</ele></trkpt>
            <trkpt lat="51.866923" lon="10.575502"><ele>416.8</ele></trkpt>
            <trkpt lat="51.866796" lon="10.575018"><ele>415.4</ele></trkpt>
            <trkpt lat="51.86678" lon="10.574715"><ele>414.5</ele></trkpt>
            <trkpt lat="51.866785" lon="10.574408"><ele>411.4</ele></trkpt>
            <trkpt lat="51.866844" lon="10.574058"><ele>409.9</ele></trkpt>
            <trkpt lat="51.866977" lon="10.573604"><ele>403.6</ele></trkpt>
            <trkpt lat="51.867189" lon="10.573079"><ele>398.7</ele></trkpt>
            <trkpt lat="51.867429" lon="10.57264"><ele>388.2</ele></trkpt>
            <trkpt lat="51.86841" lon="10.571023"><ele>371.4</ele></trkpt>
            <trkpt lat="51.868716" lon="10.570574"><ele>370</ele></trkpt>
            <trkpt lat="51.869039" lon="10.569963"><ele>368</ele></trkpt>
            <trkpt lat="51.869155" lon="10.569677"><ele>356</ele></trkpt>
            <trkpt lat="51.86918" lon="10.569336"><ele>359.8</ele></trkpt>
            <trkpt lat="51.869161" lon="10.569245"><ele>357.2</ele></trkpt>
            <trkpt lat="51.869124" lon="10.569226"><ele>357.4</ele></trkpt>
            <trkpt lat="51.868875" lon="10.569424"><ele>357.5</ele></trkpt>
            <trkpt lat="51.868616" lon="10.569592"><ele>357.7</ele></trkpt>
            <trkpt lat="51.868497" lon="10.569736"><ele>356</ele></trkpt>
            <trkpt lat="51.86847" lon="10.569759"><ele>356</ele></trkpt>
            <trkpt lat="51.868228" lon="10.570049"><ele>356.8</ele></trkpt>
            <trkpt lat="51.868044" lon="10.570191"><ele>356.8</ele></trkpt>
            <trkpt lat="51.86784" lon="10.570312"><ele>356.8</ele></trkpt>
            <trkpt lat="51.867709" lon="10.570305"><ele>357</ele></trkpt>
            <trkpt lat="51.867653" lon="10.570198"><ele>357</ele></trkpt>
            <trkpt lat="51.867406" lon="10.570569"><ele>366.8</ele></trkpt>
            <trkpt lat="51.867314" lon="10.570643"><ele>366.7</ele></trkpt>
            <trkpt lat="51.867202" lon="10.570862"><ele>366.7</ele></trkpt>
            <trkpt lat="51.867016" lon="10.570947"><ele>366.8</ele></trkpt>
            <trkpt lat="51.866841" lon="10.571148"><ele>366.8</ele></trkpt>
            <trkpt lat="51.866709" lon="10.571347"><ele>366.8</ele></trkpt>
            <trkpt lat="51.866669" lon="10.571348"><ele>366.8</ele></trkpt>
            <trkpt lat="51.866627" lon="10.571425"><ele>367.3</ele></trkpt>
            <trkpt lat="51.866576" lon="10.571592"><ele>368.6</ele></trkpt>
            <trkpt lat="51.866461" lon="10.571807"><ele>380</ele></trkpt>
            <trkpt lat="51.866236" lon="10.571776"><ele>383.9</ele></trkpt>
            <trkpt lat="51.866186" lon="10.571876"><ele>383.5</ele></trkpt>
            <trkpt lat="51.865987" lon="10.572165"><ele>383.2</ele></trkpt>
            <trkpt lat="51.865915" lon="10.572159"><ele>382.8</ele></trkpt>
            <trkpt lat="51.86577" lon="10.571887"><ele>386</ele></trkpt>
            <trkpt lat="51.86572" lon="10.571538"><ele>387.7</ele></trkpt>
            <trkpt lat="51.865696" lon="10.570703"><ele>392</ele></trkpt>
            <trkpt lat="51.865702" lon="10.570596"><ele>398</ele></trkpt>
            <trkpt lat="51.865618" lon="10.570209"><ele>398.6</ele></trkpt>
            <trkpt lat="51.865575" lon="10.570082"><ele>399.3</ele></trkpt>
            <trkpt lat="51.865484" lon="10.569911"><ele>400</ele></trkpt>
            <trkpt lat="51.865369" lon="10.56977"><ele>399.8</ele></trkpt>
            <trkpt lat="51.865117" lon="10.56957"><ele>399.3</ele></trkpt>
            <trkpt lat="51.865116" lon="10.569432"><ele>402</ele></trkpt>
            <trkpt lat="51.865151" lon="10.569372"><ele>402</ele></trkpt>
            <trkpt lat="51.865353" lon="10.56929"><ele>402</ele></trkpt>
            <trkpt lat="51.865568" lon="10.569208"><ele>402</ele></trkpt>
            <trkpt lat="51.865031" lon="10.569154"><ele>415.8</ele></trkpt>
            <trkpt lat="51.864696" lon="10.56924"><ele>416.8</ele></trkpt>
            <trkpt lat="51.864578" lon="10.569296"><ele>417.4</ele></trkpt>
            <trkpt lat="51.864439" lon="10.569414"><ele>417.4</ele></trkpt>
            <trkpt lat="51.864269" lon="10.569628"><ele>417.3</ele></trkpt>
            <trkpt lat="51.863869" lon="10.570225"><ele>415.8</ele></trkpt>
            <trkpt lat="51.863701" lon="10.570551"><ele>415.5</ele></trkpt>
            <trkpt lat="51.863643" lon="10.570759"><ele>415</ele></trkpt>
            <trkpt lat="51.863574" lon="10.571436"><ele>414.1</ele></trkpt>
            <trkpt lat="51.863576" lon="10.571663"><ele>413.7</ele></trkpt>
            <trkpt lat="51.86364" lon="10.572083"><ele>413</ele></trkpt>
            <trkpt lat="51.86365" lon="10.572344"><ele>408</ele></trkpt>
            <trkpt lat="51.86364" lon="10.572596"><ele>411.2</ele></trkpt>
            <trkpt lat="51.863595" lon="10.572904"><ele>414.4</ele></trkpt>
            <trkpt lat="51.863477" lon="10.57327"><ele>417.1</ele></trkpt>
            <trkpt lat="51.863362" lon="10.573541"><ele>417.9</ele></trkpt>
            <trkpt lat="51.862823" lon="10.574363"><ele>429.2</ele></trkpt>
            <trkpt lat="51.862693" lon="10.574622"><ele>433.6</ele></trkpt>
            <trkpt lat="51.862462" lon="10.575221"><ele>440.8</ele></trkpt>
            <trkpt lat="51.862036" lon="10.576471"><ele>451.5</ele></trkpt>
            <trkpt lat="51.861282" lon="10.577749"><ele>458.8</ele></trkpt>
            <trkpt lat="51.861099" lon="10.578124"><ele>461.2</ele></trkpt>
            <trkpt lat="51.861033" lon="10.578228"><ele>464</ele></trkpt>
            <trkpt lat="51.860837" lon="10.578485"><ele>483.1</ele></trkpt>
            <trkpt lat="51.860766" lon="10.578533"><ele>488.1</ele></trkpt>
            <trkpt lat="51.860533" lon="10.578522"><ele>488</ele></trkpt>
            <trkpt lat="51.860409" lon="10.578369"><ele>487.9</ele></trkpt>
            <trkpt lat="51.860246" lon="10.578003"><ele>490</ele></trkpt>
            <trkpt lat="51.859867" lon="10.576928"><ele>500.1</ele></trkpt>
            <trkpt lat="51.859253" lon="10.575703"><ele>518.4</ele></trkpt>
            <trkpt lat="51.859064" lon="10.575235"><ele>522.4</ele></trkpt>
            <trkpt lat="51.858969" lon="10.57507"><ele>525</ele></trkpt>
            <trkpt lat="51.858263" lon="10.574154"><ele>531.3</ele></trkpt>
            <trkpt lat="51.857866" lon="10.573763"><ele>540</ele></trkpt>
            <trkpt lat="51.85781" lon="10.573655"><ele>540</ele></trkpt>
            <trkpt lat="51.857549" lon="10.573261"><ele>542</ele></trkpt>
            <trkpt lat="51.857445" lon="10.573156"><ele>539</ele></trkpt>
            <trkpt lat="51.857315" lon="10.573181"><ele>539</ele></trkpt>
            <trkpt lat="51.857032" lon="10.573285"><ele>539</ele></trkpt>
            <trkpt lat="51.856765" lon="10.573402"><ele>539</ele></trkpt>
            <trkpt lat="51.856571" lon="10.573385"><ele>534.3</ele></trkpt>
            <trkpt lat="51.856158" lon="10.573432"><ele>532</ele></trkpt>
            <trkpt lat="51.856069" lon="10.573414"><ele>530.7</ele></trkpt>
            <trkpt lat="51.855697" lon="10.573184"><ele>530.4</ele></trkpt>
            <trkpt lat="51.855677" lon="10.57318"><ele>529.2</ele></trkpt>
            <trkpt lat="51.855644" lon="10.573174"><ele>528</ele></trkpt>
            <trkpt lat="51.855546" lon="10.573198"><ele>527.3</ele></trkpt>
            <trkpt lat="51.855411" lon="10.573377"><ele>526</ele></trkpt>
            <trkpt lat="51.855359" lon="10.573452"><ele>526</ele></trkpt>
            <trkpt lat="51.855216" lon="10.573663"><ele>526</ele></trkpt>
            <trkpt lat="51.855149" lon="10.573862"><ele>526</ele></trkpt>
            <trkpt lat="51.855128" lon="10.573926"><ele>526</ele></trkpt>
            <trkpt lat="51.85505" lon="10.573967"><ele>526</ele></trkpt>
            <trkpt lat="51.85478" lon="10.57411"><ele>531</ele></trkpt>
            <trkpt lat="51.854575" lon="10.574398"><ele>528</ele></trkpt>
            <trkpt lat="51.854451" lon="10.574594"><ele>528</ele></trkpt>
            <trkpt lat="51.854409" lon="10.574743"><ele>528</ele></trkpt>
            <trkpt lat="51.854379" lon="10.574923"><ele>528</ele></trkpt>
            <trkpt lat="51.854277" lon="10.575166"><ele>528.9</ele></trkpt>
            <trkpt lat="51.854161" lon="10.57534"><ele>537</ele></trkpt>
            <trkpt lat="51.853957" lon="10.575592"><ele>535.5</ele></trkpt>
            <trkpt lat="51.853674" lon="10.575837"><ele>531</ele></trkpt>
            <trkpt lat="51.85302" lon="10.576451"><ele>552.2</ele></trkpt>
            <trkpt lat="51.851738" lon="10.577794"><ele>564.9</ele></trkpt>
            <trkpt lat="51.851386" lon="10.578091"><ele>565.6</ele></trkpt>
            <trkpt lat="51.851049" lon="10.578336"><ele>565.6</ele></trkpt>
            <trkpt lat="51.850764" lon="10.578473"><ele>565.6</ele></trkpt>
            <trkpt lat="51.85064" lon="10.578508"><ele>565.7</ele></trkpt>
            <trkpt lat="51.850513" lon="10.578513"><ele>565.7</ele></trkpt>
            <trkpt lat="51.850384" lon="10.578446"><ele>566</ele></trkpt>
            <trkpt lat="51.850085" lon="10.57806"><ele>573</ele></trkpt>
            <trkpt lat="51.84978" lon="10.577575"><ele>572.9</ele></trkpt>
            <trkpt lat="51.849134" lon="10.576661"><ele>577.8</ele></trkpt>
            <trkpt lat="51.848765" lon="10.576241"><ele>580.9</ele></trkpt>
            <trkpt lat="51.848394" lon="10.575895"><ele>583.7</ele></trkpt>
            <trkpt lat="51.847983" lon="10.575754"><ele>585.8</ele></trkpt>
            <trkpt lat="51.847813" lon="10.575674"><ele>587.3</ele></trkpt>
            <trkpt lat="51.847163" lon="10.575267"><ele>589.4</ele></trkpt>
            <trkpt lat="51.846974" lon="10.575072"><ele>589.9</ele></trkpt>
            <trkpt lat="51.846781" lon="10.57476"><ele>589.6</ele></trkpt>
            <trkpt lat="51.846622" lon="10.574562"><ele>589.6</ele></trkpt>
            <trkpt lat="51.846426" lon="10.574401"><ele>589.9</ele></trkpt>
            <trkpt lat="51.846231" lon="10.574357"><ele>590.2</ele></trkpt>
            <trkpt lat="51.845976" lon="10.57435"><ele>590.3</ele></trkpt>
            <trkpt lat="51.845255" lon="10.574537"><ele>591.1</ele></trkpt>
            <trkpt lat="51.844982" lon="10.574585"><ele>590.8</ele></trkpt>
            <trkpt lat="51.844756" lon="10.574537"><ele>590.7</ele></trkpt>
            <trkpt lat="51.844515" lon="10.574447"><ele>590.6</ele></trkpt>
            <trkpt lat="51.844357" lon="10.574319"><ele>590.4</ele></trkpt>
            <trkpt lat="51.844153" lon="10.574073"><ele>590.4</ele></trkpt>
            <trkpt lat="51.844088" lon="10.57395"><ele>590.8</ele></trkpt>
            <trkpt lat="51.844027" lon="10.573771"><ele>590.8</ele></trkpt>
            <trkpt lat="51.843992" lon="10.5736"><ele>591.3</ele></trkpt>
            <trkpt lat="51.843975" lon="10.573372"><ele>591.4</ele></trkpt>
            <trkpt lat="51.843938" lon="10.573161"><ele>591.9</ele></trkpt>
            <trkpt lat="51.843658" lon="10.572329"><ele>594.2</ele></trkpt>
            <trkpt lat="51.843579" lon="10.571964"><ele>595.6</ele></trkpt>
            <trkpt lat="51.843565" lon="10.571707"><ele>600</ele></trkpt>
            <trkpt lat="51.84357" lon="10.57154"><ele>603</ele></trkpt>
            <trkpt lat="51.843607" lon="10.57125"><ele>603</ele></trkpt>
            <trkpt lat="51.843185" lon="10.571684"><ele>601.6</ele></trkpt>
            <trkpt lat="51.842816" lon="10.572024"><ele>601.4</ele></trkpt>
            <trkpt lat="51.842477" lon="10.572585"><ele>600.6</ele></trkpt>
            <trkpt lat="51.842345" lon="10.572758"><ele>599.9</ele></trkpt>
            <trkpt lat="51.842197" lon="10.572889"><ele>599.8</ele></trkpt>
            <trkpt lat="51.842022" lon="10.573008"><ele>599.1</ele></trkpt>
            <trkpt lat="51.841802" lon="10.573108"><ele>598.7</ele></trkpt>
            <trkpt lat="51.841444" lon="10.573191"><ele>596.9</ele></trkpt>
            <trkpt lat="51.841146" lon="10.5732"><ele>595.9</ele></trkpt>
            <trkpt lat="51.840538" lon="10.573144"><ele>594.3</ele></trkpt>
            <trkpt lat="51.840162" lon="10.573155"><ele>593.2</ele></trkpt>
            <trkpt lat="51.839777" lon="10.573196"><ele>591.6</ele></trkpt>
            <trkpt lat="51.839089" lon="10.573169"><ele>591</ele></trkpt>
            <trkpt lat="51.838885" lon="10.573194"><ele>591</ele></trkpt>
            <trkpt lat="51.838666" lon="10.573273"><ele>590.2</ele></trkpt>
            <trkpt lat="51.838534" lon="10.573373"><ele>584</ele></trkpt>
            <trkpt lat="51.838491" lon="10.573429"><ele>584</ele></trkpt>
            <trkpt lat="51.83845" lon="10.573562"><ele>585.2</ele></trkpt>
            <trkpt lat="51.838401" lon="10.573937"><ele>585</ele></trkpt>
            <trkpt lat="51.838414" lon="10.574089"><ele>584.8</ele></trkpt>
            <trkpt lat="51.838478" lon="10.574204"><ele>590</ele></trkpt>
            <trkpt lat="51.838747" lon="10.574389"><ele>590</ele></trkpt>
            <trkpt lat="51.838906" lon="10.574499"><ele>587.1</ele></trkpt>
            <trkpt lat="51.839219" lon="10.574576"><ele>587.1</ele></trkpt>
            <trkpt lat="51.839349" lon="10.574645"><ele>587</ele></trkpt>
            <trkpt lat="51.839449" lon="10.574734"><ele>586.9</ele></trkpt>
            <trkpt lat="51.839541" lon="10.574863"><ele>586.7</ele></trkpt>
            <trkpt lat="51.839673" lon="10.575175"><ele>586.4</ele></trkpt>
            <trkpt lat="51.8397" lon="10.575321"><ele>586.2</ele></trkpt>
            <trkpt lat="51.839706" lon="10.575447"><ele>586.1</ele></trkpt>
            <trkpt lat="51.839672" lon="10.575932"><ele>586</ele></trkpt>
            <trkpt lat="51.839683" lon="10.576059"><ele>585.9</ele></trkpt>
            <trkpt lat="51.839827" lon="10.57656"><ele>589</ele></trkpt>
            <trkpt lat="51.839855" lon="10.576721"><ele>592.6</ele></trkpt>
            <trkpt lat="51.839887" lon="10.57719"><ele>593.1</ele></trkpt>
            <trkpt lat="51.839884" lon="10.577447"><ele>593.5</ele></trkpt>
            <trkpt lat="51.839867" lon="10.577541"><ele>595</ele></trkpt>
            <trkpt lat="51.83988" lon="10.577749"><ele>595</ele></trkpt>
            <trkpt lat="51.839871" lon="10.577935"><ele>595</ele></trkpt>
            <trkpt lat="51.839878" lon="10.577987"><ele>588</ele></trkpt>
            <trkpt lat="51.839897" lon="10.577976"><ele>588.9</ele></trkpt>
            <trkpt lat="51.840008" lon="10.577843"><ele>587.7</ele></trkpt>
            <trkpt lat="51.840038" lon="10.577895"><ele>574</ele></trkpt>
            <trkpt lat="51.841569" lon="10.579951"><ele>551</ele></trkpt>
            <trkpt lat="51.841594" lon="10.579979"><ele>549.4</ele></trkpt>
            <trkpt lat="51.841602" lon="10.579947"><ele>549</ele></trkpt>
            <trkpt lat="51.841594" lon="10.579979"><ele>549.4</ele></trkpt>
            <trkpt lat="51.841569" lon="10.579951"><ele>551</ele></trkpt>
            <trkpt lat="51.841546" lon="10.580027"><ele>559.2</ele></trkpt>
            <trkpt lat="51.84157" lon="10.580213"><ele>559.6</ele></trkpt>
            <trkpt lat="51.841762" lon="10.581046"><ele>562</ele></trkpt>
            <trkpt lat="51.841841" lon="10.581286"><ele>562.1</ele></trkpt>
            <trkpt lat="51.841965" lon="10.581568"><ele>562.9</ele></trkpt>
            <trkpt lat="51.842186" lon="10.581877"><ele>563.6</ele></trkpt>
            <trkpt lat="51.842463" lon="10.58213"><ele>567</ele></trkpt>
            <trkpt lat="51.842539" lon="10.582314"><ele>567.5</ele></trkpt>
            <trkpt lat="51.842615" lon="10.582632"><ele>568.5</ele></trkpt>
            <trkpt lat="51.842734" lon="10.582937"><ele>569.3</ele></trkpt>
            <trkpt lat="51.842803" lon="10.583279"><ele>569.5</ele></trkpt>
            <trkpt lat="51.84284" lon="10.58358"><ele>569</ele></trkpt>
            <trkpt lat="51.842779" lon="10.583907"><ele>565.8</ele></trkpt>
            <trkpt lat="51.842693" lon="10.584156"><ele>566</ele></trkpt>
            <trkpt lat="51.842447" lon="10.584437"><ele>565.5</ele></trkpt>
            <trkpt lat="51.842294" lon="10.584813"><ele>564.8</ele></trkpt>
            <trkpt lat="51.842218" lon="10.585153"><ele>564.6</ele></trkpt>
            <trkpt lat="51.842164" lon="10.58528"><ele>564.8</ele></trkpt>
            <trkpt lat="51.841972" lon="10.585661"><ele>564.2</ele></trkpt>
            <trkpt lat="51.841762" lon="10.585944"><ele>563.7</ele></trkpt>
            <trkpt lat="51.841759" lon="10.586487"><ele>564.6</ele></trkpt>
            <trkpt lat="51.841866" lon="10.587048"><ele>566.1</ele></trkpt>
            <trkpt lat="51.841888" lon="10.587302"><ele>573</ele></trkpt>
            <trkpt lat="51.84195" lon="10.588311"><ele>573.9</ele></trkpt>
            <trkpt lat="51.841943" lon="10.588463"><ele>574</ele></trkpt>
            <trkpt lat="51.841897" lon="10.588732"><ele>575</ele></trkpt>
            <trkpt lat="51.841716" lon="10.589096"><ele>576.4</ele></trkpt>
            <trkpt lat="51.841633" lon="10.589193"><ele>576.7</ele></trkpt>
            <trkpt lat="51.841535" lon="10.589238"><ele>577</ele></trkpt>
            <trkpt lat="51.841434" lon="10.58925"><ele>576.9</ele></trkpt>
            <trkpt lat="51.840932" lon="10.589197"><ele>577</ele></trkpt>
            <trkpt lat="51.840515" lon="10.58918"><ele>576.1</ele></trkpt>
            <trkpt lat="51.84015" lon="10.589113"><ele>572.6</ele></trkpt>
            <trkpt lat="51.839619" lon="10.589096"><ele>569.8</ele></trkpt>
            <trkpt lat="51.839385" lon="10.588968"><ele>569.3</ele></trkpt>
            <trkpt lat="51.839259" lon="10.588936"><ele>568.6</ele></trkpt>
            <trkpt lat="51.839109" lon="10.588949"><ele>567.2</ele></trkpt>
            <trkpt lat="51.838901" lon="10.589149"><ele>566.1</ele></trkpt>
            <trkpt lat="51.838847" lon="10.589226"><ele>566.6</ele></trkpt>
            <trkpt lat="51.838733" lon="10.589475"><ele>567.6</ele></trkpt>
            <trkpt lat="51.838516" lon="10.590256"><ele>569</ele></trkpt>
            <trkpt lat="51.83823" lon="10.591158"><ele>570.6</ele></trkpt>
            <trkpt lat="51.83818" lon="10.59137"><ele>570.6</ele></trkpt>
            <trkpt lat="51.838135" lon="10.591632"><ele>570.9</ele></trkpt>
            <trkpt lat="51.838117" lon="10.591865"><ele>570.6</ele></trkpt>
            <trkpt lat="51.838084" lon="10.59319"><ele>571.2</ele></trkpt>
            <trkpt lat="51.838043" lon="10.593322"><ele>572.6</ele></trkpt>
            <trkpt lat="51.838005" lon="10.593387"><ele>573.8</ele></trkpt>
            <trkpt lat="51.837881" lon="10.593523"><ele>576.8</ele></trkpt>
            <trkpt lat="51.837805" lon="10.593566"><ele>590</ele></trkpt>
            <trkpt lat="51.837783" lon="10.593572"><ele>590</ele></trkpt>
            <trkpt lat="51.837653" lon="10.593578"><ele>590</ele></trkpt>
            <trkpt lat="51.837594" lon="10.593556"><ele>590</ele></trkpt>
            <trkpt lat="51.837556" lon="10.593532"><ele>590</ele></trkpt>
            <trkpt lat="51.837375" lon="10.593277"><ele>585.7</ele></trkpt>
            <trkpt lat="51.83728" lon="10.593172"><ele>585.4</ele></trkpt>
            <trkpt lat="51.836671" lon="10.592645"><ele>584.5</ele></trkpt>
            <trkpt lat="51.836499" lon="10.59247"><ele>585</ele></trkpt>
            <trkpt lat="51.836372" lon="10.592297"><ele>584.9</ele></trkpt>
            <trkpt lat="51.836279" lon="10.592129"><ele>585.4</ele></trkpt>
            <trkpt lat="51.836091" lon="10.591615"><ele>585.5</ele></trkpt>
            <trkpt lat="51.836032" lon="10.591528"><ele>584.9</ele></trkpt>
            <trkpt lat="51.835963" lon="10.591475"><ele>584.4</ele></trkpt>
            <trkpt lat="51.835865" lon="10.591453"><ele>583.8</ele></trkpt>
            <trkpt lat="51.835752" lon="10.591467"><ele>583.3</ele></trkpt>
            <trkpt lat="51.835573" lon="10.59155"><ele>582.9</ele></trkpt>
            <trkpt lat="51.835242" lon="10.591855"><ele>583.3</ele></trkpt>
            <trkpt lat="51.83492" lon="10.592085"><ele>580.8</ele></trkpt>
            <trkpt lat="51.834804" lon="10.59226"><ele>578.6</ele></trkpt>
            <trkpt lat="51.8347" lon="10.592488"><ele>581</ele></trkpt>
            <trkpt lat="51.834691" lon="10.592508"><ele>590</ele></trkpt>
            <trkpt lat="51.834632" lon="10.59264"><ele>592.8</ele></trkpt>
            <trkpt lat="51.834175" lon="10.593295"><ele>593.3</ele></trkpt>
            <trkpt lat="51.834065" lon="10.593412"><ele>593.4</ele></trkpt>
            <trkpt lat="51.833875" lon="10.593537"><ele>593.6</ele></trkpt>
            <trkpt lat="51.833746" lon="10.593592"><ele>593.7</ele></trkpt>
            <trkpt lat="51.833607" lon="10.593612"><ele>593.8</ele></trkpt>
            <trkpt lat="51.833324" lon="10.593561"><ele>595.8</ele></trkpt>
            <trkpt lat="51.833194" lon="10.5935"><ele>606</ele></trkpt>
            <trkpt lat="51.833116" lon="10.593572"><ele>608</ele></trkpt>
            <trkpt lat="51.832853" lon="10.59364"><ele>608.1</ele></trkpt>
            <trkpt lat="51.832709" lon="10.593744"><ele>608.3</ele></trkpt>
            <trkpt lat="51.832631" lon="10.59384"><ele>608.4</ele></trkpt>
            <trkpt lat="51.832592" lon="10.593939"><ele>608.6</ele></trkpt>
            <trkpt lat="51.832563" lon="10.594047"><ele>608.8</ele></trkpt>
            <trkpt lat="51.832524" lon="10.594347"><ele>609</ele></trkpt>
            <trkpt lat="51.832535" lon="10.594541"><ele>609</ele></trkpt>
            <trkpt lat="51.832603" lon="10.594877"><ele>609</ele></trkpt>
            <trkpt lat="51.832632" lon="10.595231"><ele>613</ele></trkpt>
            <trkpt lat="51.832496" lon="10.595209"><ele>618.3</ele></trkpt>
            <trkpt lat="51.832432" lon="10.595233"><ele>618.3</ele></trkpt>
            <trkpt lat="51.832383" lon="10.595345"><ele>618.4</ele></trkpt>
            <trkpt lat="51.832223" lon="10.595881"><ele>618.5</ele></trkpt>
            <trkpt lat="51.832134" lon="10.595988"><ele>618.3</ele></trkpt>
            <trkpt lat="51.83207" lon="10.59616"><ele>618.2</ele></trkpt>
            <trkpt lat="51.831997" lon="10.596229"><ele>620</ele></trkpt>
            <trkpt lat="51.831881" lon="10.596326"><ele>620.3</ele></trkpt>
            <trkpt lat="51.831837" lon="10.596408"><ele>620.4</ele></trkpt>
            <trkpt lat="51.83178" lon="10.596692"><ele>622</ele></trkpt>
            <trkpt lat="51.831668" lon="10.596783"><ele>622</ele></trkpt>
            <trkpt lat="51.831087" lon="10.597367"><ele>622.4</ele></trkpt>
            <trkpt lat="51.830668" lon="10.597884"><ele>622.9</ele></trkpt>
            <trkpt lat="51.830379" lon="10.598072"><ele>623.9</ele></trkpt>
            <trkpt lat="51.830296" lon="10.598192"><ele>623.9</ele></trkpt>
            <trkpt lat="51.830272" lon="10.598264"><ele>623.9</ele></trkpt>
            <trkpt lat="51.83017" lon="10.59921"><ele>625.7</ele></trkpt>
            <trkpt lat="51.830105" lon="10.600017"><ele>627.4</ele></trkpt>
            <trkpt lat="51.830027" lon="10.600722"><ele>634</ele></trkpt>
            <trkpt lat="51.829918" lon="10.601778"><ele>646</ele></trkpt>
            <trkpt lat="51.829906" lon="10.602002"><ele>646</ele></trkpt>
            <trkpt lat="51.829986" lon="10.60226"><ele>642</ele></trkpt>
            <trkpt lat="51.830054" lon="10.602403"><ele>640.4</ele></trkpt>
            <trkpt lat="51.830103" lon="10.602459"><ele>635</ele></trkpt>
            <trkpt lat="51.830107" lon="10.602512"><ele>635</ele></trkpt>
            <trkpt lat="51.83007" lon="10.602605"><ele>635</ele></trkpt>
            <trkpt lat="51.830069" lon="10.602646"><ele>635</ele></trkpt>
            <trkpt lat="51.830122" lon="10.602759"><ele>635</ele></trkpt>
            <trkpt lat="51.830147" lon="10.602791"><ele>635</ele></trkpt>
            <trkpt lat="51.830122" lon="10.602759"><ele>635</ele></trkpt>
            <trkpt lat="51.830069" lon="10.602646"><ele>635</ele></trkpt>
            <trkpt lat="51.83007" lon="10.602605"><ele>635</ele></trkpt>
            <trkpt lat="51.830107" lon="10.602512"><ele>635</ele></trkpt>
            <trkpt lat="51.830103" lon="10.602459"><ele>635</ele></trkpt>
            <trkpt lat="51.830054" lon="10.602403"><ele>640.4</ele></trkpt>
            <trkpt lat="51.829986" lon="10.60226"><ele>642</ele></trkpt>
            <trkpt lat="51.829906" lon="10.602002"><ele>646</ele></trkpt>
            <trkpt lat="51.829918" lon="10.601778"><ele>646</ele></trkpt>
            <trkpt lat="51.830027" lon="10.600722"><ele>634</ele></trkpt>
            <trkpt lat="51.830105" lon="10.600017"><ele>627.4</ele></trkpt>
            <trkpt lat="51.83017" lon="10.59921"><ele>625.7</ele></trkpt>
            <trkpt lat="51.830272" lon="10.598264"><ele>623.9</ele></trkpt>
            <trkpt lat="51.830296" lon="10.598192"><ele>623.9</ele></trkpt>
            <trkpt lat="51.830379" lon="10.598072"><ele>623.9</ele></trkpt>
            <trkpt lat="51.830668" lon="10.597884"><ele>622.9</ele></trkpt>
            <trkpt lat="51.831087" lon="10.597367"><ele>622.4</ele></trkpt>
            <trkpt lat="51.831668" lon="10.596783"><ele>622</ele></trkpt>
            <trkpt lat="51.831784" lon="10.596816"><ele>624.1</ele></trkpt>
            <trkpt lat="51.83185" lon="10.59688"><ele>624.7</ele></trkpt>
            <trkpt lat="51.832064" lon="10.597248"><ele>625.5</ele></trkpt>
            <trkpt lat="51.832245" lon="10.59751"><ele>625.9</ele></trkpt>
            <trkpt lat="51.832615" lon="10.597998"><ele>626</ele></trkpt>
            <trkpt lat="51.832718" lon="10.598053"><ele>625.9</ele></trkpt>
            <trkpt lat="51.834087" lon="10.598165"><ele>628.4</ele></trkpt>
            <trkpt lat="51.834576" lon="10.598274"><ele>629.1</ele></trkpt>
            <trkpt lat="51.834669" lon="10.598254"><ele>629.4</ele></trkpt>
            <trkpt lat="51.834777" lon="10.598157"><ele>629.5</ele></trkpt>
            <trkpt lat="51.835247" lon="10.59762"><ele>630.4</ele></trkpt>
            <trkpt lat="51.835524" lon="10.597341"><ele>630.6</ele></trkpt>
            <trkpt lat="51.835662" lon="10.597233"><ele>630.9</ele></trkpt>
            <trkpt lat="51.835825" lon="10.597176"><ele>631.5</ele></trkpt>
            <trkpt lat="51.836162" lon="10.597154"><ele>632.6</ele></trkpt>
            <trkpt lat="51.836574" lon="10.597142"><ele>631.7</ele></trkpt>
            <trkpt lat="51.836942" lon="10.597192"><ele>631.4</ele></trkpt>
            <trkpt lat="51.837058" lon="10.597139"><ele>631.2</ele></trkpt>
            <trkpt lat="51.837322" lon="10.59708"><ele>630.1</ele></trkpt>
            <trkpt lat="51.837424" lon="10.597098"><ele>629.6</ele></trkpt>
            <trkpt lat="51.837674" lon="10.597316"><ele>628.8</ele></trkpt>
            <trkpt lat="51.838132" lon="10.597566"><ele>628.3</ele></trkpt>
            <trkpt lat="51.83836" lon="10.597751"><ele>627</ele></trkpt>
            <trkpt lat="51.83845" lon="10.597899"><ele>627.1</ele></trkpt>
            <trkpt lat="51.838622" lon="10.598274"><ele>626.5</ele></trkpt>
            <trkpt lat="51.838702" lon="10.598353"><ele>626.2</ele></trkpt>
            <trkpt lat="51.839048" lon="10.59849"><ele>625</ele></trkpt>
            <trkpt lat="51.839413" lon="10.598579"><ele>624</ele></trkpt>
            <trkpt lat="51.839576" lon="10.59859"><ele>623.6</ele></trkpt>
            <trkpt lat="51.839758" lon="10.59858"><ele>623.1</ele></trkpt>
            <trkpt lat="51.840065" lon="10.59844"><ele>622</ele></trkpt>
            <trkpt lat="51.840154" lon="10.598455"><ele>622.1</ele></trkpt>
            <trkpt lat="51.840594" lon="10.598711"><ele>622.1</ele></trkpt>
            <trkpt lat="51.840771" lon="10.598915"><ele>622.4</ele></trkpt>
            <trkpt lat="51.84091" lon="10.59922"><ele>622.2</ele></trkpt>
            <trkpt lat="51.841119" lon="10.59979"><ele>621.5</ele></trkpt>
            <trkpt lat="51.841397" lon="10.600213"><ele>621.2</ele></trkpt>
            <trkpt lat="51.841539" lon="10.600487"><ele>620.9</ele></trkpt>
            <trkpt lat="51.841744" lon="10.600822"><ele>620.5</ele></trkpt>
            <trkpt lat="51.841802" lon="10.600958"><ele>620.7</ele></trkpt>
            <trkpt lat="51.841861" lon="10.601238"><ele>621.2</ele></trkpt>
            <trkpt lat="51.841946" lon="10.602098"><ele>622.5</ele></trkpt>
            <trkpt lat="51.841995" lon="10.602328"><ele>622.7</ele></trkpt>
            <trkpt lat="51.842037" lon="10.602436"><ele>622.8</ele></trkpt>
            <trkpt lat="51.842074" lon="10.60265"><ele>623</ele></trkpt>
            <trkpt lat="51.842248" lon="10.603859"><ele>623.9</ele></trkpt>
            <trkpt lat="51.842249" lon="10.603983"><ele>627</ele></trkpt>
            <trkpt lat="51.84224" lon="10.604218"><ele>625.2</ele></trkpt>
            <trkpt lat="51.842198" lon="10.604506"><ele>624.1</ele></trkpt>
            <trkpt lat="51.842149" lon="10.604705"><ele>623.5</ele></trkpt>
            <trkpt lat="51.8419" lon="10.605254"><ele>621.2</ele></trkpt>
            <trkpt lat="51.841843" lon="10.605453"><ele>620.3</ele></trkpt>
            <trkpt lat="51.841781" lon="10.605891"><ele>619.4</ele></trkpt>
            <trkpt lat="51.841734" lon="10.60609"><ele>619</ele></trkpt>
            <trkpt lat="51.841666" lon="10.606282"><ele>618.6</ele></trkpt>
            <trkpt lat="51.841601" lon="10.606422"><ele>618.6</ele></trkpt>
            <trkpt lat="51.841503" lon="10.60655"><ele>618.2</ele></trkpt>
            <trkpt lat="51.84115" lon="10.606883"><ele>617.8</ele></trkpt>
            <trkpt lat="51.841039" lon="10.607038"><ele>611</ele></trkpt>
            <trkpt lat="51.840846" lon="10.607461"><ele>611.7</ele></trkpt>
            <trkpt lat="51.840804" lon="10.607642"><ele>611.8</ele></trkpt>
            <trkpt lat="51.840806" lon="10.607792"><ele>611.4</ele></trkpt>
            <trkpt lat="51.840836" lon="10.607886"><ele>609.9</ele></trkpt>
            <trkpt lat="51.840903" lon="10.60798"><ele>609.8</ele></trkpt>
            <trkpt lat="51.841218" lon="10.608351"><ele>608.6</ele></trkpt>
            <trkpt lat="51.841405" lon="10.608643"><ele>607.7</ele></trkpt>
            <trkpt lat="51.841745" lon="10.609453"><ele>602.1</ele></trkpt>
            <trkpt lat="51.8419" lon="10.609687"><ele>598.7</ele></trkpt>
            <trkpt lat="51.842199" lon="10.609873"><ele>593.3</ele></trkpt>
            <trkpt lat="51.842558" lon="10.610066"><ele>587.6</ele></trkpt>
            <trkpt lat="51.843027" lon="10.61022"><ele>578.2</ele></trkpt>
            <trkpt lat="51.843146" lon="10.610307"><ele>576.7</ele></trkpt>
            <trkpt lat="51.843553" lon="10.610776"><ele>572.4</ele></trkpt>
            <trkpt lat="51.843646" lon="10.610909"><ele>572.6</ele></trkpt>
            <trkpt lat="51.843776" lon="10.611125"><ele>571.8</ele></trkpt>
            <trkpt lat="51.843929" lon="10.611431"><ele>572.4</ele></trkpt>
            <trkpt lat="51.844014" lon="10.611742"><ele>566</ele></trkpt>
            <trkpt lat="51.844125" lon="10.611702"><ele>566</ele></trkpt>
            <trkpt lat="51.84411" lon="10.611632"><ele>570</ele></trkpt>
            <trkpt lat="51.844125" lon="10.611702"><ele>566</ele></trkpt>
            <trkpt lat="51.844322" lon="10.612525"><ele>573.1</ele></trkpt>
            <trkpt lat="51.84456" lon="10.612989"><ele>573.9</ele></trkpt>
            <trkpt lat="51.84467" lon="10.613262"><ele>574.1</ele></trkpt>
            <trkpt lat="51.844733" lon="10.613512"><ele>574.3</ele></trkpt>
            <trkpt lat="51.844795" lon="10.613821"><ele>575.3</ele></trkpt>
            <trkpt lat="51.844887" lon="10.614668"><ele>574.8</ele></trkpt>
            <trkpt lat="51.844946" lon="10.61506"><ele>574.3</ele></trkpt>
            <trkpt lat="51.845073" lon="10.615633"><ele>574</ele></trkpt>
            <trkpt lat="51.845125" lon="10.616192"><ele>573.6</ele></trkpt>
            <trkpt lat="51.84517" lon="10.616377"><ele>573</ele></trkpt>
            <trkpt lat="51.845362" lon="10.616826"><ele>570.9</ele></trkpt>
            <trkpt lat="51.845845" lon="10.618056"><ele>567.4</ele></trkpt>
            <trkpt lat="51.845897" lon="10.618273"><ele>566.4</ele></trkpt>
            <trkpt lat="51.845913" lon="10.618426"><ele>565.8</ele></trkpt>
            <trkpt lat="51.845914" lon="10.618915"><ele>565.4</ele></trkpt>
            <trkpt lat="51.845938" lon="10.619086"><ele>565.6</ele></trkpt>
            <trkpt lat="51.845995" lon="10.61923"><ele>565.7</ele></trkpt>
            <trkpt lat="51.846423" lon="10.6201"><ele>565.6</ele></trkpt>
            <trkpt lat="51.846448" lon="10.620182"><ele>565</ele></trkpt>
            <trkpt lat="51.846607" lon="10.62048"><ele>559.6</ele></trkpt>
            <trkpt lat="51.846795" lon="10.620955"><ele>559.1</ele></trkpt>
            <trkpt lat="51.846948" lon="10.621177"><ele>559.1</ele></trkpt>
            <trkpt lat="51.847166" lon="10.621337"><ele>559.1</ele></trkpt>
            <trkpt lat="51.847701" lon="10.621526"><ele>553</ele></trkpt>
            <trkpt lat="51.848061" lon="10.621687"><ele>547.6</ele></trkpt>
            <trkpt lat="51.848161" lon="10.621769"><ele>547.3</ele></trkpt>
            <trkpt lat="51.848984" lon="10.622748"><ele>543</ele></trkpt>
            <trkpt lat="51.849387" lon="10.623256"><ele>545</ele></trkpt>
            <trkpt lat="51.849517" lon="10.623321"><ele>545.9</ele></trkpt>
            <trkpt lat="51.849739" lon="10.623366"><ele>546.2</ele></trkpt>
            <trkpt lat="51.849868" lon="10.623345"><ele>546.3</ele></trkpt>
            <trkpt lat="51.850613" lon="10.623068"><ele>547</ele></trkpt>
            <trkpt lat="51.850826" lon="10.623031"><ele>549.7</ele></trkpt>
            <trkpt lat="51.850892" lon="10.62306"><ele>551</ele></trkpt>
            <trkpt lat="51.850975" lon="10.623144"><ele>559</ele></trkpt>
            <trkpt lat="51.85104" lon="10.623274"><ele>566.5</ele></trkpt>
            <trkpt lat="51.851108" lon="10.623542"><ele>566.9</ele></trkpt>
            <trkpt lat="51.85117" lon="10.624183"><ele>567.7</ele></trkpt>
            <trkpt lat="51.851204" lon="10.624296"><ele>568</ele></trkpt>
            <trkpt lat="51.851386" lon="10.624548"><ele>569.1</ele></trkpt>
            <trkpt lat="51.851822" lon="10.624899"><ele>570.9</ele></trkpt>
            <trkpt lat="51.852366" lon="10.625136"><ele>572.6</ele></trkpt>
            <trkpt lat="51.852486" lon="10.625238"><ele>572.9</ele></trkpt>
            <trkpt lat="51.852978" lon="10.625955"><ele>573.5</ele></trkpt>
            <trkpt lat="51.853058" lon="10.626"><ele>573.4</ele></trkpt>
            <trkpt lat="51.853175" lon="10.625992"><ele>573.4</ele></trkpt>
            <trkpt lat="51.85341" lon="10.625911"><ele>573</ele></trkpt>
            <trkpt lat="51.853515" lon="10.625901"><ele>572.8</ele></trkpt>
            <trkpt lat="51.854377" lon="10.625949"><ele>571.3</ele></trkpt>
            <trkpt lat="51.85464" lon="10.626014"><ele>570.1</ele></trkpt>
            <trkpt lat="51.854761" lon="10.626059"><ele>569.6</ele></trkpt>
            <trkpt lat="51.855561" lon="10.626609"><ele>565.9</ele></trkpt>
            <trkpt lat="51.855838" lon="10.626726"><ele>565.3</ele></trkpt>
            <trkpt lat="51.85624" lon="10.626983"><ele>563.1</ele></trkpt>
            <trkpt lat="51.856518" lon="10.627203"><ele>563.1</ele></trkpt>
            <trkpt lat="51.856635" lon="10.627347"><ele>563.1</ele></trkpt>
            <trkpt lat="51.856748" lon="10.627548"><ele>563.3</ele></trkpt>
            <trkpt lat="51.85692" lon="10.628035"><ele>563.3</ele></trkpt>
            <trkpt lat="51.857064" lon="10.628546"><ele>561</ele></trkpt>
            <trkpt lat="51.857128" lon="10.628414"><ele>563.7</ele></trkpt>
            <trkpt lat="51.857243" lon="10.627547"><ele>564.1</ele></trkpt>
            <trkpt lat="51.857261" lon="10.62729"><ele>564.6</ele></trkpt>
            <trkpt lat="51.857359" lon="10.626866"><ele>569</ele></trkpt>
            <trkpt lat="51.857491" lon="10.626298"><ele>566.9</ele></trkpt>
            <trkpt lat="51.857541" lon="10.626009"><ele>566.7</ele></trkpt>
            <trkpt lat="51.857579" lon="10.625886"><ele>566.5</ele></trkpt>
            <trkpt lat="51.857678" lon="10.625674"><ele>566.4</ele></trkpt>
            <trkpt lat="51.857802" lon="10.625269"><ele>566.4</ele></trkpt>
            <trkpt lat="51.85795" lon="10.624865"><ele>566</ele></trkpt>
            <trkpt lat="51.858021" lon="10.62439"><ele>566</ele></trkpt>
            <trkpt lat="51.858164" lon="10.623927"><ele>569.3</ele></trkpt>
            <trkpt lat="51.858308" lon="10.62328"><ele>570.5</ele></trkpt>
            <trkpt lat="51.858415" lon="10.622879"><ele>571.8</ele></trkpt>
            <trkpt lat="51.858484" lon="10.622493"><ele>572.2</ele></trkpt>
            <trkpt lat="51.85864" lon="10.621837"><ele>574.7</ele></trkpt>
            <trkpt lat="51.858724" lon="10.621394"><ele>575</ele></trkpt>
            <trkpt lat="51.858847" lon="10.6209"><ele>576.1</ele></trkpt>
            <trkpt lat="51.859387" lon="10.618389"><ele>574</ele></trkpt>
            <trkpt lat="51.859593" lon="10.617501"><ele>572.6</ele></trkpt>
            <trkpt lat="51.859619" lon="10.617479"><ele>568</ele></trkpt>
            <trkpt lat="51.859675" lon="10.617491"><ele>565.5</ele></trkpt>
            <trkpt lat="51.85986" lon="10.617622"><ele>565.9</ele></trkpt>
            <trkpt lat="51.860103" lon="10.617743"><ele>565.4</ele></trkpt>
            <trkpt lat="51.860604" lon="10.617854"><ele>563.8</ele></trkpt>
            <trkpt lat="51.861124" lon="10.618045"><ele>559.3</ele></trkpt>
            <trkpt lat="51.861329" lon="10.618063"><ele>556.6</ele></trkpt>
            <trkpt lat="51.861569" lon="10.617976"><ele>555.8</ele></trkpt>
            <trkpt lat="51.861687" lon="10.61796"><ele>554.7</ele></trkpt>
            <trkpt lat="51.861813" lon="10.617974"><ele>554.4</ele></trkpt>
            <trkpt lat="51.862085" lon="10.618087"><ele>553.3</ele></trkpt>
            <trkpt lat="51.862364" lon="10.618166"><ele>552.6</ele></trkpt>
            <trkpt lat="51.862383" lon="10.618194"><ele>551</ele></trkpt>
            <trkpt lat="51.862525" lon="10.618141"><ele>551</ele></trkpt>
            <trkpt lat="51.862559" lon="10.618143"><ele>551</ele></trkpt>
            <trkpt lat="51.862525" lon="10.618141"><ele>551</ele></trkpt>
            <trkpt lat="51.862383" lon="10.618194"><ele>551</ele></trkpt>
            <trkpt lat="51.862415" lon="10.61837"><ele>569.8</ele></trkpt>
            <trkpt lat="51.862404" lon="10.618566"><ele>570</ele></trkpt>
            <trkpt lat="51.862374" lon="10.618846"><ele>570.8</ele></trkpt>
            <trkpt lat="51.862327" lon="10.619082"><ele>571.5</ele></trkpt>
            <trkpt lat="51.862215" lon="10.619495"><ele>573.4</ele></trkpt>
            <trkpt lat="51.861991" lon="10.620178"><ele>574.6</ele></trkpt>
            <trkpt lat="51.861947" lon="10.62037"><ele>577.9</ele></trkpt>
            <trkpt lat="51.861615" lon="10.621377"><ele>588</ele></trkpt>
            <trkpt lat="51.861422" lon="10.621869"><ele>584.2</ele></trkpt>
            <trkpt lat="51.861189" lon="10.622884"><ele>583</ele></trkpt>
            <trkpt lat="51.860885" lon="10.62359"><ele>580.7</ele></trkpt>
            <trkpt lat="51.860774" lon="10.6239"><ele>580.5</ele></trkpt>
            <trkpt lat="51.860631" lon="10.624375"><ele>579.2</ele></trkpt>
            <trkpt lat="51.86044" lon="10.625249"><ele>579.5</ele></trkpt>
            <trkpt lat="51.860347" lon="10.625563"><ele>579.5</ele></trkpt>
            <trkpt lat="51.86025" lon="10.625795"><ele>580.1</ele></trkpt>
            <trkpt lat="51.860167" lon="10.625908"><ele>571</ele></trkpt>
            <trkpt lat="51.859723" lon="10.626401"><ele>562.5</ele></trkpt>
            <trkpt lat="51.85967" lon="10.626521"><ele>562.3</ele></trkpt>
            <trkpt lat="51.859644" lon="10.626655"><ele>562.5</ele></trkpt>
            <trkpt lat="51.859647" lon="10.62692"><ele>562</ele></trkpt>
            <trkpt lat="51.859625" lon="10.627033"><ele>561.7</ele></trkpt>
            <trkpt lat="51.859525" lon="10.627246"><ele>561.3</ele></trkpt>
            <trkpt lat="51.859401" lon="10.627383"><ele>560.9</ele></trkpt>
            <trkpt lat="51.859292" lon="10.627446"><ele>560.7</ele></trkpt>
            <trkpt lat="51.85902" lon="10.627512"><ele>559.3</ele></trkpt>
            <trkpt lat="51.858867" lon="10.627599"><ele>558.2</ele></trkpt>
            <trkpt lat="51.858752" lon="10.627757"><ele>556.8</ele></trkpt>
            <trkpt lat="51.858715" lon="10.627946"><ele>553</ele></trkpt>
            <trkpt lat="51.858946" lon="10.628115"><ele>548.1</ele></trkpt>
            <trkpt lat="51.859459" lon="10.628875"><ele>546.9</ele></trkpt>
            <trkpt lat="51.859544" lon="10.628958"><ele>547.2</ele></trkpt>
            <trkpt lat="51.859619" lon="10.628984"><ele>547.5</ele></trkpt>
            <trkpt lat="51.859723" lon="10.62898"><ele>545</ele></trkpt>
            <trkpt lat="51.859859" lon="10.628747"><ele>550.6</ele></trkpt>
            <trkpt lat="51.860083" lon="10.628261"><ele>551.2</ele></trkpt>
            <trkpt lat="51.860124" lon="10.628204"><ele>551.1</ele></trkpt>
            <trkpt lat="51.860185" lon="10.628167"><ele>551</ele></trkpt>
            <trkpt lat="51.860404" lon="10.628223"><ele>550.8</ele></trkpt>
            <trkpt lat="51.860507" lon="10.62822"><ele>550.6</ele></trkpt>
            <trkpt lat="51.860637" lon="10.628082"><ele>552</ele></trkpt>
            <trkpt lat="51.860913" lon="10.62764"><ele>545.5</ele></trkpt>
            <trkpt lat="51.861174" lon="10.627057"><ele>545.9</ele></trkpt>
            <trkpt lat="51.861232" lon="10.626967"><ele>546.2</ele></trkpt>
            <trkpt lat="51.861329" lon="10.626883"><ele>544</ele></trkpt>
            <trkpt lat="51.861475" lon="10.626696"><ele>546.4</ele></trkpt>
            <trkpt lat="51.861581" lon="10.626663"><ele>554</ele></trkpt>
            <trkpt lat="51.86197" lon="10.626393"><ele>524.7</ele></trkpt>
            <trkpt lat="51.862074" lon="10.626288"><ele>524</ele></trkpt>
            <trkpt lat="51.862528" lon="10.625662"><ele>521.4</ele></trkpt>
            <trkpt lat="51.862686" lon="10.625534"><ele>523.8</ele></trkpt>
            <trkpt lat="51.862733" lon="10.625453"><ele>510</ele></trkpt>
            <trkpt lat="51.862789" lon="10.625406"><ele>511.5</ele></trkpt>
            <trkpt lat="51.862958" lon="10.625156"><ele>511.9</ele></trkpt>
            <trkpt lat="51.863059" lon="10.624939"><ele>516</ele></trkpt>
            <trkpt lat="51.863126" lon="10.624849"><ele>506.7</ele></trkpt>
            <trkpt lat="51.863315" lon="10.624701"><ele>500</ele></trkpt>
            <trkpt lat="51.863564" lon="10.624459"><ele>493.3</ele></trkpt>
            <trkpt lat="51.86385" lon="10.62414"><ele>490.1</ele></trkpt>
            <trkpt lat="51.864146" lon="10.623607"><ele>480.2</ele></trkpt>
            <trkpt lat="51.864302" lon="10.623415"><ele>475.1</ele></trkpt>
            <trkpt lat="51.864526" lon="10.623191"><ele>472.4</ele></trkpt>
            <trkpt lat="51.864933" lon="10.623003"><ele>461.6</ele></trkpt>
            <trkpt lat="51.865016" lon="10.622937"><ele>456.5</ele></trkpt>
            <trkpt lat="51.865086" lon="10.622841"><ele>456.4</ele></trkpt>
            <trkpt lat="51.865285" lon="10.622791"><ele>454.6</ele></trkpt>
            <trkpt lat="51.865562" lon="10.622925"><ele>449.9</ele></trkpt>
            <trkpt lat="51.865717" lon="10.623162"><ele>446.1</ele></trkpt>
            <trkpt lat="51.865927" lon="10.623308"><ele>442.2</ele></trkpt>
            <trkpt lat="51.866001" lon="10.623432"><ele>440.3</ele></trkpt>
            <trkpt lat="51.866239" lon="10.623681"><ele>437.2</ele></trkpt>
            <trkpt lat="51.866501" lon="10.623799"><ele>433.7</ele></trkpt>
            <trkpt lat="51.866638" lon="10.623951"><ele>431</ele></trkpt>
            <trkpt lat="51.8668" lon="10.624304"><ele>426.8</ele></trkpt>
            <trkpt lat="51.866992" lon="10.624478"><ele>423.3</ele></trkpt>
            <trkpt lat="51.867403" lon="10.624675"><ele>412</ele></trkpt>
            <trkpt lat="51.867771" lon="10.625077"><ele>404.3</ele></trkpt>
            <trkpt lat="51.868011" lon="10.625505"><ele>400.8</ele></trkpt>
            <trkpt lat="51.868293" lon="10.625874"><ele>399.5</ele></trkpt>
            <trkpt lat="51.868411" lon="10.62595"><ele>378</ele></trkpt>
            <trkpt lat="51.868962" lon="10.625839"><ele>368.9</ele></trkpt>
            <trkpt lat="51.869094" lon="10.625861"><ele>366.3</ele></trkpt>
            <trkpt lat="51.869389" lon="10.625981"><ele>365</ele></trkpt>
            <trkpt lat="51.869599" lon="10.626001"><ele>364.6</ele></trkpt>
            <trkpt lat="51.86982" lon="10.626076"><ele>362.3</ele></trkpt>
            <trkpt lat="51.870213" lon="10.626165"><ele>362.3</ele></trkpt>
            <trkpt lat="51.870331" lon="10.626127"><ele>355</ele></trkpt>
            <trkpt lat="51.87059" lon="10.625969"><ele>338.5</ele></trkpt>
            <trkpt lat="51.870912" lon="10.625711"><ele>334.4</ele></trkpt>
            <trkpt lat="51.871079" lon="10.625487"><ele>322</ele></trkpt>
            <trkpt lat="51.871176" lon="10.625482"><ele>322</ele></trkpt>
            <trkpt lat="51.871306" lon="10.625594"><ele>322</ele></trkpt>
            <trkpt lat="51.87141" lon="10.625636"><ele>322</ele></trkpt>
            <trkpt lat="51.871543" lon="10.625654"><ele>322</ele></trkpt>
            <trkpt lat="51.87169" lon="10.625637"><ele>315</ele></trkpt>
            <trkpt lat="51.871634" lon="10.624431"><ele>320.2</ele></trkpt>
            <trkpt lat="51.871598" lon="10.623191"><ele>321.2</ele></trkpt>
            <trkpt lat="51.871576" lon="10.622907"><ele>321.2</ele></trkpt>
            <trkpt lat="51.871529" lon="10.622615"><ele>321.6</ele></trkpt>
            <trkpt lat="51.871457" lon="10.622312"><ele>321.5</ele></trkpt>
            <trkpt lat="51.870776" lon="10.618711"><ele>330.9</ele></trkpt>
            <trkpt lat="51.870524" lon="10.617452"><ele>336.5</ele></trkpt>
            <trkpt lat="51.870233" lon="10.61585"><ele>341.3</ele></trkpt>
            <trkpt lat="51.870133" lon="10.615363"><ele>342</ele></trkpt>
            <trkpt lat="51.870061" lon="10.615107"><ele>345</ele></trkpt>
            <trkpt lat="51.870132" lon="10.614751"><ele>376.9</ele></trkpt>
            <trkpt lat="51.870209" lon="10.614476"><ele>382</ele></trkpt>
            <trkpt lat="51.870388" lon="10.614041"><ele>385.6</ele></trkpt>
            <trkpt lat="51.870433" lon="10.613883"><ele>388.5</ele></trkpt>
            <trkpt lat="51.870493" lon="10.613482"><ele>392.2</ele></trkpt>
            <trkpt lat="51.870688" lon="10.611837"><ele>416.2</ele></trkpt>
            <trkpt lat="51.870777" lon="10.611383"><ele>418.3</ele></trkpt>
            <trkpt lat="51.870833" lon="10.610913"><ele>422</ele></trkpt>
            <trkpt lat="51.870836" lon="10.610742"><ele>421.4</ele></trkpt>
            <trkpt lat="51.870782" lon="10.610456"><ele>424.2</ele></trkpt>
            <trkpt lat="51.87079" lon="10.610321"><ele>422.4</ele></trkpt>
            <trkpt lat="51.870865" lon="10.610241"><ele>419.2</ele></trkpt>
            <trkpt lat="51.870924" lon="10.610222"><ele>414</ele></trkpt>
            <trkpt lat="51.870955" lon="10.610119"><ele>419.6</ele></trkpt>
            <trkpt lat="51.870943" lon="10.609995"><ele>432</ele></trkpt>
            <trkpt lat="51.870855" lon="10.609811"><ele>444.4</ele></trkpt>
            <trkpt lat="51.870776" lon="10.609699"><ele>446.2</ele></trkpt>
            <trkpt lat="51.870671" lon="10.609449"><ele>446.1</ele></trkpt>
            <trkpt lat="51.870484" lon="10.60876"><ele>451</ele></trkpt>
            <trkpt lat="51.870438" lon="10.607879"><ele>482.8</ele></trkpt>
            <trkpt lat="51.87045" lon="10.607545"><ele>483.7</ele></trkpt>
            <trkpt lat="51.87049" lon="10.607306"><ele>484.6</ele></trkpt>
            <trkpt lat="51.870508" lon="10.606909"><ele>485.5</ele></trkpt>
            <trkpt lat="51.8705" lon="10.606697"><ele>486</ele></trkpt>
            <trkpt lat="51.870514" lon="10.606546"><ele>488.2</ele></trkpt>
            <trkpt lat="51.87052" lon="10.606103"><ele>489.4</ele></trkpt>
            <trkpt lat="51.870504" lon="10.606052"><ele>489.3</ele></trkpt>
            <trkpt lat="51.870476" lon="10.606018"><ele>489.2</ele></trkpt>
            <trkpt lat="51.870428" lon="10.606004"><ele>489</ele></trkpt>
            <trkpt lat="51.87037" lon="10.606057"><ele>488.9</ele></trkpt>
            <trkpt lat="51.870111" lon="10.606548"><ele>486.8</ele></trkpt>
            <trkpt lat="51.869909" lon="10.606765"><ele>486.4</ele></trkpt>
            <trkpt lat="51.869852" lon="10.606793"><ele>499</ele></trkpt>
            <trkpt lat="51.869716" lon="10.606916"><ele>499</ele></trkpt>
            <trkpt lat="51.869591" lon="10.606938"><ele>499</ele></trkpt>
            <trkpt lat="51.869298" lon="10.606939"><ele>499</ele></trkpt>
            <trkpt lat="51.869228" lon="10.606964"><ele>499</ele></trkpt>
            <trkpt lat="51.869178" lon="10.60705"><ele>499</ele></trkpt>
            <trkpt lat="51.869157" lon="10.607181"><ele>501.5</ele></trkpt>
            <trkpt lat="51.869202" lon="10.607541"><ele>498.8</ele></trkpt>
            <trkpt lat="51.869189" lon="10.60769"><ele>499.9</ele></trkpt>
            <trkpt lat="51.86902" lon="10.607838"><ele>500.2</ele></trkpt>
            <trkpt lat="51.868952" lon="10.607866"><ele>502</ele></trkpt>
            <trkpt lat="51.868775" lon="10.607765"><ele>519.5</ele></trkpt>
            <trkpt lat="51.868682" lon="10.607739"><ele>520.6</ele></trkpt>
            <trkpt lat="51.868604" lon="10.607661"><ele>522.8</ele></trkpt>
            <trkpt lat="51.868539" lon="10.607417"><ele>526.2</ele></trkpt>
            <trkpt lat="51.868292" lon="10.607035"><ele>529.8</ele></trkpt>
            <trkpt lat="51.86817" lon="10.606784"><ele>530.7</ele></trkpt>
            <trkpt lat="51.868125" lon="10.606654"><ele>531.1</ele></trkpt>
            <trkpt lat="51.868077" lon="10.6064"><ele>530.5</ele></trkpt>
            <trkpt lat="51.868016" lon="10.606277"><ele>532.1</ele></trkpt>
            <trkpt lat="51.867909" lon="10.606209"><ele>532.6</ele></trkpt>
            <trkpt lat="51.867397" lon="10.606137"><ele>537.1</ele></trkpt>
            <trkpt lat="51.867298" lon="10.606155"><ele>536.8</ele></trkpt>
            <trkpt lat="51.86693" lon="10.606358"><ele>537</ele></trkpt>
            <trkpt lat="51.866717" lon="10.606372"><ele>537.4</ele></trkpt>
            <trkpt lat="51.866414" lon="10.606313"><ele>537.2</ele></trkpt>
            <trkpt lat="51.865903" lon="10.606133"><ele>536</ele></trkpt>
            <trkpt lat="51.865491" lon="10.605898"><ele>535.4</ele></trkpt>
            <trkpt lat="51.86546" lon="10.605852"><ele>536.2</ele></trkpt>
            <trkpt lat="51.865454" lon="10.605809"><ele>541</ele></trkpt>
            <trkpt lat="51.865305" lon="10.605729"><ele>529.2</ele></trkpt>
            <trkpt lat="51.865223" lon="10.605653"><ele>527.6</ele></trkpt>
            <trkpt lat="51.865051" lon="10.60543"><ele>525.6</ele></trkpt>
            <trkpt lat="51.864996" lon="10.605391"><ele>515.3</ele></trkpt>
            <trkpt lat="51.865051" lon="10.60543"><ele>525.6</ele></trkpt>
            <trkpt lat="51.865223" lon="10.605653"><ele>527.6</ele></trkpt>
            <trkpt lat="51.865305" lon="10.605729"><ele>529.2</ele></trkpt>
            <trkpt lat="51.865454" lon="10.605809"><ele>541</ele></trkpt>
            <trkpt lat="51.865546" lon="10.605814"><ele>546.5</ele></trkpt>
            <trkpt lat="51.86565" lon="10.605765"><ele>546</ele></trkpt>
            <trkpt lat="51.865884" lon="10.605506"><ele>546.5</ele></trkpt>
            <trkpt lat="51.866047" lon="10.605292"><ele>547.4</ele></trkpt>
            <trkpt lat="51.866139" lon="10.605115"><ele>548.2</ele></trkpt>
            <trkpt lat="51.866183" lon="10.604965"><ele>548.9</ele></trkpt>
            <trkpt lat="51.866281" lon="10.604388"><ele>556</ele></trkpt>
            <trkpt lat="51.866583" lon="10.604443"><ele>563.4</ele></trkpt>
            <trkpt lat="51.866753" lon="10.604416"><ele>564.1</ele></trkpt>
            <trkpt lat="51.866844" lon="10.6043"><ele>564.4</ele></trkpt>
            <trkpt lat="51.866902" lon="10.60414"><ele>564.6</ele></trkpt>
            <trkpt lat="51.867056" lon="10.603514"><ele>564.2</ele></trkpt>
            <trkpt lat="51.867122" lon="10.60342"><ele>564.1</ele></trkpt>
            <trkpt lat="51.867187" lon="10.603381"><ele>564</ele></trkpt>
            <trkpt lat="51.867374" lon="10.603363"><ele>563.6</ele></trkpt>
            <trkpt lat="51.867544" lon="10.603395"><ele>563.5</ele></trkpt>
            <trkpt lat="51.868037" lon="10.603604"><ele>562</ele></trkpt>
            <trkpt lat="51.868541" lon="10.603755"><ele>560</ele></trkpt>
            <trkpt lat="51.86871" lon="10.603742"><ele>559.5</ele></trkpt>
            <trkpt lat="51.869009" lon="10.603512"><ele>559.8</ele></trkpt>
            <trkpt lat="51.869349" lon="10.603463"><ele>559.8</ele></trkpt>
            <trkpt lat="51.869441" lon="10.603417"><ele>560.1</ele></trkpt>
            <trkpt lat="51.869521" lon="10.603334"><ele>560.6</ele></trkpt>
            <trkpt lat="51.869613" lon="10.603198"><ele>561.1</ele></trkpt>
            <trkpt lat="51.869745" lon="10.602895"><ele>561</ele></trkpt>
            <trkpt lat="51.869903" lon="10.602361"><ele>571</ele></trkpt>
            <trkpt lat="51.869959" lon="10.602098"><ele>561.9</ele></trkpt>
            <trkpt lat="51.870018" lon="10.601661"><ele>562.4</ele></trkpt>
            <trkpt lat="51.870087" lon="10.60042"><ele>566.5</ele></trkpt>
            <trkpt lat="51.87007" lon="10.600174"><ele>566.9</ele></trkpt>
            <trkpt lat="51.869918" lon="10.599423"><ele>569.4</ele></trkpt>
            <trkpt lat="51.86991" lon="10.599265"><ele>575</ele></trkpt>
            <trkpt lat="51.869975" lon="10.598908"><ele>569.2</ele></trkpt>
            <trkpt lat="51.870075" lon="10.598588"><ele>568.7</ele></trkpt>
            <trkpt lat="51.87021" lon="10.598276"><ele>568.3</ele></trkpt>
            <trkpt lat="51.870383" lon="10.598065"><ele>567.5</ele></trkpt>
            <trkpt lat="51.870492" lon="10.597987"><ele>567.1</ele></trkpt>
            <trkpt lat="51.870667" lon="10.597929"><ele>566.3</ele></trkpt>
            <trkpt lat="51.870749" lon="10.597937"><ele>565.9</ele></trkpt>
            <trkpt lat="51.870834" lon="10.597992"><ele>565.4</ele></trkpt>
            <trkpt lat="51.871286" lon="10.598594"><ele>564.9</ele></trkpt>
            <trkpt lat="51.87144" lon="10.598717"><ele>565</ele></trkpt>
            <trkpt lat="51.871954" lon="10.598992"><ele>565.3</ele></trkpt>
            <trkpt lat="51.87237" lon="10.599177"><ele>565.5</ele></trkpt>
            <trkpt lat="51.872466" lon="10.599186"><ele>565.9</ele></trkpt>
            <trkpt lat="51.873067" lon="10.599139"><ele>566.3</ele></trkpt>
            <trkpt lat="51.873155" lon="10.599171"><ele>566</ele></trkpt>
            <trkpt lat="51.873263" lon="10.599145"><ele>568.8</ele></trkpt>
            <trkpt lat="51.873328" lon="10.599062"><ele>568.7</ele></trkpt>
            <trkpt lat="51.873368" lon="10.598957"><ele>571</ele></trkpt>
            <trkpt lat="51.873377" lon="10.598892"><ele>571.6</ele></trkpt>
            <trkpt lat="51.873354" lon="10.598617"><ele>571.9</ele></trkpt>
            <trkpt lat="51.873256" lon="10.598277"><ele>572.4</ele></trkpt>
            <trkpt lat="51.87312" lon="10.597926"><ele>572.7</ele></trkpt>
            <trkpt lat="51.873072" lon="10.597759"><ele>573</ele></trkpt>
            <trkpt lat="51.872986" lon="10.597188"><ele>574</ele></trkpt>
            <trkpt lat="51.872887" lon="10.596758"><ele>573.4</ele></trkpt>
            <trkpt lat="51.872763" lon="10.596332"><ele>573</ele></trkpt>
            <trkpt lat="51.872715" lon="10.595751"><ele>571.6</ele></trkpt>
            <trkpt lat="51.872715" lon="10.595631"><ele>571.3</ele></trkpt>
            <trkpt lat="51.872735" lon="10.595535"><ele>570.7</ele></trkpt>
            <trkpt lat="51.872836" lon="10.595365"><ele>569.9</ele></trkpt>
            <trkpt lat="51.873248" lon="10.595092"><ele>568.2</ele></trkpt>
            <trkpt lat="51.873587" lon="10.594919"><ele>566.7</ele></trkpt>
            <trkpt lat="51.873813" lon="10.594893"><ele>565.6</ele></trkpt>
            <trkpt lat="51.873883" lon="10.594856"><ele>565.4</ele></trkpt>
            <trkpt lat="51.873964" lon="10.594718"><ele>564.8</ele></trkpt>
            <trkpt lat="51.874314" lon="10.593761"><ele>562.8</ele></trkpt>
            <trkpt lat="51.874457" lon="10.593567"><ele>562.7</ele></trkpt>
            <trkpt lat="51.87458" lon="10.593505"><ele>562.6</ele></trkpt>
            <trkpt lat="51.874674" lon="10.593486"><ele>562.5</ele></trkpt>
            <trkpt lat="51.874991" lon="10.593462"><ele>561.7</ele></trkpt>
            <trkpt lat="51.875178" lon="10.593402"><ele>561.3</ele></trkpt>
            <trkpt lat="51.875292" lon="10.593311"><ele>555</ele></trkpt>
            <trkpt lat="51.875375" lon="10.593169"><ele>555</ele></trkpt>
            <trkpt lat="51.875399" lon="10.593082"><ele>555</ele></trkpt>
            <trkpt lat="51.875406" lon="10.592954"><ele>555</ele></trkpt>
            <trkpt lat="51.875369" lon="10.592583"><ele>555</ele></trkpt>
            <trkpt lat="51.875359" lon="10.592551"><ele>546.8</ele></trkpt>
            <trkpt lat="51.875272" lon="10.592249"><ele>538.6</ele></trkpt>
            <trkpt lat="51.875074" lon="10.591813"><ele>536.8</ele></trkpt>
            <trkpt lat="51.874944" lon="10.591632"><ele>536</ele></trkpt>
            <trkpt lat="51.87488" lon="10.591593"><ele>536.6</ele></trkpt>
            <trkpt lat="51.874791" lon="10.591585"><ele>537.3</ele></trkpt>
            <trkpt lat="51.874699" lon="10.591619"><ele>538.2</ele></trkpt>
            <trkpt lat="51.874438" lon="10.59184"><ele>539.2</ele></trkpt>
            <trkpt lat="51.874036" lon="10.592422"><ele>540.1</ele></trkpt>
            <trkpt lat="51.873878" lon="10.59259"><ele>539.8</ele></trkpt>
            <trkpt lat="51.873319" lon="10.592763"><ele>546.4</ele></trkpt>
            <trkpt lat="51.873072" lon="10.592756"><ele>548.9</ele></trkpt>
            <trkpt lat="51.872796" lon="10.592642"><ele>550.2</ele></trkpt>
            <trkpt lat="51.872539" lon="10.592449"><ele>551.2</ele></trkpt>
            <trkpt lat="51.872106" lon="10.592045"><ele>554.7</ele></trkpt>
            <trkpt lat="51.87208" lon="10.59196"><ele>553.2</ele></trkpt>
            <trkpt lat="51.872081" lon="10.591787"><ele>553</ele></trkpt>
            <trkpt lat="51.872129" lon="10.591491"><ele>551.6</ele></trkpt>
            <trkpt lat="51.872159" lon="10.591091"><ele>549.2</ele></trkpt>
            <trkpt lat="51.872141" lon="10.590606"><ele>547.2</ele></trkpt>
            <trkpt lat="51.871935" lon="10.589532"><ele>546.6</ele></trkpt>
            <trkpt lat="51.871866" lon="10.589271"><ele>546.7</ele></trkpt>
            <trkpt lat="51.871762" lon="10.589011"><ele>547</ele></trkpt>
            <trkpt lat="51.871635" lon="10.588811"><ele>549.2</ele></trkpt>
            <trkpt lat="51.87131" lon="10.588541"><ele>548.8</ele></trkpt>
            <trkpt lat="51.871282" lon="10.588489"><ele>548.6</ele></trkpt>
            <trkpt lat="51.871273" lon="10.588433"><ele>548.3</ele></trkpt>
            <trkpt lat="51.871376" lon="10.587974"><ele>548</ele></trkpt>
            <trkpt lat="51.871452" lon="10.587615"><ele>545.6</ele></trkpt>
            <trkpt lat="51.871487" lon="10.587324"><ele>543</ele></trkpt>
            <trkpt lat="51.871464" lon="10.586955"><ele>531.5</ele></trkpt>
            <trkpt lat="51.871396" lon="10.586517"><ele>527.1</ele></trkpt>
            <trkpt lat="51.871159" lon="10.585719"><ele>522.1</ele></trkpt>
            <trkpt lat="51.870927" lon="10.585268"><ele>518.1</ele></trkpt>
            <trkpt lat="51.870883" lon="10.584965"><ele>512.1</ele></trkpt>
            <trkpt lat="51.870877" lon="10.584335"><ele>508.7</ele></trkpt>
            <trkpt lat="51.870861" lon="10.584035"><ele>505.9</ele></trkpt>
            <trkpt lat="51.870804" lon="10.583767"><ele>505.8</ele></trkpt>
            <trkpt lat="51.87068" lon="10.583463"><ele>503.8</ele></trkpt>
            <trkpt lat="51.87045" lon="10.583076"><ele>500.9</ele></trkpt>
            <trkpt lat="51.870221" lon="10.582883"><ele>501.7</ele></trkpt>
            <trkpt lat="51.869946" lon="10.582719"><ele>503.5</ele></trkpt>
            <trkpt lat="51.869842" lon="10.582683"><ele>503.8</ele></trkpt>
            <trkpt lat="51.869733" lon="10.582695"><ele>504.1</ele></trkpt>
            <trkpt lat="51.86937" lon="10.582866"><ele>505</ele></trkpt>
            <trkpt lat="51.869088" lon="10.582924"><ele>506.9</ele></trkpt>
            <trkpt lat="51.868979" lon="10.582979"><ele>506.9</ele></trkpt>
            <trkpt lat="51.86884" lon="10.583166"><ele>507</ele></trkpt>
            <trkpt lat="51.868782" lon="10.583191"><ele>506.5</ele></trkpt>
            <trkpt lat="51.868702" lon="10.583169"><ele>512</ele></trkpt>
            <trkpt lat="51.868656" lon="10.583103"><ele>513.1</ele></trkpt>
            <trkpt lat="51.868623" lon="10.583003"><ele>513.2</ele></trkpt>
            <trkpt lat="51.868548" lon="10.582682"><ele>514.3</ele></trkpt>
            <trkpt lat="51.868458" lon="10.581661"><ele>514.5</ele></trkpt>
            <trkpt lat="51.868353" lon="10.581228"><ele>514.5</ele></trkpt>
            <trkpt lat="51.868292" lon="10.580638"><ele>512.9</ele></trkpt>
            <trkpt lat="51.868194" lon="10.579391"><ele>505.7</ele></trkpt>
            <trkpt lat="51.868222" lon="10.578888"><ele>500.5</ele></trkpt>
            <trkpt lat="51.868283" lon="10.578189"><ele>481</ele></trkpt>
            <trkpt lat="51.868297" lon="10.577986"><ele>481</ele></trkpt>
            <trkpt lat="51.868292" lon="10.577012"><ele>466.1</ele></trkpt>
            <trkpt lat="51.868228" lon="10.576363"><ele>463.5</ele></trkpt>
            <trkpt lat="51.868116" lon="10.575484"><ele>461.5</ele></trkpt>
            <trkpt lat="51.868097" lon="10.57523"><ele>459.7</ele></trkpt>
            <trkpt lat="51.868111" lon="10.574868"><ele>458.4</ele></trkpt>
            <trkpt lat="51.86817" lon="10.574532"><ele>455.6</ele></trkpt>
            <trkpt lat="51.868339" lon="10.573991"><ele>455</ele></trkpt>
            <trkpt lat="51.868524" lon="10.5736"><ele>455.1</ele></trkpt>
            <trkpt lat="51.868938" lon="10.572908"><ele>453.2</ele></trkpt>
            <trkpt lat="51.86911" lon="10.572494"><ele>450.1</ele></trkpt>
            <trkpt lat="51.869289" lon="10.572195"><ele>448.2</ele></trkpt>
            <trkpt lat="51.870273" lon="10.570857"><ele>448.5</ele></trkpt>
            <trkpt lat="51.870408" lon="10.570571"><ele>446.6</ele></trkpt>
            <trkpt lat="51.870564" lon="10.570326"><ele>438</ele></trkpt>
            <trkpt lat="51.870706" lon="10.569928"><ele>430.9</ele></trkpt>
            <trkpt lat="51.870751" lon="10.56973"><ele>430.7</ele></trkpt>
            <trkpt lat="51.870795" lon="10.568732"><ele>420</ele></trkpt>
            <trkpt lat="51.870812" lon="10.568499"><ele>420</ele></trkpt>
            <trkpt lat="51.870922" lon="10.567889"><ele>448.5</ele></trkpt>
            <trkpt lat="51.870965" lon="10.567756"><ele>458</ele></trkpt>
            <trkpt lat="51.871005" lon="10.567658"><ele>458</ele></trkpt>
            <trkpt lat="51.871048" lon="10.567674"><ele>458</ele></trkpt>
            <trkpt lat="51.871089" lon="10.567659"><ele>458</ele></trkpt>
            <trkpt lat="51.87115" lon="10.567625"><ele>458</ele></trkpt>
            <trkpt lat="51.871218" lon="10.567543"><ele>458</ele></trkpt>
            <trkpt lat="51.871235" lon="10.567387"><ele>446</ele></trkpt>
            <trkpt lat="51.87124" lon="10.56729"><ele>446</ele></trkpt>
            <trkpt lat="51.87129" lon="10.567068"><ele>446</ele></trkpt>
            <trkpt lat="51.871331" lon="10.566911"><ele>437.1</ele></trkpt>
            <trkpt lat="51.871382" lon="10.566791"><ele>438.3</ele></trkpt>
            <trkpt lat="51.871521" lon="10.566526"><ele>422</ele></trkpt>
            <trkpt lat="51.871629" lon="10.566414"><ele>422</ele></trkpt>
            <trkpt lat="51.871626" lon="10.566463"><ele>429.5</ele></trkpt>
        </trkseg>
    </trk>
</gpx>
