<?xml version="1.0" encoding="UTF-8"?>
<gpx version="1.1" creator="HWN Route Compare (OpenRouteService)" xmlns="http://www.topografix.com/GPX/1/1">
    <metadata>
        <name>OpenRouteService – Tour B3</name>
    </metadata>
    <trk>
        <name>OpenRouteService – Tour B3</name>
        <trkseg>
            <trkpt lat="51.820381" lon="10.573054"><ele>669.1</ele></trkpt>
            <trkpt lat="51.820287" lon="10.573105"><ele>669</ele></trkpt>
            <trkpt lat="51.820158" lon="10.573139"><ele>670.4</ele></trkpt>
            <trkpt lat="51.82004" lon="10.573131"><ele>670.3</ele></trkpt>
            <trkpt lat="51.819854" lon="10.573044"><ele>670.6</ele></trkpt>
            <trkpt lat="51.819093" lon="10.572929"><ele>671.6</ele></trkpt>
            <trkpt lat="51.818619" lon="10.572973"><ele>673.4</ele></trkpt>
            <trkpt lat="51.818298" lon="10.573047"><ele>674</ele></trkpt>
            <trkpt lat="51.817732" lon="10.573403"><ele>675.2</ele></trkpt>
            <trkpt lat="51.81751" lon="10.573431"><ele>675.4</ele></trkpt>
            <trkpt lat="51.817123" lon="10.573392"><ele>676</ele></trkpt>
            <trkpt lat="51.816774" lon="10.57341"><ele>676.6</ele></trkpt>
            <trkpt lat="51.81647" lon="10.573474"><ele>677.3</ele></trkpt>
            <trkpt lat="51.816198" lon="10.573586"><ele>678.2</ele></trkpt>
            <trkpt lat="51.815852" lon="10.573688"><ele>678.8</ele></trkpt>
            <trkpt lat="51.815612" lon="10.573706"><ele>678.5</ele></trkpt>
            <trkpt lat="51.815136" lon="10.573627"><ele>677.8</ele></trkpt>
            <trkpt lat="51.814768" lon="10.573521"><ele>676.7</ele></trkpt>
            <trkpt lat="51.814447" lon="10.573395"><ele>675.8</ele></trkpt>
            <trkpt lat="51.814317" lon="10.573294"><ele>675.9</ele></trkpt>
            <trkpt lat="51.81403" lon="10.572912"><ele>675</ele></trkpt>
            <trkpt lat="51.81386" lon="10.572847"><ele>676.8</ele></trkpt>
            <trkpt lat="51.813648" lon="10.572805"><ele>676.8</ele></trkpt>
            <trkpt lat="51.813341" lon="10.572641"><ele>676.9</ele></trkpt>
            <trkpt lat="51.813141" lon="10.57245"><ele>677</ele></trkpt>
            <trkpt lat="51.812928" lon="10.572161"><ele>677.4</ele></trkpt>
            <trkpt lat="51.812846" lon="10.572122"><ele>677.5</ele></trkpt>
            <trkpt lat="51.812751" lon="10.572147"><ele>677.6</ele></trkpt>
            <trkpt lat="51.812489" lon="10.572307"><ele>678.3</ele></trkpt>
            <trkpt lat="51.812239" lon="10.572398"><ele>678.6</ele></trkpt>
            <trkpt lat="51.811942" lon="10.572613"><ele>678.8</ele></trkpt>
            <trkpt lat="51.811791" lon="10.572625"><ele>679.1</ele></trkpt>
            <trkpt lat="51.811616" lon="10.57258"><ele>679.5</ele></trkpt>
            <trkpt lat="51.811536" lon="10.572631"><ele>679.9</ele></trkpt>
            <trkpt lat="51.811386" lon="10.572863"><ele>680.6</ele></trkpt>
            <trkpt lat="51.811254" lon="10.572985"><ele>683</ele></trkpt>
            <trkpt lat="51.811124" lon="10.573132"><ele>683</ele></trkpt>
            <trkpt lat="51.811018" lon="10.573216"><ele>687.4</ele></trkpt>
            <trkpt lat="51.81015" lon="10.573552"><ele>689</ele></trkpt>
            <trkpt lat="51.809886" lon="10.573714"><ele>689.3</ele></trkpt>
            <trkpt lat="51.80977" lon="10.573827"><ele>690.8</ele></trkpt>
            <trkpt lat="51.80967" lon="10.574018"><ele>692.2</ele></trkpt>
            <trkpt lat="51.80916" lon="10.575608"><ele>695.4</ele></trkpt>
            <trkpt lat="51.809081" lon="10.575771"><ele>695.9</ele></trkpt>
            <trkpt lat="51.808776" lon="10.576078"><ele>698.2</ele></trkpt>
            <trkpt lat="51.808425" lon="10.57638"><ele>699.3</ele></trkpt>
            <trkpt lat="51.807768" lon="10.577054"><ele>702.3</ele></trkpt>
            <trkpt lat="51.807574" lon="10.577182"><ele>705</ele></trkpt>
            <trkpt lat="51.807451" lon="10.57733"><ele>717.4</ele></trkpt>
            <trkpt lat="51.807228" lon="10.577507"><ele>717.3</ele></trkpt>
            <trkpt lat="51.806577" lon="10.577962"><ele>717.8</ele></trkpt>
            <trkpt lat="51.806473" lon="10.578161"><ele>718.3</ele></trkpt>
            <trkpt lat="51.806425" lon="10.578214"><ele>718.8</ele></trkpt>
            <trkpt lat="51.806385" lon="10.578227"><ele>720.8</ele></trkpt>
            <trkpt lat="51.80633" lon="10.578199"><ele>723</ele></trkpt>
            <trkpt lat="51.805866" lon="10.578352"><ele>732.6</ele></trkpt>
            <trkpt lat="51.805521" lon="10.578365"><ele>734.7</ele></trkpt>
            <trkpt lat="51.804952" lon="10.578767"><ele>743.3</ele></trkpt>
            <trkpt lat="51.804488" lon="10.578809"><ele>748.2</ele></trkpt>
            <trkpt lat="51.804108" lon="10.579018"><ele>752.2</ele></trkpt>
            <trkpt lat="51.803881" lon="10.579263"><ele>752.6</ele></trkpt>
            <trkpt lat="51.803728" lon="10.579324"><ele>752.9</ele></trkpt>
            <trkpt lat="51.803605" lon="10.579476"><ele>755</ele></trkpt>
            <trkpt lat="51.802972" lon="10.57997"><ele>765.9</ele></trkpt>
            <trkpt lat="51.802077" lon="10.580818"><ele>771.7</ele></trkpt>
            <trkpt lat="51.801918" lon="10.581112"><ele>767</ele></trkpt>
            <trkpt lat="51.801873" lon="10.581248"><ele>767</ele></trkpt>
            <trkpt lat="51.80182" lon="10.581296"><ele>767</ele></trkpt>
            <trkpt lat="51.801728" lon="10.58132"><ele>767</ele></trkpt>
            <trkpt lat="51.80168" lon="10.581303"><ele>767</ele></trkpt>
            <trkpt lat="51.801678" lon="10.581433"><ele>771.8</ele></trkpt>
            <trkpt lat="51.801614" lon="10.581604"><ele>775.8</ele></trkpt>
            <trkpt lat="51.801626" lon="10.581664"><ele>776.9</ele></trkpt>
            <trkpt lat="51.801606" lon="10.581719"><ele>768</ele></trkpt>
            <trkpt lat="51.801637" lon="10.581777"><ele>768</ele></trkpt>
            <trkpt lat="51.801624" lon="10.581907"><ele>768</ele></trkpt>
            <trkpt lat="51.801573" lon="10.582098"><ele>768</ele></trkpt>
            <trkpt lat="51.801582" lon="10.582178"><ele>768</ele></trkpt>
            <trkpt lat="51.801554" lon="10.582269"><ele>768</ele></trkpt>
            <trkpt lat="51.801579" lon="10.582409"><ele>768</ele></trkpt>
            <trkpt lat="51.801555" lon="10.582453"><ele>768</ele></trkpt>
            <trkpt lat="51.801384" lon="10.582432"><ele>768</ele></trkpt>
            <trkpt lat="51.801322" lon="10.582454"><ele>768</ele></trkpt>
            <trkpt lat="51.801281" lon="10.582528"><ele>768</ele></trkpt>
            <trkpt lat="51.80116" lon="10.582764"><ele>768</ele></trkpt>
            <trkpt lat="51.800904" lon="10.582556"><ele>778.4</ele></trkpt>
            <trkpt lat="51.800809" lon="10.582541"><ele>779.2</ele></trkpt>
            <trkpt lat="51.800653" lon="10.582626"><ele>778.6</ele></trkpt>
            <trkpt lat="51.800534" lon="10.582762"><ele>778.3</ele></trkpt>
            <trkpt lat="51.800468" lon="10.582934"><ele>777.6</ele></trkpt>
            <trkpt lat="51.800441" lon="10.583196"><ele>776.7</ele></trkpt>
            <trkpt lat="51.80044" lon="10.583415"><ele>771</ele></trkpt>
            <trkpt lat="51.800383" lon="10.583569"><ele>771</ele></trkpt>
            <trkpt lat="51.800173" lon="10.583854"><ele>789.2</ele></trkpt>
            <trkpt lat="51.800068" lon="10.583917"><ele>791</ele></trkpt>
            <trkpt lat="51.799818" lon="10.583953"><ele>793</ele></trkpt>
            <trkpt lat="51.799722" lon="10.583987"><ele>795</ele></trkpt>
            <trkpt lat="51.799353" lon="10.584467"><ele>797.2</ele></trkpt>
            <trkpt lat="51.799159" lon="10.584627"><ele>802.1</ele></trkpt>
            <trkpt lat="51.798556" lon="10.584735"><ele>805</ele></trkpt>
            <trkpt lat="51.798469" lon="10.584722"><ele>804.9</ele></trkpt>
            <trkpt lat="51.798334" lon="10.584741"><ele>806.6</ele></trkpt>
            <trkpt lat="51.798202" lon="10.58469"><ele>806.6</ele></trkpt>
            <trkpt lat="51.797695" lon="10.584622"><ele>814</ele></trkpt>
            <trkpt lat="51.797618" lon="10.584612"><ele>822.4</ele></trkpt>
            <trkpt lat="51.797412" lon="10.584683"><ele>824.1</ele></trkpt>
            <trkpt lat="51.797209" lon="10.584837"><ele>823.3</ele></trkpt>
            <trkpt lat="51.797156" lon="10.584904"><ele>828</ele></trkpt>
            <trkpt lat="51.797077" lon="10.584933"><ele>823</ele></trkpt>
            <trkpt lat="51.796886" lon="10.585093"><ele>818</ele></trkpt>
            <trkpt lat="51.796826" lon="10.585131"><ele>824</ele></trkpt>
            <trkpt lat="51.79674" lon="10.585098"><ele>824.8</ele></trkpt>
            <trkpt lat="51.796692" lon="10.585034"><ele>825.6</ele></trkpt>
            <trkpt lat="51.796488" lon="10.584914"><ele>826.5</ele></trkpt>
            <trkpt lat="51.79616" lon="10.584898"><ele>830</ele></trkpt>
            <trkpt lat="51.796055" lon="10.584894"><ele>830</ele></trkpt>
            <trkpt lat="51.795686" lon="10.584898"><ele>830</ele></trkpt>
            <trkpt lat="51.795578" lon="10.585"><ele>830</ele></trkpt>
            <trkpt lat="51.795217" lon="10.585378"><ele>831</ele></trkpt>
            <trkpt lat="51.794972" lon="10.585509"><ele>833</ele></trkpt>
            <trkpt lat="51.794709" lon="10.585544"><ele>834.2</ele></trkpt>
            <trkpt lat="51.794377" lon="10.585518"><ele>835.4</ele></trkpt>
            <trkpt lat="51.794037" lon="10.585565"><ele>837.3</ele></trkpt>
            <trkpt lat="51.793959" lon="10.585589"><ele>838</ele></trkpt>
            <trkpt lat="51.79386" lon="10.585677"><ele>839.8</ele></trkpt>
            <trkpt lat="51.793769" lon="10.585725"><ele>840.2</ele></trkpt>
            <trkpt lat="51.793662" lon="10.585759"><ele>840.3</ele></trkpt>
            <trkpt lat="51.793468" lon="10.585726"><ele>841.2</ele></trkpt>
            <trkpt lat="51.793227" lon="10.585546"><ele>842.3</ele></trkpt>
            <trkpt lat="51.792676" lon="10.585507"><ele>841.9</ele></trkpt>
            <trkpt lat="51.792579" lon="10.585462"><ele>848</ele></trkpt>
            <trkpt lat="51.792534" lon="10.585458"><ele>864.4</ele></trkpt>
            <trkpt lat="51.792442" lon="10.585398"><ele>865.6</ele></trkpt>
            <trkpt lat="51.792311" lon="10.585245"><ele>866.1</ele></trkpt>
            <trkpt lat="51.792025" lon="10.584991"><ele>867.9</ele></trkpt>
            <trkpt lat="51.791857" lon="10.584966"><ele>868</ele></trkpt>
            <trkpt lat="51.79158" lon="10.584999"><ele>869.2</ele></trkpt>
            <trkpt lat="51.791485" lon="10.584977"><ele>869.6</ele></trkpt>
            <trkpt lat="51.791426" lon="10.585058"><ele>869.4</ele></trkpt>
            <trkpt lat="51.791307" lon="10.585095"><ele>870.8</ele></trkpt>
            <trkpt lat="51.791209" lon="10.585078"><ele>873.3</ele></trkpt>
            <trkpt lat="51.79114" lon="10.585105"><ele>875.1</ele></trkpt>
            <trkpt lat="51.790893" lon="10.585068"><ele>878</ele></trkpt>
            <trkpt lat="51.790788" lon="10.585088"><ele>879.2</ele></trkpt>
            <trkpt lat="51.790507" lon="10.58508"><ele>882</ele></trkpt>
            <trkpt lat="51.79043" lon="10.585139"><ele>882.8</ele></trkpt>
            <trkpt lat="51.7902" lon="10.585092"><ele>884.7</ele></trkpt>
            <trkpt lat="51.790157" lon="10.585194"><ele>885.4</ele></trkpt>
            <trkpt lat="51.790021" lon="10.585192"><ele>887.9</ele></trkpt>
            <trkpt lat="51.78996" lon="10.585135"><ele>888.5</ele></trkpt>
            <trkpt lat="51.789874" lon="10.585156"><ele>889</ele></trkpt>
            <trkpt lat="51.789848" lon="10.585225"><ele>889.8</ele></trkpt>
            <trkpt lat="51.789808" lon="10.585229"><ele>889.8</ele></trkpt>
            <trkpt lat="51.789755" lon="10.585176"><ele>890.3</ele></trkpt>
            <trkpt lat="51.789711" lon="10.585271"><ele>890.3</ele></trkpt>
            <trkpt lat="51.789615" lon="10.585286"><ele>890.3</ele></trkpt>
            <trkpt lat="51.789475" lon="10.585355"><ele>890.8</ele></trkpt>
            <trkpt lat="51.789419" lon="10.585294"><ele>891.3</ele></trkpt>
            <trkpt lat="51.789358" lon="10.585316"><ele>891.3</ele></trkpt>
            <trkpt lat="51.789292" lon="10.585396"><ele>891.3</ele></trkpt>
            <trkpt lat="51.788988" lon="10.585461"><ele>891.9</ele></trkpt>
            <trkpt lat="51.788883" lon="10.585512"><ele>891.7</ele></trkpt>
            <trkpt lat="51.788771" lon="10.585648"><ele>891.9</ele></trkpt>
            <trkpt lat="51.788708" lon="10.585664"><ele>891.6</ele></trkpt>
            <trkpt lat="51.788672" lon="10.585634"><ele>891.4</ele></trkpt>
            <trkpt lat="51.788569" lon="10.585718"><ele>899</ele></trkpt>
            <trkpt lat="51.788515" lon="10.585691"><ele>899</ele></trkpt>
            <trkpt lat="51.788466" lon="10.585708"><ele>899</ele></trkpt>
            <trkpt lat="51.78842" lon="10.585671"><ele>899</ele></trkpt>
            <trkpt lat="51.788377" lon="10.585693"><ele>899.9</ele></trkpt>
            <trkpt lat="51.788328" lon="10.585814"><ele>899.9</ele></trkpt>
            <trkpt lat="51.788302" lon="10.585762"><ele>899.9</ele></trkpt>
            <trkpt lat="51.788274" lon="10.58575"><ele>899.9</ele></trkpt>
            <trkpt lat="51.788244" lon="10.585792"><ele>899.9</ele></trkpt>
            <trkpt lat="51.788251" lon="10.58585"><ele>899.9</ele></trkpt>
            <trkpt lat="51.78819" lon="10.58596"><ele>899.9</ele></trkpt>
            <trkpt lat="51.788142" lon="10.585963"><ele>899.9</ele></trkpt>
            <trkpt lat="51.788035" lon="10.585878"><ele>899.9</ele></trkpt>
            <trkpt lat="51.787984" lon="10.585922"><ele>899.9</ele></trkpt>
            <trkpt lat="51.787995" lon="10.585991"><ele>899.9</ele></trkpt>
            <trkpt lat="51.78793" lon="10.586039"><ele>899.9</ele></trkpt>
            <trkpt lat="51.787873" lon="10.586027"><ele>899.9</ele></trkpt>
            <trkpt lat="51.78782" lon="10.586085"><ele>900</ele></trkpt>
            <trkpt lat="51.787738" lon="10.58611"><ele>900</ele></trkpt>
            <trkpt lat="51.787673" lon="10.587072"><ele>899.4</ele></trkpt>
            <trkpt lat="51.787628" lon="10.587462"><ele>899.5</ele></trkpt>
            <trkpt lat="51.787592" lon="10.587591"><ele>899.5</ele></trkpt>
            <trkpt lat="51.787485" lon="10.587806"><ele>899.4</ele></trkpt>
            <trkpt lat="51.787288" lon="10.588121"><ele>899</ele></trkpt>
            <trkpt lat="51.787874" lon="10.589566"><ele>908</ele></trkpt>
            <trkpt lat="51.788103" lon="10.590285"><ele>919.5</ele></trkpt>
            <trkpt lat="51.788272" lon="10.59094"><ele>922.2</ele></trkpt>
            <trkpt lat="51.788474" lon="10.591622"><ele>925.4</ele></trkpt>
            <trkpt lat="51.788793" lon="10.592447"><ele>927.3</ele></trkpt>
            <trkpt lat="51.789006" lon="10.592906"><ele>943</ele></trkpt>
            <trkpt lat="51.789041" lon="10.592963"><ele>943</ele></trkpt>
            <trkpt lat="51.789284" lon="10.593032"><ele>946.2</ele></trkpt>
            <trkpt lat="51.789598" lon="10.593046"><ele>946</ele></trkpt>
            <trkpt lat="51.789812" lon="10.593011"><ele>947</ele></trkpt>
            <trkpt lat="51.790874" lon="10.592744"><ele>955.5</ele></trkpt>
            <trkpt lat="51.791064" lon="10.592723"><ele>955.7</ele></trkpt>
            <trkpt lat="51.791257" lon="10.59278"><ele>956.3</ele></trkpt>
            <trkpt lat="51.791432" lon="10.592884"><ele>957.4</ele></trkpt>
            <trkpt lat="51.791616" lon="10.593069"><ele>958</ele></trkpt>
            <trkpt lat="51.791688" lon="10.593183"><ele>959.7</ele></trkpt>
            <trkpt lat="51.791754" lon="10.593344"><ele>960.6</ele></trkpt>
            <trkpt lat="51.791863" lon="10.593836"><ele>962</ele></trkpt>
            <trkpt lat="51.791998" lon="10.594758"><ele>966.9</ele></trkpt>
            <trkpt lat="51.792083" lon="10.595238"><ele>970.8</ele></trkpt>
            <trkpt lat="51.792187" lon="10.595558"><ele>973.7</ele></trkpt>
            <trkpt lat="51.792259" lon="10.595857"><ele>975.8</ele></trkpt>
            <trkpt lat="51.792537" lon="10.596524"><ele>975</ele></trkpt>
            <trkpt lat="51.79258" lon="10.596662"><ele>975.4</ele></trkpt>
            <trkpt lat="51.792696" lon="10.597214"><ele>979.3</ele></trkpt>
            <trkpt lat="51.79282" lon="10.598184"><ele>982.1</ele></trkpt>
            <trkpt lat="51.79287" lon="10.598944"><ele>985.2</ele></trkpt>
            <trkpt lat="51.792868" lon="10.599271"><ele>987.2</ele></trkpt>
            <trkpt lat="51.793169" lon="10.603153"><ele>994.8</ele></trkpt>
            <trkpt lat="51.793308" lon="10.603922"><ele>994.5</ele></trkpt>
            <trkpt lat="51.793696" lon="10.604989"><ele>995.5</ele></trkpt>
            <trkpt lat="51.793811" lon="10.605394"><ele>996.1</ele></trkpt>
            <trkpt lat="51.793867" lon="10.60569"><ele>996.9</ele></trkpt>
            <trkpt lat="51.793885" lon="10.605998"><ele>997.7</ele></trkpt>
            <trkpt lat="51.793884" lon="10.606495"><ele>998.5</ele></trkpt>
            <trkpt lat="51.793778" lon="10.607682"><ele>999.7</ele></trkpt>
            <trkpt lat="51.793792" lon="10.607964"><ele>1000.2</ele></trkpt>
            <trkpt lat="51.793831" lon="10.60828"><ele>1000.7</ele></trkpt>
            <trkpt lat="51.794031" lon="10.60946"><ele>1002</ele></trkpt>
            <trkpt lat="51.794064" lon="10.609934"><ele>1003.1</ele></trkpt>
            <trkpt lat="51.794109" lon="10.610286"><ele>1003.5</ele></trkpt>
            <trkpt lat="51.794137" lon="10.611002"><ele>1005.1</ele></trkpt>
            <trkpt lat="51.794122" lon="10.611336"><ele>1005.4</ele></trkpt>
            <trkpt lat="51.794061" lon="10.611769"><ele>1006.2</ele></trkpt>
            <trkpt lat="51.794049" lon="10.612031"><ele>1006.2</ele></trkpt>
            <trkpt lat="51.793923" lon="10.612677"><ele>1007.2</ele></trkpt>
            <trkpt lat="51.793917" lon="10.61292"><ele>1007.3</ele></trkpt>
            <trkpt lat="51.793821" lon="10.613466"><ele>1008.5</ele></trkpt>
            <trkpt lat="51.793601" lon="10.615797"><ele>1015.6</ele></trkpt>
            <trkpt lat="51.793366" lon="10.617123"><ele>1015</ele></trkpt>
            <trkpt lat="51.793255" lon="10.618013"><ele>1014</ele></trkpt>
            <trkpt lat="51.793235" lon="10.6183"><ele>1014.3</ele></trkpt>
            <trkpt lat="51.79325" lon="10.618817"><ele>1014.5</ele></trkpt>
            <trkpt lat="51.793269" lon="10.618948"><ele>1015</ele></trkpt>
            <trkpt lat="51.793389" lon="10.618952"><ele>1025.6</ele></trkpt>
            <trkpt lat="51.793527" lon="10.619062"><ele>1029</ele></trkpt>
            <trkpt lat="51.794373" lon="10.61744"><ele>1042.7</ele></trkpt>
            <trkpt lat="51.794447" lon="10.617345"><ele>1044.1</ele></trkpt>
            <trkpt lat="51.794517" lon="10.61733"><ele>1044.6</ele></trkpt>
            <trkpt lat="51.794547" lon="10.617348"><ele>1044.9</ele></trkpt>
            <trkpt lat="51.794616" lon="10.617483"><ele>1045.5</ele></trkpt>
            <trkpt lat="51.794705" lon="10.617944"><ele>1047.1</ele></trkpt>
            <trkpt lat="51.794807" lon="10.618371"><ele>1048.6</ele></trkpt>
            <trkpt lat="51.795029" lon="10.619089"><ele>1050.8</ele></trkpt>
            <trkpt lat="51.795252" lon="10.619888"><ele>1058.9</ele></trkpt>
            <trkpt lat="51.795457" lon="10.620891"><ele>1069.2</ele></trkpt>
            <trkpt lat="51.795575" lon="10.621325"><ele>1072.4</ele></trkpt>
            <trkpt lat="51.795691" lon="10.621622"><ele>1073.6</ele></trkpt>
            <trkpt lat="51.795782" lon="10.621769"><ele>1075.4</ele></trkpt>
            <trkpt lat="51.795907" lon="10.621909"><ele>1077.4</ele></trkpt>
            <trkpt lat="51.796019" lon="10.621988"><ele>1078.6</ele></trkpt>
            <trkpt lat="51.796159" lon="10.622049"><ele>1080.7</ele></trkpt>
            <trkpt lat="51.796278" lon="10.622067"><ele>1080.8</ele></trkpt>
            <trkpt lat="51.796391" lon="10.622047"><ele>1080.8</ele></trkpt>
            <trkpt lat="51.796866" lon="10.621809"><ele>1084.4</ele></trkpt>
            <trkpt lat="51.797338" lon="10.621637"><ele>1091.3</ele></trkpt>
            <trkpt lat="51.798296" lon="10.621118"><ele>1106.8</ele></trkpt>
            <trkpt lat="51.798507" lon="10.620992"><ele>1108.6</ele></trkpt>
            <trkpt lat="51.798777" lon="10.62077"><ele>1112.3</ele></trkpt>
            <trkpt lat="51.799067" lon="10.620365"><ele>1118</ele></trkpt>
            <trkpt lat="51.799137" lon="10.620261"><ele>1118</ele></trkpt>
            <trkpt lat="51.800069" lon="10.618796"><ele>1124.4</ele></trkpt>
            <trkpt lat="51.800112" lon="10.618706"><ele>1125</ele></trkpt>
            <trkpt lat="51.800173" lon="10.618508"><ele>1125.4</ele></trkpt>
            <trkpt lat="51.800187" lon="10.618402"><ele>1125.6</ele></trkpt>
            <trkpt lat="51.800186" lon="10.618183"><ele>1125.6</ele></trkpt>
            <trkpt lat="51.800143" lon="10.617937"><ele>1128</ele></trkpt>
            <trkpt lat="51.800116" lon="10.617807"><ele>1128</ele></trkpt>
            <trkpt lat="51.800075" lon="10.617648"><ele>1128</ele></trkpt>
            <trkpt lat="51.800003" lon="10.617386"><ele>1133</ele></trkpt>
            <trkpt lat="51.799798" lon="10.616637"><ele>1138</ele></trkpt>
            <trkpt lat="51.799726" lon="10.616332"><ele>1138</ele></trkpt>
            <trkpt lat="51.799876" lon="10.616101"><ele>1138.6</ele></trkpt>
            <trkpt lat="51.799986" lon="10.616074"><ele>1138.6</ele></trkpt>
            <trkpt lat="51.799969" lon="10.615916"><ele>1138.7</ele></trkpt>
            <trkpt lat="51.80015" lon="10.615888"><ele>1138.8</ele></trkpt>
            <trkpt lat="51.800172" lon="10.615993"><ele>1138.7</ele></trkpt>
            <trkpt lat="51.800515" lon="10.615859"><ele>1138.7</ele></trkpt>
            <trkpt lat="51.800517" lon="10.615839"><ele>1139</ele></trkpt>
            <trkpt lat="51.800527" lon="10.615778"><ele>1140.9</ele></trkpt>
            <trkpt lat="51.800517" lon="10.615839"><ele>1139</ele></trkpt>
            <trkpt lat="51.800515" lon="10.615859"><ele>1138.7</ele></trkpt>
            <trkpt lat="51.800172" lon="10.615993"><ele>1138.7</ele></trkpt>
            <trkpt lat="51.80015" lon="10.615888"><ele>1138.8</ele></trkpt>
            <trkpt lat="51.799969" lon="10.615916"><ele>1138.7</ele></trkpt>
            <trkpt lat="51.799986" lon="10.616074"><ele>1138.6</ele></trkpt>
            <trkpt lat="51.799876" lon="10.616101"><ele>1138.6</ele></trkpt>
            <trkpt lat="51.799726" lon="10.616332"><ele>1138</ele></trkpt>
            <trkpt lat="51.799798" lon="10.616637"><ele>1138</ele></trkpt>
            <trkpt lat="51.800003" lon="10.617386"><ele>1133</ele></trkpt>
            <trkpt lat="51.800075" lon="10.617648"><ele>1128</ele></trkpt>
            <trkpt lat="51.800116" lon="10.617807"><ele>1128</ele></trkpt>
            <trkpt lat="51.800143" lon="10.617937"><ele>1128</ele></trkpt>
            <trkpt lat="51.800186" lon="10.618183"><ele>1125.6</ele></trkpt>
            <trkpt lat="51.800187" lon="10.618402"><ele>1125.6</ele></trkpt>
            <trkpt lat="51.800173" lon="10.618508"><ele>1125.4</ele></trkpt>
            <trkpt lat="51.800112" lon="10.618706"><ele>1125</ele></trkpt>
            <trkpt lat="51.800069" lon="10.618796"><ele>1124.4</ele></trkpt>
            <trkpt lat="51.799137" lon="10.620261"><ele>1118</ele></trkpt>
            <trkpt lat="51.799067" lon="10.620365"><ele>1118</ele></trkpt>
            <trkpt lat="51.798777" lon="10.62077"><ele>1112.3</ele></trkpt>
            <trkpt lat="51.798507" lon="10.620992"><ele>1108.6</ele></trkpt>
            <trkpt lat="51.798296" lon="10.621118"><ele>1106.8</ele></trkpt>
            <trkpt lat="51.797338" lon="10.621637"><ele>1091.3</ele></trkpt>
            <trkpt lat="51.796866" lon="10.621809"><ele>1084.4</ele></trkpt>
            <trkpt lat="51.796391" lon="10.622047"><ele>1080.8</ele></trkpt>
            <trkpt lat="51.796278" lon="10.622067"><ele>1080.8</ele></trkpt>
            <trkpt lat="51.796159" lon="10.622049"><ele>1080.7</ele></trkpt>
            <trkpt lat="51.796019" lon="10.621988"><ele>1078.6</ele></trkpt>
            <trkpt lat="51.795907" lon="10.621909"><ele>1077.4</ele></trkpt>
            <trkpt lat="51.795782" lon="10.621769"><ele>1075.4</ele></trkpt>
            <trkpt lat="51.795691" lon="10.621622"><ele>1073.6</ele></trkpt>
            <trkpt lat="51.795575" lon="10.621325"><ele>1072.4</ele></trkpt>
            <trkpt lat="51.795457" lon="10.620891"><ele>1069.2</ele></trkpt>
            <trkpt lat="51.795252" lon="10.619888"><ele>1058.9</ele></trkpt>
            <trkpt lat="51.795029" lon="10.619089"><ele>1050.8</ele></trkpt>
            <trkpt lat="51.794807" lon="10.618371"><ele>1048.6</ele></trkpt>
            <trkpt lat="51.794705" lon="10.617944"><ele>1047.1</ele></trkpt>
            <trkpt lat="51.794616" lon="10.617483"><ele>1045.5</ele></trkpt>
            <trkpt lat="51.794547" lon="10.617348"><ele>1044.9</ele></trkpt>
            <trkpt lat="51.794517" lon="10.61733"><ele>1044.6</ele></trkpt>
            <trkpt lat="51.794447" lon="10.617345"><ele>1044.1</ele></trkpt>
            <trkpt lat="51.794373" lon="10.61744"><ele>1042.7</ele></trkpt>
            <trkpt lat="51.793527" lon="10.619062"><ele>1029</ele></trkpt>
            <trkpt lat="51.793372" lon="10.619373"><ele>1029</ele></trkpt>
            <trkpt lat="51.793182" lon="10.619709"><ele>1017.8</ele></trkpt>
            <trkpt lat="51.792965" lon="10.620021"><ele>1017.1</ele></trkpt>
            <trkpt lat="51.792317" lon="10.620882"><ele>1013.2</ele></trkpt>
            <trkpt lat="51.7918" lon="10.62153"><ele>1008</ele></trkpt>
            <trkpt lat="51.791719" lon="10.621471"><ele>1008</ele></trkpt>
            <trkpt lat="51.791649" lon="10.621407"><ele>998.7</ele></trkpt>
            <trkpt lat="51.791367" lon="10.621245"><ele>997.9</ele></trkpt>
            <trkpt lat="51.791207" lon="10.621128"><ele>996</ele></trkpt>
            <trkpt lat="51.791149" lon="10.621015"><ele>994.3</ele></trkpt>
            <trkpt lat="51.791115" lon="10.620987"><ele>993.7</ele></trkpt>
            <trkpt lat="51.790857" lon="10.620909"><ele>990.3</ele></trkpt>
            <trkpt lat="51.790717" lon="10.620835"><ele>988.2</ele></trkpt>
            <trkpt lat="51.790475" lon="10.620603"><ele>983.7</ele></trkpt>
            <trkpt lat="51.790331" lon="10.620378"><ele>980</ele></trkpt>
            <trkpt lat="51.790216" lon="10.620213"><ele>978.7</ele></trkpt>
            <trkpt lat="51.79001" lon="10.619986"><ele>976</ele></trkpt>
            <trkpt lat="51.789949" lon="10.619927"><ele>964</ele></trkpt>
            <trkpt lat="51.789721" lon="10.619812"><ele>964</ele></trkpt>
            <trkpt lat="51.789598" lon="10.619798"><ele>964</ele></trkpt>
            <trkpt lat="51.789519" lon="10.619707"><ele>964</ele></trkpt>
            <trkpt lat="51.789416" lon="10.619658"><ele>964</ele></trkpt>
            <trkpt lat="51.78932" lon="10.619532"><ele>964</ele></trkpt>
            <trkpt lat="51.789239" lon="10.619504"><ele>964</ele></trkpt>
            <trkpt lat="51.789144" lon="10.619481"><ele>951.3</ele></trkpt>
            <trkpt lat="51.789081" lon="10.619495"><ele>951.3</ele></trkpt>
            <trkpt lat="51.78902" lon="10.619557"><ele>951.2</ele></trkpt>
            <trkpt lat="51.788951" lon="10.61954"><ele>951.1</ele></trkpt>
            <trkpt lat="51.788744" lon="10.619366"><ele>950.9</ele></trkpt>
            <trkpt lat="51.788701" lon="10.619253"><ele>950.8</ele></trkpt>
            <trkpt lat="51.788688" lon="10.619011"><ele>950.1</ele></trkpt>
            <trkpt lat="51.788617" lon="10.618935"><ele>947</ele></trkpt>
            <trkpt lat="51.788398" lon="10.618805"><ele>942.5</ele></trkpt>
            <trkpt lat="51.788259" lon="10.618659"><ele>929</ele></trkpt>
            <trkpt lat="51.788191" lon="10.618614"><ele>921.4</ele></trkpt>
            <trkpt lat="51.788112" lon="10.61851"><ele>921</ele></trkpt>
            <trkpt lat="51.787991" lon="10.618255"><ele>920.5</ele></trkpt>
            <trkpt lat="51.787918" lon="10.618203"><ele>920.7</ele></trkpt>
            <trkpt lat="51.787829" lon="10.618077"><ele>921</ele></trkpt>
            <trkpt lat="51.787688" lon="10.617954"><ele>921.2</ele></trkpt>
            <trkpt lat="51.787593" lon="10.617826"><ele>921.3</ele></trkpt>
            <trkpt lat="51.787488" lon="10.617638"><ele>920.4</ele></trkpt>
            <trkpt lat="51.787371" lon="10.617547"><ele>919.5</ele></trkpt>
            <trkpt lat="51.787289" lon="10.61745"><ele>918.3</ele></trkpt>
            <trkpt lat="51.787153" lon="10.617208"><ele>914.6</ele></trkpt>
            <trkpt lat="51.787002" lon="10.617105"><ele>899</ele></trkpt>
            <trkpt lat="51.78697" lon="10.617178"><ele>899</ele></trkpt>
            <trkpt lat="51.786869" lon="10.617076"><ele>899</ele></trkpt>
            <trkpt lat="51.786801" lon="10.617073"><ele>899</ele></trkpt>
            <trkpt lat="51.786716" lon="10.616998"><ele>899</ele></trkpt>
            <trkpt lat="51.786584" lon="10.616977"><ele>891.9</ele></trkpt>
            <trkpt lat="51.786286" lon="10.617001"><ele>891.5</ele></trkpt>
            <trkpt lat="51.786218" lon="10.617047"><ele>891.2</ele></trkpt>
            <trkpt lat="51.786028" lon="10.617074"><ele>890.9</ele></trkpt>
            <trkpt lat="51.785674" lon="10.617213"><ele>891.3</ele></trkpt>
            <trkpt lat="51.785543" lon="10.617376"><ele>891.4</ele></trkpt>
            <trkpt lat="51.785445" lon="10.617451"><ele>893</ele></trkpt>
            <trkpt lat="51.785343" lon="10.617583"><ele>888.6</ele></trkpt>
            <trkpt lat="51.785326" lon="10.617797"><ele>883</ele></trkpt>
            <trkpt lat="51.785181" lon="10.61793"><ele>883</ele></trkpt>
            <trkpt lat="51.785155" lon="10.617976"><ele>883</ele></trkpt>
            <trkpt lat="51.78503" lon="10.617826"><ele>888.5</ele></trkpt>
            <trkpt lat="51.785155" lon="10.617976"><ele>883</ele></trkpt>
            <trkpt lat="51.785239" lon="10.618126"><ele>878.1</ele></trkpt>
            <trkpt lat="51.785288" lon="10.618297"><ele>878.7</ele></trkpt>
            <trkpt lat="51.785305" lon="10.618458"><ele>877.8</ele></trkpt>
            <trkpt lat="51.785296" lon="10.618661"><ele>875.6</ele></trkpt>
            <trkpt lat="51.785266" lon="10.618884"><ele>875.2</ele></trkpt>
            <trkpt lat="51.785064" lon="10.619799"><ele>873.1</ele></trkpt>
            <trkpt lat="51.78491" lon="10.620682"><ele>863.6</ele></trkpt>
            <trkpt lat="51.784768" lon="10.621032"><ele>857.2</ele></trkpt>
            <trkpt lat="51.784588" lon="10.621887"><ele>851.5</ele></trkpt>
            <trkpt lat="51.784015" lon="10.623766"><ele>844.3</ele></trkpt>
            <trkpt lat="51.783642" lon="10.624915"><ele>836.3</ele></trkpt>
            <trkpt lat="51.783163" lon="10.626143"><ele>834</ele></trkpt>
            <trkpt lat="51.782726" lon="10.627394"><ele>832.5</ele></trkpt>
            <trkpt lat="51.782646" lon="10.627684"><ele>832.7</ele></trkpt>
            <trkpt lat="51.782443" lon="10.628729"><ele>832</ele></trkpt>
            <trkpt lat="51.782255" lon="10.629576"><ele>830.6</ele></trkpt>
            <trkpt lat="51.782106" lon="10.630331"><ele>828.2</ele></trkpt>
            <trkpt lat="51.781966" lon="10.630779"><ele>828.8</ele></trkpt>
            <trkpt lat="51.78183" lon="10.631394"><ele>829.5</ele></trkpt>
            <trkpt lat="51.781645" lon="10.632024"><ele>825.8</ele></trkpt>
            <trkpt lat="51.781606" lon="10.632208"><ele>824.4</ele></trkpt>
            <trkpt lat="51.781367" lon="10.633638"><ele>818.3</ele></trkpt>
            <trkpt lat="51.781277" lon="10.634453"><ele>816.5</ele></trkpt>
            <trkpt lat="51.781001" lon="10.63579"><ele>811.9</ele></trkpt>
            <trkpt lat="51.78086" lon="10.636677"><ele>808.4</ele></trkpt>
            <trkpt lat="51.780723" lon="10.637321"><ele>802.2</ele></trkpt>
            <trkpt lat="51.780628" lon="10.637873"><ele>800.2</ele></trkpt>
            <trkpt lat="51.780557" lon="10.638151"><ele>797.1</ele></trkpt>
            <trkpt lat="51.780184" lon="10.639093"><ele>794</ele></trkpt>
            <trkpt lat="51.780007" lon="10.639738"><ele>796.5</ele></trkpt>
            <trkpt lat="51.77975" lon="10.640362"><ele>796.4</ele></trkpt>
            <trkpt lat="51.779497" lon="10.641218"><ele>796.2</ele></trkpt>
            <trkpt lat="51.779399" lon="10.641441"><ele>796</ele></trkpt>
            <trkpt lat="51.779076" lon="10.641856"><ele>783</ele></trkpt>
            <trkpt lat="51.779027" lon="10.642005"><ele>791</ele></trkpt>
            <trkpt lat="51.778858" lon="10.642347"><ele>793.3</ele></trkpt>
            <trkpt lat="51.778818" lon="10.642456"><ele>796.1</ele></trkpt>
            <trkpt lat="51.778803" lon="10.642575"><ele>797.2</ele></trkpt>
            <trkpt lat="51.778781" lon="10.643127"><ele>797.5</ele></trkpt>
            <trkpt lat="51.778792" lon="10.643659"><ele>799.3</ele></trkpt>
            <trkpt lat="51.77882" lon="10.643976"><ele>799.6</ele></trkpt>
            <trkpt lat="51.778877" lon="10.644129"><ele>800.6</ele></trkpt>
            <trkpt lat="51.77897" lon="10.644274"><ele>803.1</ele></trkpt>
            <trkpt lat="51.779234" lon="10.644528"><ele>809.5</ele></trkpt>
            <trkpt lat="51.779816" lon="10.644959"><ele>816.9</ele></trkpt>
            <trkpt lat="51.779972" lon="10.645038"><ele>819.2</ele></trkpt>
            <trkpt lat="51.780398" lon="10.645048"><ele>824.7</ele></trkpt>
            <trkpt lat="51.780555" lon="10.645175"><ele>825.9</ele></trkpt>
            <trkpt lat="51.780733" lon="10.645392"><ele>826.2</ele></trkpt>
            <trkpt lat="51.780881" lon="10.645632"><ele>826.3</ele></trkpt>
            <trkpt lat="51.78098" lon="10.645905"><ele>825.5</ele></trkpt>
            <trkpt lat="51.781143" lon="10.646679"><ele>826</ele></trkpt>
            <trkpt lat="51.781185" lon="10.64713"><ele>828</ele></trkpt>
            <trkpt lat="51.781205" lon="10.647548"><ele>827.8</ele></trkpt>
            <trkpt lat="51.781233" lon="10.647753"><ele>828</ele></trkpt>
            <trkpt lat="51.781285" lon="10.647883"><ele>828.2</ele></trkpt>
            <trkpt lat="51.781373" lon="10.647957"><ele>828.5</ele></trkpt>
            <trkpt lat="51.781521" lon="10.648014"><ele>828.8</ele></trkpt>
            <trkpt lat="51.78189" lon="10.64813"><ele>829.2</ele></trkpt>
            <trkpt lat="51.782202" lon="10.648193"><ele>832</ele></trkpt>
            <trkpt lat="51.782495" lon="10.648203"><ele>834.3</ele></trkpt>
            <trkpt lat="51.783927" lon="10.648384"><ele>842.6</ele></trkpt>
            <trkpt lat="51.784268" lon="10.64833"><ele>853</ele></trkpt>
            <trkpt lat="51.785449" lon="10.647981"><ele>858</ele></trkpt>
            <trkpt lat="51.786147" lon="10.647794"><ele>867.4</ele></trkpt>
            <trkpt lat="51.786907" lon="10.647549"><ele>872.5</ele></trkpt>
            <trkpt lat="51.787104" lon="10.647465"><ele>873.2</ele></trkpt>
            <trkpt lat="51.787707" lon="10.647076"><ele>877.5</ele></trkpt>
            <trkpt lat="51.787837" lon="10.647025"><ele>878.6</ele></trkpt>
            <trkpt lat="51.78796" lon="10.647005"><ele>880.7</ele></trkpt>
            <trkpt lat="51.788325" lon="10.647027"><ele>885.3</ele></trkpt>
            <trkpt lat="51.788666" lon="10.647009"><ele>890.8</ele></trkpt>
            <trkpt lat="51.788856" lon="10.646982"><ele>891.2</ele></trkpt>
            <trkpt lat="51.789067" lon="10.646904"><ele>893.9</ele></trkpt>
            <trkpt lat="51.78923" lon="10.646783"><ele>896.7</ele></trkpt>
            <trkpt lat="51.789357" lon="10.646629"><ele>898</ele></trkpt>
            <trkpt lat="51.789671" lon="10.646129"><ele>898.4</ele></trkpt>
            <trkpt lat="51.789805" lon="10.645982"><ele>898.1</ele></trkpt>
            <trkpt lat="51.790019" lon="10.645803"><ele>899.3</ele></trkpt>
            <trkpt lat="51.790263" lon="10.645556"><ele>906</ele></trkpt>
            <trkpt lat="51.79058" lon="10.64519"><ele>906</ele></trkpt>
            <trkpt lat="51.790653" lon="10.645091"><ele>906</ele></trkpt>
            <trkpt lat="51.790684" lon="10.645005"><ele>906</ele></trkpt>
            <trkpt lat="51.790882" lon="10.644929"><ele>907.5</ele></trkpt>
            <trkpt lat="51.7914" lon="10.644612"><ele>908</ele></trkpt>
            <trkpt lat="51.792669" lon="10.64367"><ele>895.4</ele></trkpt>
            <trkpt lat="51.793291" lon="10.643161"><ele>891.1</ele></trkpt>
            <trkpt lat="51.793399" lon="10.643044"><ele>891.1</ele></trkpt>
            <trkpt lat="51.794038" lon="10.642196"><ele>885.9</ele></trkpt>
            <trkpt lat="51.794336" lon="10.641969"><ele>884.5</ele></trkpt>
            <trkpt lat="51.794772" lon="10.641746"><ele>881.7</ele></trkpt>
            <trkpt lat="51.794916" lon="10.641637"><ele>879.9</ele></trkpt>
            <trkpt lat="51.795283" lon="10.641261"><ele>878.3</ele></trkpt>
            <trkpt lat="51.79567" lon="10.64076"><ele>876.1</ele></trkpt>
            <trkpt lat="51.79602" lon="10.640413"><ele>868</ele></trkpt>
            <trkpt lat="51.796003" lon="10.640725"><ele>874.4</ele></trkpt>
            <trkpt lat="51.796034" lon="10.640885"><ele>875.2</ele></trkpt>
            <trkpt lat="51.796305" lon="10.641656"><ele>879.7</ele></trkpt>
            <trkpt lat="51.796681" lon="10.642581"><ele>885.3</ele></trkpt>
            <trkpt lat="51.796799" lon="10.64297"><ele>887.9</ele></trkpt>
            <trkpt lat="51.796876" lon="10.643439"><ele>891.1</ele></trkpt>
            <trkpt lat="51.796886" lon="10.643599"><ele>891.6</ele></trkpt>
            <trkpt lat="51.796876" lon="10.643925"><ele>893.8</ele></trkpt>
            <trkpt lat="51.796819" lon="10.644392"><ele>894.9</ele></trkpt>
            <trkpt lat="51.796825" lon="10.64505"><ele>895.7</ele></trkpt>
            <trkpt lat="51.796814" lon="10.645317"><ele>896.1</ele></trkpt>
            <trkpt lat="51.796773" lon="10.645545"><ele>896.3</ele></trkpt>
            <trkpt lat="51.796714" lon="10.645712"><ele>896.6</ele></trkpt>
            <trkpt lat="51.796545" lon="10.646016"><ele>903</ele></trkpt>
            <trkpt lat="51.796616" lon="10.64611"><ele>903</ele></trkpt>
            <trkpt lat="51.796719" lon="10.646194"><ele>895</ele></trkpt>
            <trkpt lat="51.796815" lon="10.646314"><ele>895</ele></trkpt>
            <trkpt lat="51.79686" lon="10.646419"><ele>895</ele></trkpt>
            <trkpt lat="51.797146" lon="10.646639"><ele>895</ele></trkpt>
            <trkpt lat="51.797387" lon="10.64682"><ele>891.9</ele></trkpt>
            <trkpt lat="51.797471" lon="10.646853"><ele>891</ele></trkpt>
            <trkpt lat="51.797723" lon="10.646914"><ele>887.3</ele></trkpt>
            <trkpt lat="51.797865" lon="10.646877"><ele>887.2</ele></trkpt>
            <trkpt lat="51.797953" lon="10.646918"><ele>887.2</ele></trkpt>
            <trkpt lat="51.798103" lon="10.64693"><ele>887.2</ele></trkpt>
            <trkpt lat="51.798176" lon="10.64697"><ele>887.1</ele></trkpt>
            <trkpt lat="51.798444" lon="10.646799"><ele>887</ele></trkpt>
            <trkpt lat="51.798729" lon="10.646747"><ele>887</ele></trkpt>
            <trkpt lat="51.798863" lon="10.646664"><ele>886.8</ele></trkpt>
            <trkpt lat="51.799099" lon="10.646574"><ele>886.8</ele></trkpt>
            <trkpt lat="51.799483" lon="10.646664"><ele>886.8</ele></trkpt>
            <trkpt lat="51.799852" lon="10.646906"><ele>888</ele></trkpt>
            <trkpt lat="51.799902" lon="10.646782"><ele>888</ele></trkpt>
            <trkpt lat="51.799929" lon="10.64656"><ele>889</ele></trkpt>
            <trkpt lat="51.799955" lon="10.646471"><ele>888.6</ele></trkpt>
            <trkpt lat="51.800218" lon="10.646023"><ele>892</ele></trkpt>
            <trkpt lat="51.800258" lon="10.645979"><ele>892.4</ele></trkpt>
            <trkpt lat="51.80029" lon="10.645876"><ele>892.3</ele></trkpt>
            <trkpt lat="51.800299" lon="10.645772"><ele>892.4</ele></trkpt>
            <trkpt lat="51.80028" lon="10.645638"><ele>893</ele></trkpt>
            <trkpt lat="51.800289" lon="10.645418"><ele>891.4</ele></trkpt>
            <trkpt lat="51.800419" lon="10.644965"><ele>891.3</ele></trkpt>
            <trkpt lat="51.800711" lon="10.64426"><ele>888</ele></trkpt>
            <trkpt lat="51.800817" lon="10.644159"><ele>883</ele></trkpt>
            <trkpt lat="51.800897" lon="10.64409"><ele>896</ele></trkpt>
            <trkpt lat="51.801128" lon="10.644097"><ele>895.7</ele></trkpt>
            <trkpt lat="51.801298" lon="10.644279"><ele>895.9</ele></trkpt>
            <trkpt lat="51.801361" lon="10.644271"><ele>896.1</ele></trkpt>
            <trkpt lat="51.801596" lon="10.643968"><ele>895.8</ele></trkpt>
            <trkpt lat="51.801679" lon="10.643896"><ele>896.6</ele></trkpt>
            <trkpt lat="51.801787" lon="10.643879"><ele>897.4</ele></trkpt>
            <trkpt lat="51.801926" lon="10.643808"><ele>898.1</ele></trkpt>
            <trkpt lat="51.801953" lon="10.643769"><ele>908</ele></trkpt>
            <trkpt lat="51.802007" lon="10.643675"><ele>908</ele></trkpt>
            <trkpt lat="51.802141" lon="10.643387"><ele>907.7</ele></trkpt>
            <trkpt lat="51.802244" lon="10.643354"><ele>907.8</ele></trkpt>
            <trkpt lat="51.802402" lon="10.643175"><ele>906.8</ele></trkpt>
            <trkpt lat="51.80247" lon="10.643175"><ele>906.4</ele></trkpt>
            <trkpt lat="51.802646" lon="10.643298"><ele>906.6</ele></trkpt>
            <trkpt lat="51.80266" lon="10.643321"><ele>906.9</ele></trkpt>
            <trkpt lat="51.802744" lon="10.643454"><ele>907.2</ele></trkpt>
            <trkpt lat="51.802829" lon="10.643519"><ele>914</ele></trkpt>
            <trkpt lat="51.802883" lon="10.643677"><ele>907.5</ele></trkpt>
            <trkpt lat="51.802957" lon="10.644179"><ele>907.8</ele></trkpt>
            <trkpt lat="51.803078" lon="10.644456"><ele>906</ele></trkpt>
            <trkpt lat="51.80307" lon="10.644536"><ele>906.2</ele></trkpt>
            <trkpt lat="51.803028" lon="10.644599"><ele>906.3</ele></trkpt>
            <trkpt lat="51.803088" lon="10.644857"><ele>905.9</ele></trkpt>
            <trkpt lat="51.80304" lon="10.645018"><ele>904.8</ele></trkpt>
            <trkpt lat="51.803147" lon="10.64521"><ele>904.7</ele></trkpt>
            <trkpt lat="51.803088" lon="10.645482"><ele>902.7</ele></trkpt>
            <trkpt lat="51.803123" lon="10.645732"><ele>902.3</ele></trkpt>
            <trkpt lat="51.803117" lon="10.645929"><ele>900.5</ele></trkpt>
            <trkpt lat="51.803142" lon="10.646216"><ele>899.6</ele></trkpt>
            <trkpt lat="51.803114" lon="10.646356"><ele>898.2</ele></trkpt>
            <trkpt lat="51.803085" lon="10.646409"><ele>898</ele></trkpt>
            <trkpt lat="51.803026" lon="10.646453"><ele>897.8</ele></trkpt>
            <trkpt lat="51.802971" lon="10.646567"><ele>897.6</ele></trkpt>
            <trkpt lat="51.802945" lon="10.646802"><ele>895</ele></trkpt>
            <trkpt lat="51.803009" lon="10.647101"><ele>893.5</ele></trkpt>
            <trkpt lat="51.803008" lon="10.647176"><ele>892.9</ele></trkpt>
            <trkpt lat="51.802986" lon="10.647401"><ele>891</ele></trkpt>
            <trkpt lat="51.802948" lon="10.647545"><ele>890.1</ele></trkpt>
            <trkpt lat="51.802947" lon="10.647641"><ele>878</ele></trkpt>
            <trkpt lat="51.803381" lon="10.647846"><ele>874.9</ele></trkpt>
            <trkpt lat="51.80358" lon="10.647913"><ele>874.6</ele></trkpt>
            <trkpt lat="51.804387" lon="10.648024"><ele>873.4</ele></trkpt>
            <trkpt lat="51.804685" lon="10.647914"><ele>873.3</ele></trkpt>
            <trkpt lat="51.805163" lon="10.647558"><ele>872</ele></trkpt>
            <trkpt lat="51.805308" lon="10.647376"><ele>872.4</ele></trkpt>
            <trkpt lat="51.805741" lon="10.646377"><ele>872.4</ele></trkpt>
            <trkpt lat="51.806012" lon="10.645099"><ele>865.8</ele></trkpt>
            <trkpt lat="51.806325" lon="10.644295"><ele>862.7</ele></trkpt>
            <trkpt lat="51.806386" lon="10.644018"><ele>863.5</ele></trkpt>
            <trkpt lat="51.806445" lon="10.643612"><ele>863</ele></trkpt>
            <trkpt lat="51.806646" lon="10.643287"><ele>862.8</ele></trkpt>
            <trkpt lat="51.806916" lon="10.643026"><ele>860.5</ele></trkpt>
            <trkpt lat="51.807271" lon="10.642346"><ele>858.2</ele></trkpt>
            <trkpt lat="51.807341" lon="10.642249"><ele>858.3</ele></trkpt>
            <trkpt lat="51.807575" lon="10.642021"><ele>855.3</ele></trkpt>
            <trkpt lat="51.807837" lon="10.64182"><ele>845</ele></trkpt>
            <trkpt lat="51.808015" lon="10.64173"><ele>842.9</ele></trkpt>
            <trkpt lat="51.80811" lon="10.641714"><ele>843.1</ele></trkpt>
            <trkpt lat="51.8082" lon="10.641806"><ele>843.3</ele></trkpt>
            <trkpt lat="51.808229" lon="10.642039"><ele>843.3</ele></trkpt>
            <trkpt lat="51.808178" lon="10.642529"><ele>843.2</ele></trkpt>
            <trkpt lat="51.808188" lon="10.643013"><ele>842.5</ele></trkpt>
            <trkpt lat="51.808173" lon="10.643234"><ele>842.1</ele></trkpt>
            <trkpt lat="51.808106" lon="10.643409"><ele>841.2</ele></trkpt>
            <trkpt lat="51.8079" lon="10.643664"><ele>840.8</ele></trkpt>
            <trkpt lat="51.807791" lon="10.643944"><ele>839</ele></trkpt>
            <trkpt lat="51.807712" lon="10.644608"><ele>837.5</ele></trkpt>
            <trkpt lat="51.807639" lon="10.644951"><ele>837.5</ele></trkpt>
            <trkpt lat="51.807459" lon="10.645638"><ele>836.8</ele></trkpt>
            <trkpt lat="51.807264" lon="10.646075"><ele>838.4</ele></trkpt>
            <trkpt lat="51.807206" lon="10.646302"><ele>838.6</ele></trkpt>
            <trkpt lat="51.807141" lon="10.646694"><ele>839</ele></trkpt>
            <trkpt lat="51.807049" lon="10.646879"><ele>838.7</ele></trkpt>
            <trkpt lat="51.806927" lon="10.647029"><ele>839.4</ele></trkpt>
            <trkpt lat="51.806893" lon="10.647106"><ele>839.8</ele></trkpt>
            <trkpt lat="51.806826" lon="10.64743"><ele>840.3</ele></trkpt>
            <trkpt lat="51.806636" lon="10.648077"><ele>837.9</ele></trkpt>
            <trkpt lat="51.806543" lon="10.648748"><ele>835.2</ele></trkpt>
            <trkpt lat="51.806212" lon="10.649676"><ele>831.6</ele></trkpt>
            <trkpt lat="51.806099" lon="10.650375"><ele>820.4</ele></trkpt>
            <trkpt lat="51.806024" lon="10.650652"><ele>820.9</ele></trkpt>
            <trkpt lat="51.805901" lon="10.650988"><ele>816</ele></trkpt>
            <trkpt lat="51.805724" lon="10.651893"><ele>810.1</ele></trkpt>
            <trkpt lat="51.805657" lon="10.65202"><ele>809.1</ele></trkpt>
            <trkpt lat="51.805509" lon="10.652201"><ele>809.4</ele></trkpt>
            <trkpt lat="51.805293" lon="10.65283"><ele>806.7</ele></trkpt>
            <trkpt lat="51.805224" lon="10.652953"><ele>806</ele></trkpt>
            <trkpt lat="51.805129" lon="10.653038"><ele>805.6</ele></trkpt>
            <trkpt lat="51.805005" lon="10.653074"><ele>805.3</ele></trkpt>
            <trkpt lat="51.804916" lon="10.653131"><ele>805.3</ele></trkpt>
            <trkpt lat="51.804869" lon="10.653201"><ele>805.4</ele></trkpt>
            <trkpt lat="51.804828" lon="10.653487"><ele>803.5</ele></trkpt>
            <trkpt lat="51.804847" lon="10.653651"><ele>789</ele></trkpt>
            <trkpt lat="51.805268" lon="10.654201"><ele>784.5</ele></trkpt>
            <trkpt lat="51.806505" lon="10.655908"><ele>759</ele></trkpt>
            <trkpt lat="51.807589" lon="10.657504"><ele>751</ele></trkpt>
            <trkpt lat="51.8077" lon="10.657779"><ele>747</ele></trkpt>
            <trkpt lat="51.807709" lon="10.657787"><ele>743.6</ele></trkpt>
            <trkpt lat="51.8077" lon="10.657779"><ele>747</ele></trkpt>
            <trkpt lat="51.807744" lon="10.657695"><ele>743</ele></trkpt>
            <trkpt lat="51.808286" lon="10.656935"><ele>742.6</ele></trkpt>
            <trkpt lat="51.808467" lon="10.656608"><ele>741.2</ele></trkpt>
            <trkpt lat="51.808644" lon="10.656201"><ele>739</ele></trkpt>
            <trkpt lat="51.808702" lon="10.655976"><ele>738.1</ele></trkpt>
            <trkpt lat="51.808776" lon="10.655585"><ele>736.4</ele></trkpt>
            <trkpt lat="51.80897" lon="10.654972"><ele>730</ele></trkpt>
            <trkpt lat="51.809098" lon="10.654291"><ele>725.2</ele></trkpt>
            <trkpt lat="51.809385" lon="10.653087"><ele>716.4</ele></trkpt>
            <trkpt lat="51.809399" lon="10.652919"><ele>715</ele></trkpt>
            <trkpt lat="51.809389" lon="10.652719"><ele>712.1</ele></trkpt>
            <trkpt lat="51.809399" lon="10.652613"><ele>711.7</ele></trkpt>
            <trkpt lat="51.809457" lon="10.652477"><ele>706</ele></trkpt>
            <trkpt lat="51.809503" lon="10.652344"><ele>710.2</ele></trkpt>
            <trkpt lat="51.809542" lon="10.652034"><ele>709.5</ele></trkpt>
            <trkpt lat="51.809621" lon="10.65162"><ele>710.2</ele></trkpt>
            <trkpt lat="51.809657" lon="10.651303"><ele>710.7</ele></trkpt>
            <trkpt lat="51.809637" lon="10.650871"><ele>711</ele></trkpt>
            <trkpt lat="51.809637" lon="10.650722"><ele>711.6</ele></trkpt>
            <trkpt lat="51.809659" lon="10.650596"><ele>712.1</ele></trkpt>
            <trkpt lat="51.809712" lon="10.650461"><ele>712.4</ele></trkpt>
            <trkpt lat="51.80977" lon="10.650366"><ele>712.8</ele></trkpt>
            <trkpt lat="51.810124" lon="10.649943"><ele>713.6</ele></trkpt>
            <trkpt lat="51.810461" lon="10.649628"><ele>713</ele></trkpt>
            <trkpt lat="51.810527" lon="10.649513"><ele>712.4</ele></trkpt>
            <trkpt lat="51.810563" lon="10.649384"><ele>711.5</ele></trkpt>
            <trkpt lat="51.81057" lon="10.64921"><ele>711.1</ele></trkpt>
            <trkpt lat="51.810533" lon="10.648889"><ele>710.7</ele></trkpt>
            <trkpt lat="51.81054" lon="10.648775"><ele>711</ele></trkpt>
            <trkpt lat="51.810573" lon="10.64866"><ele>710.8</ele></trkpt>
            <trkpt lat="51.810674" lon="10.648446"><ele>710.5</ele></trkpt>
            <trkpt lat="51.810815" lon="10.648257"><ele>711.6</ele></trkpt>
            <trkpt lat="51.81115" lon="10.647942"><ele>710.4</ele></trkpt>
            <trkpt lat="51.811243" lon="10.647833"><ele>710</ele></trkpt>
            <trkpt lat="51.811313" lon="10.647675"><ele>700</ele></trkpt>
            <trkpt lat="51.811396" lon="10.647488"><ele>704.8</ele></trkpt>
            <trkpt lat="51.811493" lon="10.647334"><ele>705.3</ele></trkpt>
            <trkpt lat="51.811535" lon="10.647303"><ele>707</ele></trkpt>
            <trkpt lat="51.811744" lon="10.647173"><ele>695.4</ele></trkpt>
            <trkpt lat="51.811972" lon="10.646898"><ele>691.9</ele></trkpt>
            <trkpt lat="51.812188" lon="10.646694"><ele>690.5</ele></trkpt>
            <trkpt lat="51.812324" lon="10.646485"><ele>687</ele></trkpt>
            <trkpt lat="51.812493" lon="10.646109"><ele>687.2</ele></trkpt>
            <trkpt lat="51.81258" lon="10.645825"><ele>686.6</ele></trkpt>
            <trkpt lat="51.812654" lon="10.645484"><ele>686</ele></trkpt>
            <trkpt lat="51.812719" lon="10.64498"><ele>687.6</ele></trkpt>
            <trkpt lat="51.81278" lon="10.644745"><ele>688</ele></trkpt>
            <trkpt lat="51.812945" lon="10.644341"><ele>688.5</ele></trkpt>
            <trkpt lat="51.813458" lon="10.643262"><ele>699</ele></trkpt>
            <trkpt lat="51.813615" lon="10.643001"><ele>699.8</ele></trkpt>
            <trkpt lat="51.814096" lon="10.6424"><ele>701.3</ele></trkpt>
            <trkpt lat="51.814767" lon="10.641489"><ele>694</ele></trkpt>
            <trkpt lat="51.814997" lon="10.641429"><ele>677.9</ele></trkpt>
            <trkpt lat="51.815074" lon="10.641388"><ele>676.9</ele></trkpt>
            <trkpt lat="51.815456" lon="10.641114"><ele>673.5</ele></trkpt>
            <trkpt lat="51.815566" lon="10.640965"><ele>671.9</ele></trkpt>
            <trkpt lat="51.81578" lon="10.640523"><ele>670.2</ele></trkpt>
            <trkpt lat="51.816045" lon="10.640171"><ele>664.1</ele></trkpt>
            <trkpt lat="51.816272" lon="10.639809"><ele>659.6</ele></trkpt>
            <trkpt lat="51.816366" lon="10.639587"><ele>659.3</ele></trkpt>
            <trkpt lat="51.816444" lon="10.639345"><ele>658.4</ele></trkpt>
            <trkpt lat="51.816495" lon="10.639068"><ele>657.4</ele></trkpt>
            <trkpt lat="51.816538" lon="10.638733"><ele>655.9</ele></trkpt>
            <trkpt lat="51.816552" lon="10.638273"><ele>653.5</ele></trkpt>
            <trkpt lat="51.816589" lon="10.637859"><ele>650</ele></trkpt>
            <trkpt lat="51.816441" lon="10.637963"><ele>648.8</ele></trkpt>
            <trkpt lat="51.816354" lon="10.637964"><ele>648.7</ele></trkpt>
            <trkpt lat="51.81632" lon="10.63802"><ele>648.6</ele></trkpt>
            <trkpt lat="51.816202" lon="10.637776"><ele>648.4</ele></trkpt>
            <trkpt lat="51.816123" lon="10.637467"><ele>648.2</ele></trkpt>
            <trkpt lat="51.816021" lon="10.636905"><ele>648.5</ele></trkpt>
            <trkpt lat="51.815961" lon="10.636456"><ele>648.7</ele></trkpt>
            <trkpt lat="51.815973" lon="10.63635"><ele>649</ele></trkpt>
            <trkpt lat="51.815849" lon="10.636125"><ele>654.2</ele></trkpt>
            <trkpt lat="51.81566" lon="10.635626"><ele>655</ele></trkpt>
            <trkpt lat="51.815543" lon="10.635403"><ele>660</ele></trkpt>
            <trkpt lat="51.815554" lon="10.634922"><ele>670</ele></trkpt>
            <trkpt lat="51.815585" lon="10.63453"><ele>670.4</ele></trkpt>
            <trkpt lat="51.815578" lon="10.634075"><ele>670.7</ele></trkpt>
            <trkpt lat="51.815604" lon="10.633893"><ele>670.7</ele></trkpt>
            <trkpt lat="51.815693" lon="10.633518"><ele>670.7</ele></trkpt>
            <trkpt lat="51.815773" lon="10.633251"><ele>671.4</ele></trkpt>
            <trkpt lat="51.815828" lon="10.633144"><ele>671.4</ele></trkpt>
            <trkpt lat="51.815895" lon="10.633043"><ele>671.1</ele></trkpt>
            <trkpt lat="51.816422" lon="10.632406"><ele>670.8</ele></trkpt>
            <trkpt lat="51.81652" lon="10.632227"><ele>670.2</ele></trkpt>
            <trkpt lat="51.816545" lon="10.63214"><ele>669.8</ele></trkpt>
            <trkpt lat="51.816649" lon="10.631424"><ele>668.4</ele></trkpt>
            <trkpt lat="51.816748" lon="10.631041"><ele>667.6</ele></trkpt>
            <trkpt lat="51.816799" lon="10.630752"><ele>667.3</ele></trkpt>
            <trkpt lat="51.81686" lon="10.630249"><ele>665.8</ele></trkpt>
            <trkpt lat="51.816901" lon="10.630087"><ele>665</ele></trkpt>
            <trkpt lat="51.817008" lon="10.629887"><ele>664.4</ele></trkpt>
            <trkpt lat="51.817201" lon="10.629635"><ele>663.7</ele></trkpt>
            <trkpt lat="51.817359" lon="10.629252"><ele>662</ele></trkpt>
            <trkpt lat="51.817422" lon="10.629148"><ele>661.4</ele></trkpt>
            <trkpt lat="51.817799" lon="10.628684"><ele>659.8</ele></trkpt>
            <trkpt lat="51.817882" lon="10.628625"><ele>659.3</ele></trkpt>
            <trkpt lat="51.818517" lon="10.628356"><ele>657.4</ele></trkpt>
            <trkpt lat="51.818816" lon="10.628171"><ele>657.2</ele></trkpt>
            <trkpt lat="51.818922" lon="10.628078"><ele>657</ele></trkpt>
            <trkpt lat="51.81907" lon="10.627902"><ele>653</ele></trkpt>
            <trkpt lat="51.819102" lon="10.627864"><ele>653</ele></trkpt>
            <trkpt lat="51.819231" lon="10.627748"><ele>651</ele></trkpt>
            <trkpt lat="51.818626" lon="10.626171"><ele>657.8</ele></trkpt>
            <trkpt lat="51.818532" lon="10.625797"><ele>660</ele></trkpt>
            <trkpt lat="51.818554" lon="10.625581"><ele>660</ele></trkpt>
            <trkpt lat="51.818592" lon="10.625407"><ele>660</ele></trkpt>
            <trkpt lat="51.819376" lon="10.622726"><ele>678.7</ele></trkpt>
            <trkpt lat="51.819838" lon="10.621033"><ele>695.9</ele></trkpt>
            <trkpt lat="51.820252" lon="10.618596"><ele>712.3</ele></trkpt>
            <trkpt lat="51.820691" lon="10.617017"><ele>723.9</ele></trkpt>
            <trkpt lat="51.820805" lon="10.616374"><ele>727.2</ele></trkpt>
            <trkpt lat="51.820903" lon="10.616013"><ele>727.8</ele></trkpt>
            <trkpt lat="51.821221" lon="10.615051"><ele>731.7</ele></trkpt>
            <trkpt lat="51.821367" lon="10.614434"><ele>732.8</ele></trkpt>
            <trkpt lat="51.82152" lon="10.613948"><ele>733.6</ele></trkpt>
            <trkpt lat="51.821657" lon="10.613624"><ele>733.7</ele></trkpt>
            <trkpt lat="51.821709" lon="10.613452"><ele>733.1</ele></trkpt>
            <trkpt lat="51.821817" lon="10.612671"><ele>736.6</ele></trkpt>
            <trkpt lat="51.821903" lon="10.611714"><ele>738.9</ele></trkpt>
            <trkpt lat="51.822022" lon="10.610766"><ele>750</ele></trkpt>
            <trkpt lat="51.82216" lon="10.609742"><ele>755</ele></trkpt>
            <trkpt lat="51.822297" lon="10.608877"><ele>758</ele></trkpt>
            <trkpt lat="51.822329" lon="10.608665"><ele>754.8</ele></trkpt>
            <trkpt lat="51.822331" lon="10.608393"><ele>753.9</ele></trkpt>
            <trkpt lat="51.822276" lon="10.608034"><ele>753.6</ele></trkpt>
            <trkpt lat="51.822235" lon="10.607878"><ele>753.6</ele></trkpt>
            <trkpt lat="51.822124" lon="10.607616"><ele>753.7</ele></trkpt>
            <trkpt lat="51.821959" lon="10.60738"><ele>749</ele></trkpt>
            <trkpt lat="51.822128" lon="10.607151"><ele>741</ele></trkpt>
            <trkpt lat="51.822233" lon="10.607093"><ele>741.1</ele></trkpt>
            <trkpt lat="51.822369" lon="10.607076"><ele>741</ele></trkpt>
            <trkpt lat="51.822558" lon="10.607108"><ele>740.2</ele></trkpt>
            <trkpt lat="51.822924" lon="10.607256"><ele>738.3</ele></trkpt>
            <trkpt lat="51.823049" lon="10.607253"><ele>738.2</ele></trkpt>
            <trkpt lat="51.823153" lon="10.607201"><ele>738.2</ele></trkpt>
            <trkpt lat="51.823222" lon="10.607111"><ele>738.1</ele></trkpt>
            <trkpt lat="51.823343" lon="10.606813"><ele>736.9</ele></trkpt>
            <trkpt lat="51.823408" lon="10.606743"><ele>735.5</ele></trkpt>
            <trkpt lat="51.823488" lon="10.606742"><ele>734.1</ele></trkpt>
            <trkpt lat="51.823575" lon="10.606797"><ele>732.6</ele></trkpt>
            <trkpt lat="51.823858" lon="10.607217"><ele>731</ele></trkpt>
            <trkpt lat="51.823973" lon="10.607309"><ele>730.2</ele></trkpt>
            <trkpt lat="51.824068" lon="10.607289"><ele>729.8</ele></trkpt>
            <trkpt lat="51.824137" lon="10.607197"><ele>727.3</ele></trkpt>
            <trkpt lat="51.824781" lon="10.605385"><ele>696.6</ele></trkpt>
            <trkpt lat="51.825124" lon="10.604949"><ele>689.9</ele></trkpt>
            <trkpt lat="51.825463" lon="10.604671"><ele>689</ele></trkpt>
            <trkpt lat="51.825638" lon="10.604638"><ele>689.1</ele></trkpt>
            <trkpt lat="51.825805" lon="10.604652"><ele>689.2</ele></trkpt>
            <trkpt lat="51.825943" lon="10.604613"><ele>688.1</ele></trkpt>
            <trkpt lat="51.827463" lon="10.603486"><ele>671.4</ele></trkpt>
            <trkpt lat="51.828455" lon="10.602813"><ele>663.5</ele></trkpt>
            <trkpt lat="51.829799" lon="10.601843"><ele>646</ele></trkpt>
            <trkpt lat="51.829918" lon="10.601778"><ele>646</ele></trkpt>
            <trkpt lat="51.830027" lon="10.600722"><ele>634</ele></trkpt>
            <trkpt lat="51.830105" lon="10.600017"><ele>627.4</ele></trkpt>
            <trkpt lat="51.83017" lon="10.59921"><ele>625.7</ele></trkpt>
            <trkpt lat="51.830272" lon="10.598264"><ele>623.9</ele></trkpt>
            <trkpt lat="51.830296" lon="10.598192"><ele>623.9</ele></trkpt>
            <trkpt lat="51.830379" lon="10.598072"><ele>623.9</ele></trkpt>
            <trkpt lat="51.830668" lon="10.597884"><ele>622.9</ele></trkpt>
            <trkpt lat="51.831087" lon="10.597367"><ele>622.4</ele></trkpt>
            <trkpt lat="51.831668" lon="10.596783"><ele>622</ele></trkpt>
            <trkpt lat="51.8317" lon="10.596725"><ele>619.9</ele></trkpt>
            <trkpt lat="51.831705" lon="10.596652"><ele>619.8</ele></trkpt>
            <trkpt lat="51.83167" lon="10.596463"><ele>619.7</ele></trkpt>
            <trkpt lat="51.831402" lon="10.596063"><ele>619.8</ele></trkpt>
            <trkpt lat="51.831236" lon="10.595764"><ele>620</ele></trkpt>
            <trkpt lat="51.83118" lon="10.595703"><ele>620</ele></trkpt>
            <trkpt lat="51.830908" lon="10.595589"><ele>620</ele></trkpt>
            <trkpt lat="51.830623" lon="10.595431"><ele>619</ele></trkpt>
            <trkpt lat="51.83058" lon="10.595409"><ele>619</ele></trkpt>
            <trkpt lat="51.830501" lon="10.595354"><ele>619.2</ele></trkpt>
            <trkpt lat="51.830219" lon="10.595049"><ele>619.2</ele></trkpt>
            <trkpt lat="51.830109" lon="10.594856"><ele>619.2</ele></trkpt>
            <trkpt lat="51.829895" lon="10.594312"><ele>624</ele></trkpt>
            <trkpt lat="51.829795" lon="10.593982"><ele>620.8</ele></trkpt>
            <trkpt lat="51.829739" lon="10.59369"><ele>619.8</ele></trkpt>
            <trkpt lat="51.82973" lon="10.593442"><ele>619.5</ele></trkpt>
            <trkpt lat="51.829746" lon="10.593248"><ele>618.8</ele></trkpt>
            <trkpt lat="51.829796" lon="10.592983"><ele>618</ele></trkpt>
            <trkpt lat="51.82987" lon="10.592722"><ele>617.3</ele></trkpt>
            <trkpt lat="51.830196" lon="10.591765"><ele>614.5</ele></trkpt>
            <trkpt lat="51.830367" lon="10.591412"><ele>613.8</ele></trkpt>
            <trkpt lat="51.830519" lon="10.591258"><ele>613.1</ele></trkpt>
            <trkpt lat="51.830742" lon="10.591106"><ele>612.3</ele></trkpt>
            <trkpt lat="51.830831" lon="10.591018"><ele>611.5</ele></trkpt>
            <trkpt lat="51.830926" lon="10.590824"><ele>611.2</ele></trkpt>
            <trkpt lat="51.831003" lon="10.590603"><ele>603</ele></trkpt>
            <trkpt lat="51.831056" lon="10.590303"><ele>603</ele></trkpt>
            <trkpt lat="51.831054" lon="10.590044"><ele>603</ele></trkpt>
            <trkpt lat="51.83076" lon="10.589332"><ele>608.6</ele></trkpt>
            <trkpt lat="51.830416" lon="10.588409"><ele>608.7</ele></trkpt>
            <trkpt lat="51.830198" lon="10.587625"><ele>609.4</ele></trkpt>
            <trkpt lat="51.830116" lon="10.587432"><ele>609.6</ele></trkpt>
            <trkpt lat="51.829961" lon="10.587147"><ele>616</ele></trkpt>
            <trkpt lat="51.829764" lon="10.586822"><ele>616.1</ele></trkpt>
            <trkpt lat="51.829367" lon="10.586335"><ele>616.4</ele></trkpt>
            <trkpt lat="51.829006" lon="10.585665"><ele>617</ele></trkpt>
            <trkpt lat="51.82855" lon="10.584951"><ele>617.9</ele></trkpt>
            <trkpt lat="51.828483" lon="10.584877"><ele>618.1</ele></trkpt>
            <trkpt lat="51.827902" lon="10.584409"><ele>617.9</ele></trkpt>
            <trkpt lat="51.827811" lon="10.584366"><ele>617.8</ele></trkpt>
            <trkpt lat="51.827631" lon="10.584363"><ele>617.5</ele></trkpt>
            <trkpt lat="51.827258" lon="10.584528"><ele>616.7</ele></trkpt>
            <trkpt lat="51.825733" lon="10.584726"><ele>609</ele></trkpt>
            <trkpt lat="51.825462" lon="10.584767"><ele>613.4</ele></trkpt>
            <trkpt lat="51.825353" lon="10.584805"><ele>613.9</ele></trkpt>
            <trkpt lat="51.82403" lon="10.58587"><ele>624.4</ele></trkpt>
            <trkpt lat="51.823889" lon="10.58595"><ele>624.4</ele></trkpt>
            <trkpt lat="51.823764" lon="10.585965"><ele>624.2</ele></trkpt>
            <trkpt lat="51.823728" lon="10.58595"><ele>624.2</ele></trkpt>
            <trkpt lat="51.823606" lon="10.58583"><ele>624</ele></trkpt>
            <trkpt lat="51.823336" lon="10.58533"><ele>625.1</ele></trkpt>
            <trkpt lat="51.823209" lon="10.58517"><ele>626.2</ele></trkpt>
            <trkpt lat="51.823066" lon="10.585034"><ele>626.5</ele></trkpt>
            <trkpt lat="51.822738" lon="10.584813"><ele>626.8</ele></trkpt>
            <trkpt lat="51.822652" lon="10.584665"><ele>627.5</ele></trkpt>
            <trkpt lat="51.822455" lon="10.583989"><ele>629.1</ele></trkpt>
            <trkpt lat="51.822336" lon="10.583792"><ele>630</ele></trkpt>
            <trkpt lat="51.82212" lon="10.583503"><ele>630.7</ele></trkpt>
            <trkpt lat="51.822049" lon="10.583362"><ele>631.1</ele></trkpt>
            <trkpt lat="51.821662" lon="10.582141"><ele>634.8</ele></trkpt>
            <trkpt lat="51.821029" lon="10.58046"><ele>639.9</ele></trkpt>
            <trkpt lat="51.820908" lon="10.580195"><ele>640.9</ele></trkpt>
            <trkpt lat="51.82075" lon="10.579947"><ele>641.7</ele></trkpt>
            <trkpt lat="51.820591" lon="10.579756"><ele>641.3</ele></trkpt>
            <trkpt lat="51.820443" lon="10.579611"><ele>641.3</ele></trkpt>
            <trkpt lat="51.820156" lon="10.579439"><ele>641.8</ele></trkpt>
            <trkpt lat="51.819813" lon="10.579277"><ele>642.3</ele></trkpt>
            <trkpt lat="51.819476" lon="10.579155"><ele>643.2</ele></trkpt>
            <trkpt lat="51.818942" lon="10.578871"><ele>645</ele></trkpt>
            <trkpt lat="51.818846" lon="10.578852"><ele>645.3</ele></trkpt>
            <trkpt lat="51.818667" lon="10.578876"><ele>645.7</ele></trkpt>
            <trkpt lat="51.818211" lon="10.579014"><ele>647.5</ele></trkpt>
            <trkpt lat="51.817244" lon="10.579121"><ele>648.6</ele></trkpt>
            <trkpt lat="51.816944" lon="10.579107"><ele>650</ele></trkpt>
            <trkpt lat="51.8169" lon="10.579093"><ele>650</ele></trkpt>
            <trkpt lat="51.816712" lon="10.57908"><ele>653.1</ele></trkpt>
            <trkpt lat="51.816563" lon="10.579107"><ele>653.6</ele></trkpt>
            <trkpt lat="51.816093" lon="10.579317"><ele>653.8</ele></trkpt>
            <trkpt lat="51.815961" lon="10.579329"><ele>656</ele></trkpt>
            <trkpt lat="51.815892" lon="10.57931"><ele>659.1</ele></trkpt>
            <trkpt lat="51.81575" lon="10.579177"><ele>659.6</ele></trkpt>
            <trkpt lat="51.815495" lon="10.578772"><ele>659.7</ele></trkpt>
            <trkpt lat="51.81476" lon="10.577817"><ele>661</ele></trkpt>
            <trkpt lat="51.814579" lon="10.577551"><ele>664</ele></trkpt>
            <trkpt lat="51.81463" lon="10.577424"><ele>663.2</ele></trkpt>
            <trkpt lat="51.814692" lon="10.577362"><ele>663</ele></trkpt>
            <trkpt lat="51.81472" lon="10.577339"><ele>663</ele></trkpt>
            <trkpt lat="51.814756" lon="10.577295"><ele>663</ele></trkpt>
            <trkpt lat="51.814772" lon="10.577274"><ele>663</ele></trkpt>
            <trkpt lat="51.814843" lon="10.577194"><ele>663</ele></trkpt>
            <trkpt lat="51.814985" lon="10.57728"><ele>661.5</ele></trkpt>
            <trkpt lat="51.815296" lon="10.577598"><ele>660.8</ele></trkpt>
            <trkpt lat="51.815418" lon="10.577621"><ele>660.7</ele></trkpt>
            <trkpt lat="51.815626" lon="10.57756"><ele>660.3</ele></trkpt>
            <trkpt lat="51.815941" lon="10.577576"><ele>659.6</ele></trkpt>
            <trkpt lat="51.816909" lon="10.577448"><ele>655.3</ele></trkpt>
            <trkpt lat="51.81711" lon="10.577355"><ele>654.6</ele></trkpt>
            <trkpt lat="51.817276" lon="10.577309"><ele>654.2</ele></trkpt>
            <trkpt lat="51.817503" lon="10.577169"><ele>652.8</ele></trkpt>
            <trkpt lat="51.817632" lon="10.577049"><ele>653.2</ele></trkpt>
            <trkpt lat="51.817714" lon="10.57702"><ele>649</ele></trkpt>
            <trkpt lat="51.817785" lon="10.577027"><ele>649</ele></trkpt>
            <trkpt lat="51.817915" lon="10.577109"><ele>649</ele></trkpt>
            <trkpt lat="51.817994" lon="10.577134"><ele>649</ele></trkpt>
            <trkpt lat="51.818053" lon="10.577082"><ele>649</ele></trkpt>
            <trkpt lat="51.818148" lon="10.577035"><ele>649</ele></trkpt>
            <trkpt lat="51.818261" lon="10.577014"><ele>649</ele></trkpt>
            <trkpt lat="51.818313" lon="10.576963"><ele>649</ele></trkpt>
            <trkpt lat="51.818386" lon="10.576818"><ele>647.6</ele></trkpt>
            <trkpt lat="51.818438" lon="10.576666"><ele>646.6</ele></trkpt>
            <trkpt lat="51.818472" lon="10.576612"><ele>646.4</ele></trkpt>
            <trkpt lat="51.818534" lon="10.57658"><ele>646</ele></trkpt>
            <trkpt lat="51.818733" lon="10.576694"><ele>644.9</ele></trkpt>
            <trkpt lat="51.818897" lon="10.576856"><ele>643</ele></trkpt>
            <trkpt lat="51.819023" lon="10.576924"><ele>643</ele></trkpt>
            <trkpt lat="51.819256" lon="10.577022"><ele>641.7</ele></trkpt>
            <trkpt lat="51.819366" lon="10.577125"><ele>641</ele></trkpt>
            <trkpt lat="51.819418" lon="10.577128"><ele>640.8</ele></trkpt>
            <trkpt lat="51.819564" lon="10.57708"><ele>640</ele></trkpt>
            <trkpt lat="51.819776" lon="10.577025"><ele>640</ele></trkpt>
            <trkpt lat="51.819826" lon="10.577046"><ele>640</ele></trkpt>
            <trkpt lat="51.820089" lon="10.577164"><ele>635</ele></trkpt>
            <trkpt lat="51.820233" lon="10.57709"><ele>635</ele></trkpt>
            <trkpt lat="51.820333" lon="10.577126"><ele>635</ele></trkpt>
            <trkpt lat="51.820402" lon="10.577143"><ele>635</ele></trkpt>
            <trkpt lat="51.820414" lon="10.577092"><ele>643.6</ele></trkpt>
            <trkpt lat="51.820442" lon="10.577058"><ele>643.1</ele></trkpt>
            <trkpt lat="51.820506" lon="10.577051"><ele>642.8</ele></trkpt>
            <trkpt lat="51.82058" lon="10.577081"><ele>642.4</ele></trkpt>
            <trkpt lat="51.820672" lon="10.577061"><ele>642</ele></trkpt>
            <trkpt lat="51.821066" lon="10.576845"><ele>641.5</ele></trkpt>
            <trkpt lat="51.8211" lon="10.576799"><ele>641.5</ele></trkpt>
            <trkpt lat="51.821145" lon="10.57668"><ele>641.4</ele></trkpt>
            <trkpt lat="51.821157" lon="10.576533"><ele>642.5</ele></trkpt>
            <trkpt lat="51.821062" lon="10.576135"><ele>645.4</ele></trkpt>
            <trkpt lat="51.821002" lon="10.576019"><ele>646</ele></trkpt>
            <trkpt lat="51.820748" lon="10.575726"><ele>647.8</ele></trkpt>
            <trkpt lat="51.820596" lon="10.575492"><ele>648.4</ele></trkpt>
            <trkpt lat="51.820549" lon="10.575352"><ele>648.5</ele></trkpt>
            <trkpt lat="51.820531" lon="10.575214"><ele>650.1</ele></trkpt>
            <trkpt lat="51.820532" lon="10.574961"><ele>650.9</ele></trkpt>
            <trkpt lat="51.820472" lon="10.574615"><ele>657.8</ele></trkpt>
            <trkpt lat="51.820559" lon="10.574131"><ele>658.8</ele></trkpt>
            <trkpt lat="51.820571" lon="10.573895"><ele>660.5</ele></trkpt>
            <trkpt lat="51.820487" lon="10.573614"><ele>661.1</ele></trkpt>
            <trkpt lat="51.820381" lon="10.573388"><ele>661.8</ele></trkpt>
            <trkpt lat="51.820303" lon="10.573185"><ele>663.4</ele></trkpt>
            <trkpt lat="51.820287" lon="10.573105"><ele>669</ele></trkpt>
            <trkpt lat="51.820381" lon="10.573054"><ele>669.1</ele></trkpt>
        </trkseg>
    </trk>
</gpx>
