<?xml version="1.0" encoding="UTF-8"?>
<gpx version="1.1" creator="HWN Route Compare (OpenRouteService)" xmlns="http://www.topografix.com/GPX/1/1">
    <metadata>
        <name>OpenRouteService – Tour B4</name>
    </metadata>
    <trk>
        <name>OpenRouteService – Tour B4</name>
        <trkseg>
            <trkpt lat="51.791025" lon="10.644841"><ele>907.8</ele></trkpt>
            <trkpt lat="51.790882" lon="10.644929"><ele>907.5</ele></trkpt>
            <trkpt lat="51.790684" lon="10.645005"><ele>906</ele></trkpt>
            <trkpt lat="51.790653" lon="10.645091"><ele>906</ele></trkpt>
            <trkpt lat="51.79058" lon="10.64519"><ele>906</ele></trkpt>
            <trkpt lat="51.790263" lon="10.645556"><ele>906</ele></trkpt>
            <trkpt lat="51.790213" lon="10.646194"><ele>906.2</ele></trkpt>
            <trkpt lat="51.790118" lon="10.646736"><ele>907</ele></trkpt>
            <trkpt lat="51.790008" lon="10.646939"><ele>901.7</ele></trkpt>
            <trkpt lat="51.789962" lon="10.647088"><ele>901.2</ele></trkpt>
            <trkpt lat="51.789959" lon="10.647272"><ele>901.7</ele></trkpt>
            <trkpt lat="51.789851" lon="10.647803"><ele>902.5</ele></trkpt>
            <trkpt lat="51.789795" lon="10.648297"><ele>903.2</ele></trkpt>
            <trkpt lat="51.789778" lon="10.648882"><ele>903.8</ele></trkpt>
            <trkpt lat="51.789742" lon="10.649119"><ele>903.5</ele></trkpt>
            <trkpt lat="51.789539" lon="10.649702"><ele>902.5</ele></trkpt>
            <trkpt lat="51.789459" lon="10.650281"><ele>901.1</ele></trkpt>
            <trkpt lat="51.789408" lon="10.650495"><ele>900.1</ele></trkpt>
            <trkpt lat="51.789153" lon="10.650958"><ele>898.1</ele></trkpt>
            <trkpt lat="51.788863" lon="10.651701"><ele>897.9</ele></trkpt>
            <trkpt lat="51.788705" lon="10.651937"><ele>897.7</ele></trkpt>
            <trkpt lat="51.788615" lon="10.652121"><ele>897.6</ele></trkpt>
            <trkpt lat="51.788549" lon="10.652312"><ele>897.5</ele></trkpt>
            <trkpt lat="51.788471" lon="10.652434"><ele>897.4</ele></trkpt>
            <trkpt lat="51.78835" lon="10.652549"><ele>896</ele></trkpt>
            <trkpt lat="51.788355" lon="10.652697"><ele>895.6</ele></trkpt>
            <trkpt lat="51.788329" lon="10.652959"><ele>894.2</ele></trkpt>
            <trkpt lat="51.788382" lon="10.653231"><ele>896</ele></trkpt>
            <trkpt lat="51.788472" lon="10.653441"><ele>894.9</ele></trkpt>
            <trkpt lat="51.788662" lon="10.653722"><ele>893.9</ele></trkpt>
            <trkpt lat="51.788943" lon="10.654249"><ele>893.9</ele></trkpt>
            <trkpt lat="51.789462" lon="10.655435"><ele>887.5</ele></trkpt>
            <trkpt lat="51.789731" lon="10.656239"><ele>877</ele></trkpt>
            <trkpt lat="51.789316" lon="10.656574"><ele>881.6</ele></trkpt>
            <trkpt lat="51.788771" lon="10.657346"><ele>886.9</ele></trkpt>
            <trkpt lat="51.78843" lon="10.657798"><ele>888</ele></trkpt>
            <trkpt lat="51.788196" lon="10.658242"><ele>892.4</ele></trkpt>
            <trkpt lat="51.788099" lon="10.658498"><ele>894.8</ele></trkpt>
            <trkpt lat="51.787998" lon="10.658635"><ele>895</ele></trkpt>
            <trkpt lat="51.787881" lon="10.658854"><ele>895.2</ele></trkpt>
            <trkpt lat="51.787547" lon="10.659565"><ele>897.3</ele></trkpt>
            <trkpt lat="51.787306" lon="10.660194"><ele>906</ele></trkpt>
            <trkpt lat="51.787214" lon="10.660425"><ele>897.1</ele></trkpt>
            <trkpt lat="51.787011" lon="10.661112"><ele>895</ele></trkpt>
            <trkpt lat="51.786671" lon="10.661994"><ele>892</ele></trkpt>
            <trkpt lat="51.786638" lon="10.662184"><ele>891.2</ele></trkpt>
            <trkpt lat="51.786449" lon="10.662601"><ele>888.3</ele></trkpt>
            <trkpt lat="51.786257" lon="10.662852"><ele>887.3</ele></trkpt>
            <trkpt lat="51.786184" lon="10.663"><ele>885.3</ele></trkpt>
            <trkpt lat="51.786082" lon="10.663484"><ele>882.7</ele></trkpt>
            <trkpt lat="51.785991" lon="10.664184"><ele>879.6</ele></trkpt>
            <trkpt lat="51.786045" lon="10.664696"><ele>876.1</ele></trkpt>
            <trkpt lat="51.786186" lon="10.665128"><ele>873.6</ele></trkpt>
            <trkpt lat="51.786242" lon="10.66535"><ele>871.3</ele></trkpt>
            <trkpt lat="51.786317" lon="10.666629"><ele>866.5</ele></trkpt>
            <trkpt lat="51.786302" lon="10.666833"><ele>865.9</ele></trkpt>
            <trkpt lat="51.786247" lon="10.667084"><ele>865</ele></trkpt>
            <trkpt lat="51.785971" lon="10.66803"><ele>861.5</ele></trkpt>
            <trkpt lat="51.786011" lon="10.668642"><ele>859.7</ele></trkpt>
            <trkpt lat="51.785992" lon="10.668838"><ele>858.7</ele></trkpt>
            <trkpt lat="51.785486" lon="10.670182"><ele>856</ele></trkpt>
            <trkpt lat="51.785286" lon="10.670796"><ele>855.8</ele></trkpt>
            <trkpt lat="51.785121" lon="10.671082"><ele>854.5</ele></trkpt>
            <trkpt lat="51.784922" lon="10.671689"><ele>852.2</ele></trkpt>
            <trkpt lat="51.784666" lon="10.672251"><ele>851.5</ele></trkpt>
            <trkpt lat="51.784512" lon="10.672661"><ele>849.5</ele></trkpt>
            <trkpt lat="51.784306" lon="10.673428"><ele>848.5</ele></trkpt>
            <trkpt lat="51.783752" lon="10.674906"><ele>845.2</ele></trkpt>
            <trkpt lat="51.783496" lon="10.675654"><ele>840</ele></trkpt>
            <trkpt lat="51.783349" lon="10.675864"><ele>834.7</ele></trkpt>
            <trkpt lat="51.783259" lon="10.676035"><ele>834.7</ele></trkpt>
            <trkpt lat="51.783146" lon="10.676357"><ele>833.1</ele></trkpt>
            <trkpt lat="51.782951" lon="10.677031"><ele>832.6</ele></trkpt>
            <trkpt lat="51.782842" lon="10.677293"><ele>832.4</ele></trkpt>
            <trkpt lat="51.782683" lon="10.677576"><ele>831.6</ele></trkpt>
            <trkpt lat="51.782392" lon="10.678032"><ele>818</ele></trkpt>
            <trkpt lat="51.782507" lon="10.678274"><ele>833</ele></trkpt>
            <trkpt lat="51.782545" lon="10.67832"><ele>833.1</ele></trkpt>
            <trkpt lat="51.782627" lon="10.678554"><ele>833.1</ele></trkpt>
            <trkpt lat="51.78264" lon="10.678687"><ele>833.4</ele></trkpt>
            <trkpt lat="51.782739" lon="10.679072"><ele>833.9</ele></trkpt>
            <trkpt lat="51.782779" lon="10.679168"><ele>834.1</ele></trkpt>
            <trkpt lat="51.782837" lon="10.679442"><ele>835</ele></trkpt>
            <trkpt lat="51.782893" lon="10.67956"><ele>835.2</ele></trkpt>
            <trkpt lat="51.782921" lon="10.679672"><ele>835.4</ele></trkpt>
            <trkpt lat="51.783015" lon="10.67988"><ele>835.7</ele></trkpt>
            <trkpt lat="51.783107" lon="10.680007"><ele>836.3</ele></trkpt>
            <trkpt lat="51.783176" lon="10.68022"><ele>836.8</ele></trkpt>
            <trkpt lat="51.783498" lon="10.680684"><ele>839.5</ele></trkpt>
            <trkpt lat="51.783522" lon="10.680799"><ele>840</ele></trkpt>
            <trkpt lat="51.783508" lon="10.680906"><ele>840.9</ele></trkpt>
            <trkpt lat="51.783437" lon="10.68121"><ele>842.1</ele></trkpt>
            <trkpt lat="51.783334" lon="10.681551"><ele>843</ele></trkpt>
            <trkpt lat="51.783329" lon="10.681647"><ele>843.2</ele></trkpt>
            <trkpt lat="51.783363" lon="10.681828"><ele>843.9</ele></trkpt>
            <trkpt lat="51.783482" lon="10.682233"><ele>844.9</ele></trkpt>
            <trkpt lat="51.783622" lon="10.682515"><ele>846.3</ele></trkpt>
            <trkpt lat="51.783719" lon="10.682959"><ele>849.8</ele></trkpt>
            <trkpt lat="51.783716" lon="10.683082"><ele>856</ele></trkpt>
            <trkpt lat="51.783588" lon="10.683324"><ele>864.6</ele></trkpt>
            <trkpt lat="51.783493" lon="10.683764"><ele>864.9</ele></trkpt>
            <trkpt lat="51.783474" lon="10.683979"><ele>865.1</ele></trkpt>
            <trkpt lat="51.783493" lon="10.68414"><ele>865</ele></trkpt>
            <trkpt lat="51.783493" lon="10.684371"><ele>865.7</ele></trkpt>
            <trkpt lat="51.783461" lon="10.684451"><ele>865.8</ele></trkpt>
            <trkpt lat="51.783478" lon="10.684598"><ele>866.3</ele></trkpt>
            <trkpt lat="51.783557" lon="10.684797"><ele>867.2</ele></trkpt>
            <trkpt lat="51.783665" lon="10.685182"><ele>868</ele></trkpt>
            <trkpt lat="51.783671" lon="10.685377"><ele>869.5</ele></trkpt>
            <trkpt lat="51.783566" lon="10.68561"><ele>870.8</ele></trkpt>
            <trkpt lat="51.783486" lon="10.685951"><ele>871.7</ele></trkpt>
            <trkpt lat="51.783411" lon="10.686455"><ele>873.4</ele></trkpt>
            <trkpt lat="51.783272" lon="10.686635"><ele>873.8</ele></trkpt>
            <trkpt lat="51.783189" lon="10.686785"><ele>874.6</ele></trkpt>
            <trkpt lat="51.783096" lon="10.687012"><ele>875.8</ele></trkpt>
            <trkpt lat="51.782992" lon="10.687092"><ele>876.2</ele></trkpt>
            <trkpt lat="51.782896" lon="10.687255"><ele>876.4</ele></trkpt>
            <trkpt lat="51.782853" lon="10.687349"><ele>876.5</ele></trkpt>
            <trkpt lat="51.78284" lon="10.687534"><ele>876.8</ele></trkpt>
            <trkpt lat="51.78279" lon="10.687727"><ele>877</ele></trkpt>
            <trkpt lat="51.782646" lon="10.688183"><ele>877.4</ele></trkpt>
            <trkpt lat="51.782443" lon="10.688662"><ele>878</ele></trkpt>
            <trkpt lat="51.782401" lon="10.688724"><ele>878</ele></trkpt>
            <trkpt lat="51.782279" lon="10.688763"><ele>877.9</ele></trkpt>
            <trkpt lat="51.782174" lon="10.688981"><ele>877.8</ele></trkpt>
            <trkpt lat="51.782131" lon="10.689172"><ele>877.9</ele></trkpt>
            <trkpt lat="51.782123" lon="10.689294"><ele>877.9</ele></trkpt>
            <trkpt lat="51.782166" lon="10.689911"><ele>877.7</ele></trkpt>
            <trkpt lat="51.782129" lon="10.690245"><ele>877.6</ele></trkpt>
            <trkpt lat="51.782121" lon="10.690597"><ele>877.3</ele></trkpt>
            <trkpt lat="51.781959" lon="10.691255"><ele>878.8</ele></trkpt>
            <trkpt lat="51.781953" lon="10.691387"><ele>878.9</ele></trkpt>
            <trkpt lat="51.781917" lon="10.69152"><ele>879.1</ele></trkpt>
            <trkpt lat="51.781927" lon="10.691634"><ele>879.1</ele></trkpt>
            <trkpt lat="51.781996" lon="10.69176"><ele>879.3</ele></trkpt>
            <trkpt lat="51.782073" lon="10.692085"><ele>879.4</ele></trkpt>
            <trkpt lat="51.78205" lon="10.692189"><ele>879.7</ele></trkpt>
            <trkpt lat="51.782041" lon="10.692505"><ele>879.9</ele></trkpt>
            <trkpt lat="51.782006" lon="10.692925"><ele>880.4</ele></trkpt>
            <trkpt lat="51.781914" lon="10.693003"><ele>880.7</ele></trkpt>
            <trkpt lat="51.78187" lon="10.693077"><ele>882</ele></trkpt>
            <trkpt lat="51.781959" lon="10.693145"><ele>882.2</ele></trkpt>
            <trkpt lat="51.782023" lon="10.693232"><ele>882.2</ele></trkpt>
            <trkpt lat="51.781996" lon="10.693569"><ele>883</ele></trkpt>
            <trkpt lat="51.781955" lon="10.693617"><ele>883</ele></trkpt>
            <trkpt lat="51.781943" lon="10.693608"><ele>883</ele></trkpt>
            <trkpt lat="51.781836" lon="10.693547"><ele>881.8</ele></trkpt>
            <trkpt lat="51.781753" lon="10.693532"><ele>882</ele></trkpt>
            <trkpt lat="51.781608" lon="10.69369"><ele>881.2</ele></trkpt>
            <trkpt lat="51.781582" lon="10.693696"><ele>877</ele></trkpt>
            <trkpt lat="51.781543" lon="10.693798"><ele>877</ele></trkpt>
            <trkpt lat="51.781582" lon="10.693696"><ele>877</ele></trkpt>
            <trkpt lat="51.781568" lon="10.69365"><ele>877</ele></trkpt>
            <trkpt lat="51.781428" lon="10.693512"><ele>877</ele></trkpt>
            <trkpt lat="51.781319" lon="10.693473"><ele>877</ele></trkpt>
            <trkpt lat="51.781194" lon="10.693486"><ele>877</ele></trkpt>
            <trkpt lat="51.781062" lon="10.693651"><ele>874.3</ele></trkpt>
            <trkpt lat="51.78083" lon="10.694143"><ele>874.1</ele></trkpt>
            <trkpt lat="51.78077" lon="10.694217"><ele>873.7</ele></trkpt>
            <trkpt lat="51.780699" lon="10.694264"><ele>870</ele></trkpt>
            <trkpt lat="51.780446" lon="10.694124"><ele>866.7</ele></trkpt>
            <trkpt lat="51.780225" lon="10.694072"><ele>866.9</ele></trkpt>
            <trkpt lat="51.780141" lon="10.694007"><ele>867</ele></trkpt>
            <trkpt lat="51.78012" lon="10.693942"><ele>867.1</ele></trkpt>
            <trkpt lat="51.779928" lon="10.693645"><ele>866.4</ele></trkpt>
            <trkpt lat="51.779753" lon="10.693424"><ele>859</ele></trkpt>
            <trkpt lat="51.779558" lon="10.693278"><ele>849.6</ele></trkpt>
            <trkpt lat="51.779369" lon="10.693254"><ele>849.6</ele></trkpt>
            <trkpt lat="51.779241" lon="10.693202"><ele>849.8</ele></trkpt>
            <trkpt lat="51.779107" lon="10.693196"><ele>849.3</ele></trkpt>
            <trkpt lat="51.779" lon="10.693119"><ele>848.6</ele></trkpt>
            <trkpt lat="51.778943" lon="10.693123"><ele>848.3</ele></trkpt>
            <trkpt lat="51.778833" lon="10.693449"><ele>848</ele></trkpt>
            <trkpt lat="51.778693" lon="10.693729"><ele>848</ele></trkpt>
            <trkpt lat="51.778476" lon="10.694081"><ele>848</ele></trkpt>
            <trkpt lat="51.778445" lon="10.694317"><ele>848.2</ele></trkpt>
            <trkpt lat="51.77829" lon="10.694556"><ele>847.8</ele></trkpt>
            <trkpt lat="51.77824" lon="10.694777"><ele>847</ele></trkpt>
            <trkpt lat="51.778184" lon="10.694896"><ele>847.3</ele></trkpt>
            <trkpt lat="51.778037" lon="10.695128"><ele>847.5</ele></trkpt>
            <trkpt lat="51.777897" lon="10.695244"><ele>847.4</ele></trkpt>
            <trkpt lat="51.777875" lon="10.69544"><ele>847.4</ele></trkpt>
            <trkpt lat="51.777819" lon="10.695687"><ele>847</ele></trkpt>
            <trkpt lat="51.777803" lon="10.695981"><ele>846.8</ele></trkpt>
            <trkpt lat="51.777747" lon="10.696308"><ele>845.5</ele></trkpt>
            <trkpt lat="51.777717" lon="10.696598"><ele>845.1</ele></trkpt>
            <trkpt lat="51.777695" lon="10.697042"><ele>845.6</ele></trkpt>
            <trkpt lat="51.777488" lon="10.697558"><ele>845.1</ele></trkpt>
            <trkpt lat="51.77743" lon="10.697791"><ele>844.8</ele></trkpt>
            <trkpt lat="51.777339" lon="10.698059"><ele>844.5</ele></trkpt>
            <trkpt lat="51.777295" lon="10.698133"><ele>844.4</ele></trkpt>
            <trkpt lat="51.777223" lon="10.698201"><ele>844.2</ele></trkpt>
            <trkpt lat="51.777007" lon="10.698162"><ele>843.8</ele></trkpt>
            <trkpt lat="51.776931" lon="10.698195"><ele>843.7</ele></trkpt>
            <trkpt lat="51.77676" lon="10.698497"><ele>844</ele></trkpt>
            <trkpt lat="51.776689" lon="10.698622"><ele>844</ele></trkpt>
            <trkpt lat="51.776551" lon="10.698511"><ele>822.6</ele></trkpt>
            <trkpt lat="51.775909" lon="10.698415"><ele>824.3</ele></trkpt>
            <trkpt lat="51.775881" lon="10.698373"><ele>824.7</ele></trkpt>
            <trkpt lat="51.775831" lon="10.698356"><ele>823.6</ele></trkpt>
            <trkpt lat="51.775771" lon="10.698354"><ele>822.6</ele></trkpt>
            <trkpt lat="51.775702" lon="10.698389"><ele>821.7</ele></trkpt>
            <trkpt lat="51.775597" lon="10.698301"><ele>820.1</ele></trkpt>
            <trkpt lat="51.775551" lon="10.698337"><ele>819.3</ele></trkpt>
            <trkpt lat="51.77551" lon="10.698328"><ele>818.6</ele></trkpt>
            <trkpt lat="51.775484" lon="10.698275"><ele>818</ele></trkpt>
            <trkpt lat="51.775393" lon="10.698231"><ele>817.4</ele></trkpt>
            <trkpt lat="51.775281" lon="10.698226"><ele>807</ele></trkpt>
            <trkpt lat="51.775187" lon="10.698154"><ele>807</ele></trkpt>
            <trkpt lat="51.775116" lon="10.697846"><ele>807</ele></trkpt>
            <trkpt lat="51.775091" lon="10.697783"><ele>807</ele></trkpt>
            <trkpt lat="51.775023" lon="10.697712"><ele>807</ele></trkpt>
            <trkpt lat="51.774974" lon="10.69761"><ele>790.7</ele></trkpt>
            <trkpt lat="51.774923" lon="10.697578"><ele>790.5</ele></trkpt>
            <trkpt lat="51.774915" lon="10.69699"><ele>790.2</ele></trkpt>
            <trkpt lat="51.774867" lon="10.696944"><ele>790.1</ele></trkpt>
            <trkpt lat="51.774848" lon="10.69687"><ele>790</ele></trkpt>
            <trkpt lat="51.774822" lon="10.696838"><ele>790</ele></trkpt>
            <trkpt lat="51.774812" lon="10.696772"><ele>789.9</ele></trkpt>
            <trkpt lat="51.77469" lon="10.696484"><ele>789.5</ele></trkpt>
            <trkpt lat="51.774573" lon="10.696307"><ele>787</ele></trkpt>
            <trkpt lat="51.774498" lon="10.696292"><ele>770</ele></trkpt>
            <trkpt lat="51.774388" lon="10.69634"><ele>770.4</ele></trkpt>
            <trkpt lat="51.774142" lon="10.696384"><ele>770.5</ele></trkpt>
            <trkpt lat="51.773913" lon="10.696263"><ele>768.5</ele></trkpt>
            <trkpt lat="51.773789" lon="10.696119"><ele>767.6</ele></trkpt>
            <trkpt lat="51.773682" lon="10.696051"><ele>766.7</ele></trkpt>
            <trkpt lat="51.773447" lon="10.695996"><ele>764</ele></trkpt>
            <trkpt lat="51.773289" lon="10.696013"><ele>763.2</ele></trkpt>
            <trkpt lat="51.773059" lon="10.69613"><ele>759.3</ele></trkpt>
            <trkpt lat="51.772715" lon="10.696405"><ele>754.1</ele></trkpt>
            <trkpt lat="51.772615" lon="10.696417"><ele>752.8</ele></trkpt>
            <trkpt lat="51.772253" lon="10.696655"><ele>721</ele></trkpt>
            <trkpt lat="51.772186" lon="10.69664"><ele>721</ele></trkpt>
            <trkpt lat="51.77217" lon="10.696636"><ele>721</ele></trkpt>
            <trkpt lat="51.772186" lon="10.69664"><ele>721</ele></trkpt>
            <trkpt lat="51.772253" lon="10.696655"><ele>721</ele></trkpt>
            <trkpt lat="51.772384" lon="10.695836"><ele>724.1</ele></trkpt>
            <trkpt lat="51.772456" lon="10.695245"><ele>724.7</ele></trkpt>
            <trkpt lat="51.772454" lon="10.69408"><ele>725.9</ele></trkpt>
            <trkpt lat="51.77249" lon="10.693843"><ele>725.7</ele></trkpt>
            <trkpt lat="51.772539" lon="10.693071"><ele>731.5</ele></trkpt>
            <trkpt lat="51.772518" lon="10.691411"><ele>744.4</ele></trkpt>
            <trkpt lat="51.77257" lon="10.691095"><ele>744.9</ele></trkpt>
            <trkpt lat="51.772658" lon="10.690726"><ele>745.5</ele></trkpt>
            <trkpt lat="51.772847" lon="10.69019"><ele>746</ele></trkpt>
            <trkpt lat="51.772896" lon="10.690008"><ele>746</ele></trkpt>
            <trkpt lat="51.77317" lon="10.687813"><ele>759.9</ele></trkpt>
            <trkpt lat="51.773222" lon="10.687243"><ele>759.9</ele></trkpt>
            <trkpt lat="51.773153" lon="10.686697"><ele>760.9</ele></trkpt>
            <trkpt lat="51.773163" lon="10.686367"><ele>761.5</ele></trkpt>
            <trkpt lat="51.773247" lon="10.68611"><ele>765</ele></trkpt>
            <trkpt lat="51.773289" lon="10.686064"><ele>765</ele></trkpt>
            <trkpt lat="51.773316" lon="10.685855"><ele>765</ele></trkpt>
            <trkpt lat="51.773352" lon="10.685594"><ele>770.3</ele></trkpt>
            <trkpt lat="51.773317" lon="10.685282"><ele>770</ele></trkpt>
            <trkpt lat="51.772986" lon="10.685087"><ele>762.2</ele></trkpt>
            <trkpt lat="51.772544" lon="10.685027"><ele>761.2</ele></trkpt>
            <trkpt lat="51.772012" lon="10.68481"><ele>756.8</ele></trkpt>
            <trkpt lat="51.771873" lon="10.684775"><ele>755.5</ele></trkpt>
            <trkpt lat="51.771709" lon="10.684693"><ele>753.4</ele></trkpt>
            <trkpt lat="51.771404" lon="10.684629"><ele>749</ele></trkpt>
            <trkpt lat="51.771272" lon="10.684562"><ele>748.6</ele></trkpt>
            <trkpt lat="51.770956" lon="10.684187"><ele>745.6</ele></trkpt>
            <trkpt lat="51.770766" lon="10.68391"><ele>743.9</ele></trkpt>
            <trkpt lat="51.770683" lon="10.683646"><ele>741.9</ele></trkpt>
            <trkpt lat="51.770632" lon="10.683595"><ele>741.2</ele></trkpt>
            <trkpt lat="51.770484" lon="10.683518"><ele>733</ele></trkpt>
            <trkpt lat="51.77052" lon="10.682647"><ele>738</ele></trkpt>
            <trkpt lat="51.770501" lon="10.682337"><ele>739.8</ele></trkpt>
            <trkpt lat="51.770237" lon="10.681115"><ele>746.1</ele></trkpt>
            <trkpt lat="51.770108" lon="10.680325"><ele>748.3</ele></trkpt>
            <trkpt lat="51.770128" lon="10.679755"><ele>749.9</ele></trkpt>
            <trkpt lat="51.770192" lon="10.679226"><ele>752</ele></trkpt>
            <trkpt lat="51.770151" lon="10.67911"><ele>752</ele></trkpt>
            <trkpt lat="51.770085" lon="10.679043"><ele>752</ele></trkpt>
            <trkpt lat="51.769878" lon="10.679028"><ele>741</ele></trkpt>
            <trkpt lat="51.769625" lon="10.677988"><ele>740</ele></trkpt>
            <trkpt lat="51.769616" lon="10.67784"><ele>739</ele></trkpt>
            <trkpt lat="51.769621" lon="10.677166"><ele>738.4</ele></trkpt>
            <trkpt lat="51.769642" lon="10.676843"><ele>738.4</ele></trkpt>
            <trkpt lat="51.769708" lon="10.676542"><ele>738.3</ele></trkpt>
            <trkpt lat="51.769845" lon="10.676111"><ele>738.3</ele></trkpt>
            <trkpt lat="51.769981" lon="10.675773"><ele>738</ele></trkpt>
            <trkpt lat="51.770394" lon="10.674835"><ele>752.2</ele></trkpt>
            <trkpt lat="51.770541" lon="10.674277"><ele>753</ele></trkpt>
            <trkpt lat="51.770585" lon="10.674016"><ele>753.9</ele></trkpt>
            <trkpt lat="51.770636" lon="10.673523"><ele>756.2</ele></trkpt>
            <trkpt lat="51.770696" lon="10.673239"><ele>756.5</ele></trkpt>
            <trkpt lat="51.770761" lon="10.673014"><ele>757.3</ele></trkpt>
            <trkpt lat="51.771068" lon="10.672207"><ele>763.1</ele></trkpt>
            <trkpt lat="51.771154" lon="10.671936"><ele>765.2</ele></trkpt>
            <trkpt lat="51.771451" lon="10.670694"><ele>769</ele></trkpt>
            <trkpt lat="51.771519" lon="10.670266"><ele>769.3</ele></trkpt>
            <trkpt lat="51.771528" lon="10.67012"><ele>769.6</ele></trkpt>
            <trkpt lat="51.771524" lon="10.669918"><ele>769.4</ele></trkpt>
            <trkpt lat="51.771453" lon="10.669017"><ele>769.1</ele></trkpt>
            <trkpt lat="51.771487" lon="10.668648"><ele>766</ele></trkpt>
            <trkpt lat="51.771633" lon="10.668656"><ele>772.8</ele></trkpt>
            <trkpt lat="51.77172" lon="10.668709"><ele>773.2</ele></trkpt>
            <trkpt lat="51.771811" lon="10.669018"><ele>773.9</ele></trkpt>
            <trkpt lat="51.771878" lon="10.669129"><ele>774.1</ele></trkpt>
            <trkpt lat="51.771931" lon="10.669178"><ele>774.6</ele></trkpt>
            <trkpt lat="51.772088" lon="10.669068"><ele>777</ele></trkpt>
            <trkpt lat="51.772147" lon="10.669095"><ele>777</ele></trkpt>
            <trkpt lat="51.772258" lon="10.669044"><ele>789.1</ele></trkpt>
            <trkpt lat="51.772509" lon="10.66887"><ele>791</ele></trkpt>
            <trkpt lat="51.772622" lon="10.668754"><ele>791.7</ele></trkpt>
            <trkpt lat="51.772867" lon="10.66843"><ele>792.8</ele></trkpt>
            <trkpt lat="51.773207" lon="10.667934"><ele>792.5</ele></trkpt>
            <trkpt lat="51.773247" lon="10.667832"><ele>793.5</ele></trkpt>
            <trkpt lat="51.773273" lon="10.667687"><ele>793.4</ele></trkpt>
            <trkpt lat="51.773399" lon="10.667517"><ele>795.3</ele></trkpt>
            <trkpt lat="51.773397" lon="10.667463"><ele>796.1</ele></trkpt>
            <trkpt lat="51.77349" lon="10.667254"><ele>796.9</ele></trkpt>
            <trkpt lat="51.773561" lon="10.667181"><ele>801</ele></trkpt>
            <trkpt lat="51.77349" lon="10.667254"><ele>796.9</ele></trkpt>
            <trkpt lat="51.773397" lon="10.667463"><ele>796.1</ele></trkpt>
            <trkpt lat="51.773399" lon="10.667517"><ele>795.3</ele></trkpt>
            <trkpt lat="51.773273" lon="10.667687"><ele>793.4</ele></trkpt>
            <trkpt lat="51.773247" lon="10.667832"><ele>793.5</ele></trkpt>
            <trkpt lat="51.773207" lon="10.667934"><ele>792.5</ele></trkpt>
            <trkpt lat="51.772867" lon="10.66843"><ele>792.8</ele></trkpt>
            <trkpt lat="51.772622" lon="10.668754"><ele>791.7</ele></trkpt>
            <trkpt lat="51.772509" lon="10.66887"><ele>791</ele></trkpt>
            <trkpt lat="51.772258" lon="10.669044"><ele>789.1</ele></trkpt>
            <trkpt lat="51.772147" lon="10.669095"><ele>777</ele></trkpt>
            <trkpt lat="51.772088" lon="10.669068"><ele>777</ele></trkpt>
            <trkpt lat="51.771931" lon="10.669178"><ele>774.6</ele></trkpt>
            <trkpt lat="51.771878" lon="10.669129"><ele>774.1</ele></trkpt>
            <trkpt lat="51.771811" lon="10.669018"><ele>773.9</ele></trkpt>
            <trkpt lat="51.77172" lon="10.668709"><ele>773.2</ele></trkpt>
            <trkpt lat="51.771633" lon="10.668656"><ele>772.8</ele></trkpt>
            <trkpt lat="51.771487" lon="10.668648"><ele>766</ele></trkpt>
            <trkpt lat="51.771453" lon="10.669017"><ele>769.1</ele></trkpt>
            <trkpt lat="51.771524" lon="10.669918"><ele>769.4</ele></trkpt>
            <trkpt lat="51.771528" lon="10.67012"><ele>769.6</ele></trkpt>
            <trkpt lat="51.771519" lon="10.670266"><ele>769.3</ele></trkpt>
            <trkpt lat="51.771451" lon="10.670694"><ele>769</ele></trkpt>
            <trkpt lat="51.771154" lon="10.671936"><ele>765.2</ele></trkpt>
            <trkpt lat="51.771068" lon="10.672207"><ele>763.1</ele></trkpt>
            <trkpt lat="51.770761" lon="10.673014"><ele>757.3</ele></trkpt>
            <trkpt lat="51.770696" lon="10.673239"><ele>756.5</ele></trkpt>
            <trkpt lat="51.770636" lon="10.673523"><ele>756.2</ele></trkpt>
            <trkpt lat="51.770585" lon="10.674016"><ele>753.9</ele></trkpt>
            <trkpt lat="51.770541" lon="10.674277"><ele>753</ele></trkpt>
            <trkpt lat="51.770394" lon="10.674835"><ele>752.2</ele></trkpt>
            <trkpt lat="51.769981" lon="10.675773"><ele>738</ele></trkpt>
            <trkpt lat="51.769845" lon="10.676111"><ele>738.3</ele></trkpt>
            <trkpt lat="51.769708" lon="10.676542"><ele>738.3</ele></trkpt>
            <trkpt lat="51.769642" lon="10.676843"><ele>738.4</ele></trkpt>
            <trkpt lat="51.769621" lon="10.677166"><ele>738.4</ele></trkpt>
            <trkpt lat="51.769616" lon="10.67784"><ele>739</ele></trkpt>
            <trkpt lat="51.769526" lon="10.677868"><ele>735.5</ele></trkpt>
            <trkpt lat="51.769253" lon="10.677861"><ele>735.8</ele></trkpt>
            <trkpt lat="51.769087" lon="10.677788"><ele>735.2</ele></trkpt>
            <trkpt lat="51.768714" lon="10.677742"><ele>734.7</ele></trkpt>
            <trkpt lat="51.768559" lon="10.677652"><ele>734.5</ele></trkpt>
            <trkpt lat="51.767967" lon="10.6771"><ele>731.7</ele></trkpt>
            <trkpt lat="51.767901" lon="10.676926"><ele>731.7</ele></trkpt>
            <trkpt lat="51.767829" lon="10.676826"><ele>731.5</ele></trkpt>
            <trkpt lat="51.767422" lon="10.676487"><ele>730.2</ele></trkpt>
            <trkpt lat="51.767266" lon="10.676428"><ele>719</ele></trkpt>
            <trkpt lat="51.767199" lon="10.676325"><ele>719</ele></trkpt>
            <trkpt lat="51.766956" lon="10.676164"><ele>719</ele></trkpt>
            <trkpt lat="51.766911" lon="10.676081"><ele>706.9</ele></trkpt>
            <trkpt lat="51.766719" lon="10.675937"><ele>707.9</ele></trkpt>
            <trkpt lat="51.766638" lon="10.67591"><ele>707.4</ele></trkpt>
            <trkpt lat="51.766553" lon="10.67592"><ele>707</ele></trkpt>
            <trkpt lat="51.766465" lon="10.675845"><ele>706.5</ele></trkpt>
            <trkpt lat="51.766263" lon="10.675816"><ele>705.2</ele></trkpt>
            <trkpt lat="51.766201" lon="10.67578"><ele>704.6</ele></trkpt>
            <trkpt lat="51.76593" lon="10.675966"><ele>704.4</ele></trkpt>
            <trkpt lat="51.765744" lon="10.675948"><ele>689</ele></trkpt>
            <trkpt lat="51.765625" lon="10.676204"><ele>690.7</ele></trkpt>
            <trkpt lat="51.765532" lon="10.676588"><ele>690.4</ele></trkpt>
            <trkpt lat="51.765303" lon="10.677858"><ele>694</ele></trkpt>
            <trkpt lat="51.765136" lon="10.678616"><ele>694</ele></trkpt>
            <trkpt lat="51.765084" lon="10.678565"><ele>692.3</ele></trkpt>
            <trkpt lat="51.764986" lon="10.678536"><ele>688</ele></trkpt>
            <trkpt lat="51.764981" lon="10.67829"><ele>684</ele></trkpt>
            <trkpt lat="51.764901" lon="10.678289"><ele>683.3</ele></trkpt>
            <trkpt lat="51.764885" lon="10.678268"><ele>683.4</ele></trkpt>
            <trkpt lat="51.76486" lon="10.678199"><ele>683.4</ele></trkpt>
            <trkpt lat="51.764815" lon="10.677927"><ele>683.5</ele></trkpt>
            <trkpt lat="51.764624" lon="10.677405"><ele>681</ele></trkpt>
            <trkpt lat="51.764542" lon="10.677248"><ele>677.7</ele></trkpt>
            <trkpt lat="51.76448" lon="10.677015"><ele>678.1</ele></trkpt>
            <trkpt lat="51.764411" lon="10.676605"><ele>676.3</ele></trkpt>
            <trkpt lat="51.764453" lon="10.675793"><ele>675.8</ele></trkpt>
            <trkpt lat="51.764385" lon="10.675478"><ele>675.4</ele></trkpt>
            <trkpt lat="51.7643" lon="10.674613"><ele>664</ele></trkpt>
            <trkpt lat="51.764255" lon="10.674265"><ele>654.2</ele></trkpt>
            <trkpt lat="51.764263" lon="10.67367"><ele>652</ele></trkpt>
            <trkpt lat="51.76424" lon="10.673498"><ele>652.5</ele></trkpt>
            <trkpt lat="51.764246" lon="10.672825"><ele>651.3</ele></trkpt>
            <trkpt lat="51.764195" lon="10.672517"><ele>650.7</ele></trkpt>
            <trkpt lat="51.764245" lon="10.672187"><ele>647.6</ele></trkpt>
            <trkpt lat="51.764222" lon="10.671584"><ele>629</ele></trkpt>
            <trkpt lat="51.764261" lon="10.671038"><ele>626</ele></trkpt>
            <trkpt lat="51.764304" lon="10.6707"><ele>625.4</ele></trkpt>
            <trkpt lat="51.764458" lon="10.670069"><ele>622</ele></trkpt>
            <trkpt lat="51.76416" lon="10.669571"><ele>609</ele></trkpt>
            <trkpt lat="51.764083" lon="10.669606"><ele>599</ele></trkpt>
            <trkpt lat="51.764041" lon="10.669588"><ele>599</ele></trkpt>
            <trkpt lat="51.764" lon="10.669568"><ele>599</ele></trkpt>
            <trkpt lat="51.763961" lon="10.66955"><ele>599</ele></trkpt>
            <trkpt lat="51.763894" lon="10.66961"><ele>599</ele></trkpt>
            <trkpt lat="51.763841" lon="10.669703"><ele>599</ele></trkpt>
            <trkpt lat="51.763854" lon="10.669785"><ele>599.6</ele></trkpt>
            <trkpt lat="51.763846" lon="10.669934"><ele>599.6</ele></trkpt>
            <trkpt lat="51.763802" lon="10.670021"><ele>599.9</ele></trkpt>
            <trkpt lat="51.763754" lon="10.670031"><ele>602</ele></trkpt>
            <trkpt lat="51.763656" lon="10.669963"><ele>600</ele></trkpt>
            <trkpt lat="51.763618" lon="10.669971"><ele>599</ele></trkpt>
            <trkpt lat="51.76334" lon="10.669722"><ele>599</ele></trkpt>
            <trkpt lat="51.763218" lon="10.669607"><ele>587</ele></trkpt>
            <trkpt lat="51.762822" lon="10.66913"><ele>582</ele></trkpt>
            <trkpt lat="51.762678" lon="10.668956"><ele>581.3</ele></trkpt>
            <trkpt lat="51.762264" lon="10.668608"><ele>580</ele></trkpt>
            <trkpt lat="51.76233" lon="10.668444"><ele>580</ele></trkpt>
            <trkpt lat="51.762342" lon="10.668427"><ele>580</ele></trkpt>
            <trkpt lat="51.762372" lon="10.668369"><ele>580</ele></trkpt>
            <trkpt lat="51.762384" lon="10.668341"><ele>580</ele></trkpt>
            <trkpt lat="51.762404" lon="10.668257"><ele>584</ele></trkpt>
            <trkpt lat="51.762491" lon="10.668099"><ele>583</ele></trkpt>
            <trkpt lat="51.762548" lon="10.667935"><ele>581</ele></trkpt>
            <trkpt lat="51.762666" lon="10.667545"><ele>581</ele></trkpt>
            <trkpt lat="51.76268" lon="10.667439"><ele>581</ele></trkpt>
            <trkpt lat="51.762657" lon="10.667349"><ele>581</ele></trkpt>
            <trkpt lat="51.762611" lon="10.667275"><ele>581</ele></trkpt>
            <trkpt lat="51.762544" lon="10.667229"><ele>581</ele></trkpt>
            <trkpt lat="51.762389" lon="10.66711"><ele>587</ele></trkpt>
            <trkpt lat="51.762288" lon="10.667024"><ele>587</ele></trkpt>
            <trkpt lat="51.762366" lon="10.666657"><ele>593</ele></trkpt>
            <trkpt lat="51.762197" lon="10.666537"><ele>593</ele></trkpt>
            <trkpt lat="51.76212" lon="10.66646"><ele>593</ele></trkpt>
            <trkpt lat="51.761873" lon="10.666118"><ele>593</ele></trkpt>
            <trkpt lat="51.761752" lon="10.666017"><ele>593</ele></trkpt>
            <trkpt lat="51.761678" lon="10.665961"><ele>593</ele></trkpt>
            <trkpt lat="51.76148" lon="10.665857"><ele>605.7</ele></trkpt>
            <trkpt lat="51.761379" lon="10.665743"><ele>606.7</ele></trkpt>
            <trkpt lat="51.761361" lon="10.665692"><ele>607.6</ele></trkpt>
            <trkpt lat="51.761363" lon="10.665637"><ele>612</ele></trkpt>
            <trkpt lat="51.761303" lon="10.665549"><ele>613.7</ele></trkpt>
            <trkpt lat="51.761213" lon="10.665479"><ele>614.1</ele></trkpt>
            <trkpt lat="51.76101" lon="10.665463"><ele>614.7</ele></trkpt>
            <trkpt lat="51.760933" lon="10.665426"><ele>615</ele></trkpt>
            <trkpt lat="51.760867" lon="10.665367"><ele>615.3</ele></trkpt>
            <trkpt lat="51.760763" lon="10.665211"><ele>629</ele></trkpt>
            <trkpt lat="51.760784" lon="10.6651"><ele>629</ele></trkpt>
            <trkpt lat="51.760702" lon="10.664997"><ele>632.2</ele></trkpt>
            <trkpt lat="51.760507" lon="10.664584"><ele>631.8</ele></trkpt>
            <trkpt lat="51.76042" lon="10.664477"><ele>633</ele></trkpt>
            <trkpt lat="51.759477" lon="10.663874"><ele>645.7</ele></trkpt>
            <trkpt lat="51.759359" lon="10.663666"><ele>650</ele></trkpt>
            <trkpt lat="51.759197" lon="10.663601"><ele>660.4</ele></trkpt>
            <trkpt lat="51.75898" lon="10.663413"><ele>662.6</ele></trkpt>
            <trkpt lat="51.758893" lon="10.663398"><ele>663.6</ele></trkpt>
            <trkpt lat="51.758548" lon="10.663089"><ele>665.1</ele></trkpt>
            <trkpt lat="51.758279" lon="10.662965"><ele>665.4</ele></trkpt>
            <trkpt lat="51.758116" lon="10.662812"><ele>666.1</ele></trkpt>
            <trkpt lat="51.757854" lon="10.662505"><ele>666.9</ele></trkpt>
            <trkpt lat="51.757774" lon="10.662344"><ele>666.8</ele></trkpt>
            <trkpt lat="51.757733" lon="10.662301"><ele>666.6</ele></trkpt>
            <trkpt lat="51.757635" lon="10.662263"><ele>666.4</ele></trkpt>
            <trkpt lat="51.757563" lon="10.662286"><ele>669</ele></trkpt>
            <trkpt lat="51.75748" lon="10.662244"><ele>673.7</ele></trkpt>
            <trkpt lat="51.75741" lon="10.662243"><ele>676</ele></trkpt>
            <trkpt lat="51.757146" lon="10.661999"><ele>675.3</ele></trkpt>
            <trkpt lat="51.756993" lon="10.661621"><ele>674</ele></trkpt>
            <trkpt lat="51.756944" lon="10.661378"><ele>677.5</ele></trkpt>
            <trkpt lat="51.756631" lon="10.660957"><ele>678.4</ele></trkpt>
            <trkpt lat="51.756483" lon="10.660918"><ele>677.7</ele></trkpt>
            <trkpt lat="51.756275" lon="10.660729"><ele>677.2</ele></trkpt>
            <trkpt lat="51.756165" lon="10.660535"><ele>677.1</ele></trkpt>
            <trkpt lat="51.755978" lon="10.660339"><ele>677</ele></trkpt>
            <trkpt lat="51.75541" lon="10.659921"><ele>675</ele></trkpt>
            <trkpt lat="51.755458" lon="10.659789"><ele>675</ele></trkpt>
            <trkpt lat="51.75537" lon="10.659475"><ele>675</ele></trkpt>
            <trkpt lat="51.755215" lon="10.659376"><ele>675</ele></trkpt>
            <trkpt lat="51.754987" lon="10.659361"><ele>675.1</ele></trkpt>
            <trkpt lat="51.754811" lon="10.659283"><ele>675.3</ele></trkpt>
            <trkpt lat="51.754453" lon="10.659222"><ele>675.7</ele></trkpt>
            <trkpt lat="51.754301" lon="10.659159"><ele>675.9</ele></trkpt>
            <trkpt lat="51.754175" lon="10.659056"><ele>676.2</ele></trkpt>
            <trkpt lat="51.754098" lon="10.659021"><ele>676.5</ele></trkpt>
            <trkpt lat="51.753857" lon="10.659058"><ele>677.1</ele></trkpt>
            <trkpt lat="51.753655" lon="10.658979"><ele>677.3</ele></trkpt>
            <trkpt lat="51.753533" lon="10.658992"><ele>677.8</ele></trkpt>
            <trkpt lat="51.753427" lon="10.658969"><ele>678</ele></trkpt>
            <trkpt lat="51.753324" lon="10.6589"><ele>678.8</ele></trkpt>
            <trkpt lat="51.753103" lon="10.658812"><ele>679</ele></trkpt>
            <trkpt lat="51.752944" lon="10.658706"><ele>679.1</ele></trkpt>
            <trkpt lat="51.75283" lon="10.65862"><ele>679.3</ele></trkpt>
            <trkpt lat="51.752649" lon="10.65836"><ele>681.2</ele></trkpt>
            <trkpt lat="51.752398" lon="10.658078"><ele>682.9</ele></trkpt>
            <trkpt lat="51.752188" lon="10.657767"><ele>683.8</ele></trkpt>
            <trkpt lat="51.751587" lon="10.657258"><ele>686.8</ele></trkpt>
            <trkpt lat="51.751491" lon="10.657115"><ele>693</ele></trkpt>
            <trkpt lat="51.751084" lon="10.656657"><ele>690.1</ele></trkpt>
            <trkpt lat="51.750944" lon="10.656426"><ele>690</ele></trkpt>
            <trkpt lat="51.75078" lon="10.65632"><ele>689.9</ele></trkpt>
            <trkpt lat="51.750462" lon="10.655991"><ele>690.1</ele></trkpt>
            <trkpt lat="51.750311" lon="10.655784"><ele>689.9</ele></trkpt>
            <trkpt lat="51.750269" lon="10.655623"><ele>689</ele></trkpt>
            <trkpt lat="51.749761" lon="10.654995"><ele>681</ele></trkpt>
            <trkpt lat="51.749672" lon="10.654928"><ele>681</ele></trkpt>
            <trkpt lat="51.749451" lon="10.654877"><ele>681</ele></trkpt>
            <trkpt lat="51.749402" lon="10.654399"><ele>682</ele></trkpt>
            <trkpt lat="51.749175" lon="10.653391"><ele>683</ele></trkpt>
            <trkpt lat="51.749174" lon="10.653246"><ele>689.8</ele></trkpt>
            <trkpt lat="51.749207" lon="10.653058"><ele>689.8</ele></trkpt>
            <trkpt lat="51.749259" lon="10.652921"><ele>689.8</ele></trkpt>
            <trkpt lat="51.749336" lon="10.652768"><ele>689.7</ele></trkpt>
            <trkpt lat="51.749579" lon="10.652393"><ele>696</ele></trkpt>
            <trkpt lat="51.75007" lon="10.651614"><ele>699.4</ele></trkpt>
            <trkpt lat="51.750137" lon="10.651417"><ele>699.5</ele></trkpt>
            <trkpt lat="51.750334" lon="10.650679"><ele>704</ele></trkpt>
            <trkpt lat="51.750256" lon="10.650557"><ele>708.8</ele></trkpt>
            <trkpt lat="51.750003" lon="10.649709"><ele>710.9</ele></trkpt>
            <trkpt lat="51.749948" lon="10.649569"><ele>711.1</ele></trkpt>
            <trkpt lat="51.749715" lon="10.649108"><ele>711.5</ele></trkpt>
            <trkpt lat="51.749622" lon="10.648867"><ele>711.5</ele></trkpt>
            <trkpt lat="51.749581" lon="10.648699"><ele>711.9</ele></trkpt>
            <trkpt lat="51.749571" lon="10.648535"><ele>712.1</ele></trkpt>
            <trkpt lat="51.749579" lon="10.648331"><ele>712</ele></trkpt>
            <trkpt lat="51.749676" lon="10.647651"><ele>712</ele></trkpt>
            <trkpt lat="51.749685" lon="10.647222"><ele>712.2</ele></trkpt>
            <trkpt lat="51.749712" lon="10.646925"><ele>713</ele></trkpt>
            <trkpt lat="51.749799" lon="10.646544"><ele>713.3</ele></trkpt>
            <trkpt lat="51.749878" lon="10.646075"><ele>713.6</ele></trkpt>
            <trkpt lat="51.749925" lon="10.645498"><ele>713.6</ele></trkpt>
            <trkpt lat="51.749953" lon="10.644849"><ele>713.7</ele></trkpt>
            <trkpt lat="51.749927" lon="10.64459"><ele>713.8</ele></trkpt>
            <trkpt lat="51.749791" lon="10.64408"><ele>715</ele></trkpt>
            <trkpt lat="51.74977" lon="10.643836"><ele>715.7</ele></trkpt>
            <trkpt lat="51.749793" lon="10.643604"><ele>715.6</ele></trkpt>
            <trkpt lat="51.749915" lon="10.643002"><ele>715.3</ele></trkpt>
            <trkpt lat="51.749921" lon="10.642695"><ele>715.2</ele></trkpt>
            <trkpt lat="51.749819" lon="10.64204"><ele>715</ele></trkpt>
            <trkpt lat="51.749759" lon="10.64151"><ele>714.8</ele></trkpt>
            <trkpt lat="51.749775" lon="10.641297"><ele>714.8</ele></trkpt>
            <trkpt lat="51.749805" lon="10.641197"><ele>714.8</ele></trkpt>
            <trkpt lat="51.749981" lon="10.640852"><ele>714</ele></trkpt>
            <trkpt lat="51.750476" lon="10.639894"><ele>723.4</ele></trkpt>
            <trkpt lat="51.750701" lon="10.639543"><ele>723.6</ele></trkpt>
            <trkpt lat="51.750983" lon="10.639159"><ele>737</ele></trkpt>
            <trkpt lat="51.751715" lon="10.637761"><ele>749.1</ele></trkpt>
            <trkpt lat="51.751828" lon="10.637582"><ele>758</ele></trkpt>
            <trkpt lat="51.751853" lon="10.637538"><ele>758</ele></trkpt>
            <trkpt lat="51.75191" lon="10.636759"><ele>756.4</ele></trkpt>
            <trkpt lat="51.751939" lon="10.636108"><ele>754.2</ele></trkpt>
            <trkpt lat="51.752177" lon="10.63533"><ele>751.9</ele></trkpt>
            <trkpt lat="51.752275" lon="10.634883"><ele>750.1</ele></trkpt>
            <trkpt lat="51.752348" lon="10.634432"><ele>749.4</ele></trkpt>
            <trkpt lat="51.75236" lon="10.634279"><ele>749.3</ele></trkpt>
            <trkpt lat="51.752336" lon="10.634088"><ele>744.4</ele></trkpt>
            <trkpt lat="51.752262" lon="10.633893"><ele>743.4</ele></trkpt>
            <trkpt lat="51.752013" lon="10.633401"><ele>742.2</ele></trkpt>
            <trkpt lat="51.751572" lon="10.63239"><ele>724</ele></trkpt>
            <trkpt lat="51.751615" lon="10.632329"><ele>726.3</ele></trkpt>
            <trkpt lat="51.751657" lon="10.632333"><ele>726.8</ele></trkpt>
            <trkpt lat="51.751692" lon="10.632392"><ele>733</ele></trkpt>
            <trkpt lat="51.751657" lon="10.632333"><ele>726.8</ele></trkpt>
            <trkpt lat="51.751615" lon="10.632329"><ele>726.3</ele></trkpt>
            <trkpt lat="51.751572" lon="10.63239"><ele>724</ele></trkpt>
            <trkpt lat="51.751505" lon="10.632253"><ele>724</ele></trkpt>
            <trkpt lat="51.751478" lon="10.632139"><ele>724</ele></trkpt>
            <trkpt lat="51.751912" lon="10.632132"><ele>734.3</ele></trkpt>
            <trkpt lat="51.752295" lon="10.632016"><ele>734.5</ele></trkpt>
            <trkpt lat="51.753197" lon="10.631577"><ele>740.8</ele></trkpt>
            <trkpt lat="51.753767" lon="10.631272"><ele>749.2</ele></trkpt>
            <trkpt lat="51.755385" lon="10.63033"><ele>792.3</ele></trkpt>
            <trkpt lat="51.755935" lon="10.630049"><ele>794.6</ele></trkpt>
            <trkpt lat="51.756346" lon="10.629926"><ele>808</ele></trkpt>
            <trkpt lat="51.756692" lon="10.629822"><ele>824</ele></trkpt>
            <trkpt lat="51.756786" lon="10.629796"><ele>826.6</ele></trkpt>
            <trkpt lat="51.75693" lon="10.629695"><ele>828.8</ele></trkpt>
            <trkpt lat="51.757349" lon="10.629213"><ele>832.3</ele></trkpt>
            <trkpt lat="51.757744" lon="10.628693"><ele>833.5</ele></trkpt>
            <trkpt lat="51.757954" lon="10.62838"><ele>836.1</ele></trkpt>
            <trkpt lat="51.758095" lon="10.628104"><ele>849</ele></trkpt>
            <trkpt lat="51.758402" lon="10.627412"><ele>860.4</ele></trkpt>
            <trkpt lat="51.758667" lon="10.626555"><ele>862.7</ele></trkpt>
            <trkpt lat="51.759123" lon="10.625247"><ele>871.1</ele></trkpt>
            <trkpt lat="51.759327" lon="10.624601"><ele>878</ele></trkpt>
            <trkpt lat="51.758939" lon="10.624334"><ele>880</ele></trkpt>
            <trkpt lat="51.758753" lon="10.624145"><ele>881.5</ele></trkpt>
            <trkpt lat="51.75872" lon="10.624074"><ele>883</ele></trkpt>
            <trkpt lat="51.75855" lon="10.623591"><ele>884.2</ele></trkpt>
            <trkpt lat="51.758429" lon="10.623315"><ele>888</ele></trkpt>
            <trkpt lat="51.758341" lon="10.623103"><ele>903.6</ele></trkpt>
            <trkpt lat="51.758091" lon="10.622599"><ele>902.4</ele></trkpt>
            <trkpt lat="51.757713" lon="10.622085"><ele>902</ele></trkpt>
            <trkpt lat="51.757494" lon="10.621542"><ele>943</ele></trkpt>
            <trkpt lat="51.757465" lon="10.62147"><ele>943</ele></trkpt>
            <trkpt lat="51.757371" lon="10.621347"><ele>943</ele></trkpt>
            <trkpt lat="51.757162" lon="10.620863"><ele>947.9</ele></trkpt>
            <trkpt lat="51.756947" lon="10.620285"><ele>956</ele></trkpt>
            <trkpt lat="51.756701" lon="10.619964"><ele>956.5</ele></trkpt>
            <trkpt lat="51.756558" lon="10.619605"><ele>952</ele></trkpt>
            <trkpt lat="51.75654" lon="10.619437"><ele>952</ele></trkpt>
            <trkpt lat="51.756616" lon="10.619224"><ele>952</ele></trkpt>
            <trkpt lat="51.756695" lon="10.618838"><ele>967</ele></trkpt>
            <trkpt lat="51.756518" lon="10.618707"><ele>956.2</ele></trkpt>
            <trkpt lat="51.756505" lon="10.618643"><ele>955.9</ele></trkpt>
            <trkpt lat="51.756518" lon="10.618707"><ele>956.2</ele></trkpt>
            <trkpt lat="51.756695" lon="10.618838"><ele>967</ele></trkpt>
            <trkpt lat="51.756616" lon="10.619224"><ele>952</ele></trkpt>
            <trkpt lat="51.75654" lon="10.619437"><ele>952</ele></trkpt>
            <trkpt lat="51.756558" lon="10.619605"><ele>952</ele></trkpt>
            <trkpt lat="51.756701" lon="10.619964"><ele>956.5</ele></trkpt>
            <trkpt lat="51.756947" lon="10.620285"><ele>956</ele></trkpt>
            <trkpt lat="51.757162" lon="10.620863"><ele>947.9</ele></trkpt>
            <trkpt lat="51.757371" lon="10.621347"><ele>943</ele></trkpt>
            <trkpt lat="51.757465" lon="10.62147"><ele>943</ele></trkpt>
            <trkpt lat="51.757494" lon="10.621542"><ele>943</ele></trkpt>
            <trkpt lat="51.757713" lon="10.622085"><ele>902</ele></trkpt>
            <trkpt lat="51.758091" lon="10.622599"><ele>902.4</ele></trkpt>
            <trkpt lat="51.758341" lon="10.623103"><ele>903.6</ele></trkpt>
            <trkpt lat="51.758429" lon="10.623315"><ele>888</ele></trkpt>
            <trkpt lat="51.75855" lon="10.623591"><ele>884.2</ele></trkpt>
            <trkpt lat="51.75872" lon="10.624074"><ele>883</ele></trkpt>
            <trkpt lat="51.758753" lon="10.624145"><ele>881.5</ele></trkpt>
            <trkpt lat="51.758939" lon="10.624334"><ele>880</ele></trkpt>
            <trkpt lat="51.759327" lon="10.624601"><ele>878</ele></trkpt>
            <trkpt lat="51.759123" lon="10.625247"><ele>871.1</ele></trkpt>
            <trkpt lat="51.758667" lon="10.626555"><ele>862.7</ele></trkpt>
            <trkpt lat="51.758402" lon="10.627412"><ele>860.4</ele></trkpt>
            <trkpt lat="51.758095" lon="10.628104"><ele>849</ele></trkpt>
            <trkpt lat="51.758195" lon="10.628269"><ele>849</ele></trkpt>
            <trkpt lat="51.758143" lon="10.628383"><ele>837.3</ele></trkpt>
            <trkpt lat="51.758128" lon="10.628495"><ele>837.3</ele></trkpt>
            <trkpt lat="51.758058" lon="10.628699"><ele>837.4</ele></trkpt>
            <trkpt lat="51.75796" lon="10.628884"><ele>837.4</ele></trkpt>
            <trkpt lat="51.757752" lon="10.629191"><ele>837.5</ele></trkpt>
            <trkpt lat="51.757604" lon="10.629577"><ele>832</ele></trkpt>
            <trkpt lat="51.757395" lon="10.629797"><ele>823.3</ele></trkpt>
            <trkpt lat="51.757283" lon="10.629995"><ele>823.1</ele></trkpt>
            <trkpt lat="51.757235" lon="10.630153"><ele>818</ele></trkpt>
            <trkpt lat="51.757881" lon="10.630419"><ele>827</ele></trkpt>
            <trkpt lat="51.757881" lon="10.630524"><ele>824.2</ele></trkpt>
            <trkpt lat="51.757765" lon="10.631475"><ele>823.5</ele></trkpt>
            <trkpt lat="51.757769" lon="10.631657"><ele>823.6</ele></trkpt>
            <trkpt lat="51.757829" lon="10.63232"><ele>823</ele></trkpt>
            <trkpt lat="51.757833" lon="10.633016"><ele>821.7</ele></trkpt>
            <trkpt lat="51.757856" lon="10.633101"><ele>818</ele></trkpt>
            <trkpt lat="51.757928" lon="10.633126"><ele>812.2</ele></trkpt>
            <trkpt lat="51.757982" lon="10.633203"><ele>812.3</ele></trkpt>
            <trkpt lat="51.75807" lon="10.633696"><ele>811.8</ele></trkpt>
            <trkpt lat="51.758074" lon="10.633925"><ele>812</ele></trkpt>
            <trkpt lat="51.75803" lon="10.634267"><ele>811.4</ele></trkpt>
            <trkpt lat="51.75797" lon="10.634544"><ele>810.8</ele></trkpt>
            <trkpt lat="51.757967" lon="10.634734"><ele>810.2</ele></trkpt>
            <trkpt lat="51.758092" lon="10.635007"><ele>808.9</ele></trkpt>
            <trkpt lat="51.758246" lon="10.635245"><ele>807.1</ele></trkpt>
            <trkpt lat="51.758269" lon="10.635366"><ele>806.6</ele></trkpt>
            <trkpt lat="51.758295" lon="10.636095"><ele>800.6</ele></trkpt>
            <trkpt lat="51.758256" lon="10.63651"><ele>799.9</ele></trkpt>
            <trkpt lat="51.758352" lon="10.636952"><ele>796.3</ele></trkpt>
            <trkpt lat="51.75881" lon="10.63743"><ele>786.8</ele></trkpt>
            <trkpt lat="51.758927" lon="10.637744"><ele>764</ele></trkpt>
            <trkpt lat="51.758809" lon="10.637869"><ele>759.6</ele></trkpt>
            <trkpt lat="51.758704" lon="10.638031"><ele>758.1</ele></trkpt>
            <trkpt lat="51.758362" lon="10.638793"><ele>756.5</ele></trkpt>
            <trkpt lat="51.758086" lon="10.639303"><ele>757.5</ele></trkpt>
            <trkpt lat="51.757819" lon="10.639673"><ele>752</ele></trkpt>
            <trkpt lat="51.757935" lon="10.639914"><ele>740.3</ele></trkpt>
            <trkpt lat="51.757929" lon="10.640048"><ele>738.6</ele></trkpt>
            <trkpt lat="51.758058" lon="10.640194"><ele>736.6</ele></trkpt>
            <trkpt lat="51.758222" lon="10.640441"><ele>736.2</ele></trkpt>
            <trkpt lat="51.758565" lon="10.641113"><ele>733.7</ele></trkpt>
            <trkpt lat="51.758861" lon="10.64174"><ele>728.4</ele></trkpt>
            <trkpt lat="51.759571" lon="10.643126"><ele>718.4</ele></trkpt>
            <trkpt lat="51.759943" lon="10.643974"><ele>714.1</ele></trkpt>
            <trkpt lat="51.760375" lon="10.64485"><ele>708.6</ele></trkpt>
            <trkpt lat="51.760645" lon="10.645342"><ele>706.5</ele></trkpt>
            <trkpt lat="51.760938" lon="10.646069"><ele>702</ele></trkpt>
            <trkpt lat="51.761713" lon="10.647301"><ele>694.1</ele></trkpt>
            <trkpt lat="51.762062" lon="10.648047"><ele>692.2</ele></trkpt>
            <trkpt lat="51.762199" lon="10.648189"><ele>691</ele></trkpt>
            <trkpt lat="51.762418" lon="10.647919"><ele>690.4</ele></trkpt>
            <trkpt lat="51.762613" lon="10.647568"><ele>689.8</ele></trkpt>
            <trkpt lat="51.762964" lon="10.647233"><ele>690.1</ele></trkpt>
            <trkpt lat="51.763317" lon="10.646756"><ele>690.2</ele></trkpt>
            <trkpt lat="51.76347" lon="10.646633"><ele>690.2</ele></trkpt>
            <trkpt lat="51.763654" lon="10.646532"><ele>690.1</ele></trkpt>
            <trkpt lat="51.763828" lon="10.646385"><ele>690.7</ele></trkpt>
            <trkpt lat="51.763924" lon="10.646251"><ele>690</ele></trkpt>
            <trkpt lat="51.7643" lon="10.647099"><ele>678</ele></trkpt>
            <trkpt lat="51.764806" lon="10.648003"><ele>675.5</ele></trkpt>
            <trkpt lat="51.764783" lon="10.64823"><ele>673</ele></trkpt>
            <trkpt lat="51.7647" lon="10.649042"><ele>659.3</ele></trkpt>
            <trkpt lat="51.764715" lon="10.649518"><ele>658.4</ele></trkpt>
            <trkpt lat="51.764688" lon="10.649785"><ele>658</ele></trkpt>
            <trkpt lat="51.764708" lon="10.65005"><ele>657.5</ele></trkpt>
            <trkpt lat="51.764633" lon="10.650362"><ele>657.5</ele></trkpt>
            <trkpt lat="51.764672" lon="10.650766"><ele>655.9</ele></trkpt>
            <trkpt lat="51.76469" lon="10.650827"><ele>655.7</ele></trkpt>
            <trkpt lat="51.764825" lon="10.650907"><ele>655.6</ele></trkpt>
            <trkpt lat="51.764925" lon="10.651001"><ele>649</ele></trkpt>
            <trkpt lat="51.765071" lon="10.650712"><ele>646</ele></trkpt>
            <trkpt lat="51.765152" lon="10.650632"><ele>646.1</ele></trkpt>
            <trkpt lat="51.765615" lon="10.650376"><ele>646.2</ele></trkpt>
            <trkpt lat="51.765904" lon="10.650435"><ele>645.8</ele></trkpt>
            <trkpt lat="51.76597" lon="10.650478"><ele>645.3</ele></trkpt>
            <trkpt lat="51.766069" lon="10.65061"><ele>639</ele></trkpt>
            <trkpt lat="51.766296" lon="10.650968"><ele>628</ele></trkpt>
            <trkpt lat="51.766353" lon="10.651037"><ele>628</ele></trkpt>
            <trkpt lat="51.766445" lon="10.651104"><ele>628</ele></trkpt>
            <trkpt lat="51.766548" lon="10.651075"><ele>628</ele></trkpt>
            <trkpt lat="51.766951" lon="10.651013"><ele>630.6</ele></trkpt>
            <trkpt lat="51.767158" lon="10.650924"><ele>630.3</ele></trkpt>
            <trkpt lat="51.767478" lon="10.650681"><ele>631.8</ele></trkpt>
            <trkpt lat="51.767952" lon="10.650597"><ele>634.3</ele></trkpt>
            <trkpt lat="51.768147" lon="10.650524"><ele>635.3</ele></trkpt>
            <trkpt lat="51.768647" lon="10.650216"><ele>637.3</ele></trkpt>
            <trkpt lat="51.768839" lon="10.650033"><ele>637.8</ele></trkpt>
            <trkpt lat="51.768977" lon="10.649821"><ele>638.3</ele></trkpt>
            <trkpt lat="51.769052" lon="10.649743"><ele>638.6</ele></trkpt>
            <trkpt lat="51.769227" lon="10.649696"><ele>639</ele></trkpt>
            <trkpt lat="51.769402" lon="10.649589"><ele>639.4</ele></trkpt>
            <trkpt lat="51.769744" lon="10.649563"><ele>640</ele></trkpt>
            <trkpt lat="51.769629" lon="10.649789"><ele>640</ele></trkpt>
            <trkpt lat="51.769713" lon="10.649931"><ele>640</ele></trkpt>
            <trkpt lat="51.769768" lon="10.650052"><ele>634</ele></trkpt>
            <trkpt lat="51.769817" lon="10.650225"><ele>634</ele></trkpt>
            <trkpt lat="51.76982" lon="10.65033"><ele>634</ele></trkpt>
            <trkpt lat="51.769905" lon="10.650366"><ele>634</ele></trkpt>
            <trkpt lat="51.769971" lon="10.650361"><ele>634</ele></trkpt>
            <trkpt lat="51.770117" lon="10.650299"><ele>635</ele></trkpt>
            <trkpt lat="51.770263" lon="10.650178"><ele>635</ele></trkpt>
            <trkpt lat="51.770639" lon="10.649846"><ele>639</ele></trkpt>
            <trkpt lat="51.770765" lon="10.649739"><ele>639</ele></trkpt>
            <trkpt lat="51.770805" lon="10.649705"><ele>639</ele></trkpt>
            <trkpt lat="51.770848" lon="10.649805"><ele>639.7</ele></trkpt>
            <trkpt lat="51.770923" lon="10.649872"><ele>639.8</ele></trkpt>
            <trkpt lat="51.771082" lon="10.649917"><ele>640</ele></trkpt>
            <trkpt lat="51.771218" lon="10.64996"><ele>640</ele></trkpt>
            <trkpt lat="51.771388" lon="10.650013"><ele>639</ele></trkpt>
            <trkpt lat="51.771418" lon="10.65002"><ele>639</ele></trkpt>
            <trkpt lat="51.77174" lon="10.650079"><ele>648</ele></trkpt>
            <trkpt lat="51.771901" lon="10.650121"><ele>648</ele></trkpt>
            <trkpt lat="51.772042" lon="10.650197"><ele>655.7</ele></trkpt>
            <trkpt lat="51.772571" lon="10.650779"><ele>656</ele></trkpt>
            <trkpt lat="51.772751" lon="10.651011"><ele>658.2</ele></trkpt>
            <trkpt lat="51.772881" lon="10.651312"><ele>659.5</ele></trkpt>
            <trkpt lat="51.772921" lon="10.651649"><ele>662.3</ele></trkpt>
            <trkpt lat="51.773005" lon="10.652885"><ele>672.6</ele></trkpt>
            <trkpt lat="51.773012" lon="10.65376"><ele>675.9</ele></trkpt>
            <trkpt lat="51.773038" lon="10.654118"><ele>677.8</ele></trkpt>
            <trkpt lat="51.773084" lon="10.654364"><ele>678.7</ele></trkpt>
            <trkpt lat="51.773188" lon="10.654617"><ele>684</ele></trkpt>
            <trkpt lat="51.773672" lon="10.654259"><ele>689.9</ele></trkpt>
            <trkpt lat="51.774699" lon="10.653318"><ele>697.1</ele></trkpt>
            <trkpt lat="51.774953" lon="10.652995"><ele>702.1</ele></trkpt>
            <trkpt lat="51.775235" lon="10.652581"><ele>706.7</ele></trkpt>
            <trkpt lat="51.775586" lon="10.652002"><ele>709.6</ele></trkpt>
            <trkpt lat="51.775888" lon="10.651562"><ele>711.6</ele></trkpt>
            <trkpt lat="51.776222" lon="10.651265"><ele>712.4</ele></trkpt>
            <trkpt lat="51.776299" lon="10.651167"><ele>717</ele></trkpt>
            <trkpt lat="51.776407" lon="10.651102"><ele>720</ele></trkpt>
            <trkpt lat="51.776638" lon="10.65103"><ele>720.8</ele></trkpt>
            <trkpt lat="51.776805" lon="10.651013"><ele>729</ele></trkpt>
            <trkpt lat="51.777056" lon="10.651048"><ele>733.2</ele></trkpt>
            <trkpt lat="51.777359" lon="10.651006"><ele>734.2</ele></trkpt>
            <trkpt lat="51.777545" lon="10.650917"><ele>735.4</ele></trkpt>
            <trkpt lat="51.777742" lon="10.650748"><ele>737</ele></trkpt>
            <trkpt lat="51.777768" lon="10.650723"><ele>737</ele></trkpt>
            <trkpt lat="51.777889" lon="10.650634"><ele>740.3</ele></trkpt>
            <trkpt lat="51.778006" lon="10.650513"><ele>740.9</ele></trkpt>
            <trkpt lat="51.778176" lon="10.650297"><ele>741.5</ele></trkpt>
            <trkpt lat="51.778332" lon="10.650022"><ele>742.3</ele></trkpt>
            <trkpt lat="51.778447" lon="10.649756"><ele>757</ele></trkpt>
            <trkpt lat="51.77846" lon="10.649704"><ele>757</ele></trkpt>
            <trkpt lat="51.778845" lon="10.648622"><ele>757</ele></trkpt>
            <trkpt lat="51.778882" lon="10.648518"><ele>757</ele></trkpt>
            <trkpt lat="51.77906" lon="10.648024"><ele>765.9</ele></trkpt>
            <trkpt lat="51.779115" lon="10.647933"><ele>770</ele></trkpt>
            <trkpt lat="51.779279" lon="10.647715"><ele>788</ele></trkpt>
            <trkpt lat="51.779259" lon="10.647634"><ele>788</ele></trkpt>
            <trkpt lat="51.779302" lon="10.647581"><ele>787.6</ele></trkpt>
            <trkpt lat="51.779363" lon="10.647568"><ele>787.6</ele></trkpt>
            <trkpt lat="51.779428" lon="10.647672"><ele>787.5</ele></trkpt>
            <trkpt lat="51.779498" lon="10.647705"><ele>787.4</ele></trkpt>
            <trkpt lat="51.779642" lon="10.647981"><ele>787.4</ele></trkpt>
            <trkpt lat="51.779697" lon="10.648008"><ele>787.3</ele></trkpt>
            <trkpt lat="51.779783" lon="10.648157"><ele>787.2</ele></trkpt>
            <trkpt lat="51.77991" lon="10.648521"><ele>783</ele></trkpt>
            <trkpt lat="51.779928" lon="10.648568"><ele>783</ele></trkpt>
            <trkpt lat="51.780064" lon="10.649027"><ele>808.7</ele></trkpt>
            <trkpt lat="51.780159" lon="10.649211"><ele>808.8</ele></trkpt>
            <trkpt lat="51.780372" lon="10.649821"><ele>808.8</ele></trkpt>
            <trkpt lat="51.78043" lon="10.64989"><ele>808.8</ele></trkpt>
            <trkpt lat="51.780494" lon="10.649923"><ele>808.7</ele></trkpt>
            <trkpt lat="51.78059" lon="10.649898"><ele>808.7</ele></trkpt>
            <trkpt lat="51.780703" lon="10.649754"><ele>808.7</ele></trkpt>
            <trkpt lat="51.780905" lon="10.649557"><ele>808.7</ele></trkpt>
            <trkpt lat="51.781222" lon="10.649196"><ele>823</ele></trkpt>
            <trkpt lat="51.781247" lon="10.649166"><ele>823</ele></trkpt>
            <trkpt lat="51.781338" lon="10.649064"><ele>823.3</ele></trkpt>
            <trkpt lat="51.781673" lon="10.648564"><ele>823.5</ele></trkpt>
            <trkpt lat="51.781816" lon="10.648489"><ele>824</ele></trkpt>
            <trkpt lat="51.781874" lon="10.648468"><ele>824</ele></trkpt>
            <trkpt lat="51.781971" lon="10.648415"><ele>828</ele></trkpt>
            <trkpt lat="51.782202" lon="10.648193"><ele>832</ele></trkpt>
            <trkpt lat="51.782495" lon="10.648203"><ele>834.3</ele></trkpt>
            <trkpt lat="51.783927" lon="10.648384"><ele>842.6</ele></trkpt>
            <trkpt lat="51.784268" lon="10.64833"><ele>853</ele></trkpt>
            <trkpt lat="51.785449" lon="10.647981"><ele>858</ele></trkpt>
            <trkpt lat="51.786147" lon="10.647794"><ele>867.4</ele></trkpt>
            <trkpt lat="51.786907" lon="10.647549"><ele>872.5</ele></trkpt>
            <trkpt lat="51.787104" lon="10.647465"><ele>873.2</ele></trkpt>
            <trkpt lat="51.787707" lon="10.647076"><ele>877.5</ele></trkpt>
            <trkpt lat="51.787837" lon="10.647025"><ele>878.6</ele></trkpt>
            <trkpt lat="51.78796" lon="10.647005"><ele>880.7</ele></trkpt>
            <trkpt lat="51.788325" lon="10.647027"><ele>885.3</ele></trkpt>
            <trkpt lat="51.788666" lon="10.647009"><ele>890.8</ele></trkpt>
            <trkpt lat="51.788856" lon="10.646982"><ele>891.2</ele></trkpt>
            <trkpt lat="51.789067" lon="10.646904"><ele>893.9</ele></trkpt>
            <trkpt lat="51.78923" lon="10.646783"><ele>896.7</ele></trkpt>
            <trkpt lat="51.789357" lon="10.646629"><ele>898</ele></trkpt>
            <trkpt lat="51.789671" lon="10.646129"><ele>898.4</ele></trkpt>
            <trkpt lat="51.789805" lon="10.645982"><ele>898.1</ele></trkpt>
            <trkpt lat="51.790019" lon="10.645803"><ele>899.3</ele></trkpt>
            <trkpt lat="51.790263" lon="10.645556"><ele>906</ele></trkpt>
            <trkpt lat="51.79058" lon="10.64519"><ele>906</ele></trkpt>
            <trkpt lat="51.790653" lon="10.645091"><ele>906</ele></trkpt>
            <trkpt lat="51.790684" lon="10.645005"><ele>906</ele></trkpt>
            <trkpt lat="51.790882" lon="10.644929"><ele>907.5</ele></trkpt>
            <trkpt lat="51.791025" lon="10.644841"><ele>907.8</ele></trkpt>
        </trkseg>
    </trk>
</gpx>
