<?xml version="1.0" encoding="UTF-8"?>
<gpx version="1.1" creator="HWN Route Compare (OpenRouteService)" xmlns="http://www.topografix.com/GPX/1/1">
    <metadata>
        <name>OpenRouteService – Tour B4a</name>
    </metadata>
    <trk>
        <name>OpenRouteService – Tour B4a</name>
        <trkseg>
            <trkpt lat="51.791025" lon="10.644841"><ele>907.8</ele></trkpt>
            <trkpt lat="51.790882" lon="10.644929"><ele>907.5</ele></trkpt>
            <trkpt lat="51.790684" lon="10.645005"><ele>906</ele></trkpt>
            <trkpt lat="51.790653" lon="10.645091"><ele>906</ele></trkpt>
            <trkpt lat="51.79058" lon="10.64519"><ele>906</ele></trkpt>
            <trkpt lat="51.790263" lon="10.645556"><ele>906</ele></trkpt>
            <trkpt lat="51.790213" lon="10.646194"><ele>906.2</ele></trkpt>
            <trkpt lat="51.790118" lon="10.646736"><ele>907</ele></trkpt>
            <trkpt lat="51.790008" lon="10.646939"><ele>901.7</ele></trkpt>
            <trkpt lat="51.789962" lon="10.647088"><ele>901.2</ele></trkpt>
            <trkpt lat="51.789959" lon="10.647272"><ele>901.7</ele></trkpt>
            <trkpt lat="51.789851" lon="10.647803"><ele>902.5</ele></trkpt>
            <trkpt lat="51.789795" lon="10.648297"><ele>903.2</ele></trkpt>
            <trkpt lat="51.789778" lon="10.648882"><ele>903.8</ele></trkpt>
            <trkpt lat="51.789742" lon="10.649119"><ele>903.5</ele></trkpt>
            <trkpt lat="51.789539" lon="10.649702"><ele>902.5</ele></trkpt>
            <trkpt lat="51.789459" lon="10.650281"><ele>901.1</ele></trkpt>
            <trkpt lat="51.789408" lon="10.650495"><ele>900.1</ele></trkpt>
            <trkpt lat="51.789153" lon="10.650958"><ele>898.1</ele></trkpt>
            <trkpt lat="51.788863" lon="10.651701"><ele>897.9</ele></trkpt>
            <trkpt lat="51.788705" lon="10.651937"><ele>897.7</ele></trkpt>
            <trkpt lat="51.788615" lon="10.652121"><ele>897.6</ele></trkpt>
            <trkpt lat="51.788549" lon="10.652312"><ele>897.5</ele></trkpt>
            <trkpt lat="51.788471" lon="10.652434"><ele>897.4</ele></trkpt>
            <trkpt lat="51.78835" lon="10.652549"><ele>896</ele></trkpt>
            <trkpt lat="51.788355" lon="10.652697"><ele>895.6</ele></trkpt>
            <trkpt lat="51.788329" lon="10.652959"><ele>894.2</ele></trkpt>
            <trkpt lat="51.788382" lon="10.653231"><ele>896</ele></trkpt>
            <trkpt lat="51.788472" lon="10.653441"><ele>894.9</ele></trkpt>
            <trkpt lat="51.788662" lon="10.653722"><ele>893.9</ele></trkpt>
            <trkpt lat="51.788943" lon="10.654249"><ele>893.9</ele></trkpt>
            <trkpt lat="51.789462" lon="10.655435"><ele>887.5</ele></trkpt>
            <trkpt lat="51.789731" lon="10.656239"><ele>877</ele></trkpt>
            <trkpt lat="51.789316" lon="10.656574"><ele>881.6</ele></trkpt>
            <trkpt lat="51.788771" lon="10.657346"><ele>886.9</ele></trkpt>
            <trkpt lat="51.78843" lon="10.657798"><ele>888</ele></trkpt>
            <trkpt lat="51.788196" lon="10.658242"><ele>892.4</ele></trkpt>
            <trkpt lat="51.788099" lon="10.658498"><ele>894.8</ele></trkpt>
            <trkpt lat="51.787998" lon="10.658635"><ele>895</ele></trkpt>
            <trkpt lat="51.787881" lon="10.658854"><ele>895.2</ele></trkpt>
            <trkpt lat="51.787547" lon="10.659565"><ele>897.3</ele></trkpt>
            <trkpt lat="51.787306" lon="10.660194"><ele>906</ele></trkpt>
            <trkpt lat="51.787214" lon="10.660425"><ele>897.1</ele></trkpt>
            <trkpt lat="51.787011" lon="10.661112"><ele>895</ele></trkpt>
            <trkpt lat="51.786671" lon="10.661994"><ele>892</ele></trkpt>
            <trkpt lat="51.786638" lon="10.662184"><ele>891.2</ele></trkpt>
            <trkpt lat="51.786449" lon="10.662601"><ele>888.3</ele></trkpt>
            <trkpt lat="51.786257" lon="10.662852"><ele>887.3</ele></trkpt>
            <trkpt lat="51.786184" lon="10.663"><ele>885.3</ele></trkpt>
            <trkpt lat="51.786082" lon="10.663484"><ele>882.7</ele></trkpt>
            <trkpt lat="51.785991" lon="10.664184"><ele>879.6</ele></trkpt>
            <trkpt lat="51.786045" lon="10.664696"><ele>876.1</ele></trkpt>
            <trkpt lat="51.786186" lon="10.665128"><ele>873.6</ele></trkpt>
            <trkpt lat="51.786242" lon="10.66535"><ele>871.3</ele></trkpt>
            <trkpt lat="51.786317" lon="10.666629"><ele>866.5</ele></trkpt>
            <trkpt lat="51.786302" lon="10.666833"><ele>865.9</ele></trkpt>
            <trkpt lat="51.786247" lon="10.667084"><ele>865</ele></trkpt>
            <trkpt lat="51.785971" lon="10.66803"><ele>861.5</ele></trkpt>
            <trkpt lat="51.786011" lon="10.668642"><ele>859.7</ele></trkpt>
            <trkpt lat="51.785992" lon="10.668838"><ele>858.7</ele></trkpt>
            <trkpt lat="51.785486" lon="10.670182"><ele>856</ele></trkpt>
            <trkpt lat="51.785286" lon="10.670796"><ele>855.8</ele></trkpt>
            <trkpt lat="51.785121" lon="10.671082"><ele>854.5</ele></trkpt>
            <trkpt lat="51.784922" lon="10.671689"><ele>852.2</ele></trkpt>
            <trkpt lat="51.784666" lon="10.672251"><ele>851.5</ele></trkpt>
            <trkpt lat="51.784512" lon="10.672661"><ele>849.5</ele></trkpt>
            <trkpt lat="51.784306" lon="10.673428"><ele>848.5</ele></trkpt>
            <trkpt lat="51.783752" lon="10.674906"><ele>845.2</ele></trkpt>
            <trkpt lat="51.783496" lon="10.675654"><ele>840</ele></trkpt>
            <trkpt lat="51.783349" lon="10.675864"><ele>834.7</ele></trkpt>
            <trkpt lat="51.783259" lon="10.676035"><ele>834.7</ele></trkpt>
            <trkpt lat="51.783146" lon="10.676357"><ele>833.1</ele></trkpt>
            <trkpt lat="51.782951" lon="10.677031"><ele>832.6</ele></trkpt>
            <trkpt lat="51.782842" lon="10.677293"><ele>832.4</ele></trkpt>
            <trkpt lat="51.782683" lon="10.677576"><ele>831.6</ele></trkpt>
            <trkpt lat="51.782392" lon="10.678032"><ele>818</ele></trkpt>
            <trkpt lat="51.782507" lon="10.678274"><ele>833</ele></trkpt>
            <trkpt lat="51.782545" lon="10.67832"><ele>833.1</ele></trkpt>
            <trkpt lat="51.782627" lon="10.678554"><ele>833.1</ele></trkpt>
            <trkpt lat="51.78264" lon="10.678687"><ele>833.4</ele></trkpt>
            <trkpt lat="51.782739" lon="10.679072"><ele>833.9</ele></trkpt>
            <trkpt lat="51.782779" lon="10.679168"><ele>834.1</ele></trkpt>
            <trkpt lat="51.782837" lon="10.679442"><ele>835</ele></trkpt>
            <trkpt lat="51.782893" lon="10.67956"><ele>835.2</ele></trkpt>
            <trkpt lat="51.782921" lon="10.679672"><ele>835.4</ele></trkpt>
            <trkpt lat="51.783015" lon="10.67988"><ele>835.7</ele></trkpt>
            <trkpt lat="51.783107" lon="10.680007"><ele>836.3</ele></trkpt>
            <trkpt lat="51.783176" lon="10.68022"><ele>836.8</ele></trkpt>
            <trkpt lat="51.783498" lon="10.680684"><ele>839.5</ele></trkpt>
            <trkpt lat="51.783522" lon="10.680799"><ele>840</ele></trkpt>
            <trkpt lat="51.783508" lon="10.680906"><ele>840.9</ele></trkpt>
            <trkpt lat="51.783437" lon="10.68121"><ele>842.1</ele></trkpt>
            <trkpt lat="51.783334" lon="10.681551"><ele>843</ele></trkpt>
            <trkpt lat="51.783329" lon="10.681647"><ele>843.2</ele></trkpt>
            <trkpt lat="51.783363" lon="10.681828"><ele>843.9</ele></trkpt>
            <trkpt lat="51.783482" lon="10.682233"><ele>844.9</ele></trkpt>
            <trkpt lat="51.783622" lon="10.682515"><ele>846.3</ele></trkpt>
            <trkpt lat="51.783719" lon="10.682959"><ele>849.8</ele></trkpt>
            <trkpt lat="51.783716" lon="10.683082"><ele>856</ele></trkpt>
            <trkpt lat="51.783588" lon="10.683324"><ele>864.6</ele></trkpt>
            <trkpt lat="51.783493" lon="10.683764"><ele>864.9</ele></trkpt>
            <trkpt lat="51.783474" lon="10.683979"><ele>865.1</ele></trkpt>
            <trkpt lat="51.783493" lon="10.68414"><ele>865</ele></trkpt>
            <trkpt lat="51.783493" lon="10.684371"><ele>865.7</ele></trkpt>
            <trkpt lat="51.783461" lon="10.684451"><ele>865.8</ele></trkpt>
            <trkpt lat="51.783478" lon="10.684598"><ele>866.3</ele></trkpt>
            <trkpt lat="51.783557" lon="10.684797"><ele>867.2</ele></trkpt>
            <trkpt lat="51.783665" lon="10.685182"><ele>868</ele></trkpt>
            <trkpt lat="51.783671" lon="10.685377"><ele>869.5</ele></trkpt>
            <trkpt lat="51.783566" lon="10.68561"><ele>870.8</ele></trkpt>
            <trkpt lat="51.783486" lon="10.685951"><ele>871.7</ele></trkpt>
            <trkpt lat="51.783411" lon="10.686455"><ele>873.4</ele></trkpt>
            <trkpt lat="51.783272" lon="10.686635"><ele>873.8</ele></trkpt>
            <trkpt lat="51.783189" lon="10.686785"><ele>874.6</ele></trkpt>
            <trkpt lat="51.783096" lon="10.687012"><ele>875.8</ele></trkpt>
            <trkpt lat="51.782992" lon="10.687092"><ele>876.2</ele></trkpt>
            <trkpt lat="51.782896" lon="10.687255"><ele>876.4</ele></trkpt>
            <trkpt lat="51.782853" lon="10.687349"><ele>876.5</ele></trkpt>
            <trkpt lat="51.78284" lon="10.687534"><ele>876.8</ele></trkpt>
            <trkpt lat="51.78279" lon="10.687727"><ele>877</ele></trkpt>
            <trkpt lat="51.782646" lon="10.688183"><ele>877.4</ele></trkpt>
            <trkpt lat="51.782443" lon="10.688662"><ele>878</ele></trkpt>
            <trkpt lat="51.782401" lon="10.688724"><ele>878</ele></trkpt>
            <trkpt lat="51.782279" lon="10.688763"><ele>877.9</ele></trkpt>
            <trkpt lat="51.782174" lon="10.688981"><ele>877.8</ele></trkpt>
            <trkpt lat="51.782131" lon="10.689172"><ele>877.9</ele></trkpt>
            <trkpt lat="51.782123" lon="10.689294"><ele>877.9</ele></trkpt>
            <trkpt lat="51.782166" lon="10.689911"><ele>877.7</ele></trkpt>
            <trkpt lat="51.782129" lon="10.690245"><ele>877.6</ele></trkpt>
            <trkpt lat="51.782121" lon="10.690597"><ele>877.3</ele></trkpt>
            <trkpt lat="51.781959" lon="10.691255"><ele>878.8</ele></trkpt>
            <trkpt lat="51.781953" lon="10.691387"><ele>878.9</ele></trkpt>
            <trkpt lat="51.781917" lon="10.69152"><ele>879.1</ele></trkpt>
            <trkpt lat="51.781927" lon="10.691634"><ele>879.1</ele></trkpt>
            <trkpt lat="51.781996" lon="10.69176"><ele>879.3</ele></trkpt>
            <trkpt lat="51.782073" lon="10.692085"><ele>879.4</ele></trkpt>
            <trkpt lat="51.78205" lon="10.692189"><ele>879.7</ele></trkpt>
            <trkpt lat="51.782041" lon="10.692505"><ele>879.9</ele></trkpt>
            <trkpt lat="51.782006" lon="10.692925"><ele>880.4</ele></trkpt>
            <trkpt lat="51.781914" lon="10.693003"><ele>880.7</ele></trkpt>
            <trkpt lat="51.78187" lon="10.693077"><ele>882</ele></trkpt>
            <trkpt lat="51.781959" lon="10.693145"><ele>882.2</ele></trkpt>
            <trkpt lat="51.782023" lon="10.693232"><ele>882.2</ele></trkpt>
            <trkpt lat="51.781996" lon="10.693569"><ele>883</ele></trkpt>
            <trkpt lat="51.781955" lon="10.693617"><ele>883</ele></trkpt>
            <trkpt lat="51.781943" lon="10.693608"><ele>883</ele></trkpt>
            <trkpt lat="51.781836" lon="10.693547"><ele>881.8</ele></trkpt>
            <trkpt lat="51.781753" lon="10.693532"><ele>882</ele></trkpt>
            <trkpt lat="51.781608" lon="10.69369"><ele>881.2</ele></trkpt>
            <trkpt lat="51.781582" lon="10.693696"><ele>877</ele></trkpt>
            <trkpt lat="51.781543" lon="10.693798"><ele>877</ele></trkpt>
            <trkpt lat="51.781582" lon="10.693696"><ele>877</ele></trkpt>
            <trkpt lat="51.781568" lon="10.69365"><ele>877</ele></trkpt>
            <trkpt lat="51.781428" lon="10.693512"><ele>877</ele></trkpt>
            <trkpt lat="51.781319" lon="10.693473"><ele>877</ele></trkpt>
            <trkpt lat="51.781194" lon="10.693486"><ele>877</ele></trkpt>
            <trkpt lat="51.781062" lon="10.693651"><ele>874.3</ele></trkpt>
            <trkpt lat="51.78083" lon="10.694143"><ele>874.1</ele></trkpt>
            <trkpt lat="51.78077" lon="10.694217"><ele>873.7</ele></trkpt>
            <trkpt lat="51.780699" lon="10.694264"><ele>870</ele></trkpt>
            <trkpt lat="51.780446" lon="10.694124"><ele>866.7</ele></trkpt>
            <trkpt lat="51.780225" lon="10.694072"><ele>866.9</ele></trkpt>
            <trkpt lat="51.780141" lon="10.694007"><ele>867</ele></trkpt>
            <trkpt lat="51.78012" lon="10.693942"><ele>867.1</ele></trkpt>
            <trkpt lat="51.779928" lon="10.693645"><ele>866.4</ele></trkpt>
            <trkpt lat="51.779753" lon="10.693424"><ele>859</ele></trkpt>
            <trkpt lat="51.779558" lon="10.693278"><ele>849.6</ele></trkpt>
            <trkpt lat="51.779369" lon="10.693254"><ele>849.6</ele></trkpt>
            <trkpt lat="51.779241" lon="10.693202"><ele>849.8</ele></trkpt>
            <trkpt lat="51.779107" lon="10.693196"><ele>849.3</ele></trkpt>
            <trkpt lat="51.779" lon="10.693119"><ele>848.6</ele></trkpt>
            <trkpt lat="51.778943" lon="10.693123"><ele>848.3</ele></trkpt>
            <trkpt lat="51.778833" lon="10.693449"><ele>848</ele></trkpt>
            <trkpt lat="51.778693" lon="10.693729"><ele>848</ele></trkpt>
            <trkpt lat="51.778476" lon="10.694081"><ele>848</ele></trkpt>
            <trkpt lat="51.778445" lon="10.694317"><ele>848.2</ele></trkpt>
            <trkpt lat="51.77829" lon="10.694556"><ele>847.8</ele></trkpt>
            <trkpt lat="51.77824" lon="10.694777"><ele>847</ele></trkpt>
            <trkpt lat="51.778184" lon="10.694896"><ele>847.3</ele></trkpt>
            <trkpt lat="51.778037" lon="10.695128"><ele>847.5</ele></trkpt>
            <trkpt lat="51.777897" lon="10.695244"><ele>847.4</ele></trkpt>
            <trkpt lat="51.777875" lon="10.69544"><ele>847.4</ele></trkpt>
            <trkpt lat="51.777819" lon="10.695687"><ele>847</ele></trkpt>
            <trkpt lat="51.777803" lon="10.695981"><ele>846.8</ele></trkpt>
            <trkpt lat="51.777747" lon="10.696308"><ele>845.5</ele></trkpt>
            <trkpt lat="51.777717" lon="10.696598"><ele>845.1</ele></trkpt>
            <trkpt lat="51.777695" lon="10.697042"><ele>845.6</ele></trkpt>
            <trkpt lat="51.777488" lon="10.697558"><ele>845.1</ele></trkpt>
            <trkpt lat="51.77743" lon="10.697791"><ele>844.8</ele></trkpt>
            <trkpt lat="51.777339" lon="10.698059"><ele>844.5</ele></trkpt>
            <trkpt lat="51.777295" lon="10.698133"><ele>844.4</ele></trkpt>
            <trkpt lat="51.777223" lon="10.698201"><ele>844.2</ele></trkpt>
            <trkpt lat="51.777007" lon="10.698162"><ele>843.8</ele></trkpt>
            <trkpt lat="51.776931" lon="10.698195"><ele>843.7</ele></trkpt>
            <trkpt lat="51.77676" lon="10.698497"><ele>844</ele></trkpt>
            <trkpt lat="51.776689" lon="10.698622"><ele>844</ele></trkpt>
            <trkpt lat="51.776551" lon="10.698511"><ele>822.6</ele></trkpt>
            <trkpt lat="51.775909" lon="10.698415"><ele>824.3</ele></trkpt>
            <trkpt lat="51.775881" lon="10.698373"><ele>824.7</ele></trkpt>
            <trkpt lat="51.775831" lon="10.698356"><ele>823.6</ele></trkpt>
            <trkpt lat="51.775771" lon="10.698354"><ele>822.6</ele></trkpt>
            <trkpt lat="51.775702" lon="10.698389"><ele>821.7</ele></trkpt>
            <trkpt lat="51.775597" lon="10.698301"><ele>820.1</ele></trkpt>
            <trkpt lat="51.775551" lon="10.698337"><ele>819.3</ele></trkpt>
            <trkpt lat="51.77551" lon="10.698328"><ele>818.6</ele></trkpt>
            <trkpt lat="51.775484" lon="10.698275"><ele>818</ele></trkpt>
            <trkpt lat="51.775393" lon="10.698231"><ele>817.4</ele></trkpt>
            <trkpt lat="51.775281" lon="10.698226"><ele>807</ele></trkpt>
            <trkpt lat="51.775187" lon="10.698154"><ele>807</ele></trkpt>
            <trkpt lat="51.775116" lon="10.697846"><ele>807</ele></trkpt>
            <trkpt lat="51.775091" lon="10.697783"><ele>807</ele></trkpt>
            <trkpt lat="51.775023" lon="10.697712"><ele>807</ele></trkpt>
            <trkpt lat="51.774974" lon="10.69761"><ele>790.7</ele></trkpt>
            <trkpt lat="51.774923" lon="10.697578"><ele>790.5</ele></trkpt>
            <trkpt lat="51.774915" lon="10.69699"><ele>790.2</ele></trkpt>
            <trkpt lat="51.774867" lon="10.696944"><ele>790.1</ele></trkpt>
            <trkpt lat="51.774848" lon="10.69687"><ele>790</ele></trkpt>
            <trkpt lat="51.774822" lon="10.696838"><ele>790</ele></trkpt>
            <trkpt lat="51.774812" lon="10.696772"><ele>789.9</ele></trkpt>
            <trkpt lat="51.77469" lon="10.696484"><ele>789.5</ele></trkpt>
            <trkpt lat="51.774573" lon="10.696307"><ele>787</ele></trkpt>
            <trkpt lat="51.774498" lon="10.696292"><ele>770</ele></trkpt>
            <trkpt lat="51.774388" lon="10.69634"><ele>770.4</ele></trkpt>
            <trkpt lat="51.774142" lon="10.696384"><ele>770.5</ele></trkpt>
            <trkpt lat="51.773913" lon="10.696263"><ele>768.5</ele></trkpt>
            <trkpt lat="51.773789" lon="10.696119"><ele>767.6</ele></trkpt>
            <trkpt lat="51.773682" lon="10.696051"><ele>766.7</ele></trkpt>
            <trkpt lat="51.773447" lon="10.695996"><ele>764</ele></trkpt>
            <trkpt lat="51.773289" lon="10.696013"><ele>763.2</ele></trkpt>
            <trkpt lat="51.773059" lon="10.69613"><ele>759.3</ele></trkpt>
            <trkpt lat="51.772715" lon="10.696405"><ele>754.1</ele></trkpt>
            <trkpt lat="51.772615" lon="10.696417"><ele>752.8</ele></trkpt>
            <trkpt lat="51.772253" lon="10.696655"><ele>721</ele></trkpt>
            <trkpt lat="51.772186" lon="10.69664"><ele>721</ele></trkpt>
            <trkpt lat="51.77217" lon="10.696636"><ele>721</ele></trkpt>
            <trkpt lat="51.772186" lon="10.69664"><ele>721</ele></trkpt>
            <trkpt lat="51.772253" lon="10.696655"><ele>721</ele></trkpt>
            <trkpt lat="51.772384" lon="10.695836"><ele>724.1</ele></trkpt>
            <trkpt lat="51.772456" lon="10.695245"><ele>724.7</ele></trkpt>
            <trkpt lat="51.772454" lon="10.69408"><ele>725.9</ele></trkpt>
            <trkpt lat="51.77249" lon="10.693843"><ele>725.7</ele></trkpt>
            <trkpt lat="51.772539" lon="10.693071"><ele>731.5</ele></trkpt>
            <trkpt lat="51.772518" lon="10.691411"><ele>744.4</ele></trkpt>
            <trkpt lat="51.77257" lon="10.691095"><ele>744.9</ele></trkpt>
            <trkpt lat="51.772658" lon="10.690726"><ele>745.5</ele></trkpt>
            <trkpt lat="51.772847" lon="10.69019"><ele>746</ele></trkpt>
            <trkpt lat="51.772896" lon="10.690008"><ele>746</ele></trkpt>
            <trkpt lat="51.77317" lon="10.687813"><ele>759.9</ele></trkpt>
            <trkpt lat="51.773222" lon="10.687243"><ele>759.9</ele></trkpt>
            <trkpt lat="51.773153" lon="10.686697"><ele>760.9</ele></trkpt>
            <trkpt lat="51.773163" lon="10.686367"><ele>761.5</ele></trkpt>
            <trkpt lat="51.773247" lon="10.68611"><ele>765</ele></trkpt>
            <trkpt lat="51.773289" lon="10.686064"><ele>765</ele></trkpt>
            <trkpt lat="51.773316" lon="10.685855"><ele>765</ele></trkpt>
            <trkpt lat="51.773352" lon="10.685594"><ele>770.3</ele></trkpt>
            <trkpt lat="51.773317" lon="10.685282"><ele>770</ele></trkpt>
            <trkpt lat="51.772986" lon="10.685087"><ele>762.2</ele></trkpt>
            <trkpt lat="51.772544" lon="10.685027"><ele>761.2</ele></trkpt>
            <trkpt lat="51.772012" lon="10.68481"><ele>756.8</ele></trkpt>
            <trkpt lat="51.771873" lon="10.684775"><ele>755.5</ele></trkpt>
            <trkpt lat="51.771709" lon="10.684693"><ele>753.4</ele></trkpt>
            <trkpt lat="51.771404" lon="10.684629"><ele>749</ele></trkpt>
            <trkpt lat="51.771272" lon="10.684562"><ele>748.6</ele></trkpt>
            <trkpt lat="51.770956" lon="10.684187"><ele>745.6</ele></trkpt>
            <trkpt lat="51.770766" lon="10.68391"><ele>743.9</ele></trkpt>
            <trkpt lat="51.770683" lon="10.683646"><ele>741.9</ele></trkpt>
            <trkpt lat="51.770632" lon="10.683595"><ele>741.2</ele></trkpt>
            <trkpt lat="51.770484" lon="10.683518"><ele>733</ele></trkpt>
            <trkpt lat="51.77052" lon="10.682647"><ele>738</ele></trkpt>
            <trkpt lat="51.770501" lon="10.682337"><ele>739.8</ele></trkpt>
            <trkpt lat="51.770237" lon="10.681115"><ele>746.1</ele></trkpt>
            <trkpt lat="51.770108" lon="10.680325"><ele>748.3</ele></trkpt>
            <trkpt lat="51.770128" lon="10.679755"><ele>749.9</ele></trkpt>
            <trkpt lat="51.770192" lon="10.679226"><ele>752</ele></trkpt>
            <trkpt lat="51.770151" lon="10.67911"><ele>752</ele></trkpt>
            <trkpt lat="51.770085" lon="10.679043"><ele>752</ele></trkpt>
            <trkpt lat="51.769878" lon="10.679028"><ele>741</ele></trkpt>
            <trkpt lat="51.769625" lon="10.677988"><ele>740</ele></trkpt>
            <trkpt lat="51.769616" lon="10.67784"><ele>739</ele></trkpt>
            <trkpt lat="51.769621" lon="10.677166"><ele>738.4</ele></trkpt>
            <trkpt lat="51.769642" lon="10.676843"><ele>738.4</ele></trkpt>
            <trkpt lat="51.769708" lon="10.676542"><ele>738.3</ele></trkpt>
            <trkpt lat="51.769845" lon="10.676111"><ele>738.3</ele></trkpt>
            <trkpt lat="51.769981" lon="10.675773"><ele>738</ele></trkpt>
            <trkpt lat="51.770394" lon="10.674835"><ele>752.2</ele></trkpt>
            <trkpt lat="51.770541" lon="10.674277"><ele>753</ele></trkpt>
            <trkpt lat="51.770585" lon="10.674016"><ele>753.9</ele></trkpt>
            <trkpt lat="51.770636" lon="10.673523"><ele>756.2</ele></trkpt>
            <trkpt lat="51.770696" lon="10.673239"><ele>756.5</ele></trkpt>
            <trkpt lat="51.770761" lon="10.673014"><ele>757.3</ele></trkpt>
            <trkpt lat="51.771068" lon="10.672207"><ele>763.1</ele></trkpt>
            <trkpt lat="51.771154" lon="10.671936"><ele>765.2</ele></trkpt>
            <trkpt lat="51.771451" lon="10.670694"><ele>769</ele></trkpt>
            <trkpt lat="51.771519" lon="10.670266"><ele>769.3</ele></trkpt>
            <trkpt lat="51.771528" lon="10.67012"><ele>769.6</ele></trkpt>
            <trkpt lat="51.771524" lon="10.669918"><ele>769.4</ele></trkpt>
            <trkpt lat="51.771453" lon="10.669017"><ele>769.1</ele></trkpt>
            <trkpt lat="51.771487" lon="10.668648"><ele>766</ele></trkpt>
            <trkpt lat="51.771633" lon="10.668656"><ele>772.8</ele></trkpt>
            <trkpt lat="51.77172" lon="10.668709"><ele>773.2</ele></trkpt>
            <trkpt lat="51.771811" lon="10.669018"><ele>773.9</ele></trkpt>
            <trkpt lat="51.771878" lon="10.669129"><ele>774.1</ele></trkpt>
            <trkpt lat="51.771931" lon="10.669178"><ele>774.6</ele></trkpt>
            <trkpt lat="51.772088" lon="10.669068"><ele>777</ele></trkpt>
            <trkpt lat="51.772147" lon="10.669095"><ele>777</ele></trkpt>
            <trkpt lat="51.772258" lon="10.669044"><ele>789.1</ele></trkpt>
            <trkpt lat="51.772509" lon="10.66887"><ele>791</ele></trkpt>
            <trkpt lat="51.772622" lon="10.668754"><ele>791.7</ele></trkpt>
            <trkpt lat="51.772867" lon="10.66843"><ele>792.8</ele></trkpt>
            <trkpt lat="51.773207" lon="10.667934"><ele>792.5</ele></trkpt>
            <trkpt lat="51.773247" lon="10.667832"><ele>793.5</ele></trkpt>
            <trkpt lat="51.773273" lon="10.667687"><ele>793.4</ele></trkpt>
            <trkpt lat="51.773399" lon="10.667517"><ele>795.3</ele></trkpt>
            <trkpt lat="51.773397" lon="10.667463"><ele>796.1</ele></trkpt>
            <trkpt lat="51.77349" lon="10.667254"><ele>796.9</ele></trkpt>
            <trkpt lat="51.773561" lon="10.667181"><ele>801</ele></trkpt>
            <trkpt lat="51.773603" lon="10.667138"><ele>805</ele></trkpt>
            <trkpt lat="51.773669" lon="10.667123"><ele>805</ele></trkpt>
            <trkpt lat="51.773758" lon="10.667163"><ele>808.3</ele></trkpt>
            <trkpt lat="51.773851" lon="10.667257"><ele>807.9</ele></trkpt>
            <trkpt lat="51.773999" lon="10.66741"><ele>807.5</ele></trkpt>
            <trkpt lat="51.774243" lon="10.667711"><ele>808.5</ele></trkpt>
            <trkpt lat="51.774363" lon="10.667965"><ele>809.3</ele></trkpt>
            <trkpt lat="51.774519" lon="10.668239"><ele>815</ele></trkpt>
            <trkpt lat="51.774742" lon="10.667635"><ele>818.8</ele></trkpt>
            <trkpt lat="51.774915" lon="10.667226"><ele>818</ele></trkpt>
            <trkpt lat="51.775111" lon="10.666933"><ele>827</ele></trkpt>
            <trkpt lat="51.775314" lon="10.666629"><ele>830.1</ele></trkpt>
            <trkpt lat="51.775385" lon="10.666555"><ele>830.1</ele></trkpt>
            <trkpt lat="51.775633" lon="10.666404"><ele>830.2</ele></trkpt>
            <trkpt lat="51.775719" lon="10.66632"><ele>829.8</ele></trkpt>
            <trkpt lat="51.775891" lon="10.666075"><ele>831.1</ele></trkpt>
            <trkpt lat="51.776152" lon="10.665851"><ele>832.7</ele></trkpt>
            <trkpt lat="51.776552" lon="10.665308"><ele>835.6</ele></trkpt>
            <trkpt lat="51.777047" lon="10.664963"><ele>840.1</ele></trkpt>
            <trkpt lat="51.777137" lon="10.66487"><ele>840.3</ele></trkpt>
            <trkpt lat="51.777502" lon="10.664346"><ele>841.6</ele></trkpt>
            <trkpt lat="51.777663" lon="10.66404"><ele>842.8</ele></trkpt>
            <trkpt lat="51.777777" lon="10.663768"><ele>843.4</ele></trkpt>
            <trkpt lat="51.777879" lon="10.663418"><ele>844</ele></trkpt>
            <trkpt lat="51.778011" lon="10.662863"><ele>845</ele></trkpt>
            <trkpt lat="51.778086" lon="10.662642"><ele>845.1</ele></trkpt>
            <trkpt lat="51.77838" lon="10.662107"><ele>846.3</ele></trkpt>
            <trkpt lat="51.778517" lon="10.661818"><ele>847.5</ele></trkpt>
            <trkpt lat="51.778654" lon="10.661431"><ele>848.4</ele></trkpt>
            <trkpt lat="51.778759" lon="10.661195"><ele>848.5</ele></trkpt>
            <trkpt lat="51.77896" lon="10.660811"><ele>849.3</ele></trkpt>
            <trkpt lat="51.779211" lon="10.660567"><ele>850.7</ele></trkpt>
            <trkpt lat="51.779331" lon="10.660377"><ele>851.9</ele></trkpt>
            <trkpt lat="51.779383" lon="10.660246"><ele>852.3</ele></trkpt>
            <trkpt lat="51.779537" lon="10.660025"><ele>853.8</ele></trkpt>
            <trkpt lat="51.77958" lon="10.659931"><ele>853.7</ele></trkpt>
            <trkpt lat="51.779659" lon="10.659672"><ele>854.1</ele></trkpt>
            <trkpt lat="51.779782" lon="10.65922"><ele>854.8</ele></trkpt>
            <trkpt lat="51.779852" lon="10.659058"><ele>855.3</ele></trkpt>
            <trkpt lat="51.78009" lon="10.658658"><ele>857.1</ele></trkpt>
            <trkpt lat="51.780287" lon="10.658366"><ele>857.8</ele></trkpt>
            <trkpt lat="51.780704" lon="10.657572"><ele>860</ele></trkpt>
            <trkpt lat="51.780811" lon="10.657455"><ele>860.4</ele></trkpt>
            <trkpt lat="51.781188" lon="10.657138"><ele>862</ele></trkpt>
            <trkpt lat="51.78178" lon="10.65682"><ele>864.2</ele></trkpt>
            <trkpt lat="51.782012" lon="10.656634"><ele>865.9</ele></trkpt>
            <trkpt lat="51.78248" lon="10.656435"><ele>868.4</ele></trkpt>
            <trkpt lat="51.782746" lon="10.656256"><ele>870.3</ele></trkpt>
            <trkpt lat="51.782925" lon="10.656068"><ele>871.7</ele></trkpt>
            <trkpt lat="51.783125" lon="10.655784"><ele>871.5</ele></trkpt>
            <trkpt lat="51.783283" lon="10.655606"><ele>871.9</ele></trkpt>
            <trkpt lat="51.783384" lon="10.65553"><ele>872.7</ele></trkpt>
            <trkpt lat="51.783722" lon="10.655473"><ele>874.3</ele></trkpt>
            <trkpt lat="51.783796" lon="10.655413"><ele>874.4</ele></trkpt>
            <trkpt lat="51.783908" lon="10.655304"><ele>874.6</ele></trkpt>
            <trkpt lat="51.784329" lon="10.654738"><ele>875.4</ele></trkpt>
            <trkpt lat="51.784664" lon="10.654463"><ele>876</ele></trkpt>
            <trkpt lat="51.784735" lon="10.654439"><ele>876</ele></trkpt>
            <trkpt lat="51.78486" lon="10.65445"><ele>876</ele></trkpt>
            <trkpt lat="51.784987" lon="10.654431"><ele>875.9</ele></trkpt>
            <trkpt lat="51.78525" lon="10.654288"><ele>876.7</ele></trkpt>
            <trkpt lat="51.785634" lon="10.654123"><ele>876.9</ele></trkpt>
            <trkpt lat="51.785818" lon="10.654008"><ele>876.9</ele></trkpt>
            <trkpt lat="51.785982" lon="10.653865"><ele>877</ele></trkpt>
            <trkpt lat="51.786089" lon="10.65371"><ele>877.1</ele></trkpt>
            <trkpt lat="51.786205" lon="10.653489"><ele>877.4</ele></trkpt>
            <trkpt lat="51.786282" lon="10.653397"><ele>877.4</ele></trkpt>
            <trkpt lat="51.786343" lon="10.653355"><ele>877.1</ele></trkpt>
            <trkpt lat="51.786799" lon="10.653277"><ele>876.2</ele></trkpt>
            <trkpt lat="51.786988" lon="10.653212"><ele>876.7</ele></trkpt>
            <trkpt lat="51.787528" lon="10.653159"><ele>878.6</ele></trkpt>
            <trkpt lat="51.787873" lon="10.652961"><ele>881.5</ele></trkpt>
            <trkpt lat="51.78835" lon="10.652549"><ele>896</ele></trkpt>
            <trkpt lat="51.788471" lon="10.652434"><ele>897.4</ele></trkpt>
            <trkpt lat="51.788549" lon="10.652312"><ele>897.5</ele></trkpt>
            <trkpt lat="51.788615" lon="10.652121"><ele>897.6</ele></trkpt>
            <trkpt lat="51.788705" lon="10.651937"><ele>897.7</ele></trkpt>
            <trkpt lat="51.788863" lon="10.651701"><ele>897.9</ele></trkpt>
            <trkpt lat="51.789153" lon="10.650958"><ele>898.1</ele></trkpt>
            <trkpt lat="51.789408" lon="10.650495"><ele>900.1</ele></trkpt>
            <trkpt lat="51.789459" lon="10.650281"><ele>901.1</ele></trkpt>
            <trkpt lat="51.789539" lon="10.649702"><ele>902.5</ele></trkpt>
            <trkpt lat="51.789742" lon="10.649119"><ele>903.5</ele></trkpt>
            <trkpt lat="51.789778" lon="10.648882"><ele>903.8</ele></trkpt>
            <trkpt lat="51.789795" lon="10.648297"><ele>903.2</ele></trkpt>
            <trkpt lat="51.789851" lon="10.647803"><ele>902.5</ele></trkpt>
            <trkpt lat="51.789959" lon="10.647272"><ele>901.7</ele></trkpt>
            <trkpt lat="51.789962" lon="10.647088"><ele>901.2</ele></trkpt>
            <trkpt lat="51.790008" lon="10.646939"><ele>901.7</ele></trkpt>
            <trkpt lat="51.790118" lon="10.646736"><ele>907</ele></trkpt>
            <trkpt lat="51.790213" lon="10.646194"><ele>906.2</ele></trkpt>
            <trkpt lat="51.790263" lon="10.645556"><ele>906</ele></trkpt>
            <trkpt lat="51.79058" lon="10.64519"><ele>906</ele></trkpt>
            <trkpt lat="51.790653" lon="10.645091"><ele>906</ele></trkpt>
            <trkpt lat="51.790684" lon="10.645005"><ele>906</ele></trkpt>
            <trkpt lat="51.790882" lon="10.644929"><ele>907.5</ele></trkpt>
            <trkpt lat="51.791025" lon="10.644841"><ele>907.8</ele></trkpt>
        </trkseg>
    </trk>
</gpx>
