<?xml version="1.0" encoding="UTF-8"?>
<gpx version="1.1" creator="HWN Route Compare (OpenRouteService)" xmlns="http://www.topografix.com/GPX/1/1">
    <metadata>
        <name>OpenRouteService – Tour B5</name>
    </metadata>
    <trk>
        <name>OpenRouteService – Tour B5</name>
        <trkseg>
            <trkpt lat="51.851929" lon="10.654632"><ele>523</ele></trkpt>
            <trkpt lat="51.85202" lon="10.65458"><ele>523</ele></trkpt>
            <trkpt lat="51.852022" lon="10.65447"><ele>521.3</ele></trkpt>
            <trkpt lat="51.852068" lon="10.654264"><ele>521.5</ele></trkpt>
            <trkpt lat="51.852365" lon="10.653374"><ele>520.6</ele></trkpt>
            <trkpt lat="51.852443" lon="10.652909"><ele>520.5</ele></trkpt>
            <trkpt lat="51.852509" lon="10.652682"><ele>520.2</ele></trkpt>
            <trkpt lat="51.852599" lon="10.652235"><ele>518.7</ele></trkpt>
            <trkpt lat="51.852707" lon="10.651966"><ele>518.4</ele></trkpt>
            <trkpt lat="51.852807" lon="10.651608"><ele>517.8</ele></trkpt>
            <trkpt lat="51.853238" lon="10.651084"><ele>516.4</ele></trkpt>
            <trkpt lat="51.853512" lon="10.65069"><ele>513</ele></trkpt>
            <trkpt lat="51.853388" lon="10.650545"><ele>515</ele></trkpt>
            <trkpt lat="51.853231" lon="10.650227"><ele>515.5</ele></trkpt>
            <trkpt lat="51.853008" lon="10.649599"><ele>518</ele></trkpt>
            <trkpt lat="51.852771" lon="10.648852"><ele>521.8</ele></trkpt>
            <trkpt lat="51.852659" lon="10.64835"><ele>522.1</ele></trkpt>
            <trkpt lat="51.852598" lon="10.647892"><ele>522.5</ele></trkpt>
            <trkpt lat="51.852564" lon="10.647451"><ele>523.3</ele></trkpt>
            <trkpt lat="51.85253" lon="10.647194"><ele>525</ele></trkpt>
            <trkpt lat="51.85239" lon="10.646989"><ele>510.5</ele></trkpt>
            <trkpt lat="51.852317" lon="10.646828"><ele>509.7</ele></trkpt>
            <trkpt lat="51.851793" lon="10.646216"><ele>507.5</ele></trkpt>
            <trkpt lat="51.851522" lon="10.645981"><ele>507</ele></trkpt>
            <trkpt lat="51.851298" lon="10.645852"><ele>505.3</ele></trkpt>
            <trkpt lat="51.85123" lon="10.645759"><ele>505.3</ele></trkpt>
            <trkpt lat="51.851174" lon="10.645743"><ele>505.6</ele></trkpt>
            <trkpt lat="51.851105" lon="10.645791"><ele>505.6</ele></trkpt>
            <trkpt lat="51.850973" lon="10.645997"><ele>504.9</ele></trkpt>
            <trkpt lat="51.850867" lon="10.646051"><ele>504.7</ele></trkpt>
            <trkpt lat="51.850751" lon="10.646421"><ele>503.8</ele></trkpt>
            <trkpt lat="51.850652" lon="10.646644"><ele>502.8</ele></trkpt>
            <trkpt lat="51.850306" lon="10.647129"><ele>499.2</ele></trkpt>
            <trkpt lat="51.850189" lon="10.647425"><ele>495.9</ele></trkpt>
            <trkpt lat="51.850085" lon="10.6482"><ele>487.9</ele></trkpt>
            <trkpt lat="51.85008" lon="10.648607"><ele>482.1</ele></trkpt>
            <trkpt lat="51.849931" lon="10.649141"><ele>473.5</ele></trkpt>
            <trkpt lat="51.849665" lon="10.649659"><ele>465</ele></trkpt>
            <trkpt lat="51.848699" lon="10.65061"><ele>450.7</ele></trkpt>
            <trkpt lat="51.848443" lon="10.65103"><ele>446.4</ele></trkpt>
            <trkpt lat="51.848226" lon="10.6515"><ele>444.9</ele></trkpt>
            <trkpt lat="51.847927" lon="10.651889"><ele>443</ele></trkpt>
            <trkpt lat="51.847494" lon="10.652874"><ele>424.4</ele></trkpt>
            <trkpt lat="51.847223" lon="10.653857"><ele>408.1</ele></trkpt>
            <trkpt lat="51.847094" lon="10.654422"><ele>400.1</ele></trkpt>
            <trkpt lat="51.846978" lon="10.654722"><ele>397.6</ele></trkpt>
            <trkpt lat="51.846866" lon="10.655325"><ele>387.5</ele></trkpt>
            <trkpt lat="51.846614" lon="10.655761"><ele>384.8</ele></trkpt>
            <trkpt lat="51.846373" lon="10.657025"><ele>373.1</ele></trkpt>
            <trkpt lat="51.84636" lon="10.657244"><ele>371.9</ele></trkpt>
            <trkpt lat="51.846379" lon="10.657417"><ele>363</ele></trkpt>
            <trkpt lat="51.846589" lon="10.658005"><ele>367</ele></trkpt>
            <trkpt lat="51.846716" lon="10.658333"><ele>365</ele></trkpt>
            <trkpt lat="51.846389" lon="10.658144"><ele>367</ele></trkpt>
            <trkpt lat="51.846055" lon="10.657907"><ele>367</ele></trkpt>
            <trkpt lat="51.845891" lon="10.657779"><ele>367</ele></trkpt>
            <trkpt lat="51.844728" lon="10.656175"><ele>380.8</ele></trkpt>
            <trkpt lat="51.84335" lon="10.654498"><ele>388.3</ele></trkpt>
            <trkpt lat="51.842773" lon="10.653905"><ele>387.3</ele></trkpt>
            <trkpt lat="51.842295" lon="10.653654"><ele>384</ele></trkpt>
            <trkpt lat="51.842116" lon="10.653554"><ele>386.6</ele></trkpt>
            <trkpt lat="51.841343" lon="10.653376"><ele>386.2</ele></trkpt>
            <trkpt lat="51.841202" lon="10.653327"><ele>386.7</ele></trkpt>
            <trkpt lat="51.841013" lon="10.653133"><ele>387.6</ele></trkpt>
            <trkpt lat="51.840892" lon="10.652961"><ele>391</ele></trkpt>
            <trkpt lat="51.840536" lon="10.65249"><ele>388.7</ele></trkpt>
            <trkpt lat="51.840346" lon="10.65228"><ele>388.6</ele></trkpt>
            <trkpt lat="51.840195" lon="10.65215"><ele>388</ele></trkpt>
            <trkpt lat="51.839901" lon="10.652001"><ele>403.2</ele></trkpt>
            <trkpt lat="51.839843" lon="10.651918"><ele>404</ele></trkpt>
            <trkpt lat="51.83981" lon="10.651805"><ele>408</ele></trkpt>
            <trkpt lat="51.839721" lon="10.651967"><ele>408.3</ele></trkpt>
            <trkpt lat="51.839644" lon="10.652429"><ele>408.4</ele></trkpt>
            <trkpt lat="51.839625" lon="10.653021"><ele>408.4</ele></trkpt>
            <trkpt lat="51.839593" lon="10.653321"><ele>409.7</ele></trkpt>
            <trkpt lat="51.839228" lon="10.654264"><ele>412.6</ele></trkpt>
            <trkpt lat="51.839173" lon="10.65459"><ele>417.3</ele></trkpt>
            <trkpt lat="51.839084" lon="10.655314"><ele>420</ele></trkpt>
            <trkpt lat="51.838885" lon="10.656705"><ele>429</ele></trkpt>
            <trkpt lat="51.838739" lon="10.657061"><ele>442.1</ele></trkpt>
            <trkpt lat="51.83863" lon="10.657271"><ele>444.4</ele></trkpt>
            <trkpt lat="51.838558" lon="10.65736"><ele>445.3</ele></trkpt>
            <trkpt lat="51.838438" lon="10.657454"><ele>446.4</ele></trkpt>
            <trkpt lat="51.838296" lon="10.657469"><ele>447.4</ele></trkpt>
            <trkpt lat="51.838167" lon="10.657394"><ele>447.5</ele></trkpt>
            <trkpt lat="51.838088" lon="10.6573"><ele>447.6</ele></trkpt>
            <trkpt lat="51.837857" lon="10.656634"><ele>447.7</ele></trkpt>
            <trkpt lat="51.837744" lon="10.656468"><ele>447.8</ele></trkpt>
            <trkpt lat="51.837686" lon="10.656421"><ele>447.8</ele></trkpt>
            <trkpt lat="51.837632" lon="10.656421"><ele>447.9</ele></trkpt>
            <trkpt lat="51.837572" lon="10.656455"><ele>447.9</ele></trkpt>
            <trkpt lat="51.837516" lon="10.656531"><ele>449.3</ele></trkpt>
            <trkpt lat="51.837463" lon="10.656685"><ele>450.4</ele></trkpt>
            <trkpt lat="51.837292" lon="10.657491"><ele>452</ele></trkpt>
            <trkpt lat="51.836976" lon="10.658695"><ele>471.8</ele></trkpt>
            <trkpt lat="51.836854" lon="10.65925"><ele>475.5</ele></trkpt>
            <trkpt lat="51.836853" lon="10.659404"><ele>476.5</ele></trkpt>
            <trkpt lat="51.836895" lon="10.659765"><ele>479.3</ele></trkpt>
            <trkpt lat="51.836875" lon="10.659934"><ele>480</ele></trkpt>
            <trkpt lat="51.83682" lon="10.660007"><ele>480.7</ele></trkpt>
            <trkpt lat="51.836722" lon="10.660039"><ele>481.6</ele></trkpt>
            <trkpt lat="51.83632" lon="10.660017"><ele>482.1</ele></trkpt>
            <trkpt lat="51.836249" lon="10.660115"><ele>481.8</ele></trkpt>
            <trkpt lat="51.836222" lon="10.660306"><ele>481.5</ele></trkpt>
            <trkpt lat="51.836368" lon="10.660904"><ele>481.8</ele></trkpt>
            <trkpt lat="51.836373" lon="10.661099"><ele>481.7</ele></trkpt>
            <trkpt lat="51.836356" lon="10.661191"><ele>481.5</ele></trkpt>
            <trkpt lat="51.836318" lon="10.66128"><ele>481.6</ele></trkpt>
            <trkpt lat="51.836191" lon="10.661478"><ele>481.7</ele></trkpt>
            <trkpt lat="51.835979" lon="10.661725"><ele>486</ele></trkpt>
            <trkpt lat="51.83558" lon="10.662272"><ele>492</ele></trkpt>
            <trkpt lat="51.835068" lon="10.66296"><ele>501.6</ele></trkpt>
            <trkpt lat="51.834924" lon="10.663327"><ele>505</ele></trkpt>
            <trkpt lat="51.834904" lon="10.663577"><ele>506.3</ele></trkpt>
            <trkpt lat="51.834911" lon="10.664147"><ele>508.4</ele></trkpt>
            <trkpt lat="51.834876" lon="10.664258"><ele>510.1</ele></trkpt>
            <trkpt lat="51.834771" lon="10.664381"><ele>511.5</ele></trkpt>
            <trkpt lat="51.834225" lon="10.664653"><ele>513.2</ele></trkpt>
            <trkpt lat="51.834047" lon="10.664787"><ele>515.7</ele></trkpt>
            <trkpt lat="51.83393" lon="10.665068"><ele>516.3</ele></trkpt>
            <trkpt lat="51.833876" lon="10.665338"><ele>517.2</ele></trkpt>
            <trkpt lat="51.833847" lon="10.665914"><ele>518</ele></trkpt>
            <trkpt lat="51.833577" lon="10.668503"><ele>536.5</ele></trkpt>
            <trkpt lat="51.833516" lon="10.668769"><ele>536.5</ele></trkpt>
            <trkpt lat="51.833393" lon="10.669716"><ele>537.9</ele></trkpt>
            <trkpt lat="51.833351" lon="10.669863"><ele>539</ele></trkpt>
            <trkpt lat="51.83332" lon="10.670039"><ele>545</ele></trkpt>
            <trkpt lat="51.833197" lon="10.670091"><ele>546.7</ele></trkpt>
            <trkpt lat="51.832999" lon="10.670213"><ele>547</ele></trkpt>
            <trkpt lat="51.832694" lon="10.670276"><ele>547.2</ele></trkpt>
            <trkpt lat="51.832459" lon="10.670253"><ele>547.6</ele></trkpt>
            <trkpt lat="51.832259" lon="10.670175"><ele>547.5</ele></trkpt>
            <trkpt lat="51.832053" lon="10.669944"><ele>551</ele></trkpt>
            <trkpt lat="51.831903" lon="10.669786"><ele>551</ele></trkpt>
            <trkpt lat="51.831592" lon="10.669334"><ele>551.8</ele></trkpt>
            <trkpt lat="51.831491" lon="10.669231"><ele>552</ele></trkpt>
            <trkpt lat="51.830967" lon="10.669211"><ele>554.7</ele></trkpt>
            <trkpt lat="51.830824" lon="10.669246"><ele>555.6</ele></trkpt>
            <trkpt lat="51.830715" lon="10.669303"><ele>555.8</ele></trkpt>
            <trkpt lat="51.830389" lon="10.669683"><ele>556.7</ele></trkpt>
            <trkpt lat="51.829998" lon="10.67027"><ele>558.6</ele></trkpt>
            <trkpt lat="51.829697" lon="10.670841"><ele>559.5</ele></trkpt>
            <trkpt lat="51.829559" lon="10.671033"><ele>559.3</ele></trkpt>
            <trkpt lat="51.829266" lon="10.671329"><ele>560.6</ele></trkpt>
            <trkpt lat="51.829034" lon="10.671619"><ele>562.6</ele></trkpt>
            <trkpt lat="51.828533" lon="10.672642"><ele>565.3</ele></trkpt>
            <trkpt lat="51.82841" lon="10.672812"><ele>565.2</ele></trkpt>
            <trkpt lat="51.828156" lon="10.672975"><ele>566.6</ele></trkpt>
            <trkpt lat="51.828047" lon="10.673072"><ele>566.8</ele></trkpt>
            <trkpt lat="51.8277" lon="10.673583"><ele>567.1</ele></trkpt>
            <trkpt lat="51.827324" lon="10.673911"><ele>568</ele></trkpt>
            <trkpt lat="51.827207" lon="10.674057"><ele>569.8</ele></trkpt>
            <trkpt lat="51.826957" lon="10.674464"><ele>569.9</ele></trkpt>
            <trkpt lat="51.826697" lon="10.674726"><ele>571.7</ele></trkpt>
            <trkpt lat="51.826192" lon="10.675121"><ele>581.2</ele></trkpt>
            <trkpt lat="51.825511" lon="10.675564"><ele>592.1</ele></trkpt>
            <trkpt lat="51.825211" lon="10.675936"><ele>597</ele></trkpt>
            <trkpt lat="51.825031" lon="10.676228"><ele>597.4</ele></trkpt>
            <trkpt lat="51.82486" lon="10.676551"><ele>601</ele></trkpt>
            <trkpt lat="51.824718" lon="10.676864"><ele>601.2</ele></trkpt>
            <trkpt lat="51.824321" lon="10.677877"><ele>602.9</ele></trkpt>
            <trkpt lat="51.824146" lon="10.678226"><ele>604</ele></trkpt>
            <trkpt lat="51.824046" lon="10.678355"><ele>599</ele></trkpt>
            <trkpt lat="51.823782" lon="10.678052"><ele>615</ele></trkpt>
            <trkpt lat="51.823669" lon="10.677882"><ele>615.6</ele></trkpt>
            <trkpt lat="51.823545" lon="10.677803"><ele>615.5</ele></trkpt>
            <trkpt lat="51.823274" lon="10.677573"><ele>616.2</ele></trkpt>
            <trkpt lat="51.823191" lon="10.677469"><ele>617.1</ele></trkpt>
            <trkpt lat="51.822922" lon="10.676869"><ele>619.8</ele></trkpt>
            <trkpt lat="51.822876" lon="10.676692"><ele>620.4</ele></trkpt>
            <trkpt lat="51.822864" lon="10.676562"><ele>621.5</ele></trkpt>
            <trkpt lat="51.822866" lon="10.676274"><ele>624</ele></trkpt>
            <trkpt lat="51.822845" lon="10.67608"><ele>624.9</ele></trkpt>
            <trkpt lat="51.822846" lon="10.67583"><ele>626.9</ele></trkpt>
            <trkpt lat="51.822828" lon="10.675635"><ele>628.9</ele></trkpt>
            <trkpt lat="51.822702" lon="10.674671"><ele>635.1</ele></trkpt>
            <trkpt lat="51.822655" lon="10.674431"><ele>636.8</ele></trkpt>
            <trkpt lat="51.822645" lon="10.674284"><ele>637.2</ele></trkpt>
            <trkpt lat="51.82266" lon="10.673755"><ele>639.1</ele></trkpt>
            <trkpt lat="51.822628" lon="10.673459"><ele>639.7</ele></trkpt>
            <trkpt lat="51.822605" lon="10.673366"><ele>639.7</ele></trkpt>
            <trkpt lat="51.822557" lon="10.673277"><ele>640.1</ele></trkpt>
            <trkpt lat="51.822269" lon="10.672929"><ele>642.8</ele></trkpt>
            <trkpt lat="51.822164" lon="10.672575"><ele>644.2</ele></trkpt>
            <trkpt lat="51.82214" lon="10.672422"><ele>649</ele></trkpt>
            <trkpt lat="51.822094" lon="10.672198"><ele>655.7</ele></trkpt>
            <trkpt lat="51.821989" lon="10.671896"><ele>654.9</ele></trkpt>
            <trkpt lat="51.821743" lon="10.671367"><ele>653.8</ele></trkpt>
            <trkpt lat="51.821693" lon="10.671332"><ele>653.3</ele></trkpt>
            <trkpt lat="51.821663" lon="10.671366"><ele>676</ele></trkpt>
            <trkpt lat="51.82162" lon="10.671342"><ele>677.4</ele></trkpt>
            <trkpt lat="51.82159" lon="10.671292"><ele>677.9</ele></trkpt>
            <trkpt lat="51.821364" lon="10.670822"><ele>677.6</ele></trkpt>
            <trkpt lat="51.820983" lon="10.670342"><ele>676.9</ele></trkpt>
            <trkpt lat="51.820945" lon="10.670325"><ele>676.8</ele></trkpt>
            <trkpt lat="51.82091" lon="10.670351"><ele>676.6</ele></trkpt>
            <trkpt lat="51.820797" lon="10.670521"><ele>677.1</ele></trkpt>
            <trkpt lat="51.820676" lon="10.670604"><ele>678.4</ele></trkpt>
            <trkpt lat="51.820354" lon="10.670556"><ele>689</ele></trkpt>
            <trkpt lat="51.820151" lon="10.670485"><ele>690.2</ele></trkpt>
            <trkpt lat="51.820021" lon="10.670569"><ele>690</ele></trkpt>
            <trkpt lat="51.819756" lon="10.670606"><ele>690.6</ele></trkpt>
            <trkpt lat="51.819485" lon="10.670536"><ele>695</ele></trkpt>
            <trkpt lat="51.819484" lon="10.670516"><ele>694.4</ele></trkpt>
            <trkpt lat="51.819485" lon="10.670536"><ele>695</ele></trkpt>
            <trkpt lat="51.819756" lon="10.670606"><ele>690.6</ele></trkpt>
            <trkpt lat="51.820021" lon="10.670569"><ele>690</ele></trkpt>
            <trkpt lat="51.820151" lon="10.670485"><ele>690.2</ele></trkpt>
            <trkpt lat="51.820354" lon="10.670556"><ele>689</ele></trkpt>
            <trkpt lat="51.820676" lon="10.670604"><ele>678.4</ele></trkpt>
            <trkpt lat="51.820797" lon="10.670521"><ele>677.1</ele></trkpt>
            <trkpt lat="51.82091" lon="10.670351"><ele>676.6</ele></trkpt>
            <trkpt lat="51.820945" lon="10.670325"><ele>676.8</ele></trkpt>
            <trkpt lat="51.820983" lon="10.670342"><ele>676.9</ele></trkpt>
            <trkpt lat="51.821364" lon="10.670822"><ele>677.6</ele></trkpt>
            <trkpt lat="51.82159" lon="10.671292"><ele>677.9</ele></trkpt>
            <trkpt lat="51.82162" lon="10.671342"><ele>677.4</ele></trkpt>
            <trkpt lat="51.821663" lon="10.671366"><ele>676</ele></trkpt>
            <trkpt lat="51.821693" lon="10.671332"><ele>653.3</ele></trkpt>
            <trkpt lat="51.821743" lon="10.671367"><ele>653.8</ele></trkpt>
            <trkpt lat="51.821989" lon="10.671896"><ele>654.9</ele></trkpt>
            <trkpt lat="51.822094" lon="10.672198"><ele>655.7</ele></trkpt>
            <trkpt lat="51.82214" lon="10.672422"><ele>649</ele></trkpt>
            <trkpt lat="51.822164" lon="10.672575"><ele>644.2</ele></trkpt>
            <trkpt lat="51.822269" lon="10.672929"><ele>642.8</ele></trkpt>
            <trkpt lat="51.822557" lon="10.673277"><ele>640.1</ele></trkpt>
            <trkpt lat="51.822605" lon="10.673366"><ele>639.7</ele></trkpt>
            <trkpt lat="51.822628" lon="10.673459"><ele>639.7</ele></trkpt>
            <trkpt lat="51.82266" lon="10.673755"><ele>639.1</ele></trkpt>
            <trkpt lat="51.822645" lon="10.674284"><ele>637.2</ele></trkpt>
            <trkpt lat="51.822655" lon="10.674431"><ele>636.8</ele></trkpt>
            <trkpt lat="51.822702" lon="10.674671"><ele>635.1</ele></trkpt>
            <trkpt lat="51.822828" lon="10.675635"><ele>628.9</ele></trkpt>
            <trkpt lat="51.822846" lon="10.67583"><ele>626.9</ele></trkpt>
            <trkpt lat="51.822845" lon="10.67608"><ele>624.9</ele></trkpt>
            <trkpt lat="51.822866" lon="10.676274"><ele>624</ele></trkpt>
            <trkpt lat="51.822864" lon="10.676562"><ele>621.5</ele></trkpt>
            <trkpt lat="51.822876" lon="10.676692"><ele>620.4</ele></trkpt>
            <trkpt lat="51.822922" lon="10.676869"><ele>619.8</ele></trkpt>
            <trkpt lat="51.823191" lon="10.677469"><ele>617.1</ele></trkpt>
            <trkpt lat="51.823274" lon="10.677573"><ele>616.2</ele></trkpt>
            <trkpt lat="51.823545" lon="10.677803"><ele>615.5</ele></trkpt>
            <trkpt lat="51.823669" lon="10.677882"><ele>615.6</ele></trkpt>
            <trkpt lat="51.823782" lon="10.678052"><ele>615</ele></trkpt>
            <trkpt lat="51.824046" lon="10.678355"><ele>599</ele></trkpt>
            <trkpt lat="51.82381" lon="10.678621"><ele>599.3</ele></trkpt>
            <trkpt lat="51.823139" lon="10.679279"><ele>600</ele></trkpt>
            <trkpt lat="51.822597" lon="10.679785"><ele>599.9</ele></trkpt>
            <trkpt lat="51.822342" lon="10.680064"><ele>599.8</ele></trkpt>
            <trkpt lat="51.821651" lon="10.680895"><ele>600</ele></trkpt>
            <trkpt lat="51.821333" lon="10.681145"><ele>600.8</ele></trkpt>
            <trkpt lat="51.821074" lon="10.681256"><ele>600.7</ele></trkpt>
            <trkpt lat="51.820846" lon="10.681314"><ele>600.6</ele></trkpt>
            <trkpt lat="51.820556" lon="10.68134"><ele>601.4</ele></trkpt>
            <trkpt lat="51.820166" lon="10.681412"><ele>601.8</ele></trkpt>
            <trkpt lat="51.819392" lon="10.681637"><ele>602.7</ele></trkpt>
            <trkpt lat="51.819073" lon="10.681799"><ele>600.2</ele></trkpt>
            <trkpt lat="51.818604" lon="10.682134"><ele>590</ele></trkpt>
            <trkpt lat="51.818163" lon="10.682574"><ele>587.4</ele></trkpt>
            <trkpt lat="51.817984" lon="10.682783"><ele>586.6</ele></trkpt>
            <trkpt lat="51.817617" lon="10.683077"><ele>584</ele></trkpt>
            <trkpt lat="51.817274" lon="10.683243"><ele>581.9</ele></trkpt>
            <trkpt lat="51.816863" lon="10.683363"><ele>581.8</ele></trkpt>
            <trkpt lat="51.816409" lon="10.683443"><ele>581.6</ele></trkpt>
            <trkpt lat="51.816276" lon="10.683524"><ele>581.3</ele></trkpt>
            <trkpt lat="51.816055" lon="10.683731"><ele>581.3</ele></trkpt>
            <trkpt lat="51.81528" lon="10.684648"><ele>582</ele></trkpt>
            <trkpt lat="51.814913" lon="10.685167"><ele>579.5</ele></trkpt>
            <trkpt lat="51.814636" lon="10.685595"><ele>579.3</ele></trkpt>
            <trkpt lat="51.814388" lon="10.685931"><ele>578.9</ele></trkpt>
            <trkpt lat="51.814294" lon="10.686169"><ele>578.6</ele></trkpt>
            <trkpt lat="51.814243" lon="10.686463"><ele>578.6</ele></trkpt>
            <trkpt lat="51.814156" lon="10.686758"><ele>577.9</ele></trkpt>
            <trkpt lat="51.813703" lon="10.687713"><ele>575</ele></trkpt>
            <trkpt lat="51.813531" lon="10.687955"><ele>575.8</ele></trkpt>
            <trkpt lat="51.813376" lon="10.688093"><ele>575.7</ele></trkpt>
            <trkpt lat="51.812808" lon="10.688439"><ele>575.5</ele></trkpt>
            <trkpt lat="51.812384" lon="10.688949"><ele>578</ele></trkpt>
            <trkpt lat="51.812016" lon="10.688791"><ele>581.1</ele></trkpt>
            <trkpt lat="51.810656" lon="10.688295"><ele>595.2</ele></trkpt>
            <trkpt lat="51.810551" lon="10.688301"><ele>596.1</ele></trkpt>
            <trkpt lat="51.81043" lon="10.688377"><ele>596</ele></trkpt>
            <trkpt lat="51.810149" lon="10.688955"><ele>595.1</ele></trkpt>
            <trkpt lat="51.809852" lon="10.689322"><ele>594.7</ele></trkpt>
            <trkpt lat="51.809703" lon="10.689444"><ele>595.1</ele></trkpt>
            <trkpt lat="51.809563" lon="10.689483"><ele>594.6</ele></trkpt>
            <trkpt lat="51.809421" lon="10.68945"><ele>593.7</ele></trkpt>
            <trkpt lat="51.808834" lon="10.68855"><ele>590.3</ele></trkpt>
            <trkpt lat="51.808748" lon="10.688448"><ele>589.4</ele></trkpt>
            <trkpt lat="51.808596" lon="10.688325"><ele>588.7</ele></trkpt>
            <trkpt lat="51.808465" lon="10.688314"><ele>587.9</ele></trkpt>
            <trkpt lat="51.80825" lon="10.688218"><ele>586</ele></trkpt>
            <trkpt lat="51.807859" lon="10.688258"><ele>585.8</ele></trkpt>
            <trkpt lat="51.807628" lon="10.688345"><ele>585.5</ele></trkpt>
            <trkpt lat="51.807414" lon="10.688467"><ele>585.9</ele></trkpt>
            <trkpt lat="51.807106" lon="10.6887"><ele>585.8</ele></trkpt>
            <trkpt lat="51.806968" lon="10.688843"><ele>585.7</ele></trkpt>
            <trkpt lat="51.806861" lon="10.688988"><ele>585.6</ele></trkpt>
            <trkpt lat="51.806567" lon="10.689635"><ele>585.8</ele></trkpt>
            <trkpt lat="51.806478" lon="10.689793"><ele>591</ele></trkpt>
            <trkpt lat="51.806142" lon="10.690221"><ele>587.8</ele></trkpt>
            <trkpt lat="51.806054" lon="10.690365"><ele>587.8</ele></trkpt>
            <trkpt lat="51.80599" lon="10.690504"><ele>587.5</ele></trkpt>
            <trkpt lat="51.805834" lon="10.691026"><ele>587.1</ele></trkpt>
            <trkpt lat="51.80576" lon="10.69117"><ele>588.9</ele></trkpt>
            <trkpt lat="51.805556" lon="10.691324"><ele>589.2</ele></trkpt>
            <trkpt lat="51.804928" lon="10.691495"><ele>591.8</ele></trkpt>
            <trkpt lat="51.804466" lon="10.69165"><ele>608</ele></trkpt>
            <trkpt lat="51.804477" lon="10.692002"><ele>594.1</ele></trkpt>
            <trkpt lat="51.804445" lon="10.692357"><ele>594.4</ele></trkpt>
            <trkpt lat="51.804188" lon="10.693472"><ele>581</ele></trkpt>
            <trkpt lat="51.804135" lon="10.693788"><ele>582.6</ele></trkpt>
            <trkpt lat="51.804118" lon="10.69401"><ele>582.6</ele></trkpt>
            <trkpt lat="51.804115" lon="10.694278"><ele>582.7</ele></trkpt>
            <trkpt lat="51.80414" lon="10.694554"><ele>583</ele></trkpt>
            <trkpt lat="51.804153" lon="10.694847"><ele>583</ele></trkpt>
            <trkpt lat="51.804164" lon="10.695081"><ele>576.4</ele></trkpt>
            <trkpt lat="51.804264" lon="10.695627"><ele>575.7</ele></trkpt>
            <trkpt lat="51.804276" lon="10.695787"><ele>575.4</ele></trkpt>
            <trkpt lat="51.804266" lon="10.696069"><ele>575.1</ele></trkpt>
            <trkpt lat="51.804175" lon="10.696735"><ele>574.2</ele></trkpt>
            <trkpt lat="51.8042" lon="10.697058"><ele>573.6</ele></trkpt>
            <trkpt lat="51.804309" lon="10.697489"><ele>572.4</ele></trkpt>
            <trkpt lat="51.804451" lon="10.697929"><ele>571.6</ele></trkpt>
            <trkpt lat="51.804498" lon="10.698184"><ele>571</ele></trkpt>
            <trkpt lat="51.804526" lon="10.698441"><ele>570.4</ele></trkpt>
            <trkpt lat="51.80457" lon="10.69863"><ele>569.4</ele></trkpt>
            <trkpt lat="51.804656" lon="10.6988"><ele>568.7</ele></trkpt>
            <trkpt lat="51.804819" lon="10.69904"><ele>567.6</ele></trkpt>
            <trkpt lat="51.804985" lon="10.69923"><ele>564</ele></trkpt>
            <trkpt lat="51.804935" lon="10.699248"><ele>564</ele></trkpt>
            <trkpt lat="51.804748" lon="10.699227"><ele>564</ele></trkpt>
            <trkpt lat="51.804715" lon="10.699262"><ele>564</ele></trkpt>
            <trkpt lat="51.804876" lon="10.699642"><ele>564</ele></trkpt>
            <trkpt lat="51.804944" lon="10.699769"><ele>564</ele></trkpt>
            <trkpt lat="51.804967" lon="10.69981"><ele>564</ele></trkpt>
            <trkpt lat="51.804938" lon="10.699852"><ele>564</ele></trkpt>
            <trkpt lat="51.804949" lon="10.699873"><ele>564</ele></trkpt>
            <trkpt lat="51.805" lon="10.69982"><ele>556.7</ele></trkpt>
            <trkpt lat="51.805107" lon="10.700019"><ele>547</ele></trkpt>
            <trkpt lat="51.805314" lon="10.70028"><ele>546.8</ele></trkpt>
            <trkpt lat="51.805455" lon="10.700391"><ele>546.8</ele></trkpt>
            <trkpt lat="51.805562" lon="10.700506"><ele>546.8</ele></trkpt>
            <trkpt lat="51.805668" lon="10.700632"><ele>546.8</ele></trkpt>
            <trkpt lat="51.805867" lon="10.700945"><ele>546.8</ele></trkpt>
            <trkpt lat="51.805972" lon="10.70103"><ele>546</ele></trkpt>
            <trkpt lat="51.805979" lon="10.701168"><ele>546</ele></trkpt>
            <trkpt lat="51.805978" lon="10.70125"><ele>546</ele></trkpt>
            <trkpt lat="51.805963" lon="10.701547"><ele>539.3</ele></trkpt>
            <trkpt lat="51.805978" lon="10.701644"><ele>539.8</ele></trkpt>
            <trkpt lat="51.806085" lon="10.701876"><ele>537.8</ele></trkpt>
            <trkpt lat="51.80614" lon="10.701953"><ele>537.5</ele></trkpt>
            <trkpt lat="51.806206" lon="10.702"><ele>537</ele></trkpt>
            <trkpt lat="51.806315" lon="10.702025"><ele>536.6</ele></trkpt>
            <trkpt lat="51.806739" lon="10.701955"><ele>538</ele></trkpt>
            <trkpt lat="51.807246" lon="10.702073"><ele>539.4</ele></trkpt>
            <trkpt lat="51.807469" lon="10.702067"><ele>541.1</ele></trkpt>
            <trkpt lat="51.807989" lon="10.702191"><ele>545.9</ele></trkpt>
            <trkpt lat="51.808662" lon="10.702516"><ele>539.9</ele></trkpt>
            <trkpt lat="51.809007" lon="10.702582"><ele>538.3</ele></trkpt>
            <trkpt lat="51.809551" lon="10.70276"><ele>534.6</ele></trkpt>
            <trkpt lat="51.809744" lon="10.702739"><ele>533.3</ele></trkpt>
            <trkpt lat="51.809869" lon="10.702574"><ele>533.6</ele></trkpt>
            <trkpt lat="51.809895" lon="10.702503"><ele>533.6</ele></trkpt>
            <trkpt lat="51.809962" lon="10.70221"><ele>535</ele></trkpt>
            <trkpt lat="51.810013" lon="10.701892"><ele>535.6</ele></trkpt>
            <trkpt lat="51.810072" lon="10.701433"><ele>535.8</ele></trkpt>
            <trkpt lat="51.810088" lon="10.701181"><ele>536.5</ele></trkpt>
            <trkpt lat="51.810081" lon="10.70029"><ele>540</ele></trkpt>
            <trkpt lat="51.810076" lon="10.700245"><ele>540</ele></trkpt>
            <trkpt lat="51.810049" lon="10.700057"><ele>542.6</ele></trkpt>
            <trkpt lat="51.810052" lon="10.699867"><ele>542.9</ele></trkpt>
            <trkpt lat="51.810098" lon="10.69969"><ele>543.1</ele></trkpt>
            <trkpt lat="51.810275" lon="10.6994"><ele>543.6</ele></trkpt>
            <trkpt lat="51.810369" lon="10.699324"><ele>545</ele></trkpt>
            <trkpt lat="51.810475" lon="10.699344"><ele>545</ele></trkpt>
            <trkpt lat="51.810545" lon="10.699366"><ele>545</ele></trkpt>
            <trkpt lat="51.8106" lon="10.699425"><ele>545</ele></trkpt>
            <trkpt lat="51.810644" lon="10.699523"><ele>545</ele></trkpt>
            <trkpt lat="51.810716" lon="10.699809"><ele>545</ele></trkpt>
            <trkpt lat="51.810843" lon="10.699786"><ele>544</ele></trkpt>
            <trkpt lat="51.810928" lon="10.700332"><ele>538</ele></trkpt>
            <trkpt lat="51.811048" lon="10.700751"><ele>528.5</ele></trkpt>
            <trkpt lat="51.811257" lon="10.701665"><ele>526.5</ele></trkpt>
            <trkpt lat="51.811356" lon="10.70188"><ele>525.2</ele></trkpt>
            <trkpt lat="51.811715" lon="10.702545"><ele>522.5</ele></trkpt>
            <trkpt lat="51.811997" lon="10.702924"><ele>518.1</ele></trkpt>
            <trkpt lat="51.812171" lon="10.703349"><ele>514.3</ele></trkpt>
            <trkpt lat="51.81244" lon="10.703846"><ele>512.1</ele></trkpt>
            <trkpt lat="51.812741" lon="10.704334"><ele>509.9</ele></trkpt>
            <trkpt lat="51.812821" lon="10.704524"><ele>509</ele></trkpt>
            <trkpt lat="51.812851" lon="10.704688"><ele>509</ele></trkpt>
            <trkpt lat="51.812902" lon="10.704807"><ele>509</ele></trkpt>
            <trkpt lat="51.812954" lon="10.704863"><ele>509</ele></trkpt>
            <trkpt lat="51.81301" lon="10.704888"><ele>509</ele></trkpt>
            <trkpt lat="51.8131" lon="10.704888"><ele>513.6</ele></trkpt>
            <trkpt lat="51.813213" lon="10.704834"><ele>513.8</ele></trkpt>
            <trkpt lat="51.813301" lon="10.704723"><ele>514.1</ele></trkpt>
            <trkpt lat="51.813382" lon="10.704577"><ele>514.1</ele></trkpt>
            <trkpt lat="51.813533" lon="10.704136"><ele>517</ele></trkpt>
            <trkpt lat="51.814001" lon="10.703253"><ele>519.7</ele></trkpt>
            <trkpt lat="51.814129" lon="10.703039"><ele>521.8</ele></trkpt>
            <trkpt lat="51.814319" lon="10.702833"><ele>523.2</ele></trkpt>
            <trkpt lat="51.814435" lon="10.702773"><ele>522.5</ele></trkpt>
            <trkpt lat="51.814554" lon="10.702753"><ele>521.9</ele></trkpt>
            <trkpt lat="51.814773" lon="10.702784"><ele>520.8</ele></trkpt>
            <trkpt lat="51.814928" lon="10.702842"><ele>520.3</ele></trkpt>
            <trkpt lat="51.815112" lon="10.702968"><ele>504</ele></trkpt>
            <trkpt lat="51.815191" lon="10.702811"><ele>499</ele></trkpt>
            <trkpt lat="51.81525" lon="10.702746"><ele>499.4</ele></trkpt>
            <trkpt lat="51.815342" lon="10.702766"><ele>499.7</ele></trkpt>
            <trkpt lat="51.815432" lon="10.702867"><ele>499.5</ele></trkpt>
            <trkpt lat="51.815636" lon="10.703236"><ele>498.7</ele></trkpt>
            <trkpt lat="51.815715" lon="10.703453"><ele>497.1</ele></trkpt>
            <trkpt lat="51.815786" lon="10.70385"><ele>495.9</ele></trkpt>
            <trkpt lat="51.815868" lon="10.704139"><ele>495.8</ele></trkpt>
            <trkpt lat="51.815934" lon="10.704292"><ele>495.1</ele></trkpt>
            <trkpt lat="51.816014" lon="10.704373"><ele>494.6</ele></trkpt>
            <trkpt lat="51.816255" lon="10.704493"><ele>491.9</ele></trkpt>
            <trkpt lat="51.816345" lon="10.704574"><ele>491.1</ele></trkpt>
            <trkpt lat="51.81642" lon="10.704712"><ele>491.1</ele></trkpt>
            <trkpt lat="51.816514" lon="10.704967"><ele>490.6</ele></trkpt>
            <trkpt lat="51.816581" lon="10.70507"><ele>490</ele></trkpt>
            <trkpt lat="51.816832" lon="10.705138"><ele>490.9</ele></trkpt>
            <trkpt lat="51.816937" lon="10.7052"><ele>491.4</ele></trkpt>
            <trkpt lat="51.817017" lon="10.705345"><ele>491.2</ele></trkpt>
            <trkpt lat="51.817045" lon="10.705488"><ele>491.5</ele></trkpt>
            <trkpt lat="51.817058" lon="10.705669"><ele>491.9</ele></trkpt>
            <trkpt lat="51.816957" lon="10.706493"><ele>492.8</ele></trkpt>
            <trkpt lat="51.816958" lon="10.706659"><ele>493.3</ele></trkpt>
            <trkpt lat="51.816993" lon="10.706822"><ele>493.8</ele></trkpt>
            <trkpt lat="51.817188" lon="10.707157"><ele>495</ele></trkpt>
            <trkpt lat="51.817345" lon="10.707372"><ele>498.5</ele></trkpt>
            <trkpt lat="51.817466" lon="10.707759"><ele>498.3</ele></trkpt>
            <trkpt lat="51.817541" lon="10.707856"><ele>499.7</ele></trkpt>
            <trkpt lat="51.817626" lon="10.707901"><ele>508</ele></trkpt>
            <trkpt lat="51.817752" lon="10.707862"><ele>508</ele></trkpt>
            <trkpt lat="51.817807" lon="10.707821"><ele>508</ele></trkpt>
            <trkpt lat="51.818019" lon="10.707662"><ele>508</ele></trkpt>
            <trkpt lat="51.818047" lon="10.707392"><ele>509.4</ele></trkpt>
            <trkpt lat="51.818011" lon="10.7067"><ele>509.3</ele></trkpt>
            <trkpt lat="51.818023" lon="10.706347"><ele>509.5</ele></trkpt>
            <trkpt lat="51.81804" lon="10.706187"><ele>509.6</ele></trkpt>
            <trkpt lat="51.818083" lon="10.70599"><ele>511</ele></trkpt>
            <trkpt lat="51.818289" lon="10.705512"><ele>514.8</ele></trkpt>
            <trkpt lat="51.818478" lon="10.705175"><ele>515.3</ele></trkpt>
            <trkpt lat="51.818617" lon="10.704949"><ele>515.7</ele></trkpt>
            <trkpt lat="51.818927" lon="10.704586"><ele>516</ele></trkpt>
            <trkpt lat="51.819037" lon="10.70442"><ele>516.9</ele></trkpt>
            <trkpt lat="51.819292" lon="10.703861"><ele>518.4</ele></trkpt>
            <trkpt lat="51.82009" lon="10.702239"><ele>519.5</ele></trkpt>
            <trkpt lat="51.820182" lon="10.701955"><ele>520.1</ele></trkpt>
            <trkpt lat="51.820287" lon="10.701275"><ele>522</ele></trkpt>
            <trkpt lat="51.820365" lon="10.700978"><ele>525.3</ele></trkpt>
            <trkpt lat="51.820434" lon="10.70085"><ele>525</ele></trkpt>
            <trkpt lat="51.820657" lon="10.700515"><ele>526</ele></trkpt>
            <trkpt lat="51.820864" lon="10.700116"><ele>526.7</ele></trkpt>
            <trkpt lat="51.821122" lon="10.699779"><ele>526.8</ele></trkpt>
            <trkpt lat="51.821176" lon="10.699646"><ele>527.3</ele></trkpt>
            <trkpt lat="51.821288" lon="10.699152"><ele>529.4</ele></trkpt>
            <trkpt lat="51.821421" lon="10.698853"><ele>529.7</ele></trkpt>
            <trkpt lat="51.821507" lon="10.698733"><ele>529.9</ele></trkpt>
            <trkpt lat="51.821562" lon="10.698611"><ele>530.3</ele></trkpt>
            <trkpt lat="51.821755" lon="10.697849"><ele>534.8</ele></trkpt>
            <trkpt lat="51.821954" lon="10.697407"><ele>536.8</ele></trkpt>
            <trkpt lat="51.822045" lon="10.697127"><ele>538.6</ele></trkpt>
            <trkpt lat="51.822169" lon="10.696535"><ele>546</ele></trkpt>
            <trkpt lat="51.822292" lon="10.696243"><ele>549.8</ele></trkpt>
            <trkpt lat="51.823012" lon="10.69502"><ele>555.6</ele></trkpt>
            <trkpt lat="51.823235" lon="10.694595"><ele>555.6</ele></trkpt>
            <trkpt lat="51.823368" lon="10.694429"><ele>553.5</ele></trkpt>
            <trkpt lat="51.823549" lon="10.694294"><ele>551</ele></trkpt>
            <trkpt lat="51.82383" lon="10.694006"><ele>551.4</ele></trkpt>
            <trkpt lat="51.824177" lon="10.693512"><ele>550.3</ele></trkpt>
            <trkpt lat="51.824408" lon="10.693126"><ele>546.5</ele></trkpt>
            <trkpt lat="51.824556" lon="10.69285"><ele>546.9</ele></trkpt>
            <trkpt lat="51.824735" lon="10.692418"><ele>547.8</ele></trkpt>
            <trkpt lat="51.824906" lon="10.69185"><ele>556</ele></trkpt>
            <trkpt lat="51.824966" lon="10.69165"><ele>551.9</ele></trkpt>
            <trkpt lat="51.825026" lon="10.691333"><ele>550.3</ele></trkpt>
            <trkpt lat="51.82504" lon="10.691154"><ele>549.3</ele></trkpt>
            <trkpt lat="51.825047" lon="10.69089"><ele>548.3</ele></trkpt>
            <trkpt lat="51.825016" lon="10.69054"><ele>549.1</ele></trkpt>
            <trkpt lat="51.825009" lon="10.690184"><ele>548.8</ele></trkpt>
            <trkpt lat="51.825018" lon="10.689828"><ele>549.1</ele></trkpt>
            <trkpt lat="51.825046" lon="10.689537"><ele>548.8</ele></trkpt>
            <trkpt lat="51.825112" lon="10.689183"><ele>547.4</ele></trkpt>
            <trkpt lat="51.825266" lon="10.688601"><ele>561</ele></trkpt>
            <trkpt lat="51.825267" lon="10.6885"><ele>569.1</ele></trkpt>
            <trkpt lat="51.825285" lon="10.688401"><ele>569.7</ele></trkpt>
            <trkpt lat="51.825267" lon="10.6885"><ele>569.1</ele></trkpt>
            <trkpt lat="51.825266" lon="10.688601"><ele>561</ele></trkpt>
            <trkpt lat="51.82557" lon="10.687618"><ele>556.5</ele></trkpt>
            <trkpt lat="51.825827" lon="10.686944"><ele>551.6</ele></trkpt>
            <trkpt lat="51.825991" lon="10.686629"><ele>544.5</ele></trkpt>
            <trkpt lat="51.82615" lon="10.686423"><ele>542.7</ele></trkpt>
            <trkpt lat="51.826375" lon="10.686063"><ele>541.3</ele></trkpt>
            <trkpt lat="51.826594" lon="10.68564"><ele>538.4</ele></trkpt>
            <trkpt lat="51.826691" lon="10.685496"><ele>537.7</ele></trkpt>
            <trkpt lat="51.827026" lon="10.685242"><ele>536.8</ele></trkpt>
            <trkpt lat="51.827119" lon="10.685116"><ele>536.5</ele></trkpt>
            <trkpt lat="51.827507" lon="10.684293"><ele>533.3</ele></trkpt>
            <trkpt lat="51.827652" lon="10.684077"><ele>533.5</ele></trkpt>
            <trkpt lat="51.828024" lon="10.683824"><ele>532</ele></trkpt>
            <trkpt lat="51.828279" lon="10.683564"><ele>530.7</ele></trkpt>
            <trkpt lat="51.828336" lon="10.683527"><ele>530.4</ele></trkpt>
            <trkpt lat="51.828435" lon="10.68351"><ele>522</ele></trkpt>
            <trkpt lat="51.828618" lon="10.683514"><ele>522</ele></trkpt>
            <trkpt lat="51.828781" lon="10.683594"><ele>522</ele></trkpt>
            <trkpt lat="51.828837" lon="10.682919"><ele>526.5</ele></trkpt>
            <trkpt lat="51.829062" lon="10.682052"><ele>525.8</ele></trkpt>
            <trkpt lat="51.82929" lon="10.681521"><ele>526.7</ele></trkpt>
            <trkpt lat="51.829355" lon="10.681229"><ele>527.6</ele></trkpt>
            <trkpt lat="51.829432" lon="10.680419"><ele>528.9</ele></trkpt>
            <trkpt lat="51.829498" lon="10.67996"><ele>530</ele></trkpt>
            <trkpt lat="51.82969" lon="10.679523"><ele>531</ele></trkpt>
            <trkpt lat="51.829749" lon="10.679318"><ele>531.6</ele></trkpt>
            <trkpt lat="51.829797" lon="10.678721"><ele>530</ele></trkpt>
            <trkpt lat="51.829769" lon="10.677792"><ele>528.3</ele></trkpt>
            <trkpt lat="51.829791" lon="10.677612"><ele>527.5</ele></trkpt>
            <trkpt lat="51.830164" lon="10.67664"><ele>526.4</ele></trkpt>
            <trkpt lat="51.830453" lon="10.676223"><ele>527.7</ele></trkpt>
            <trkpt lat="51.830532" lon="10.676023"><ele>528.1</ele></trkpt>
            <trkpt lat="51.830652" lon="10.675288"><ele>531.3</ele></trkpt>
            <trkpt lat="51.830787" lon="10.674656"><ele>532.7</ele></trkpt>
            <trkpt lat="51.830775" lon="10.674483"><ele>534.9</ele></trkpt>
            <trkpt lat="51.830718" lon="10.674261"><ele>535.2</ele></trkpt>
            <trkpt lat="51.8305" lon="10.67378"><ele>537.8</ele></trkpt>
            <trkpt lat="51.830474" lon="10.673668"><ele>538.2</ele></trkpt>
            <trkpt lat="51.830459" lon="10.673498"><ele>539.4</ele></trkpt>
            <trkpt lat="51.8305" lon="10.673203"><ele>540.5</ele></trkpt>
            <trkpt lat="51.830746" lon="10.67241"><ele>542.2</ele></trkpt>
            <trkpt lat="51.830875" lon="10.671809"><ele>544.1</ele></trkpt>
            <trkpt lat="51.830962" lon="10.671593"><ele>545.6</ele></trkpt>
            <trkpt lat="51.831069" lon="10.671432"><ele>546.2</ele></trkpt>
            <trkpt lat="51.831313" lon="10.671105"><ele>546.6</ele></trkpt>
            <trkpt lat="51.831701" lon="10.67071"><ele>547</ele></trkpt>
            <trkpt lat="51.831874" lon="10.670653"><ele>546.9</ele></trkpt>
            <trkpt lat="51.832216" lon="10.670743"><ele>548</ele></trkpt>
            <trkpt lat="51.832405" lon="10.670768"><ele>545.6</ele></trkpt>
            <trkpt lat="51.832547" lon="10.670756"><ele>545.4</ele></trkpt>
            <trkpt lat="51.832905" lon="10.670572"><ele>545.5</ele></trkpt>
            <trkpt lat="51.833145" lon="10.670335"><ele>545.6</ele></trkpt>
            <trkpt lat="51.83332" lon="10.670039"><ele>545</ele></trkpt>
            <trkpt lat="51.833351" lon="10.669863"><ele>539</ele></trkpt>
            <trkpt lat="51.833393" lon="10.669716"><ele>537.9</ele></trkpt>
            <trkpt lat="51.833516" lon="10.668769"><ele>536.5</ele></trkpt>
            <trkpt lat="51.833577" lon="10.668503"><ele>536.5</ele></trkpt>
            <trkpt lat="51.833847" lon="10.665914"><ele>518</ele></trkpt>
            <trkpt lat="51.833876" lon="10.665338"><ele>517.2</ele></trkpt>
            <trkpt lat="51.83393" lon="10.665068"><ele>516.3</ele></trkpt>
            <trkpt lat="51.834047" lon="10.664787"><ele>515.7</ele></trkpt>
            <trkpt lat="51.834225" lon="10.664653"><ele>513.2</ele></trkpt>
            <trkpt lat="51.834771" lon="10.664381"><ele>511.5</ele></trkpt>
            <trkpt lat="51.834876" lon="10.664258"><ele>510.1</ele></trkpt>
            <trkpt lat="51.834911" lon="10.664147"><ele>508.4</ele></trkpt>
            <trkpt lat="51.834904" lon="10.663577"><ele>506.3</ele></trkpt>
            <trkpt lat="51.834924" lon="10.663327"><ele>505</ele></trkpt>
            <trkpt lat="51.835068" lon="10.66296"><ele>501.6</ele></trkpt>
            <trkpt lat="51.83558" lon="10.662272"><ele>492</ele></trkpt>
            <trkpt lat="51.835979" lon="10.661725"><ele>486</ele></trkpt>
            <trkpt lat="51.836191" lon="10.661478"><ele>481.7</ele></trkpt>
            <trkpt lat="51.836318" lon="10.66128"><ele>481.6</ele></trkpt>
            <trkpt lat="51.836356" lon="10.661191"><ele>481.5</ele></trkpt>
            <trkpt lat="51.836373" lon="10.661099"><ele>481.7</ele></trkpt>
            <trkpt lat="51.836368" lon="10.660904"><ele>481.8</ele></trkpt>
            <trkpt lat="51.836222" lon="10.660306"><ele>481.5</ele></trkpt>
            <trkpt lat="51.836249" lon="10.660115"><ele>481.8</ele></trkpt>
            <trkpt lat="51.83632" lon="10.660017"><ele>482.1</ele></trkpt>
            <trkpt lat="51.836722" lon="10.660039"><ele>481.6</ele></trkpt>
            <trkpt lat="51.83682" lon="10.660007"><ele>480.7</ele></trkpt>
            <trkpt lat="51.836875" lon="10.659934"><ele>480</ele></trkpt>
            <trkpt lat="51.836895" lon="10.659765"><ele>479.3</ele></trkpt>
            <trkpt lat="51.836853" lon="10.659404"><ele>476.5</ele></trkpt>
            <trkpt lat="51.836854" lon="10.65925"><ele>475.5</ele></trkpt>
            <trkpt lat="51.836976" lon="10.658695"><ele>471.8</ele></trkpt>
            <trkpt lat="51.837292" lon="10.657491"><ele>452</ele></trkpt>
            <trkpt lat="51.837463" lon="10.656685"><ele>450.4</ele></trkpt>
            <trkpt lat="51.837516" lon="10.656531"><ele>449.3</ele></trkpt>
            <trkpt lat="51.837572" lon="10.656455"><ele>447.9</ele></trkpt>
            <trkpt lat="51.837632" lon="10.656421"><ele>447.9</ele></trkpt>
            <trkpt lat="51.837686" lon="10.656421"><ele>447.8</ele></trkpt>
            <trkpt lat="51.837744" lon="10.656468"><ele>447.8</ele></trkpt>
            <trkpt lat="51.837857" lon="10.656634"><ele>447.7</ele></trkpt>
            <trkpt lat="51.838088" lon="10.6573"><ele>447.6</ele></trkpt>
            <trkpt lat="51.838167" lon="10.657394"><ele>447.5</ele></trkpt>
            <trkpt lat="51.838296" lon="10.657469"><ele>447.4</ele></trkpt>
            <trkpt lat="51.838438" lon="10.657454"><ele>446.4</ele></trkpt>
            <trkpt lat="51.838558" lon="10.65736"><ele>445.3</ele></trkpt>
            <trkpt lat="51.83863" lon="10.657271"><ele>444.4</ele></trkpt>
            <trkpt lat="51.838739" lon="10.657061"><ele>442.1</ele></trkpt>
            <trkpt lat="51.838885" lon="10.656705"><ele>429</ele></trkpt>
            <trkpt lat="51.839084" lon="10.655314"><ele>420</ele></trkpt>
            <trkpt lat="51.839173" lon="10.65459"><ele>417.3</ele></trkpt>
            <trkpt lat="51.839228" lon="10.654264"><ele>412.6</ele></trkpt>
            <trkpt lat="51.839593" lon="10.653321"><ele>409.7</ele></trkpt>
            <trkpt lat="51.839625" lon="10.653021"><ele>408.4</ele></trkpt>
            <trkpt lat="51.839644" lon="10.652429"><ele>408.4</ele></trkpt>
            <trkpt lat="51.839721" lon="10.651967"><ele>408.3</ele></trkpt>
            <trkpt lat="51.83981" lon="10.651805"><ele>408</ele></trkpt>
            <trkpt lat="51.839843" lon="10.651918"><ele>404</ele></trkpt>
            <trkpt lat="51.839901" lon="10.652001"><ele>403.2</ele></trkpt>
            <trkpt lat="51.840195" lon="10.65215"><ele>388</ele></trkpt>
            <trkpt lat="51.840346" lon="10.65228"><ele>388.6</ele></trkpt>
            <trkpt lat="51.840536" lon="10.65249"><ele>388.7</ele></trkpt>
            <trkpt lat="51.840892" lon="10.652961"><ele>391</ele></trkpt>
            <trkpt lat="51.841013" lon="10.653133"><ele>387.6</ele></trkpt>
            <trkpt lat="51.841202" lon="10.653327"><ele>386.7</ele></trkpt>
            <trkpt lat="51.841343" lon="10.653376"><ele>386.2</ele></trkpt>
            <trkpt lat="51.842116" lon="10.653554"><ele>386.6</ele></trkpt>
            <trkpt lat="51.842295" lon="10.653654"><ele>384</ele></trkpt>
            <trkpt lat="51.842773" lon="10.653905"><ele>387.3</ele></trkpt>
            <trkpt lat="51.84335" lon="10.654498"><ele>388.3</ele></trkpt>
            <trkpt lat="51.844728" lon="10.656175"><ele>380.8</ele></trkpt>
            <trkpt lat="51.845891" lon="10.657779"><ele>367</ele></trkpt>
            <trkpt lat="51.846055" lon="10.657907"><ele>367</ele></trkpt>
            <trkpt lat="51.846389" lon="10.658144"><ele>367</ele></trkpt>
            <trkpt lat="51.846716" lon="10.658333"><ele>365</ele></trkpt>
            <trkpt lat="51.846589" lon="10.658005"><ele>367</ele></trkpt>
            <trkpt lat="51.846379" lon="10.657417"><ele>363</ele></trkpt>
            <trkpt lat="51.84636" lon="10.657244"><ele>371.9</ele></trkpt>
            <trkpt lat="51.846373" lon="10.657025"><ele>373.1</ele></trkpt>
            <trkpt lat="51.846614" lon="10.655761"><ele>384.8</ele></trkpt>
            <trkpt lat="51.846866" lon="10.655325"><ele>387.5</ele></trkpt>
            <trkpt lat="51.846978" lon="10.654722"><ele>397.6</ele></trkpt>
            <trkpt lat="51.847094" lon="10.654422"><ele>400.1</ele></trkpt>
            <trkpt lat="51.847223" lon="10.653857"><ele>408.1</ele></trkpt>
            <trkpt lat="51.847494" lon="10.652874"><ele>424.4</ele></trkpt>
            <trkpt lat="51.847927" lon="10.651889"><ele>443</ele></trkpt>
            <trkpt lat="51.848226" lon="10.6515"><ele>444.9</ele></trkpt>
            <trkpt lat="51.848443" lon="10.65103"><ele>446.4</ele></trkpt>
            <trkpt lat="51.848699" lon="10.65061"><ele>450.7</ele></trkpt>
            <trkpt lat="51.849665" lon="10.649659"><ele>465</ele></trkpt>
            <trkpt lat="51.849931" lon="10.649141"><ele>473.5</ele></trkpt>
            <trkpt lat="51.85008" lon="10.648607"><ele>482.1</ele></trkpt>
            <trkpt lat="51.850085" lon="10.6482"><ele>487.9</ele></trkpt>
            <trkpt lat="51.850189" lon="10.647425"><ele>495.9</ele></trkpt>
            <trkpt lat="51.850306" lon="10.647129"><ele>499.2</ele></trkpt>
            <trkpt lat="51.850652" lon="10.646644"><ele>502.8</ele></trkpt>
            <trkpt lat="51.850751" lon="10.646421"><ele>503.8</ele></trkpt>
            <trkpt lat="51.850867" lon="10.646051"><ele>504.7</ele></trkpt>
            <trkpt lat="51.850973" lon="10.645997"><ele>504.9</ele></trkpt>
            <trkpt lat="51.851105" lon="10.645791"><ele>505.6</ele></trkpt>
            <trkpt lat="51.851174" lon="10.645743"><ele>505.6</ele></trkpt>
            <trkpt lat="51.85123" lon="10.645759"><ele>505.3</ele></trkpt>
            <trkpt lat="51.851298" lon="10.645852"><ele>505.3</ele></trkpt>
            <trkpt lat="51.851522" lon="10.645981"><ele>507</ele></trkpt>
            <trkpt lat="51.851793" lon="10.646216"><ele>507.5</ele></trkpt>
            <trkpt lat="51.852317" lon="10.646828"><ele>509.7</ele></trkpt>
            <trkpt lat="51.85239" lon="10.646989"><ele>510.5</ele></trkpt>
            <trkpt lat="51.85253" lon="10.647194"><ele>525</ele></trkpt>
            <trkpt lat="51.852564" lon="10.647451"><ele>523.3</ele></trkpt>
            <trkpt lat="51.852598" lon="10.647892"><ele>522.5</ele></trkpt>
            <trkpt lat="51.852659" lon="10.64835"><ele>522.1</ele></trkpt>
            <trkpt lat="51.852771" lon="10.648852"><ele>521.8</ele></trkpt>
            <trkpt lat="51.853008" lon="10.649599"><ele>518</ele></trkpt>
            <trkpt lat="51.853231" lon="10.650227"><ele>515.5</ele></trkpt>
            <trkpt lat="51.853388" lon="10.650545"><ele>515</ele></trkpt>
            <trkpt lat="51.853512" lon="10.65069"><ele>513</ele></trkpt>
            <trkpt lat="51.853238" lon="10.651084"><ele>516.4</ele></trkpt>
            <trkpt lat="51.852807" lon="10.651608"><ele>517.8</ele></trkpt>
            <trkpt lat="51.852707" lon="10.651966"><ele>518.4</ele></trkpt>
            <trkpt lat="51.852599" lon="10.652235"><ele>518.7</ele></trkpt>
            <trkpt lat="51.852509" lon="10.652682"><ele>520.2</ele></trkpt>
            <trkpt lat="51.852443" lon="10.652909"><ele>520.5</ele></trkpt>
            <trkpt lat="51.852365" lon="10.653374"><ele>520.6</ele></trkpt>
            <trkpt lat="51.852068" lon="10.654264"><ele>521.5</ele></trkpt>
            <trkpt lat="51.852022" lon="10.65447"><ele>521.3</ele></trkpt>
            <trkpt lat="51.85202" lon="10.65458"><ele>523</ele></trkpt>
            <trkpt lat="51.851929" lon="10.654632"><ele>523</ele></trkpt>
        </trkseg>
    </trk>
</gpx>
