<?xml version="1.0" encoding="UTF-8"?>
<gpx version="1.1" creator="HWN Route Compare (OpenRouteService)" xmlns="http://www.topografix.com/GPX/1/1">
    <metadata>
        <name>OpenRouteService – Tour B6</name>
    </metadata>
    <trk>
        <name>OpenRouteService – Tour B6</name>
        <trkseg>
            <trkpt lat="51.808519" lon="10.728547"><ele>364</ele></trkpt>
            <trkpt lat="51.808481" lon="10.728636"><ele>364</ele></trkpt>
            <trkpt lat="51.808434" lon="10.728754"><ele>364</ele></trkpt>
            <trkpt lat="51.808428" lon="10.728829"><ele>364</ele></trkpt>
            <trkpt lat="51.808409" lon="10.728906"><ele>364</ele></trkpt>
            <trkpt lat="51.808407" lon="10.728962"><ele>366.1</ele></trkpt>
            <trkpt lat="51.808446" lon="10.729139"><ele>366.8</ele></trkpt>
            <trkpt lat="51.808587" lon="10.729455"><ele>366.9</ele></trkpt>
            <trkpt lat="51.808746" lon="10.729576"><ele>369</ele></trkpt>
            <trkpt lat="51.808843" lon="10.729678"><ele>369</ele></trkpt>
            <trkpt lat="51.80899" lon="10.729736"><ele>369</ele></trkpt>
            <trkpt lat="51.809094" lon="10.730221"><ele>362.2</ele></trkpt>
            <trkpt lat="51.809272" lon="10.730798"><ele>357.3</ele></trkpt>
            <trkpt lat="51.809505" lon="10.731403"><ele>356.4</ele></trkpt>
            <trkpt lat="51.809977" lon="10.732473"><ele>347</ele></trkpt>
            <trkpt lat="51.810396" lon="10.733496"><ele>325</ele></trkpt>
            <trkpt lat="51.810712" lon="10.734268"><ele>326.8</ele></trkpt>
            <trkpt lat="51.810925" lon="10.734612"><ele>328</ele></trkpt>
            <trkpt lat="51.810946" lon="10.73459"><ele>328</ele></trkpt>
            <trkpt lat="51.810987" lon="10.734537"><ele>328</ele></trkpt>
            <trkpt lat="51.811159" lon="10.73469"><ele>330.8</ele></trkpt>
            <trkpt lat="51.81134" lon="10.73481"><ele>331.8</ele></trkpt>
            <trkpt lat="51.812443" lon="10.735316"><ele>331.4</ele></trkpt>
            <trkpt lat="51.812874" lon="10.735645"><ele>331.3</ele></trkpt>
            <trkpt lat="51.813233" lon="10.73588"><ele>325</ele></trkpt>
            <trkpt lat="51.814001" lon="10.736316"><ele>323.5</ele></trkpt>
            <trkpt lat="51.814339" lon="10.736468"><ele>322.7</ele></trkpt>
            <trkpt lat="51.814831" lon="10.736582"><ele>321.5</ele></trkpt>
            <trkpt lat="51.815258" lon="10.736752"><ele>320.5</ele></trkpt>
            <trkpt lat="51.81681" lon="10.737486"><ele>326</ele></trkpt>
            <trkpt lat="51.816785" lon="10.737735"><ele>317</ele></trkpt>
            <trkpt lat="51.816822" lon="10.737846"><ele>317.8</ele></trkpt>
            <trkpt lat="51.81698" lon="10.738086"><ele>314</ele></trkpt>
            <trkpt lat="51.816978" lon="10.738349"><ele>302.8</ele></trkpt>
            <trkpt lat="51.816881" lon="10.738819"><ele>303.1</ele></trkpt>
            <trkpt lat="51.817017" lon="10.739212"><ele>303.3</ele></trkpt>
            <trkpt lat="51.81704" lon="10.739351"><ele>303.5</ele></trkpt>
            <trkpt lat="51.817052" lon="10.739691"><ele>301</ele></trkpt>
            <trkpt lat="51.817051" lon="10.739719"><ele>301</ele></trkpt>
            <trkpt lat="51.817043" lon="10.739788"><ele>301</ele></trkpt>
            <trkpt lat="51.816998" lon="10.739876"><ele>301</ele></trkpt>
            <trkpt lat="51.817029" lon="10.739922"><ele>301</ele></trkpt>
            <trkpt lat="51.816989" lon="10.739981"><ele>305.8</ele></trkpt>
            <trkpt lat="51.816923" lon="10.740032"><ele>304.8</ele></trkpt>
            <trkpt lat="51.816742" lon="10.740094"><ele>304</ele></trkpt>
            <trkpt lat="51.816484" lon="10.740484"><ele>306</ele></trkpt>
            <trkpt lat="51.816444" lon="10.740591"><ele>318</ele></trkpt>
            <trkpt lat="51.816173" lon="10.740933"><ele>326.4</ele></trkpt>
            <trkpt lat="51.815903" lon="10.741339"><ele>327.7</ele></trkpt>
            <trkpt lat="51.815719" lon="10.741926"><ele>334.3</ele></trkpt>
            <trkpt lat="51.815592" lon="10.742702"><ele>341.3</ele></trkpt>
            <trkpt lat="51.815641" lon="10.7434"><ele>344.6</ele></trkpt>
            <trkpt lat="51.815727" lon="10.743736"><ele>348.2</ele></trkpt>
            <trkpt lat="51.815678" lon="10.744025"><ele>348.5</ele></trkpt>
            <trkpt lat="51.815556" lon="10.744493"><ele>347.5</ele></trkpt>
            <trkpt lat="51.815564" lon="10.744933"><ele>346.3</ele></trkpt>
            <trkpt lat="51.815541" lon="10.745141"><ele>337</ele></trkpt>
            <trkpt lat="51.814881" lon="10.744595"><ele>345</ele></trkpt>
            <trkpt lat="51.814704" lon="10.744296"><ele>349</ele></trkpt>
            <trkpt lat="51.814344" lon="10.743818"><ele>351.8</ele></trkpt>
            <trkpt lat="51.8139" lon="10.743403"><ele>354.2</ele></trkpt>
            <trkpt lat="51.813421" lon="10.742735"><ele>360.9</ele></trkpt>
            <trkpt lat="51.813216" lon="10.742405"><ele>362.4</ele></trkpt>
            <trkpt lat="51.813194" lon="10.742161"><ele>362.8</ele></trkpt>
            <trkpt lat="51.813025" lon="10.741658"><ele>365.7</ele></trkpt>
            <trkpt lat="51.812953" lon="10.741376"><ele>366.2</ele></trkpt>
            <trkpt lat="51.812837" lon="10.741265"><ele>369</ele></trkpt>
            <trkpt lat="51.812766" lon="10.74123"><ele>377.8</ele></trkpt>
            <trkpt lat="51.812542" lon="10.741238"><ele>377.6</ele></trkpt>
            <trkpt lat="51.812451" lon="10.741277"><ele>377.5</ele></trkpt>
            <trkpt lat="51.812375" lon="10.741276"><ele>377.5</ele></trkpt>
            <trkpt lat="51.812254" lon="10.741091"><ele>378.8</ele></trkpt>
            <trkpt lat="51.812007" lon="10.740874"><ele>379.9</ele></trkpt>
            <trkpt lat="51.81186" lon="10.740805"><ele>381.3</ele></trkpt>
            <trkpt lat="51.811743" lon="10.740707"><ele>382.1</ele></trkpt>
            <trkpt lat="51.811534" lon="10.740605"><ele>383.9</ele></trkpt>
            <trkpt lat="51.811472" lon="10.740531"><ele>384.8</ele></trkpt>
            <trkpt lat="51.811412" lon="10.740403"><ele>386.1</ele></trkpt>
            <trkpt lat="51.811074" lon="10.740071"><ele>389.6</ele></trkpt>
            <trkpt lat="51.810959" lon="10.739845"><ele>390.2</ele></trkpt>
            <trkpt lat="51.810584" lon="10.739459"><ele>393.2</ele></trkpt>
            <trkpt lat="51.810411" lon="10.739072"><ele>409</ele></trkpt>
            <trkpt lat="51.810273" lon="10.738989"><ele>434.6</ele></trkpt>
            <trkpt lat="51.810168" lon="10.739001"><ele>436.8</ele></trkpt>
            <trkpt lat="51.810005" lon="10.738854"><ele>439.3</ele></trkpt>
            <trkpt lat="51.809797" lon="10.738745"><ele>442</ele></trkpt>
            <trkpt lat="51.809737" lon="10.738756"><ele>442.1</ele></trkpt>
            <trkpt lat="51.809705" lon="10.7388"><ele>442.7</ele></trkpt>
            <trkpt lat="51.809672" lon="10.738789"><ele>442.8</ele></trkpt>
            <trkpt lat="51.809609" lon="10.738675"><ele>443.4</ele></trkpt>
            <trkpt lat="51.8095" lon="10.738655"><ele>444.1</ele></trkpt>
            <trkpt lat="51.80947" lon="10.738558"><ele>444.5</ele></trkpt>
            <trkpt lat="51.809304" lon="10.738556"><ele>445.7</ele></trkpt>
            <trkpt lat="51.809252" lon="10.738486"><ele>447.1</ele></trkpt>
            <trkpt lat="51.809182" lon="10.738452"><ele>447.3</ele></trkpt>
            <trkpt lat="51.809127" lon="10.738322"><ele>448.8</ele></trkpt>
            <trkpt lat="51.809043" lon="10.738283"><ele>449.6</ele></trkpt>
            <trkpt lat="51.808836" lon="10.73806"><ele>451.1</ele></trkpt>
            <trkpt lat="51.808752" lon="10.737882"><ele>451.3</ele></trkpt>
            <trkpt lat="51.808641" lon="10.737821"><ele>451.4</ele></trkpt>
            <trkpt lat="51.808552" lon="10.737686"><ele>451.9</ele></trkpt>
            <trkpt lat="51.808412" lon="10.737596"><ele>453</ele></trkpt>
            <trkpt lat="51.80835" lon="10.737395"><ele>453.7</ele></trkpt>
            <trkpt lat="51.80825" lon="10.737279"><ele>454.6</ele></trkpt>
            <trkpt lat="51.808183" lon="10.737283"><ele>454.9</ele></trkpt>
            <trkpt lat="51.80814" lon="10.73726"><ele>454.3</ele></trkpt>
            <trkpt lat="51.808053" lon="10.73707"><ele>454.7</ele></trkpt>
            <trkpt lat="51.807977" lon="10.736959"><ele>454.3</ele></trkpt>
            <trkpt lat="51.807947" lon="10.736852"><ele>467</ele></trkpt>
            <trkpt lat="51.80788" lon="10.736525"><ele>449.9</ele></trkpt>
            <trkpt lat="51.80766" lon="10.736624"><ele>445</ele></trkpt>
            <trkpt lat="51.807618" lon="10.736563"><ele>452.5</ele></trkpt>
            <trkpt lat="51.807423" lon="10.736481"><ele>454.4</ele></trkpt>
            <trkpt lat="51.807095" lon="10.736277"><ele>460</ele></trkpt>
            <trkpt lat="51.807055" lon="10.73611"><ele>455.8</ele></trkpt>
            <trkpt lat="51.806943" lon="10.73585"><ele>454.7</ele></trkpt>
            <trkpt lat="51.806882" lon="10.735654"><ele>443</ele></trkpt>
            <trkpt lat="51.806709" lon="10.735496"><ele>453.8</ele></trkpt>
            <trkpt lat="51.806355" lon="10.735322"><ele>454.5</ele></trkpt>
            <trkpt lat="51.806117" lon="10.735231"><ele>453.9</ele></trkpt>
            <trkpt lat="51.805944" lon="10.735236"><ele>453.7</ele></trkpt>
            <trkpt lat="51.805862" lon="10.735278"><ele>453.6</ele></trkpt>
            <trkpt lat="51.805783" lon="10.735368"><ele>454.2</ele></trkpt>
            <trkpt lat="51.80574" lon="10.735448"><ele>454.8</ele></trkpt>
            <trkpt lat="51.805683" lon="10.735645"><ele>455.4</ele></trkpt>
            <trkpt lat="51.805619" lon="10.735773"><ele>455.9</ele></trkpt>
            <trkpt lat="51.805573" lon="10.735802"><ele>456.4</ele></trkpt>
            <trkpt lat="51.805527" lon="10.735781"><ele>457.5</ele></trkpt>
            <trkpt lat="51.805443" lon="10.735684"><ele>458</ele></trkpt>
            <trkpt lat="51.805236" lon="10.735305"><ele>459.6</ele></trkpt>
            <trkpt lat="51.804891" lon="10.734861"><ele>435</ele></trkpt>
            <trkpt lat="51.80482" lon="10.734735"><ele>435</ele></trkpt>
            <trkpt lat="51.804757" lon="10.734711"><ele>435</ele></trkpt>
            <trkpt lat="51.804699" lon="10.734787"><ele>435</ele></trkpt>
            <trkpt lat="51.804668" lon="10.734894"><ele>453</ele></trkpt>
            <trkpt lat="51.804447" lon="10.73565"><ele>471</ele></trkpt>
            <trkpt lat="51.804254" lon="10.736319"><ele>490</ele></trkpt>
            <trkpt lat="51.804225" lon="10.736406"><ele>495.5</ele></trkpt>
            <trkpt lat="51.804154" lon="10.736809"><ele>494.8</ele></trkpt>
            <trkpt lat="51.80413" lon="10.737182"><ele>494.5</ele></trkpt>
            <trkpt lat="51.804063" lon="10.737529"><ele>494.9</ele></trkpt>
            <trkpt lat="51.803816" lon="10.73847"><ele>507</ele></trkpt>
            <trkpt lat="51.803805" lon="10.738535"><ele>507</ele></trkpt>
            <trkpt lat="51.80371" lon="10.739431"><ele>514</ele></trkpt>
            <trkpt lat="51.803592" lon="10.740373"><ele>522</ele></trkpt>
            <trkpt lat="51.803372" lon="10.741762"><ele>529</ele></trkpt>
            <trkpt lat="51.800871" lon="10.744844"><ele>519</ele></trkpt>
            <trkpt lat="51.800061" lon="10.744877"><ele>515</ele></trkpt>
            <trkpt lat="51.799425" lon="10.745062"><ele>523.2</ele></trkpt>
            <trkpt lat="51.798672" lon="10.745396"><ele>526.9</ele></trkpt>
            <trkpt lat="51.798231" lon="10.745525"><ele>527.8</ele></trkpt>
            <trkpt lat="51.797994" lon="10.745543"><ele>531</ele></trkpt>
            <trkpt lat="51.797793" lon="10.745534"><ele>536</ele></trkpt>
            <trkpt lat="51.797574" lon="10.745564"><ele>535</ele></trkpt>
            <trkpt lat="51.797437" lon="10.745646"><ele>547</ele></trkpt>
            <trkpt lat="51.79732" lon="10.745757"><ele>545.7</ele></trkpt>
            <trkpt lat="51.796905" lon="10.746236"><ele>545</ele></trkpt>
            <trkpt lat="51.796652" lon="10.746443"><ele>545.2</ele></trkpt>
            <trkpt lat="51.795903" lon="10.746812"><ele>545</ele></trkpt>
            <trkpt lat="51.795692" lon="10.746984"><ele>544.8</ele></trkpt>
            <trkpt lat="51.795457" lon="10.747295"><ele>544.6</ele></trkpt>
            <trkpt lat="51.795257" lon="10.747603"><ele>543.9</ele></trkpt>
            <trkpt lat="51.795154" lon="10.747843"><ele>541</ele></trkpt>
            <trkpt lat="51.795007" lon="10.74822"><ele>537.5</ele></trkpt>
            <trkpt lat="51.794294" lon="10.749875"><ele>534</ele></trkpt>
            <trkpt lat="51.794063" lon="10.750474"><ele>533</ele></trkpt>
            <trkpt lat="51.794008" lon="10.750677"><ele>533</ele></trkpt>
            <trkpt lat="51.793774" lon="10.751225"><ele>543</ele></trkpt>
            <trkpt lat="51.793551" lon="10.751576"><ele>544</ele></trkpt>
            <trkpt lat="51.793169" lon="10.751744"><ele>544.4</ele></trkpt>
            <trkpt lat="51.792916" lon="10.751724"><ele>544.2</ele></trkpt>
            <trkpt lat="51.792776" lon="10.751607"><ele>544.9</ele></trkpt>
            <trkpt lat="51.792358" lon="10.751436"><ele>545.3</ele></trkpt>
            <trkpt lat="51.792221" lon="10.751491"><ele>545.2</ele></trkpt>
            <trkpt lat="51.792094" lon="10.751573"><ele>547</ele></trkpt>
            <trkpt lat="51.792057" lon="10.75167"><ele>548</ele></trkpt>
            <trkpt lat="51.791555" lon="10.751362"><ele>547.7</ele></trkpt>
            <trkpt lat="51.790902" lon="10.75107"><ele>547.4</ele></trkpt>
            <trkpt lat="51.790524" lon="10.751064"><ele>546.2</ele></trkpt>
            <trkpt lat="51.789862" lon="10.751109"><ele>543.1</ele></trkpt>
            <trkpt lat="51.789398" lon="10.75145"><ele>539.1</ele></trkpt>
            <trkpt lat="51.788981" lon="10.751425"><ele>535.5</ele></trkpt>
            <trkpt lat="51.78827" lon="10.751249"><ele>533.1</ele></trkpt>
            <trkpt lat="51.787981" lon="10.750957"><ele>531.4</ele></trkpt>
            <trkpt lat="51.787736" lon="10.75062"><ele>531.4</ele></trkpt>
            <trkpt lat="51.787404" lon="10.750526"><ele>530.7</ele></trkpt>
            <trkpt lat="51.786745" lon="10.75028"><ele>529.3</ele></trkpt>
            <trkpt lat="51.785857" lon="10.749748"><ele>523</ele></trkpt>
            <trkpt lat="51.785391" lon="10.749472"><ele>519</ele></trkpt>
            <trkpt lat="51.784869" lon="10.748999"><ele>518.2</ele></trkpt>
            <trkpt lat="51.784555" lon="10.74864"><ele>517</ele></trkpt>
            <trkpt lat="51.784302" lon="10.748226"><ele>516.6</ele></trkpt>
            <trkpt lat="51.784043" lon="10.74769"><ele>514.9</ele></trkpt>
            <trkpt lat="51.783864" lon="10.747275"><ele>514.4</ele></trkpt>
            <trkpt lat="51.783739" lon="10.746828"><ele>513.8</ele></trkpt>
            <trkpt lat="51.783564" lon="10.745961"><ele>513</ele></trkpt>
            <trkpt lat="51.783478" lon="10.745768"><ele>510</ele></trkpt>
            <trkpt lat="51.78315" lon="10.745277"><ele>508.7</ele></trkpt>
            <trkpt lat="51.78305" lon="10.745065"><ele>508</ele></trkpt>
            <trkpt lat="51.782932" lon="10.744791"><ele>509</ele></trkpt>
            <trkpt lat="51.782492" lon="10.744237"><ele>509.6</ele></trkpt>
            <trkpt lat="51.781934" lon="10.743645"><ele>510.2</ele></trkpt>
            <trkpt lat="51.780254" lon="10.741959"><ele>509.9</ele></trkpt>
            <trkpt lat="51.779518" lon="10.741358"><ele>510</ele></trkpt>
            <trkpt lat="51.779098" lon="10.741112"><ele>510.5</ele></trkpt>
            <trkpt lat="51.77906" lon="10.741055"><ele>511</ele></trkpt>
            <trkpt lat="51.779003" lon="10.74101"><ele>511</ele></trkpt>
            <trkpt lat="51.778994" lon="10.74088"><ele>511</ele></trkpt>
            <trkpt lat="51.778753" lon="10.740788"><ele>510</ele></trkpt>
            <trkpt lat="51.778642" lon="10.740762"><ele>510</ele></trkpt>
            <trkpt lat="51.778533" lon="10.740773"><ele>510</ele></trkpt>
            <trkpt lat="51.778278" lon="10.740784"><ele>516</ele></trkpt>
            <trkpt lat="51.77823" lon="10.740821"><ele>516</ele></trkpt>
            <trkpt lat="51.778045" lon="10.740932"><ele>517</ele></trkpt>
            <trkpt lat="51.777545" lon="10.741196"><ele>520.1</ele></trkpt>
            <trkpt lat="51.777289" lon="10.741294"><ele>522</ele></trkpt>
            <trkpt lat="51.776966" lon="10.741362"><ele>522.6</ele></trkpt>
            <trkpt lat="51.776451" lon="10.741428"><ele>526.1</ele></trkpt>
            <trkpt lat="51.776121" lon="10.741687"><ele>530.1</ele></trkpt>
            <trkpt lat="51.775856" lon="10.741654"><ele>531.3</ele></trkpt>
            <trkpt lat="51.775265" lon="10.742016"><ele>535.3</ele></trkpt>
            <trkpt lat="51.775039" lon="10.742045"><ele>536.5</ele></trkpt>
            <trkpt lat="51.774786" lon="10.741994"><ele>537.3</ele></trkpt>
            <trkpt lat="51.774303" lon="10.741624"><ele>540.3</ele></trkpt>
            <trkpt lat="51.773977" lon="10.741439"><ele>540.4</ele></trkpt>
            <trkpt lat="51.773534" lon="10.741286"><ele>542.1</ele></trkpt>
            <trkpt lat="51.773317" lon="10.741092"><ele>542.8</ele></trkpt>
            <trkpt lat="51.773091" lon="10.740977"><ele>542.5</ele></trkpt>
            <trkpt lat="51.772222" lon="10.740745"><ele>542.2</ele></trkpt>
            <trkpt lat="51.771849" lon="10.740535"><ele>542.2</ele></trkpt>
            <trkpt lat="51.771692" lon="10.740472"><ele>542.1</ele></trkpt>
            <trkpt lat="51.771599" lon="10.740453"><ele>542.2</ele></trkpt>
            <trkpt lat="51.771531" lon="10.740473"><ele>542</ele></trkpt>
            <trkpt lat="51.771481" lon="10.740253"><ele>542</ele></trkpt>
            <trkpt lat="51.771311" lon="10.740337"><ele>542</ele></trkpt>
            <trkpt lat="51.771126" lon="10.740391"><ele>542</ele></trkpt>
            <trkpt lat="51.770525" lon="10.74045"><ele>540.1</ele></trkpt>
            <trkpt lat="51.770178" lon="10.740457"><ele>540</ele></trkpt>
            <trkpt lat="51.769901" lon="10.740421"><ele>539.9</ele></trkpt>
            <trkpt lat="51.769679" lon="10.740333"><ele>539.7</ele></trkpt>
            <trkpt lat="51.769493" lon="10.740209"><ele>539.7</ele></trkpt>
            <trkpt lat="51.769128" lon="10.739891"><ele>539.9</ele></trkpt>
            <trkpt lat="51.768874" lon="10.739775"><ele>540</ele></trkpt>
            <trkpt lat="51.768673" lon="10.739813"><ele>540.4</ele></trkpt>
            <trkpt lat="51.768433" lon="10.739903"><ele>540.5</ele></trkpt>
            <trkpt lat="51.768059" lon="10.740096"><ele>541</ele></trkpt>
            <trkpt lat="51.767941" lon="10.740196"><ele>541</ele></trkpt>
            <trkpt lat="51.767856" lon="10.740299"><ele>541</ele></trkpt>
            <trkpt lat="51.767777" lon="10.740437"><ele>541</ele></trkpt>
            <trkpt lat="51.767724" lon="10.740605"><ele>541</ele></trkpt>
            <trkpt lat="51.767682" lon="10.740823"><ele>541</ele></trkpt>
            <trkpt lat="51.767555" lon="10.741827"><ele>531.4</ele></trkpt>
            <trkpt lat="51.767286" lon="10.743315"><ele>528.7</ele></trkpt>
            <trkpt lat="51.767238" lon="10.743479"><ele>527.9</ele></trkpt>
            <trkpt lat="51.767145" lon="10.743699"><ele>528.3</ele></trkpt>
            <trkpt lat="51.767023" lon="10.743894"><ele>525</ele></trkpt>
            <trkpt lat="51.765456" lon="10.744508"><ele>513</ele></trkpt>
            <trkpt lat="51.765015" lon="10.744644"><ele>510.8</ele></trkpt>
            <trkpt lat="51.764577" lon="10.744653"><ele>509.1</ele></trkpt>
            <trkpt lat="51.764155" lon="10.744498"><ele>508.3</ele></trkpt>
            <trkpt lat="51.763742" lon="10.744456"><ele>507.4</ele></trkpt>
            <trkpt lat="51.763519" lon="10.744401"><ele>506.2</ele></trkpt>
            <trkpt lat="51.76291" lon="10.744057"><ele>504.7</ele></trkpt>
            <trkpt lat="51.762575" lon="10.743897"><ele>502.8</ele></trkpt>
            <trkpt lat="51.762313" lon="10.743709"><ele>501.2</ele></trkpt>
            <trkpt lat="51.761868" lon="10.743329"><ele>498.3</ele></trkpt>
            <trkpt lat="51.761633" lon="10.743019"><ele>497.2</ele></trkpt>
            <trkpt lat="51.761143" lon="10.742292"><ele>493.6</ele></trkpt>
            <trkpt lat="51.760857" lon="10.74207"><ele>492.9</ele></trkpt>
            <trkpt lat="51.760484" lon="10.741876"><ele>491</ele></trkpt>
            <trkpt lat="51.760226" lon="10.741773"><ele>487</ele></trkpt>
            <trkpt lat="51.760118" lon="10.741774"><ele>489.2</ele></trkpt>
            <trkpt lat="51.759949" lon="10.74186"><ele>489.3</ele></trkpt>
            <trkpt lat="51.759587" lon="10.742411"><ele>488.7</ele></trkpt>
            <trkpt lat="51.759388" lon="10.74278"><ele>488.1</ele></trkpt>
            <trkpt lat="51.758733" lon="10.744368"><ele>483.1</ele></trkpt>
            <trkpt lat="51.758542" lon="10.744652"><ele>482.1</ele></trkpt>
            <trkpt lat="51.758021" lon="10.745559"><ele>480.8</ele></trkpt>
            <trkpt lat="51.757871" lon="10.745717"><ele>480.9</ele></trkpt>
            <trkpt lat="51.757653" lon="10.74587"><ele>480.8</ele></trkpt>
            <trkpt lat="51.757372" lon="10.746027"><ele>480.6</ele></trkpt>
            <trkpt lat="51.756744" lon="10.746548"><ele>480</ele></trkpt>
            <trkpt lat="51.756515" lon="10.746635"><ele>475.8</ele></trkpt>
            <trkpt lat="51.75639" lon="10.746657"><ele>475.7</ele></trkpt>
            <trkpt lat="51.756291" lon="10.746611"><ele>475.7</ele></trkpt>
            <trkpt lat="51.756193" lon="10.746531"><ele>475.6</ele></trkpt>
            <trkpt lat="51.75559" lon="10.745715"><ele>475.5</ele></trkpt>
            <trkpt lat="51.755394" lon="10.745568"><ele>473</ele></trkpt>
            <trkpt lat="51.755182" lon="10.745434"><ele>473</ele></trkpt>
            <trkpt lat="51.755123" lon="10.745457"><ele>473</ele></trkpt>
            <trkpt lat="51.754983" lon="10.74596"><ele>476.8</ele></trkpt>
            <trkpt lat="51.754476" lon="10.747011"><ele>478</ele></trkpt>
            <trkpt lat="51.754367" lon="10.74722"><ele>477.9</ele></trkpt>
            <trkpt lat="51.754264" lon="10.74735"><ele>478.1</ele></trkpt>
            <trkpt lat="51.754062" lon="10.747532"><ele>478.9</ele></trkpt>
            <trkpt lat="51.753821" lon="10.747655"><ele>479.1</ele></trkpt>
            <trkpt lat="51.753675" lon="10.747613"><ele>479.3</ele></trkpt>
            <trkpt lat="51.753565" lon="10.747528"><ele>478.9</ele></trkpt>
            <trkpt lat="51.753484" lon="10.747432"><ele>478.7</ele></trkpt>
            <trkpt lat="51.752997" lon="10.746694"><ele>479.4</ele></trkpt>
            <trkpt lat="51.752903" lon="10.7466"><ele>480</ele></trkpt>
            <trkpt lat="51.752795" lon="10.746552"><ele>479.8</ele></trkpt>
            <trkpt lat="51.752682" lon="10.746548"><ele>479.5</ele></trkpt>
            <trkpt lat="51.752484" lon="10.746617"><ele>477.8</ele></trkpt>
            <trkpt lat="51.751326" lon="10.747637"><ele>464</ele></trkpt>
            <trkpt lat="51.751" lon="10.747958"><ele>453.6</ele></trkpt>
            <trkpt lat="51.750753" lon="10.748284"><ele>452.3</ele></trkpt>
            <trkpt lat="51.750524" lon="10.748547"><ele>452.1</ele></trkpt>
            <trkpt lat="51.750452" lon="10.748577"><ele>452.6</ele></trkpt>
            <trkpt lat="51.75033" lon="10.748558"><ele>448</ele></trkpt>
            <trkpt lat="51.750329" lon="10.749003"><ele>448</ele></trkpt>
            <trkpt lat="51.750288" lon="10.749598"><ele>448</ele></trkpt>
            <trkpt lat="51.750224" lon="10.750193"><ele>448</ele></trkpt>
            <trkpt lat="51.750125" lon="10.751135"><ele>449.5</ele></trkpt>
            <trkpt lat="51.750119" lon="10.751373"><ele>450</ele></trkpt>
            <trkpt lat="51.750239" lon="10.751352"><ele>450</ele></trkpt>
            <trkpt lat="51.750302" lon="10.751452"><ele>451.6</ele></trkpt>
            <trkpt lat="51.750449" lon="10.751889"><ele>453.3</ele></trkpt>
            <trkpt lat="51.75072" lon="10.752976"><ele>453.5</ele></trkpt>
            <trkpt lat="51.750851" lon="10.753634"><ele>453.3</ele></trkpt>
            <trkpt lat="51.750896" lon="10.753708"><ele>453.4</ele></trkpt>
            <trkpt lat="51.750927" lon="10.753726"><ele>453</ele></trkpt>
            <trkpt lat="51.750867" lon="10.753322"><ele>457.6</ele></trkpt>
            <trkpt lat="51.750911" lon="10.753029"><ele>457.6</ele></trkpt>
            <trkpt lat="51.750867" lon="10.753322"><ele>457.6</ele></trkpt>
            <trkpt lat="51.750927" lon="10.753726"><ele>453</ele></trkpt>
            <trkpt lat="51.750896" lon="10.753708"><ele>453.4</ele></trkpt>
            <trkpt lat="51.750851" lon="10.753634"><ele>453.3</ele></trkpt>
            <trkpt lat="51.75072" lon="10.752976"><ele>453.5</ele></trkpt>
            <trkpt lat="51.750449" lon="10.751889"><ele>453.3</ele></trkpt>
            <trkpt lat="51.750302" lon="10.751452"><ele>451.6</ele></trkpt>
            <trkpt lat="51.750239" lon="10.751352"><ele>450</ele></trkpt>
            <trkpt lat="51.750119" lon="10.751373"><ele>450</ele></trkpt>
            <trkpt lat="51.750125" lon="10.751135"><ele>449.5</ele></trkpt>
            <trkpt lat="51.750224" lon="10.750193"><ele>448</ele></trkpt>
            <trkpt lat="51.750288" lon="10.749598"><ele>448</ele></trkpt>
            <trkpt lat="51.750329" lon="10.749003"><ele>448</ele></trkpt>
            <trkpt lat="51.75033" lon="10.748558"><ele>448</ele></trkpt>
            <trkpt lat="51.750452" lon="10.748577"><ele>452.6</ele></trkpt>
            <trkpt lat="51.750524" lon="10.748547"><ele>452.1</ele></trkpt>
            <trkpt lat="51.750753" lon="10.748284"><ele>452.3</ele></trkpt>
            <trkpt lat="51.751" lon="10.747958"><ele>453.6</ele></trkpt>
            <trkpt lat="51.751326" lon="10.747637"><ele>464</ele></trkpt>
            <trkpt lat="51.752484" lon="10.746617"><ele>477.8</ele></trkpt>
            <trkpt lat="51.752682" lon="10.746548"><ele>479.5</ele></trkpt>
            <trkpt lat="51.752795" lon="10.746552"><ele>479.8</ele></trkpt>
            <trkpt lat="51.752903" lon="10.7466"><ele>480</ele></trkpt>
            <trkpt lat="51.752997" lon="10.746694"><ele>479.4</ele></trkpt>
            <trkpt lat="51.753484" lon="10.747432"><ele>478.7</ele></trkpt>
            <trkpt lat="51.753565" lon="10.747528"><ele>478.9</ele></trkpt>
            <trkpt lat="51.753675" lon="10.747613"><ele>479.3</ele></trkpt>
            <trkpt lat="51.753821" lon="10.747655"><ele>479.1</ele></trkpt>
            <trkpt lat="51.754062" lon="10.747532"><ele>478.9</ele></trkpt>
            <trkpt lat="51.754264" lon="10.74735"><ele>478.1</ele></trkpt>
            <trkpt lat="51.754367" lon="10.74722"><ele>477.9</ele></trkpt>
            <trkpt lat="51.754476" lon="10.747011"><ele>478</ele></trkpt>
            <trkpt lat="51.754983" lon="10.74596"><ele>476.8</ele></trkpt>
            <trkpt lat="51.755123" lon="10.745457"><ele>473</ele></trkpt>
            <trkpt lat="51.755182" lon="10.745434"><ele>473</ele></trkpt>
            <trkpt lat="51.755394" lon="10.745568"><ele>473</ele></trkpt>
            <trkpt lat="51.75559" lon="10.745715"><ele>475.5</ele></trkpt>
            <trkpt lat="51.756193" lon="10.746531"><ele>475.6</ele></trkpt>
            <trkpt lat="51.756291" lon="10.746611"><ele>475.7</ele></trkpt>
            <trkpt lat="51.75639" lon="10.746657"><ele>475.7</ele></trkpt>
            <trkpt lat="51.756515" lon="10.746635"><ele>475.8</ele></trkpt>
            <trkpt lat="51.756744" lon="10.746548"><ele>480</ele></trkpt>
            <trkpt lat="51.757372" lon="10.746027"><ele>480.6</ele></trkpt>
            <trkpt lat="51.757653" lon="10.74587"><ele>480.8</ele></trkpt>
            <trkpt lat="51.757871" lon="10.745717"><ele>480.9</ele></trkpt>
            <trkpt lat="51.758021" lon="10.745559"><ele>480.8</ele></trkpt>
            <trkpt lat="51.758542" lon="10.744652"><ele>482.1</ele></trkpt>
            <trkpt lat="51.758733" lon="10.744368"><ele>483.1</ele></trkpt>
            <trkpt lat="51.759388" lon="10.74278"><ele>488.1</ele></trkpt>
            <trkpt lat="51.759587" lon="10.742411"><ele>488.7</ele></trkpt>
            <trkpt lat="51.759949" lon="10.74186"><ele>489.3</ele></trkpt>
            <trkpt lat="51.760118" lon="10.741774"><ele>489.2</ele></trkpt>
            <trkpt lat="51.760226" lon="10.741773"><ele>487</ele></trkpt>
            <trkpt lat="51.760484" lon="10.741876"><ele>491</ele></trkpt>
            <trkpt lat="51.760857" lon="10.74207"><ele>492.9</ele></trkpt>
            <trkpt lat="51.761143" lon="10.742292"><ele>493.6</ele></trkpt>
            <trkpt lat="51.761633" lon="10.743019"><ele>497.2</ele></trkpt>
            <trkpt lat="51.761868" lon="10.743329"><ele>498.3</ele></trkpt>
            <trkpt lat="51.762313" lon="10.743709"><ele>501.2</ele></trkpt>
            <trkpt lat="51.762575" lon="10.743897"><ele>502.8</ele></trkpt>
            <trkpt lat="51.76291" lon="10.744057"><ele>504.7</ele></trkpt>
            <trkpt lat="51.763519" lon="10.744401"><ele>506.2</ele></trkpt>
            <trkpt lat="51.763742" lon="10.744456"><ele>507.4</ele></trkpt>
            <trkpt lat="51.764155" lon="10.744498"><ele>508.3</ele></trkpt>
            <trkpt lat="51.764577" lon="10.744653"><ele>509.1</ele></trkpt>
            <trkpt lat="51.765015" lon="10.744644"><ele>510.8</ele></trkpt>
            <trkpt lat="51.765456" lon="10.744508"><ele>513</ele></trkpt>
            <trkpt lat="51.767023" lon="10.743894"><ele>525</ele></trkpt>
            <trkpt lat="51.767145" lon="10.743699"><ele>528.3</ele></trkpt>
            <trkpt lat="51.767238" lon="10.743479"><ele>527.9</ele></trkpt>
            <trkpt lat="51.767286" lon="10.743315"><ele>528.7</ele></trkpt>
            <trkpt lat="51.767555" lon="10.741827"><ele>531.4</ele></trkpt>
            <trkpt lat="51.767682" lon="10.740823"><ele>541</ele></trkpt>
            <trkpt lat="51.767724" lon="10.740605"><ele>541</ele></trkpt>
            <trkpt lat="51.767777" lon="10.740437"><ele>541</ele></trkpt>
            <trkpt lat="51.767856" lon="10.740299"><ele>541</ele></trkpt>
            <trkpt lat="51.767941" lon="10.740196"><ele>541</ele></trkpt>
            <trkpt lat="51.768059" lon="10.740096"><ele>541</ele></trkpt>
            <trkpt lat="51.768433" lon="10.739903"><ele>540.5</ele></trkpt>
            <trkpt lat="51.768673" lon="10.739813"><ele>540.4</ele></trkpt>
            <trkpt lat="51.768874" lon="10.739775"><ele>540</ele></trkpt>
            <trkpt lat="51.76915" lon="10.738293"><ele>536.6</ele></trkpt>
            <trkpt lat="51.7692" lon="10.73796"><ele>537.1</ele></trkpt>
            <trkpt lat="51.769192" lon="10.737428"><ele>537.8</ele></trkpt>
            <trkpt lat="51.76924" lon="10.736898"><ele>538.9</ele></trkpt>
            <trkpt lat="51.769434" lon="10.73594"><ele>541.4</ele></trkpt>
            <trkpt lat="51.769788" lon="10.735395"><ele>543.3</ele></trkpt>
            <trkpt lat="51.769928" lon="10.735096"><ele>544.3</ele></trkpt>
            <trkpt lat="51.770091" lon="10.73461"><ele>545.5</ele></trkpt>
            <trkpt lat="51.770227" lon="10.733665"><ele>545.9</ele></trkpt>
            <trkpt lat="51.770282" lon="10.733158"><ele>550</ele></trkpt>
            <trkpt lat="51.770327" lon="10.732507"><ele>549.7</ele></trkpt>
            <trkpt lat="51.770413" lon="10.732041"><ele>549</ele></trkpt>
            <trkpt lat="51.770525" lon="10.731894"><ele>549</ele></trkpt>
            <trkpt lat="51.770683" lon="10.731064"><ele>547</ele></trkpt>
            <trkpt lat="51.770898" lon="10.730478"><ele>543.3</ele></trkpt>
            <trkpt lat="51.771047" lon="10.729901"><ele>542</ele></trkpt>
            <trkpt lat="51.771345" lon="10.72998"><ele>542</ele></trkpt>
            <trkpt lat="51.771425" lon="10.730034"><ele>541</ele></trkpt>
            <trkpt lat="51.771628" lon="10.729351"><ele>542</ele></trkpt>
            <trkpt lat="51.771675" lon="10.729229"><ele>548.3</ele></trkpt>
            <trkpt lat="51.77177" lon="10.728558"><ele>553</ele></trkpt>
            <trkpt lat="51.771847" lon="10.727957"><ele>556</ele></trkpt>
            <trkpt lat="51.771861" lon="10.727836"><ele>556</ele></trkpt>
            <trkpt lat="51.772127" lon="10.725845"><ele>562</ele></trkpt>
            <trkpt lat="51.772274" lon="10.724778"><ele>570</ele></trkpt>
            <trkpt lat="51.772529" lon="10.722638"><ele>579</ele></trkpt>
            <trkpt lat="51.772553" lon="10.722524"><ele>579.7</ele></trkpt>
            <trkpt lat="51.772592" lon="10.722444"><ele>581</ele></trkpt>
            <trkpt lat="51.772621" lon="10.722412"><ele>581</ele></trkpt>
            <trkpt lat="51.772709" lon="10.722317"><ele>581</ele></trkpt>
            <trkpt lat="51.774538" lon="10.720294"><ele>591</ele></trkpt>
            <trkpt lat="51.774888" lon="10.719931"><ele>593.5</ele></trkpt>
            <trkpt lat="51.774976" lon="10.719882"><ele>596</ele></trkpt>
            <trkpt lat="51.775142" lon="10.719596"><ele>597.5</ele></trkpt>
            <trkpt lat="51.775203" lon="10.71942"><ele>598</ele></trkpt>
            <trkpt lat="51.775305" lon="10.719248"><ele>598</ele></trkpt>
            <trkpt lat="51.775362" lon="10.719252"><ele>598</ele></trkpt>
            <trkpt lat="51.775458" lon="10.719259"><ele>598</ele></trkpt>
            <trkpt lat="51.775575" lon="10.719231"><ele>598</ele></trkpt>
            <trkpt lat="51.775637" lon="10.719169"><ele>598</ele></trkpt>
            <trkpt lat="51.775901" lon="10.719212"><ele>602</ele></trkpt>
            <trkpt lat="51.776263" lon="10.719338"><ele>602</ele></trkpt>
            <trkpt lat="51.776444" lon="10.719466"><ele>602</ele></trkpt>
            <trkpt lat="51.776598" lon="10.71945"><ele>602</ele></trkpt>
            <trkpt lat="51.77698" lon="10.719509"><ele>607.3</ele></trkpt>
            <trkpt lat="51.777259" lon="10.719444"><ele>609</ele></trkpt>
            <trkpt lat="51.777341" lon="10.719335"><ele>614.3</ele></trkpt>
            <trkpt lat="51.777429" lon="10.719124"><ele>614.9</ele></trkpt>
            <trkpt lat="51.777559" lon="10.71887"><ele>615.6</ele></trkpt>
            <trkpt lat="51.777623" lon="10.71878"><ele>615.4</ele></trkpt>
            <trkpt lat="51.778144" lon="10.718381"><ele>614.8</ele></trkpt>
            <trkpt lat="51.778235" lon="10.71835"><ele>617</ele></trkpt>
            <trkpt lat="51.778311" lon="10.718364"><ele>619.3</ele></trkpt>
            <trkpt lat="51.778579" lon="10.718531"><ele>619.6</ele></trkpt>
            <trkpt lat="51.778645" lon="10.718544"><ele>619.5</ele></trkpt>
            <trkpt lat="51.779721" lon="10.718381"><ele>620</ele></trkpt>
            <trkpt lat="51.780242" lon="10.718193"><ele>624.5</ele></trkpt>
            <trkpt lat="51.780418" lon="10.718102"><ele>625.2</ele></trkpt>
            <trkpt lat="51.780569" lon="10.718008"><ele>625.8</ele></trkpt>
            <trkpt lat="51.780853" lon="10.717764"><ele>627.2</ele></trkpt>
            <trkpt lat="51.780989" lon="10.717595"><ele>628</ele></trkpt>
            <trkpt lat="51.781037" lon="10.717498"><ele>628.2</ele></trkpt>
            <trkpt lat="51.781069" lon="10.717379"><ele>628.5</ele></trkpt>
            <trkpt lat="51.781084" lon="10.717237"><ele>628.6</ele></trkpt>
            <trkpt lat="51.781091" lon="10.716892"><ele>629.3</ele></trkpt>
            <trkpt lat="51.781162" lon="10.71658"><ele>629.7</ele></trkpt>
            <trkpt lat="51.78125" lon="10.716284"><ele>630.2</ele></trkpt>
            <trkpt lat="51.781335" lon="10.716146"><ele>630.3</ele></trkpt>
            <trkpt lat="51.781418" lon="10.716084"><ele>630.1</ele></trkpt>
            <trkpt lat="51.781855" lon="10.715973"><ele>630.4</ele></trkpt>
            <trkpt lat="51.782212" lon="10.715726"><ele>630.8</ele></trkpt>
            <trkpt lat="51.78249" lon="10.715502"><ele>630.7</ele></trkpt>
            <trkpt lat="51.78291" lon="10.715008"><ele>630.9</ele></trkpt>
            <trkpt lat="51.782961" lon="10.714793"><ele>633</ele></trkpt>
            <trkpt lat="51.782721" lon="10.714505"><ele>633</ele></trkpt>
            <trkpt lat="51.782892" lon="10.713991"><ele>636.3</ele></trkpt>
            <trkpt lat="51.782978" lon="10.713841"><ele>636.6</ele></trkpt>
            <trkpt lat="51.783127" lon="10.713486"><ele>636.6</ele></trkpt>
            <trkpt lat="51.783223" lon="10.713312"><ele>637</ele></trkpt>
            <trkpt lat="51.783413" lon="10.713113"><ele>637.3</ele></trkpt>
            <trkpt lat="51.783714" lon="10.712602"><ele>638</ele></trkpt>
            <trkpt lat="51.783837" lon="10.712344"><ele>639</ele></trkpt>
            <trkpt lat="51.784216" lon="10.711214"><ele>640.5</ele></trkpt>
            <trkpt lat="51.784398" lon="10.710529"><ele>640.5</ele></trkpt>
            <trkpt lat="51.784525" lon="10.710126"><ele>640.8</ele></trkpt>
            <trkpt lat="51.784655" lon="10.709802"><ele>641.5</ele></trkpt>
            <trkpt lat="51.784827" lon="10.709553"><ele>641.7</ele></trkpt>
            <trkpt lat="51.784989" lon="10.709513"><ele>642.1</ele></trkpt>
            <trkpt lat="51.785305" lon="10.709501"><ele>643.1</ele></trkpt>
            <trkpt lat="51.785659" lon="10.709429"><ele>643.5</ele></trkpt>
            <trkpt lat="51.785882" lon="10.709261"><ele>644.1</ele></trkpt>
            <trkpt lat="51.78648" lon="10.708672"><ele>644.8</ele></trkpt>
            <trkpt lat="51.786826" lon="10.708498"><ele>645.7</ele></trkpt>
            <trkpt lat="51.787045" lon="10.708419"><ele>648</ele></trkpt>
            <trkpt lat="51.786967" lon="10.708219"><ele>662.2</ele></trkpt>
            <trkpt lat="51.786982" lon="10.708019"><ele>661.7</ele></trkpt>
            <trkpt lat="51.787038" lon="10.707933"><ele>661.1</ele></trkpt>
            <trkpt lat="51.787151" lon="10.707875"><ele>660.5</ele></trkpt>
            <trkpt lat="51.787269" lon="10.70776"><ele>665</ele></trkpt>
            <trkpt lat="51.788078" lon="10.707889"><ele>652.3</ele></trkpt>
            <trkpt lat="51.788262" lon="10.707886"><ele>652.3</ele></trkpt>
            <trkpt lat="51.788391" lon="10.707831"><ele>652</ele></trkpt>
            <trkpt lat="51.788572" lon="10.707681"><ele>652.3</ele></trkpt>
            <trkpt lat="51.788808" lon="10.707525"><ele>651.9</ele></trkpt>
            <trkpt lat="51.788921" lon="10.707497"><ele>652.2</ele></trkpt>
            <trkpt lat="51.789049" lon="10.70749"><ele>651.9</ele></trkpt>
            <trkpt lat="51.789639" lon="10.707584"><ele>652.4</ele></trkpt>
            <trkpt lat="51.790123" lon="10.707547"><ele>653.9</ele></trkpt>
            <trkpt lat="51.790408" lon="10.707448"><ele>656</ele></trkpt>
            <trkpt lat="51.7915" lon="10.706793"><ele>657.6</ele></trkpt>
            <trkpt lat="51.791747" lon="10.706596"><ele>657.9</ele></trkpt>
            <trkpt lat="51.791922" lon="10.70641"><ele>657.9</ele></trkpt>
            <trkpt lat="51.792208" lon="10.706047"><ele>658</ele></trkpt>
            <trkpt lat="51.792605" lon="10.7061"><ele>651.8</ele></trkpt>
            <trkpt lat="51.792716" lon="10.706076"><ele>648</ele></trkpt>
            <trkpt lat="51.792831" lon="10.706058"><ele>648</ele></trkpt>
            <trkpt lat="51.79295" lon="10.706098"><ele>648</ele></trkpt>
            <trkpt lat="51.793046" lon="10.706129"><ele>645.8</ele></trkpt>
            <trkpt lat="51.793236" lon="10.706312"><ele>645.2</ele></trkpt>
            <trkpt lat="51.793443" lon="10.706553"><ele>639</ele></trkpt>
            <trkpt lat="51.793713" lon="10.707066"><ele>640.5</ele></trkpt>
            <trkpt lat="51.793801" lon="10.707211"><ele>640.4</ele></trkpt>
            <trkpt lat="51.793888" lon="10.707306"><ele>641</ele></trkpt>
            <trkpt lat="51.793987" lon="10.707364"><ele>641</ele></trkpt>
            <trkpt lat="51.794125" lon="10.707399"><ele>636</ele></trkpt>
            <trkpt lat="51.794209" lon="10.707374"><ele>634.8</ele></trkpt>
            <trkpt lat="51.794299" lon="10.70738"><ele>631</ele></trkpt>
            <trkpt lat="51.794459" lon="10.707362"><ele>628.3</ele></trkpt>
            <trkpt lat="51.794655" lon="10.707394"><ele>627.4</ele></trkpt>
            <trkpt lat="51.794937" lon="10.707574"><ele>626.9</ele></trkpt>
            <trkpt lat="51.795221" lon="10.707662"><ele>626.5</ele></trkpt>
            <trkpt lat="51.795419" lon="10.707798"><ele>626.6</ele></trkpt>
            <trkpt lat="51.795479" lon="10.707936"><ele>626.6</ele></trkpt>
            <trkpt lat="51.795498" lon="10.708132"><ele>626.6</ele></trkpt>
            <trkpt lat="51.795507" lon="10.708661"><ele>626.3</ele></trkpt>
            <trkpt lat="51.795532" lon="10.708803"><ele>626.2</ele></trkpt>
            <trkpt lat="51.795574" lon="10.708975"><ele>626.2</ele></trkpt>
            <trkpt lat="51.795614" lon="10.709059"><ele>626.2</ele></trkpt>
            <trkpt lat="51.795704" lon="10.709157"><ele>625</ele></trkpt>
            <trkpt lat="51.796106" lon="10.709084"><ele>614</ele></trkpt>
            <trkpt lat="51.796312" lon="10.708972"><ele>609</ele></trkpt>
            <trkpt lat="51.796514" lon="10.709025"><ele>605.5</ele></trkpt>
            <trkpt lat="51.796609" lon="10.709106"><ele>604.9</ele></trkpt>
            <trkpt lat="51.7967" lon="10.709256"><ele>604.2</ele></trkpt>
            <trkpt lat="51.796776" lon="10.709344"><ele>604.6</ele></trkpt>
            <trkpt lat="51.796806" lon="10.709455"><ele>602</ele></trkpt>
            <trkpt lat="51.796873" lon="10.709451"><ele>602.3</ele></trkpt>
            <trkpt lat="51.797072" lon="10.709529"><ele>602.4</ele></trkpt>
            <trkpt lat="51.797184" lon="10.70963"><ele>602.5</ele></trkpt>
            <trkpt lat="51.797497" lon="10.710245"><ele>603</ele></trkpt>
            <trkpt lat="51.797493" lon="10.710373"><ele>603</ele></trkpt>
            <trkpt lat="51.797387" lon="10.710485"><ele>603.6</ele></trkpt>
            <trkpt lat="51.797305" lon="10.710606"><ele>603.6</ele></trkpt>
            <trkpt lat="51.797261" lon="10.710724"><ele>603.7</ele></trkpt>
            <trkpt lat="51.79716" lon="10.7109"><ele>603.7</ele></trkpt>
            <trkpt lat="51.797007" lon="10.711043"><ele>603.8</ele></trkpt>
            <trkpt lat="51.796885" lon="10.711213"><ele>603.8</ele></trkpt>
            <trkpt lat="51.796782" lon="10.711419"><ele>603.9</ele></trkpt>
            <trkpt lat="51.796725" lon="10.711468"><ele>603.9</ele></trkpt>
            <trkpt lat="51.796694" lon="10.711765"><ele>604.2</ele></trkpt>
            <trkpt lat="51.796648" lon="10.711823"><ele>604.4</ele></trkpt>
            <trkpt lat="51.79663" lon="10.711965"><ele>608</ele></trkpt>
            <trkpt lat="51.796662" lon="10.711992"><ele>608</ele></trkpt>
            <trkpt lat="51.796688" lon="10.711979"><ele>602</ele></trkpt>
            <trkpt lat="51.796662" lon="10.711992"><ele>608</ele></trkpt>
            <trkpt lat="51.796647" lon="10.712015"><ele>608</ele></trkpt>
            <trkpt lat="51.79664" lon="10.712145"><ele>597.2</ele></trkpt>
            <trkpt lat="51.79668" lon="10.712306"><ele>596.2</ele></trkpt>
            <trkpt lat="51.796645" lon="10.712386"><ele>595.9</ele></trkpt>
            <trkpt lat="51.796625" lon="10.712603"><ele>595</ele></trkpt>
            <trkpt lat="51.796677" lon="10.712701"><ele>594.9</ele></trkpt>
            <trkpt lat="51.79671" lon="10.712829"><ele>595.2</ele></trkpt>
            <trkpt lat="51.796762" lon="10.71285"><ele>595.4</ele></trkpt>
            <trkpt lat="51.796813" lon="10.712976"><ele>595.7</ele></trkpt>
            <trkpt lat="51.796812" lon="10.713043"><ele>595.9</ele></trkpt>
            <trkpt lat="51.796925" lon="10.713143"><ele>596.1</ele></trkpt>
            <trkpt lat="51.796973" lon="10.71322"><ele>592</ele></trkpt>
            <trkpt lat="51.796943" lon="10.713361"><ele>581.8</ele></trkpt>
            <trkpt lat="51.796921" lon="10.713616"><ele>582</ele></trkpt>
            <trkpt lat="51.796931" lon="10.713953"><ele>582.2</ele></trkpt>
            <trkpt lat="51.796992" lon="10.714201"><ele>574</ele></trkpt>
            <trkpt lat="51.797101" lon="10.714346"><ele>570.8</ele></trkpt>
            <trkpt lat="51.797235" lon="10.714475"><ele>568.3</ele></trkpt>
            <trkpt lat="51.798693" lon="10.715712"><ele>559</ele></trkpt>
            <trkpt lat="51.798818" lon="10.715836"><ele>560</ele></trkpt>
            <trkpt lat="51.798938" lon="10.715863"><ele>557.8</ele></trkpt>
            <trkpt lat="51.799066" lon="10.715834"><ele>558.3</ele></trkpt>
            <trkpt lat="51.799305" lon="10.715712"><ele>553</ele></trkpt>
            <trkpt lat="51.799408" lon="10.71555"><ele>547.4</ele></trkpt>
            <trkpt lat="51.79966" lon="10.715053"><ele>547.7</ele></trkpt>
            <trkpt lat="51.800352" lon="10.714148"><ele>540.9</ele></trkpt>
            <trkpt lat="51.80057" lon="10.71401"><ele>538.4</ele></trkpt>
            <trkpt lat="51.80088" lon="10.713859"><ele>532.3</ele></trkpt>
            <trkpt lat="51.801363" lon="10.713675"><ele>529</ele></trkpt>
            <trkpt lat="51.801639" lon="10.713524"><ele>526.5</ele></trkpt>
            <trkpt lat="51.801822" lon="10.713477"><ele>524.2</ele></trkpt>
            <trkpt lat="51.802041" lon="10.713543"><ele>522.1</ele></trkpt>
            <trkpt lat="51.80221" lon="10.713542"><ele>522</ele></trkpt>
            <trkpt lat="51.802633" lon="10.713266"><ele>519.6</ele></trkpt>
            <trkpt lat="51.802774" lon="10.713215"><ele>517.8</ele></trkpt>
            <trkpt lat="51.803009" lon="10.713159"><ele>517.1</ele></trkpt>
            <trkpt lat="51.803248" lon="10.713193"><ele>516.9</ele></trkpt>
            <trkpt lat="51.803606" lon="10.713455"><ele>514.5</ele></trkpt>
            <trkpt lat="51.803719" lon="10.713579"><ele>513.4</ele></trkpt>
            <trkpt lat="51.803951" lon="10.713912"><ele>506</ele></trkpt>
            <trkpt lat="51.803985" lon="10.713947"><ele>506</ele></trkpt>
            <trkpt lat="51.804108" lon="10.71406"><ele>506</ele></trkpt>
            <trkpt lat="51.804185" lon="10.714137"><ele>507</ele></trkpt>
            <trkpt lat="51.804351" lon="10.714349"><ele>496.8</ele></trkpt>
            <trkpt lat="51.805096" lon="10.71545"><ele>484.5</ele></trkpt>
            <trkpt lat="51.805391" lon="10.71595"><ele>472.5</ele></trkpt>
            <trkpt lat="51.805634" lon="10.716516"><ele>472.9</ele></trkpt>
            <trkpt lat="51.806114" lon="10.717343"><ele>459.6</ele></trkpt>
            <trkpt lat="51.806496" lon="10.718202"><ele>439.6</ele></trkpt>
            <trkpt lat="51.806785" lon="10.719053"><ele>436.3</ele></trkpt>
            <trkpt lat="51.806872" lon="10.719239"><ele>431.4</ele></trkpt>
            <trkpt lat="51.80698" lon="10.719415"><ele>430.7</ele></trkpt>
            <trkpt lat="51.807154" lon="10.719642"><ele>430</ele></trkpt>
            <trkpt lat="51.807427" lon="10.719961"><ele>426</ele></trkpt>
            <trkpt lat="51.807552" lon="10.720132"><ele>417.8</ele></trkpt>
            <trkpt lat="51.807652" lon="10.720342"><ele>417.7</ele></trkpt>
            <trkpt lat="51.807677" lon="10.720494"><ele>417.6</ele></trkpt>
            <trkpt lat="51.807675" lon="10.720989"><ele>416.9</ele></trkpt>
            <trkpt lat="51.807643" lon="10.72138"><ele>412</ele></trkpt>
            <trkpt lat="51.807622" lon="10.721686"><ele>407</ele></trkpt>
            <trkpt lat="51.80762" lon="10.721827"><ele>403.8</ele></trkpt>
            <trkpt lat="51.807653" lon="10.722206"><ele>404.3</ele></trkpt>
            <trkpt lat="51.807666" lon="10.722746"><ele>403.9</ele></trkpt>
            <trkpt lat="51.807701" lon="10.723226"><ele>403.7</ele></trkpt>
            <trkpt lat="51.807773" lon="10.723537"><ele>397</ele></trkpt>
            <trkpt lat="51.808246" lon="10.724673"><ele>395.1</ele></trkpt>
            <trkpt lat="51.808295" lon="10.724916"><ele>395.5</ele></trkpt>
            <trkpt lat="51.808638" lon="10.727506"><ele>367</ele></trkpt>
            <trkpt lat="51.808759" lon="10.728342"><ele>364</ele></trkpt>
            <trkpt lat="51.808585" lon="10.728392"><ele>364</ele></trkpt>
            <trkpt lat="51.808519" lon="10.728547"><ele>364</ele></trkpt>
        </trkseg>
    </trk>
</gpx>
