<?xml version="1.0" encoding="UTF-8"?>
<gpx version="1.1" creator="HWN Route Compare (OpenRouteService)" xmlns="http://www.topografix.com/GPX/1/1">
    <metadata>
        <name>OpenRouteService – Tour C1</name>
    </metadata>
    <trk>
        <name>OpenRouteService – Tour C1</name>
        <trkseg>
            <trkpt lat="51.792002" lon="10.275694"><ele>567.4</ele></trkpt>
            <trkpt lat="51.791975" lon="10.275826"><ele>567.1</ele></trkpt>
            <trkpt lat="51.791934" lon="10.275953"><ele>566.3</ele></trkpt>
            <trkpt lat="51.791883" lon="10.276037"><ele>578</ele></trkpt>
            <trkpt lat="51.791521" lon="10.276411"><ele>588</ele></trkpt>
            <trkpt lat="51.790859" lon="10.277103"><ele>590.9</ele></trkpt>
            <trkpt lat="51.790549" lon="10.277344"><ele>594</ele></trkpt>
            <trkpt lat="51.790194" lon="10.277512"><ele>590.7</ele></trkpt>
            <trkpt lat="51.789281" lon="10.277866"><ele>588</ele></trkpt>
            <trkpt lat="51.789274" lon="10.277955"><ele>581.7</ele></trkpt>
            <trkpt lat="51.789245" lon="10.278019"><ele>581.1</ele></trkpt>
            <trkpt lat="51.789038" lon="10.278271"><ele>579.6</ele></trkpt>
            <trkpt lat="51.788857" lon="10.278639"><ele>578.6</ele></trkpt>
            <trkpt lat="51.788618" lon="10.278978"><ele>578.4</ele></trkpt>
            <trkpt lat="51.788516" lon="10.279366"><ele>577.8</ele></trkpt>
            <trkpt lat="51.788471" lon="10.27948"><ele>578</ele></trkpt>
            <trkpt lat="51.787939" lon="10.280222"><ele>573.4</ele></trkpt>
            <trkpt lat="51.787669" lon="10.280722"><ele>571.9</ele></trkpt>
            <trkpt lat="51.787376" lon="10.281197"><ele>568.7</ele></trkpt>
            <trkpt lat="51.787282" lon="10.281302"><ele>562</ele></trkpt>
            <trkpt lat="51.786563" lon="10.28356"><ele>556.5</ele></trkpt>
            <trkpt lat="51.786506" lon="10.28381"><ele>556.7</ele></trkpt>
            <trkpt lat="51.786478" lon="10.284032"><ele>555</ele></trkpt>
            <trkpt lat="51.786211" lon="10.284202"><ele>551.9</ele></trkpt>
            <trkpt lat="51.784965" lon="10.286081"><ele>540</ele></trkpt>
            <trkpt lat="51.784893" lon="10.286166"><ele>540</ele></trkpt>
            <trkpt lat="51.78482" lon="10.28629"><ele>540</ele></trkpt>
            <trkpt lat="51.784795" lon="10.286334"><ele>540</ele></trkpt>
            <trkpt lat="51.784768" lon="10.286383"><ele>540</ele></trkpt>
            <trkpt lat="51.784606" lon="10.286679"><ele>543.2</ele></trkpt>
            <trkpt lat="51.784391" lon="10.287205"><ele>544.2</ele></trkpt>
            <trkpt lat="51.78412" lon="10.287609"><ele>545.4</ele></trkpt>
            <trkpt lat="51.783997" lon="10.287848"><ele>550</ele></trkpt>
            <trkpt lat="51.783981" lon="10.287956"><ele>550</ele></trkpt>
            <trkpt lat="51.783772" lon="10.288801"><ele>557.7</ele></trkpt>
            <trkpt lat="51.783355" lon="10.290369"><ele>565.1</ele></trkpt>
            <trkpt lat="51.783206" lon="10.290895"><ele>567.6</ele></trkpt>
            <trkpt lat="51.783071" lon="10.291225"><ele>568.8</ele></trkpt>
            <trkpt lat="51.782788" lon="10.291634"><ele>568.7</ele></trkpt>
            <trkpt lat="51.782415" lon="10.292117"><ele>570.2</ele></trkpt>
            <trkpt lat="51.782046" lon="10.292477"><ele>572</ele></trkpt>
            <trkpt lat="51.781514" lon="10.292865"><ele>575.3</ele></trkpt>
            <trkpt lat="51.780456" lon="10.293813"><ele>578.6</ele></trkpt>
            <trkpt lat="51.779493" lon="10.294873"><ele>582.9</ele></trkpt>
            <trkpt lat="51.779234" lon="10.295292"><ele>584</ele></trkpt>
            <trkpt lat="51.778938" lon="10.295412"><ele>586</ele></trkpt>
            <trkpt lat="51.777695" lon="10.295749"><ele>572</ele></trkpt>
            <trkpt lat="51.777151" lon="10.296624"><ele>565.5</ele></trkpt>
            <trkpt lat="51.777003" lon="10.296915"><ele>565</ele></trkpt>
            <trkpt lat="51.776763" lon="10.297516"><ele>562.7</ele></trkpt>
            <trkpt lat="51.776519" lon="10.298386"><ele>562.3</ele></trkpt>
            <trkpt lat="51.776407" lon="10.298696"><ele>562.6</ele></trkpt>
            <trkpt lat="51.776145" lon="10.299269"><ele>564.2</ele></trkpt>
            <trkpt lat="51.775073" lon="10.301436"><ele>562.7</ele></trkpt>
            <trkpt lat="51.774143" lon="10.303016"><ele>548.8</ele></trkpt>
            <trkpt lat="51.77405" lon="10.303209"><ele>548.6</ele></trkpt>
            <trkpt lat="51.773664" lon="10.304189"><ele>550.9</ele></trkpt>
            <trkpt lat="51.773541" lon="10.304413"><ele>550.9</ele></trkpt>
            <trkpt lat="51.773335" lon="10.304679"><ele>551.5</ele></trkpt>
            <trkpt lat="51.772915" lon="10.305041"><ele>552.9</ele></trkpt>
            <trkpt lat="51.772761" lon="10.305228"><ele>560</ele></trkpt>
            <trkpt lat="51.772787" lon="10.305442"><ele>560</ele></trkpt>
            <trkpt lat="51.772899" lon="10.306051"><ele>560</ele></trkpt>
            <trkpt lat="51.773" lon="10.306314"><ele>560</ele></trkpt>
            <trkpt lat="51.772868" lon="10.306445"><ele>559.2</ele></trkpt>
            <trkpt lat="51.772599" lon="10.306942"><ele>559.6</ele></trkpt>
            <trkpt lat="51.772414" lon="10.307156"><ele>559</ele></trkpt>
            <trkpt lat="51.772148" lon="10.307286"><ele>558.9</ele></trkpt>
            <trkpt lat="51.772044" lon="10.307274"><ele>558.4</ele></trkpt>
            <trkpt lat="51.771681" lon="10.30714"><ele>558.2</ele></trkpt>
            <trkpt lat="51.771193" lon="10.306856"><ele>555.7</ele></trkpt>
            <trkpt lat="51.770837" lon="10.306752"><ele>554.1</ele></trkpt>
            <trkpt lat="51.770051" lon="10.306639"><ele>552.1</ele></trkpt>
            <trkpt lat="51.769643" lon="10.306534"><ele>552.6</ele></trkpt>
            <trkpt lat="51.769331" lon="10.306427"><ele>552.8</ele></trkpt>
            <trkpt lat="51.768903" lon="10.306225"><ele>553.3</ele></trkpt>
            <trkpt lat="51.768599" lon="10.306048"><ele>554.6</ele></trkpt>
            <trkpt lat="51.768026" lon="10.30557"><ele>551</ele></trkpt>
            <trkpt lat="51.767874" lon="10.305554"><ele>551</ele></trkpt>
            <trkpt lat="51.767802" lon="10.30559"><ele>553.7</ele></trkpt>
            <trkpt lat="51.767526" lon="10.305914"><ele>559</ele></trkpt>
            <trkpt lat="51.767658" lon="10.306264"><ele>561.3</ele></trkpt>
            <trkpt lat="51.767821" lon="10.306763"><ele>568</ele></trkpt>
            <trkpt lat="51.767921" lon="10.307167"><ele>569.8</ele></trkpt>
            <trkpt lat="51.768006" lon="10.307599"><ele>570.2</ele></trkpt>
            <trkpt lat="51.768096" lon="10.308187"><ele>571</ele></trkpt>
            <trkpt lat="51.767583" lon="10.308424"><ele>577.8</ele></trkpt>
            <trkpt lat="51.767273" lon="10.308629"><ele>578.3</ele></trkpt>
            <trkpt lat="51.766927" lon="10.308968"><ele>577.7</ele></trkpt>
            <trkpt lat="51.766739" lon="10.309101"><ele>578.2</ele></trkpt>
            <trkpt lat="51.766643" lon="10.309135"><ele>575</ele></trkpt>
            <trkpt lat="51.766384" lon="10.309273"><ele>573.4</ele></trkpt>
            <trkpt lat="51.766164" lon="10.309505"><ele>573.5</ele></trkpt>
            <trkpt lat="51.766003" lon="10.30971"><ele>573</ele></trkpt>
            <trkpt lat="51.766238" lon="10.310222"><ele>571</ele></trkpt>
            <trkpt lat="51.766209" lon="10.310457"><ele>568.5</ele></trkpt>
            <trkpt lat="51.766147" lon="10.313324"><ele>567.5</ele></trkpt>
            <trkpt lat="51.766152" lon="10.31383"><ele>569</ele></trkpt>
            <trkpt lat="51.766251" lon="10.313962"><ele>565.5</ele></trkpt>
            <trkpt lat="51.766152" lon="10.31383"><ele>569</ele></trkpt>
            <trkpt lat="51.765676" lon="10.314137"><ele>547</ele></trkpt>
            <trkpt lat="51.765447" lon="10.314313"><ele>543</ele></trkpt>
            <trkpt lat="51.765391" lon="10.31417"><ele>538</ele></trkpt>
            <trkpt lat="51.765291" lon="10.314098"><ele>538.4</ele></trkpt>
            <trkpt lat="51.765015" lon="10.313766"><ele>537.9</ele></trkpt>
            <trkpt lat="51.764725" lon="10.313647"><ele>536.3</ele></trkpt>
            <trkpt lat="51.764633" lon="10.31354"><ele>535.6</ele></trkpt>
            <trkpt lat="51.764554" lon="10.313489"><ele>534.9</ele></trkpt>
            <trkpt lat="51.764431" lon="10.313477"><ele>534.2</ele></trkpt>
            <trkpt lat="51.764021" lon="10.313286"><ele>489</ele></trkpt>
            <trkpt lat="51.763969" lon="10.313331"><ele>489</ele></trkpt>
            <trkpt lat="51.763804" lon="10.31331"><ele>489</ele></trkpt>
            <trkpt lat="51.76368" lon="10.313264"><ele>489</ele></trkpt>
            <trkpt lat="51.763462" lon="10.313136"><ele>489</ele></trkpt>
            <trkpt lat="51.763357" lon="10.313229"><ele>483.8</ele></trkpt>
            <trkpt lat="51.763215" lon="10.313241"><ele>475</ele></trkpt>
            <trkpt lat="51.763085" lon="10.313254"><ele>475</ele></trkpt>
            <trkpt lat="51.763103" lon="10.313026"><ele>475</ele></trkpt>
            <trkpt lat="51.763163" lon="10.312808"><ele>479.6</ele></trkpt>
            <trkpt lat="51.763298" lon="10.312564"><ele>483.3</ele></trkpt>
            <trkpt lat="51.763464" lon="10.312455"><ele>484.2</ele></trkpt>
            <trkpt lat="51.763976" lon="10.312248"><ele>485.6</ele></trkpt>
            <trkpt lat="51.764283" lon="10.312077"><ele>487.1</ele></trkpt>
            <trkpt lat="51.764365" lon="10.311944"><ele>487.7</ele></trkpt>
            <trkpt lat="51.764382" lon="10.31181"><ele>488</ele></trkpt>
            <trkpt lat="51.764319" lon="10.311696"><ele>494</ele></trkpt>
            <trkpt lat="51.764125" lon="10.311363"><ele>473.1</ele></trkpt>
            <trkpt lat="51.763788" lon="10.311131"><ele>472.7</ele></trkpt>
            <trkpt lat="51.763665" lon="10.310929"><ele>472.3</ele></trkpt>
            <trkpt lat="51.763511" lon="10.310907"><ele>471.7</ele></trkpt>
            <trkpt lat="51.763299" lon="10.310924"><ele>471.1</ele></trkpt>
            <trkpt lat="51.763262" lon="10.31095"><ele>457</ele></trkpt>
            <trkpt lat="51.762923" lon="10.310825"><ele>451</ele></trkpt>
            <trkpt lat="51.762908" lon="10.310829"><ele>444.6</ele></trkpt>
            <trkpt lat="51.762818" lon="10.310673"><ele>443.7</ele></trkpt>
            <trkpt lat="51.762663" lon="10.310563"><ele>442.6</ele></trkpt>
            <trkpt lat="51.762254" lon="10.310174"><ele>435.4</ele></trkpt>
            <trkpt lat="51.761878" lon="10.309907"><ele>437</ele></trkpt>
            <trkpt lat="51.761042" lon="10.310164"><ele>393</ele></trkpt>
            <trkpt lat="51.761047" lon="10.310224"><ele>386.7</ele></trkpt>
            <trkpt lat="51.761027" lon="10.31024"><ele>387.5</ele></trkpt>
            <trkpt lat="51.760882" lon="10.310197"><ele>388.2</ele></trkpt>
            <trkpt lat="51.760707" lon="10.310247"><ele>386.4</ele></trkpt>
            <trkpt lat="51.760373" lon="10.310138"><ele>374</ele></trkpt>
            <trkpt lat="51.760384" lon="10.309833"><ele>376.9</ele></trkpt>
            <trkpt lat="51.760374" lon="10.309704"><ele>377</ele></trkpt>
            <trkpt lat="51.760339" lon="10.309571"><ele>377</ele></trkpt>
            <trkpt lat="51.760217" lon="10.309306"><ele>377.1</ele></trkpt>
            <trkpt lat="51.759623" lon="10.308466"><ele>376.6</ele></trkpt>
            <trkpt lat="51.759438" lon="10.308095"><ele>376.2</ele></trkpt>
            <trkpt lat="51.759282" lon="10.3077"><ele>375</ele></trkpt>
            <trkpt lat="51.759" lon="10.307071"><ele>367.1</ele></trkpt>
            <trkpt lat="51.758856" lon="10.30683"><ele>366.6</ele></trkpt>
            <trkpt lat="51.758676" lon="10.30666"><ele>366.2</ele></trkpt>
            <trkpt lat="51.758367" lon="10.306231"><ele>366.4</ele></trkpt>
            <trkpt lat="51.758304" lon="10.306111"><ele>369</ele></trkpt>
            <trkpt lat="51.758131" lon="10.305727"><ele>364.8</ele></trkpt>
            <trkpt lat="51.757859" lon="10.305037"><ele>363.2</ele></trkpt>
            <trkpt lat="51.757605" lon="10.304324"><ele>361.7</ele></trkpt>
            <trkpt lat="51.757328" lon="10.303118"><ele>357.6</ele></trkpt>
            <trkpt lat="51.75729" lon="10.303001"><ele>357.1</ele></trkpt>
            <trkpt lat="51.75679" lon="10.301797"><ele>352</ele></trkpt>
            <trkpt lat="51.756511" lon="10.30201"><ele>372</ele></trkpt>
            <trkpt lat="51.756442" lon="10.301993"><ele>379.1</ele></trkpt>
            <trkpt lat="51.756386" lon="10.301945"><ele>380.2</ele></trkpt>
            <trkpt lat="51.756137" lon="10.301525"><ele>382.7</ele></trkpt>
            <trkpt lat="51.755771" lon="10.301044"><ele>385.4</ele></trkpt>
            <trkpt lat="51.755532" lon="10.300439"><ele>384.6</ele></trkpt>
            <trkpt lat="51.755547" lon="10.299324"><ele>380.6</ele></trkpt>
            <trkpt lat="51.755532" lon="10.298656"><ele>379.8</ele></trkpt>
            <trkpt lat="51.755377" lon="10.298037"><ele>378.2</ele></trkpt>
            <trkpt lat="51.755203" lon="10.2976"><ele>378.5</ele></trkpt>
            <trkpt lat="51.754938" lon="10.297099"><ele>380.6</ele></trkpt>
            <trkpt lat="51.754861" lon="10.297012"><ele>384</ele></trkpt>
            <trkpt lat="51.754858" lon="10.297092"><ele>389.5</ele></trkpt>
            <trkpt lat="51.754811" lon="10.297219"><ele>388.6</ele></trkpt>
            <trkpt lat="51.754815" lon="10.297379"><ele>387.8</ele></trkpt>
            <trkpt lat="51.754673" lon="10.297588"><ele>403</ele></trkpt>
            <trkpt lat="51.754332" lon="10.297168"><ele>390.6</ele></trkpt>
            <trkpt lat="51.754273" lon="10.297145"><ele>391.9</ele></trkpt>
            <trkpt lat="51.753847" lon="10.297139"><ele>391</ele></trkpt>
            <trkpt lat="51.753745" lon="10.297131"><ele>391</ele></trkpt>
            <trkpt lat="51.753564" lon="10.297174"><ele>391</ele></trkpt>
            <trkpt lat="51.753433" lon="10.297307"><ele>391</ele></trkpt>
            <trkpt lat="51.753381" lon="10.29736"><ele>408</ele></trkpt>
            <trkpt lat="51.753295" lon="10.297584"><ele>412.3</ele></trkpt>
            <trkpt lat="51.753259" lon="10.297778"><ele>425</ele></trkpt>
            <trkpt lat="51.753156" lon="10.297967"><ele>428.2</ele></trkpt>
            <trkpt lat="51.75304" lon="10.297961"><ele>427.9</ele></trkpt>
            <trkpt lat="51.752924" lon="10.297918"><ele>427.6</ele></trkpt>
            <trkpt lat="51.752592" lon="10.297195"><ele>426.1</ele></trkpt>
            <trkpt lat="51.752366" lon="10.296802"><ele>443</ele></trkpt>
            <trkpt lat="51.752205" lon="10.296426"><ele>428.4</ele></trkpt>
            <trkpt lat="51.752049" lon="10.295605"><ele>426.2</ele></trkpt>
            <trkpt lat="51.75199" lon="10.295465"><ele>415</ele></trkpt>
            <trkpt lat="51.751928" lon="10.295396"><ele>412.8</ele></trkpt>
            <trkpt lat="51.751662" lon="10.295232"><ele>412.3</ele></trkpt>
            <trkpt lat="51.751145" lon="10.295222"><ele>411.9</ele></trkpt>
            <trkpt lat="51.750935" lon="10.295264"><ele>411.8</ele></trkpt>
            <trkpt lat="51.750781" lon="10.295333"><ele>411.4</ele></trkpt>
            <trkpt lat="51.750183" lon="10.295906"><ele>412.1</ele></trkpt>
            <trkpt lat="51.750009" lon="10.295984"><ele>412.5</ele></trkpt>
            <trkpt lat="51.749867" lon="10.296093"><ele>411.5</ele></trkpt>
            <trkpt lat="51.749834" lon="10.296193"><ele>411</ele></trkpt>
            <trkpt lat="51.749826" lon="10.296302"><ele>410.5</ele></trkpt>
            <trkpt lat="51.749922" lon="10.296633"><ele>412</ele></trkpt>
            <trkpt lat="51.750056" lon="10.296903"><ele>414.4</ele></trkpt>
            <trkpt lat="51.750087" lon="10.29703"><ele>415.8</ele></trkpt>
            <trkpt lat="51.750167" lon="10.297663"><ele>419</ele></trkpt>
            <trkpt lat="51.750298" lon="10.298042"><ele>421.1</ele></trkpt>
            <trkpt lat="51.750364" lon="10.298334"><ele>430.2</ele></trkpt>
            <trkpt lat="51.750443" lon="10.298599"><ele>438</ele></trkpt>
            <trkpt lat="51.750501" lon="10.299215"><ele>441.5</ele></trkpt>
            <trkpt lat="51.750533" lon="10.299956"><ele>441.6</ele></trkpt>
            <trkpt lat="51.750508" lon="10.30013"><ele>442.1</ele></trkpt>
            <trkpt lat="51.750466" lon="10.300209"><ele>442.4</ele></trkpt>
            <trkpt lat="51.750351" lon="10.300294"><ele>442.7</ele></trkpt>
            <trkpt lat="51.750248" lon="10.300281"><ele>443.1</ele></trkpt>
            <trkpt lat="51.75018" lon="10.300234"><ele>443.3</ele></trkpt>
            <trkpt lat="51.750136" lon="10.300188"><ele>443.4</ele></trkpt>
            <trkpt lat="51.749829" lon="10.299687"><ele>442.4</ele></trkpt>
            <trkpt lat="51.749745" lon="10.299608"><ele>431</ele></trkpt>
            <trkpt lat="51.749603" lon="10.299804"><ele>440.3</ele></trkpt>
            <trkpt lat="51.749498" lon="10.299896"><ele>439.8</ele></trkpt>
            <trkpt lat="51.748956" lon="10.300021"><ele>442.7</ele></trkpt>
            <trkpt lat="51.748823" lon="10.299965"><ele>443</ele></trkpt>
            <trkpt lat="51.74864" lon="10.299811"><ele>443.2</ele></trkpt>
            <trkpt lat="51.748324" lon="10.2996"><ele>443.8</ele></trkpt>
            <trkpt lat="51.748172" lon="10.299534"><ele>445.2</ele></trkpt>
            <trkpt lat="51.748061" lon="10.299543"><ele>446.1</ele></trkpt>
            <trkpt lat="51.747981" lon="10.29962"><ele>446</ele></trkpt>
            <trkpt lat="51.747845" lon="10.299911"><ele>446.5</ele></trkpt>
            <trkpt lat="51.747728" lon="10.300058"><ele>447.8</ele></trkpt>
            <trkpt lat="51.747305" lon="10.300421"><ele>448.7</ele></trkpt>
            <trkpt lat="51.74715" lon="10.30049"><ele>449.4</ele></trkpt>
            <trkpt lat="51.746918" lon="10.300554"><ele>450.8</ele></trkpt>
            <trkpt lat="51.746702" lon="10.300697"><ele>453.2</ele></trkpt>
            <trkpt lat="51.746495" lon="10.300909"><ele>455.1</ele></trkpt>
            <trkpt lat="51.746245" lon="10.301308"><ele>462</ele></trkpt>
            <trkpt lat="51.746238" lon="10.301461"><ele>462</ele></trkpt>
            <trkpt lat="51.746207" lon="10.301452"><ele>462</ele></trkpt>
            <trkpt lat="51.746238" lon="10.301461"><ele>462</ele></trkpt>
            <trkpt lat="51.746245" lon="10.301308"><ele>462</ele></trkpt>
            <trkpt lat="51.746495" lon="10.300909"><ele>455.1</ele></trkpt>
            <trkpt lat="51.746702" lon="10.300697"><ele>453.2</ele></trkpt>
            <trkpt lat="51.746918" lon="10.300554"><ele>450.8</ele></trkpt>
            <trkpt lat="51.74715" lon="10.30049"><ele>449.4</ele></trkpt>
            <trkpt lat="51.747305" lon="10.300421"><ele>448.7</ele></trkpt>
            <trkpt lat="51.747728" lon="10.300058"><ele>447.8</ele></trkpt>
            <trkpt lat="51.747845" lon="10.299911"><ele>446.5</ele></trkpt>
            <trkpt lat="51.747981" lon="10.29962"><ele>446</ele></trkpt>
            <trkpt lat="51.748061" lon="10.299543"><ele>446.1</ele></trkpt>
            <trkpt lat="51.748172" lon="10.299534"><ele>445.2</ele></trkpt>
            <trkpt lat="51.748324" lon="10.2996"><ele>443.8</ele></trkpt>
            <trkpt lat="51.74864" lon="10.299811"><ele>443.2</ele></trkpt>
            <trkpt lat="51.748823" lon="10.299965"><ele>443</ele></trkpt>
            <trkpt lat="51.748956" lon="10.300021"><ele>442.7</ele></trkpt>
            <trkpt lat="51.749498" lon="10.299896"><ele>439.8</ele></trkpt>
            <trkpt lat="51.749603" lon="10.299804"><ele>440.3</ele></trkpt>
            <trkpt lat="51.749745" lon="10.299608"><ele>431</ele></trkpt>
            <trkpt lat="51.749829" lon="10.299687"><ele>442.4</ele></trkpt>
            <trkpt lat="51.750136" lon="10.300188"><ele>443.4</ele></trkpt>
            <trkpt lat="51.75018" lon="10.300234"><ele>443.3</ele></trkpt>
            <trkpt lat="51.750248" lon="10.300281"><ele>443.1</ele></trkpt>
            <trkpt lat="51.750351" lon="10.300294"><ele>442.7</ele></trkpt>
            <trkpt lat="51.750466" lon="10.300209"><ele>442.4</ele></trkpt>
            <trkpt lat="51.750508" lon="10.30013"><ele>442.1</ele></trkpt>
            <trkpt lat="51.750533" lon="10.299956"><ele>441.6</ele></trkpt>
            <trkpt lat="51.750501" lon="10.299215"><ele>441.5</ele></trkpt>
            <trkpt lat="51.750443" lon="10.298599"><ele>438</ele></trkpt>
            <trkpt lat="51.750364" lon="10.298334"><ele>430.2</ele></trkpt>
            <trkpt lat="51.750298" lon="10.298042"><ele>421.1</ele></trkpt>
            <trkpt lat="51.750167" lon="10.297663"><ele>419</ele></trkpt>
            <trkpt lat="51.750087" lon="10.29703"><ele>415.8</ele></trkpt>
            <trkpt lat="51.750056" lon="10.296903"><ele>414.4</ele></trkpt>
            <trkpt lat="51.749922" lon="10.296633"><ele>412</ele></trkpt>
            <trkpt lat="51.749826" lon="10.296302"><ele>410.5</ele></trkpt>
            <trkpt lat="51.749834" lon="10.296193"><ele>411</ele></trkpt>
            <trkpt lat="51.749867" lon="10.296093"><ele>411.5</ele></trkpt>
            <trkpt lat="51.750009" lon="10.295984"><ele>412.5</ele></trkpt>
            <trkpt lat="51.750183" lon="10.295906"><ele>412.1</ele></trkpt>
            <trkpt lat="51.750781" lon="10.295333"><ele>411.4</ele></trkpt>
            <trkpt lat="51.750935" lon="10.295264"><ele>411.8</ele></trkpt>
            <trkpt lat="51.751145" lon="10.295222"><ele>411.9</ele></trkpt>
            <trkpt lat="51.751662" lon="10.295232"><ele>412.3</ele></trkpt>
            <trkpt lat="51.751928" lon="10.295396"><ele>412.8</ele></trkpt>
            <trkpt lat="51.75199" lon="10.295465"><ele>415</ele></trkpt>
            <trkpt lat="51.752049" lon="10.295605"><ele>426.2</ele></trkpt>
            <trkpt lat="51.752205" lon="10.296426"><ele>428.4</ele></trkpt>
            <trkpt lat="51.752366" lon="10.296802"><ele>443</ele></trkpt>
            <trkpt lat="51.752592" lon="10.297195"><ele>426.1</ele></trkpt>
            <trkpt lat="51.752924" lon="10.297918"><ele>427.6</ele></trkpt>
            <trkpt lat="51.75304" lon="10.297961"><ele>427.9</ele></trkpt>
            <trkpt lat="51.753156" lon="10.297967"><ele>428.2</ele></trkpt>
            <trkpt lat="51.753259" lon="10.297778"><ele>425</ele></trkpt>
            <trkpt lat="51.753295" lon="10.297584"><ele>412.3</ele></trkpt>
            <trkpt lat="51.753381" lon="10.29736"><ele>408</ele></trkpt>
            <trkpt lat="51.753433" lon="10.297307"><ele>391</ele></trkpt>
            <trkpt lat="51.753564" lon="10.297174"><ele>391</ele></trkpt>
            <trkpt lat="51.753745" lon="10.297131"><ele>391</ele></trkpt>
            <trkpt lat="51.753847" lon="10.297139"><ele>391</ele></trkpt>
            <trkpt lat="51.754273" lon="10.297145"><ele>391.9</ele></trkpt>
            <trkpt lat="51.754332" lon="10.297168"><ele>390.6</ele></trkpt>
            <trkpt lat="51.754673" lon="10.297588"><ele>403</ele></trkpt>
            <trkpt lat="51.754815" lon="10.297379"><ele>387.8</ele></trkpt>
            <trkpt lat="51.754811" lon="10.297219"><ele>388.6</ele></trkpt>
            <trkpt lat="51.754858" lon="10.297092"><ele>389.5</ele></trkpt>
            <trkpt lat="51.754861" lon="10.297012"><ele>384</ele></trkpt>
            <trkpt lat="51.754938" lon="10.297099"><ele>380.6</ele></trkpt>
            <trkpt lat="51.755203" lon="10.2976"><ele>378.5</ele></trkpt>
            <trkpt lat="51.755377" lon="10.298037"><ele>378.2</ele></trkpt>
            <trkpt lat="51.755532" lon="10.298656"><ele>379.8</ele></trkpt>
            <trkpt lat="51.755547" lon="10.299324"><ele>380.6</ele></trkpt>
            <trkpt lat="51.755532" lon="10.300439"><ele>384.6</ele></trkpt>
            <trkpt lat="51.755771" lon="10.301044"><ele>385.4</ele></trkpt>
            <trkpt lat="51.756137" lon="10.301525"><ele>382.7</ele></trkpt>
            <trkpt lat="51.756386" lon="10.301945"><ele>380.2</ele></trkpt>
            <trkpt lat="51.756442" lon="10.301993"><ele>379.1</ele></trkpt>
            <trkpt lat="51.756511" lon="10.30201"><ele>372</ele></trkpt>
            <trkpt lat="51.75679" lon="10.301797"><ele>352</ele></trkpt>
            <trkpt lat="51.75729" lon="10.303001"><ele>357.1</ele></trkpt>
            <trkpt lat="51.757328" lon="10.303118"><ele>357.6</ele></trkpt>
            <trkpt lat="51.757605" lon="10.304324"><ele>361.7</ele></trkpt>
            <trkpt lat="51.757859" lon="10.305037"><ele>363.2</ele></trkpt>
            <trkpt lat="51.758131" lon="10.305727"><ele>364.8</ele></trkpt>
            <trkpt lat="51.758304" lon="10.306111"><ele>369</ele></trkpt>
            <trkpt lat="51.758367" lon="10.306231"><ele>366.4</ele></trkpt>
            <trkpt lat="51.758676" lon="10.30666"><ele>366.2</ele></trkpt>
            <trkpt lat="51.758856" lon="10.30683"><ele>366.6</ele></trkpt>
            <trkpt lat="51.759" lon="10.307071"><ele>367.1</ele></trkpt>
            <trkpt lat="51.759282" lon="10.3077"><ele>375</ele></trkpt>
            <trkpt lat="51.759403" lon="10.307615"><ele>377</ele></trkpt>
            <trkpt lat="51.759503" lon="10.307406"><ele>381</ele></trkpt>
            <trkpt lat="51.759756" lon="10.307057"><ele>401.5</ele></trkpt>
            <trkpt lat="51.760233" lon="10.306293"><ele>406.6</ele></trkpt>
            <trkpt lat="51.760353" lon="10.306197"><ele>422</ele></trkpt>
            <trkpt lat="51.760627" lon="10.306062"><ele>422</ele></trkpt>
            <trkpt lat="51.760651" lon="10.306014"><ele>422</ele></trkpt>
            <trkpt lat="51.760601" lon="10.305867"><ele>434.4</ele></trkpt>
            <trkpt lat="51.760517" lon="10.305786"><ele>435.1</ele></trkpt>
            <trkpt lat="51.760387" lon="10.305724"><ele>435.1</ele></trkpt>
            <trkpt lat="51.760288" lon="10.305649"><ele>435</ele></trkpt>
            <trkpt lat="51.760062" lon="10.305562"><ele>434.9</ele></trkpt>
            <trkpt lat="51.76029" lon="10.30524"><ele>434.6</ele></trkpt>
            <trkpt lat="51.760286" lon="10.305212"><ele>434.5</ele></trkpt>
            <trkpt lat="51.760229" lon="10.305163"><ele>434.4</ele></trkpt>
            <trkpt lat="51.760169" lon="10.305072"><ele>434.3</ele></trkpt>
            <trkpt lat="51.760173" lon="10.304981"><ele>440</ele></trkpt>
            <trkpt lat="51.760463" lon="10.304627"><ele>440</ele></trkpt>
            <trkpt lat="51.76048" lon="10.304578"><ele>440</ele></trkpt>
            <trkpt lat="51.760484" lon="10.304433"><ele>440</ele></trkpt>
            <trkpt lat="51.760499" lon="10.304395"><ele>440</ele></trkpt>
            <trkpt lat="51.760538" lon="10.304328"><ele>440</ele></trkpt>
            <trkpt lat="51.760559" lon="10.30432"><ele>440</ele></trkpt>
            <trkpt lat="51.760626" lon="10.304471"><ele>440</ele></trkpt>
            <trkpt lat="51.760671" lon="10.304486"><ele>440</ele></trkpt>
            <trkpt lat="51.760784" lon="10.304452"><ele>440</ele></trkpt>
            <trkpt lat="51.760883" lon="10.304322"><ele>459.9</ele></trkpt>
            <trkpt lat="51.760926" lon="10.304186"><ele>460.3</ele></trkpt>
            <trkpt lat="51.760974" lon="10.3041"><ele>461.9</ele></trkpt>
            <trkpt lat="51.761075" lon="10.304098"><ele>463.2</ele></trkpt>
            <trkpt lat="51.761144" lon="10.303992"><ele>471</ele></trkpt>
            <trkpt lat="51.76121" lon="10.303967"><ele>480.7</ele></trkpt>
            <trkpt lat="51.761258" lon="10.303865"><ele>479.9</ele></trkpt>
            <trkpt lat="51.761583" lon="10.303658"><ele>478.4</ele></trkpt>
            <trkpt lat="51.761705" lon="10.303703"><ele>479.9</ele></trkpt>
            <trkpt lat="51.761949" lon="10.303711"><ele>482.5</ele></trkpt>
            <trkpt lat="51.762006" lon="10.303784"><ele>483.6</ele></trkpt>
            <trkpt lat="51.762143" lon="10.303793"><ele>484.6</ele></trkpt>
            <trkpt lat="51.762214" lon="10.303829"><ele>496</ele></trkpt>
            <trkpt lat="51.762331" lon="10.303922"><ele>499.1</ele></trkpt>
            <trkpt lat="51.762586" lon="10.303984"><ele>506</ele></trkpt>
            <trkpt lat="51.762679" lon="10.303987"><ele>506</ele></trkpt>
            <trkpt lat="51.762785" lon="10.304069"><ele>506</ele></trkpt>
            <trkpt lat="51.762882" lon="10.304168"><ele>506.2</ele></trkpt>
            <trkpt lat="51.76325" lon="10.304413"><ele>505.8</ele></trkpt>
            <trkpt lat="51.76355" lon="10.304745"><ele>506.1</ele></trkpt>
            <trkpt lat="51.763695" lon="10.305095"><ele>512</ele></trkpt>
            <trkpt lat="51.76403" lon="10.305491"><ele>526.6</ele></trkpt>
            <trkpt lat="51.764216" lon="10.305768"><ele>527.5</ele></trkpt>
            <trkpt lat="51.764406" lon="10.305917"><ele>531.1</ele></trkpt>
            <trkpt lat="51.764484" lon="10.306089"><ele>531</ele></trkpt>
            <trkpt lat="51.764587" lon="10.306181"><ele>531.6</ele></trkpt>
            <trkpt lat="51.764629" lon="10.306286"><ele>531.4</ele></trkpt>
            <trkpt lat="51.764788" lon="10.306394"><ele>533.5</ele></trkpt>
            <trkpt lat="51.765014" lon="10.306619"><ele>535.3</ele></trkpt>
            <trkpt lat="51.765167" lon="10.306705"><ele>538.4</ele></trkpt>
            <trkpt lat="51.765267" lon="10.306726"><ele>538.8</ele></trkpt>
            <trkpt lat="51.765379" lon="10.306705"><ele>541.4</ele></trkpt>
            <trkpt lat="51.765459" lon="10.306662"><ele>542</ele></trkpt>
            <trkpt lat="51.765506" lon="10.306705"><ele>542.3</ele></trkpt>
            <trkpt lat="51.765472" lon="10.306855"><ele>542.5</ele></trkpt>
            <trkpt lat="51.765512" lon="10.306941"><ele>542.7</ele></trkpt>
            <trkpt lat="51.765897" lon="10.307091"><ele>546.7</ele></trkpt>
            <trkpt lat="51.766077" lon="10.307263"><ele>548.9</ele></trkpt>
            <trkpt lat="51.766163" lon="10.307391"><ele>550.6</ele></trkpt>
            <trkpt lat="51.766229" lon="10.307563"><ele>551.5</ele></trkpt>
            <trkpt lat="51.76636" lon="10.307714"><ele>553.4</ele></trkpt>
            <trkpt lat="51.766512" lon="10.307813"><ele>567</ele></trkpt>
            <trkpt lat="51.766501" lon="10.308026"><ele>570.3</ele></trkpt>
            <trkpt lat="51.766528" lon="10.308614"><ele>571.1</ele></trkpt>
            <trkpt lat="51.766643" lon="10.309135"><ele>575</ele></trkpt>
            <trkpt lat="51.766739" lon="10.309101"><ele>578.2</ele></trkpt>
            <trkpt lat="51.766927" lon="10.308968"><ele>577.7</ele></trkpt>
            <trkpt lat="51.767273" lon="10.308629"><ele>578.3</ele></trkpt>
            <trkpt lat="51.767583" lon="10.308424"><ele>577.8</ele></trkpt>
            <trkpt lat="51.768096" lon="10.308187"><ele>571</ele></trkpt>
            <trkpt lat="51.768006" lon="10.307599"><ele>570.2</ele></trkpt>
            <trkpt lat="51.767921" lon="10.307167"><ele>569.8</ele></trkpt>
            <trkpt lat="51.767821" lon="10.306763"><ele>568</ele></trkpt>
            <trkpt lat="51.767658" lon="10.306264"><ele>561.3</ele></trkpt>
            <trkpt lat="51.767526" lon="10.305914"><ele>559</ele></trkpt>
            <trkpt lat="51.767802" lon="10.30559"><ele>553.7</ele></trkpt>
            <trkpt lat="51.767874" lon="10.305554"><ele>551</ele></trkpt>
            <trkpt lat="51.768026" lon="10.30557"><ele>551</ele></trkpt>
            <trkpt lat="51.768599" lon="10.306048"><ele>554.6</ele></trkpt>
            <trkpt lat="51.768903" lon="10.306225"><ele>553.3</ele></trkpt>
            <trkpt lat="51.769331" lon="10.306427"><ele>552.8</ele></trkpt>
            <trkpt lat="51.769643" lon="10.306534"><ele>552.6</ele></trkpt>
            <trkpt lat="51.770051" lon="10.306639"><ele>552.1</ele></trkpt>
            <trkpt lat="51.770837" lon="10.306752"><ele>554.1</ele></trkpt>
            <trkpt lat="51.771193" lon="10.306856"><ele>555.7</ele></trkpt>
            <trkpt lat="51.771681" lon="10.30714"><ele>558.2</ele></trkpt>
            <trkpt lat="51.772044" lon="10.307274"><ele>558.4</ele></trkpt>
            <trkpt lat="51.772148" lon="10.307286"><ele>558.9</ele></trkpt>
            <trkpt lat="51.772414" lon="10.307156"><ele>559</ele></trkpt>
            <trkpt lat="51.772599" lon="10.306942"><ele>559.6</ele></trkpt>
            <trkpt lat="51.772868" lon="10.306445"><ele>559.2</ele></trkpt>
            <trkpt lat="51.773" lon="10.306314"><ele>560</ele></trkpt>
            <trkpt lat="51.772899" lon="10.306051"><ele>560</ele></trkpt>
            <trkpt lat="51.772787" lon="10.305442"><ele>560</ele></trkpt>
            <trkpt lat="51.772761" lon="10.305228"><ele>560</ele></trkpt>
            <trkpt lat="51.772915" lon="10.305041"><ele>552.9</ele></trkpt>
            <trkpt lat="51.773335" lon="10.304679"><ele>551.5</ele></trkpt>
            <trkpt lat="51.773541" lon="10.304413"><ele>550.9</ele></trkpt>
            <trkpt lat="51.773664" lon="10.304189"><ele>550.9</ele></trkpt>
            <trkpt lat="51.77405" lon="10.303209"><ele>548.6</ele></trkpt>
            <trkpt lat="51.774143" lon="10.303016"><ele>548.8</ele></trkpt>
            <trkpt lat="51.775073" lon="10.301436"><ele>562.7</ele></trkpt>
            <trkpt lat="51.776145" lon="10.299269"><ele>564.2</ele></trkpt>
            <trkpt lat="51.776407" lon="10.298696"><ele>562.6</ele></trkpt>
            <trkpt lat="51.776519" lon="10.298386"><ele>562.3</ele></trkpt>
            <trkpt lat="51.776763" lon="10.297516"><ele>562.7</ele></trkpt>
            <trkpt lat="51.777003" lon="10.296915"><ele>565</ele></trkpt>
            <trkpt lat="51.777151" lon="10.296624"><ele>565.5</ele></trkpt>
            <trkpt lat="51.777695" lon="10.295749"><ele>572</ele></trkpt>
            <trkpt lat="51.778938" lon="10.295412"><ele>586</ele></trkpt>
            <trkpt lat="51.779234" lon="10.295292"><ele>584</ele></trkpt>
            <trkpt lat="51.779493" lon="10.294873"><ele>582.9</ele></trkpt>
            <trkpt lat="51.780456" lon="10.293813"><ele>578.6</ele></trkpt>
            <trkpt lat="51.781514" lon="10.292865"><ele>575.3</ele></trkpt>
            <trkpt lat="51.782046" lon="10.292477"><ele>572</ele></trkpt>
            <trkpt lat="51.782415" lon="10.292117"><ele>570.2</ele></trkpt>
            <trkpt lat="51.782788" lon="10.291634"><ele>568.7</ele></trkpt>
            <trkpt lat="51.783071" lon="10.291225"><ele>568.8</ele></trkpt>
            <trkpt lat="51.783206" lon="10.290895"><ele>567.6</ele></trkpt>
            <trkpt lat="51.783355" lon="10.290369"><ele>565.1</ele></trkpt>
            <trkpt lat="51.783772" lon="10.288801"><ele>557.7</ele></trkpt>
            <trkpt lat="51.783981" lon="10.287956"><ele>550</ele></trkpt>
            <trkpt lat="51.783997" lon="10.287848"><ele>550</ele></trkpt>
            <trkpt lat="51.78412" lon="10.287609"><ele>545.4</ele></trkpt>
            <trkpt lat="51.784391" lon="10.287205"><ele>544.2</ele></trkpt>
            <trkpt lat="51.784606" lon="10.286679"><ele>543.2</ele></trkpt>
            <trkpt lat="51.784768" lon="10.286383"><ele>540</ele></trkpt>
            <trkpt lat="51.784795" lon="10.286334"><ele>540</ele></trkpt>
            <trkpt lat="51.784893" lon="10.286166"><ele>540</ele></trkpt>
            <trkpt lat="51.784965" lon="10.286081"><ele>540</ele></trkpt>
            <trkpt lat="51.786211" lon="10.284202"><ele>551.9</ele></trkpt>
            <trkpt lat="51.786478" lon="10.284032"><ele>555</ele></trkpt>
            <trkpt lat="51.786506" lon="10.28381"><ele>556.7</ele></trkpt>
            <trkpt lat="51.786563" lon="10.28356"><ele>556.5</ele></trkpt>
            <trkpt lat="51.787282" lon="10.281302"><ele>562</ele></trkpt>
            <trkpt lat="51.787376" lon="10.281197"><ele>568.7</ele></trkpt>
            <trkpt lat="51.787669" lon="10.280722"><ele>571.9</ele></trkpt>
            <trkpt lat="51.787939" lon="10.280222"><ele>573.4</ele></trkpt>
            <trkpt lat="51.788471" lon="10.27948"><ele>578</ele></trkpt>
            <trkpt lat="51.788516" lon="10.279366"><ele>577.8</ele></trkpt>
            <trkpt lat="51.788618" lon="10.278978"><ele>578.4</ele></trkpt>
            <trkpt lat="51.788857" lon="10.278639"><ele>578.6</ele></trkpt>
            <trkpt lat="51.789038" lon="10.278271"><ele>579.6</ele></trkpt>
            <trkpt lat="51.789245" lon="10.278019"><ele>581.1</ele></trkpt>
            <trkpt lat="51.789274" lon="10.277955"><ele>581.7</ele></trkpt>
            <trkpt lat="51.789281" lon="10.277866"><ele>588</ele></trkpt>
            <trkpt lat="51.790194" lon="10.277512"><ele>590.7</ele></trkpt>
            <trkpt lat="51.790549" lon="10.277344"><ele>594</ele></trkpt>
            <trkpt lat="51.790859" lon="10.277103"><ele>590.9</ele></trkpt>
            <trkpt lat="51.791521" lon="10.276411"><ele>588</ele></trkpt>
            <trkpt lat="51.791883" lon="10.276037"><ele>578</ele></trkpt>
            <trkpt lat="51.791934" lon="10.275953"><ele>566.3</ele></trkpt>
            <trkpt lat="51.791975" lon="10.275826"><ele>567.1</ele></trkpt>
            <trkpt lat="51.792002" lon="10.275694"><ele>567.4</ele></trkpt>
        </trkseg>
    </trk>
</gpx>
