<?xml version="1.0" encoding="UTF-8"?>
<gpx version="1.1" creator="HWN Route Compare (OpenRouteService)" xmlns="http://www.topografix.com/GPX/1/1">
    <metadata>
        <name>OpenRouteService – Tour C2</name>
    </metadata>
    <trk>
        <name>OpenRouteService – Tour C2</name>
        <trkseg>
            <trkpt lat="51.723192" lon="10.336247"><ele>577.8</ele></trkpt>
            <trkpt lat="51.723169" lon="10.336366"><ele>578.7</ele></trkpt>
            <trkpt lat="51.723046" lon="10.336795"><ele>586</ele></trkpt>
            <trkpt lat="51.723025" lon="10.336918"><ele>591.3</ele></trkpt>
            <trkpt lat="51.723019" lon="10.337096"><ele>590.7</ele></trkpt>
            <trkpt lat="51.723027" lon="10.337436"><ele>591.6</ele></trkpt>
            <trkpt lat="51.723058" lon="10.337819"><ele>592.9</ele></trkpt>
            <trkpt lat="51.723151" lon="10.33841"><ele>594.6</ele></trkpt>
            <trkpt lat="51.723172" lon="10.338682"><ele>595.3</ele></trkpt>
            <trkpt lat="51.723183" lon="10.33926"><ele>597.8</ele></trkpt>
            <trkpt lat="51.723222" lon="10.33949"><ele>598.2</ele></trkpt>
            <trkpt lat="51.723343" lon="10.339939"><ele>598.6</ele></trkpt>
            <trkpt lat="51.723374" lon="10.340339"><ele>598.5</ele></trkpt>
            <trkpt lat="51.723405" lon="10.340467"><ele>598.1</ele></trkpt>
            <trkpt lat="51.723535" lon="10.34082"><ele>596.7</ele></trkpt>
            <trkpt lat="51.723565" lon="10.340974"><ele>596.5</ele></trkpt>
            <trkpt lat="51.723562" lon="10.341185"><ele>596.2</ele></trkpt>
            <trkpt lat="51.723524" lon="10.341432"><ele>593</ele></trkpt>
            <trkpt lat="51.723413" lon="10.341402"><ele>607</ele></trkpt>
            <trkpt lat="51.723217" lon="10.341444"><ele>607.7</ele></trkpt>
            <trkpt lat="51.723042" lon="10.341623"><ele>610</ele></trkpt>
            <trkpt lat="51.72268" lon="10.34211"><ele>612.4</ele></trkpt>
            <trkpt lat="51.722347" lon="10.342692"><ele>615.1</ele></trkpt>
            <trkpt lat="51.722184" lon="10.342894"><ele>617.5</ele></trkpt>
            <trkpt lat="51.72207" lon="10.34319"><ele>618.8</ele></trkpt>
            <trkpt lat="51.722045" lon="10.343396"><ele>619.1</ele></trkpt>
            <trkpt lat="51.722117" lon="10.344227"><ele>626</ele></trkpt>
            <trkpt lat="51.722222" lon="10.345613"><ele>631</ele></trkpt>
            <trkpt lat="51.722132" lon="10.346049"><ele>643</ele></trkpt>
            <trkpt lat="51.722042" lon="10.346756"><ele>649.6</ele></trkpt>
            <trkpt lat="51.72185" lon="10.348608"><ele>659.5</ele></trkpt>
            <trkpt lat="51.721637" lon="10.349365"><ele>667.3</ele></trkpt>
            <trkpt lat="51.721483" lon="10.349821"><ele>668.5</ele></trkpt>
            <trkpt lat="51.721345" lon="10.350148"><ele>671.5</ele></trkpt>
            <trkpt lat="51.721236" lon="10.350268"><ele>672.7</ele></trkpt>
            <trkpt lat="51.720979" lon="10.350424"><ele>675.9</ele></trkpt>
            <trkpt lat="51.720913" lon="10.350515"><ele>677.2</ele></trkpt>
            <trkpt lat="51.720865" lon="10.350634"><ele>678.9</ele></trkpt>
            <trkpt lat="51.720619" lon="10.350943"><ele>682.3</ele></trkpt>
            <trkpt lat="51.720271" lon="10.351195"><ele>685.4</ele></trkpt>
            <trkpt lat="51.720136" lon="10.351324"><ele>686.6</ele></trkpt>
            <trkpt lat="51.71986" lon="10.35168"><ele>694.9</ele></trkpt>
            <trkpt lat="51.719651" lon="10.352113"><ele>699.5</ele></trkpt>
            <trkpt lat="51.719125" lon="10.353465"><ele>712.5</ele></trkpt>
            <trkpt lat="51.719082" lon="10.354141"><ele>717</ele></trkpt>
            <trkpt lat="51.719058" lon="10.354947"><ele>718.1</ele></trkpt>
            <trkpt lat="51.719065" lon="10.355183"><ele>718.7</ele></trkpt>
            <trkpt lat="51.719019" lon="10.35546"><ele>719.3</ele></trkpt>
            <trkpt lat="51.718876" lon="10.356014"><ele>721.9</ele></trkpt>
            <trkpt lat="51.718853" lon="10.356059"><ele>725</ele></trkpt>
            <trkpt lat="51.718866" lon="10.356244"><ele>724.2</ele></trkpt>
            <trkpt lat="51.718946" lon="10.356674"><ele>724.2</ele></trkpt>
            <trkpt lat="51.719098" lon="10.357181"><ele>724.2</ele></trkpt>
            <trkpt lat="51.71938" lon="10.357918"><ele>723.7</ele></trkpt>
            <trkpt lat="51.719461" lon="10.358405"><ele>722.5</ele></trkpt>
            <trkpt lat="51.719703" lon="10.358929"><ele>721.5</ele></trkpt>
            <trkpt lat="51.719752" lon="10.359393"><ele>720.8</ele></trkpt>
            <trkpt lat="51.719859" lon="10.360158"><ele>718.6</ele></trkpt>
            <trkpt lat="51.719862" lon="10.360537"><ele>717.4</ele></trkpt>
            <trkpt lat="51.719805" lon="10.361646"><ele>716.6</ele></trkpt>
            <trkpt lat="51.719803" lon="10.361973"><ele>716.3</ele></trkpt>
            <trkpt lat="51.719906" lon="10.363092"><ele>716.7</ele></trkpt>
            <trkpt lat="51.72004" lon="10.364158"><ele>719.3</ele></trkpt>
            <trkpt lat="51.720216" lon="10.365369"><ele>723.8</ele></trkpt>
            <trkpt lat="51.720248" lon="10.366073"><ele>725.5</ele></trkpt>
            <trkpt lat="51.720273" lon="10.366322"><ele>727.2</ele></trkpt>
            <trkpt lat="51.720264" lon="10.366669"><ele>734</ele></trkpt>
            <trkpt lat="51.720264" lon="10.36678"><ele>733.6</ele></trkpt>
            <trkpt lat="51.720036" lon="10.367675"><ele>734</ele></trkpt>
            <trkpt lat="51.719839" lon="10.368044"><ele>733.4</ele></trkpt>
            <trkpt lat="51.719737" lon="10.368323"><ele>733</ele></trkpt>
            <trkpt lat="51.719719" lon="10.36851"><ele>733</ele></trkpt>
            <trkpt lat="51.719745" lon="10.369164"><ele>733.1</ele></trkpt>
            <trkpt lat="51.719925" lon="10.370196"><ele>733.2</ele></trkpt>
            <trkpt lat="51.719939" lon="10.370502"><ele>734</ele></trkpt>
            <trkpt lat="51.720005" lon="10.370925"><ele>734.8</ele></trkpt>
            <trkpt lat="51.720011" lon="10.371098"><ele>735.4</ele></trkpt>
            <trkpt lat="51.71984" lon="10.371857"><ele>735.1</ele></trkpt>
            <trkpt lat="51.719847" lon="10.372502"><ele>735</ele></trkpt>
            <trkpt lat="51.719873" lon="10.373118"><ele>734.3</ele></trkpt>
            <trkpt lat="51.720018" lon="10.373744"><ele>734.9</ele></trkpt>
            <trkpt lat="51.720226" lon="10.374954"><ele>739.5</ele></trkpt>
            <trkpt lat="51.720305" lon="10.375327"><ele>740.7</ele></trkpt>
            <trkpt lat="51.720328" lon="10.375781"><ele>742.1</ele></trkpt>
            <trkpt lat="51.72038" lon="10.376255"><ele>742.5</ele></trkpt>
            <trkpt lat="51.720493" lon="10.37682"><ele>743.1</ele></trkpt>
            <trkpt lat="51.7205" lon="10.377058"><ele>743.4</ele></trkpt>
            <trkpt lat="51.720543" lon="10.377329"><ele>743.7</ele></trkpt>
            <trkpt lat="51.720678" lon="10.377732"><ele>744.2</ele></trkpt>
            <trkpt lat="51.720694" lon="10.377863"><ele>744.4</ele></trkpt>
            <trkpt lat="51.720676" lon="10.378022"><ele>744.7</ele></trkpt>
            <trkpt lat="51.72052" lon="10.378617"><ele>745.2</ele></trkpt>
            <trkpt lat="51.720499" lon="10.378754"><ele>745.3</ele></trkpt>
            <trkpt lat="51.720512" lon="10.379145"><ele>746</ele></trkpt>
            <trkpt lat="51.72048" lon="10.379597"><ele>746.6</ele></trkpt>
            <trkpt lat="51.720527" lon="10.380425"><ele>747.2</ele></trkpt>
            <trkpt lat="51.720687" lon="10.381352"><ele>747.1</ele></trkpt>
            <trkpt lat="51.7207" lon="10.381528"><ele>747.1</ele></trkpt>
            <trkpt lat="51.720701" lon="10.381659"><ele>747.1</ele></trkpt>
            <trkpt lat="51.720649" lon="10.38195"><ele>747</ele></trkpt>
            <trkpt lat="51.720593" lon="10.382162"><ele>747</ele></trkpt>
            <trkpt lat="51.72058" lon="10.38247"><ele>746.8</ele></trkpt>
            <trkpt lat="51.720679" lon="10.383449"><ele>747</ele></trkpt>
            <trkpt lat="51.720693" lon="10.383865"><ele>747.3</ele></trkpt>
            <trkpt lat="51.720756" lon="10.384321"><ele>747.7</ele></trkpt>
            <trkpt lat="51.720795" lon="10.384763"><ele>748.5</ele></trkpt>
            <trkpt lat="51.720791" lon="10.385341"><ele>749.3</ele></trkpt>
            <trkpt lat="51.720996" lon="10.386822"><ele>752.7</ele></trkpt>
            <trkpt lat="51.721081" lon="10.387237"><ele>753.8</ele></trkpt>
            <trkpt lat="51.721102" lon="10.387418"><ele>753.8</ele></trkpt>
            <trkpt lat="51.721101" lon="10.387656"><ele>754.7</ele></trkpt>
            <trkpt lat="51.721133" lon="10.387956"><ele>754.9</ele></trkpt>
            <trkpt lat="51.721217" lon="10.388261"><ele>755.1</ele></trkpt>
            <trkpt lat="51.721271" lon="10.388533"><ele>755.3</ele></trkpt>
            <trkpt lat="51.721325" lon="10.389281"><ele>755.8</ele></trkpt>
            <trkpt lat="51.721372" lon="10.389576"><ele>756.2</ele></trkpt>
            <trkpt lat="51.721424" lon="10.389769"><ele>756.2</ele></trkpt>
            <trkpt lat="51.721466" lon="10.390054"><ele>756.4</ele></trkpt>
            <trkpt lat="51.721476" lon="10.390198"><ele>756.5</ele></trkpt>
            <trkpt lat="51.721457" lon="10.390312"><ele>756.4</ele></trkpt>
            <trkpt lat="51.721403" lon="10.390452"><ele>756.5</ele></trkpt>
            <trkpt lat="51.72136" lon="10.390711"><ele>756.4</ele></trkpt>
            <trkpt lat="51.721367" lon="10.390916"><ele>756.4</ele></trkpt>
            <trkpt lat="51.721544" lon="10.392489"><ele>756.3</ele></trkpt>
            <trkpt lat="51.721937" lon="10.394615"><ele>769.9</ele></trkpt>
            <trkpt lat="51.722028" lon="10.395301"><ele>769.2</ele></trkpt>
            <trkpt lat="51.722128" lon="10.395658"><ele>769.6</ele></trkpt>
            <trkpt lat="51.722344" lon="10.396285"><ele>770.4</ele></trkpt>
            <trkpt lat="51.722566" lon="10.397457"><ele>772.3</ele></trkpt>
            <trkpt lat="51.722649" lon="10.397715"><ele>773</ele></trkpt>
            <trkpt lat="51.722726" lon="10.397871"><ele>773.3</ele></trkpt>
            <trkpt lat="51.72305" lon="10.398254"><ele>774.7</ele></trkpt>
            <trkpt lat="51.723245" lon="10.398699"><ele>775.7</ele></trkpt>
            <trkpt lat="51.723337" lon="10.399"><ele>776.3</ele></trkpt>
            <trkpt lat="51.723389" lon="10.39924"><ele>776.9</ele></trkpt>
            <trkpt lat="51.723471" lon="10.399814"><ele>778.1</ele></trkpt>
            <trkpt lat="51.723541" lon="10.400071"><ele>779</ele></trkpt>
            <trkpt lat="51.723735" lon="10.400532"><ele>781</ele></trkpt>
            <trkpt lat="51.723854" lon="10.400767"><ele>782.2</ele></trkpt>
            <trkpt lat="51.724658" lon="10.401426"><ele>785.5</ele></trkpt>
            <trkpt lat="51.724807" lon="10.401517"><ele>785.7</ele></trkpt>
            <trkpt lat="51.72496" lon="10.401549"><ele>786.4</ele></trkpt>
            <trkpt lat="51.725487" lon="10.401482"><ele>787.6</ele></trkpt>
            <trkpt lat="51.725584" lon="10.401494"><ele>787.3</ele></trkpt>
            <trkpt lat="51.72608" lon="10.401663"><ele>790.2</ele></trkpt>
            <trkpt lat="51.726299" lon="10.401788"><ele>792.3</ele></trkpt>
            <trkpt lat="51.726756" lon="10.401834"><ele>794.8</ele></trkpt>
            <trkpt lat="51.72723" lon="10.40199"><ele>799.1</ele></trkpt>
            <trkpt lat="51.727307" lon="10.402039"><ele>799.3</ele></trkpt>
            <trkpt lat="51.727402" lon="10.402208"><ele>800.3</ele></trkpt>
            <trkpt lat="51.727632" lon="10.402745"><ele>801.8</ele></trkpt>
            <trkpt lat="51.727948" lon="10.403313"><ele>806</ele></trkpt>
            <trkpt lat="51.728102" lon="10.403522"><ele>807</ele></trkpt>
            <trkpt lat="51.728167" lon="10.403401"><ele>806.6</ele></trkpt>
            <trkpt lat="51.728102" lon="10.403522"><ele>807</ele></trkpt>
            <trkpt lat="51.727948" lon="10.403313"><ele>806</ele></trkpt>
            <trkpt lat="51.727632" lon="10.402745"><ele>801.8</ele></trkpt>
            <trkpt lat="51.727402" lon="10.402208"><ele>800.3</ele></trkpt>
            <trkpt lat="51.727307" lon="10.402039"><ele>799.3</ele></trkpt>
            <trkpt lat="51.72723" lon="10.40199"><ele>799.1</ele></trkpt>
            <trkpt lat="51.726756" lon="10.401834"><ele>794.8</ele></trkpt>
            <trkpt lat="51.726299" lon="10.401788"><ele>792.3</ele></trkpt>
            <trkpt lat="51.72608" lon="10.401663"><ele>790.2</ele></trkpt>
            <trkpt lat="51.725584" lon="10.401494"><ele>787.3</ele></trkpt>
            <trkpt lat="51.725487" lon="10.401482"><ele>787.6</ele></trkpt>
            <trkpt lat="51.72496" lon="10.401549"><ele>786.4</ele></trkpt>
            <trkpt lat="51.724807" lon="10.401517"><ele>785.7</ele></trkpt>
            <trkpt lat="51.724658" lon="10.401426"><ele>785.5</ele></trkpt>
            <trkpt lat="51.723854" lon="10.400767"><ele>782.2</ele></trkpt>
            <trkpt lat="51.723735" lon="10.400532"><ele>781</ele></trkpt>
            <trkpt lat="51.723541" lon="10.400071"><ele>779</ele></trkpt>
            <trkpt lat="51.723471" lon="10.399814"><ele>778.1</ele></trkpt>
            <trkpt lat="51.723389" lon="10.39924"><ele>776.9</ele></trkpt>
            <trkpt lat="51.723337" lon="10.399"><ele>776.3</ele></trkpt>
            <trkpt lat="51.723245" lon="10.398699"><ele>775.7</ele></trkpt>
            <trkpt lat="51.72305" lon="10.398254"><ele>774.7</ele></trkpt>
            <trkpt lat="51.722726" lon="10.397871"><ele>773.3</ele></trkpt>
            <trkpt lat="51.722649" lon="10.397715"><ele>773</ele></trkpt>
            <trkpt lat="51.722566" lon="10.397457"><ele>772.3</ele></trkpt>
            <trkpt lat="51.722344" lon="10.396285"><ele>770.4</ele></trkpt>
            <trkpt lat="51.722128" lon="10.395658"><ele>769.6</ele></trkpt>
            <trkpt lat="51.722028" lon="10.395301"><ele>769.2</ele></trkpt>
            <trkpt lat="51.721937" lon="10.394615"><ele>769.9</ele></trkpt>
            <trkpt lat="51.721544" lon="10.392489"><ele>756.3</ele></trkpt>
            <trkpt lat="51.721367" lon="10.390916"><ele>756.4</ele></trkpt>
            <trkpt lat="51.72136" lon="10.390711"><ele>756.4</ele></trkpt>
            <trkpt lat="51.721403" lon="10.390452"><ele>756.5</ele></trkpt>
            <trkpt lat="51.721457" lon="10.390312"><ele>756.4</ele></trkpt>
            <trkpt lat="51.721476" lon="10.390198"><ele>756.5</ele></trkpt>
            <trkpt lat="51.721466" lon="10.390054"><ele>756.4</ele></trkpt>
            <trkpt lat="51.721424" lon="10.389769"><ele>756.2</ele></trkpt>
            <trkpt lat="51.721372" lon="10.389576"><ele>756.2</ele></trkpt>
            <trkpt lat="51.721325" lon="10.389281"><ele>755.8</ele></trkpt>
            <trkpt lat="51.721271" lon="10.388533"><ele>755.3</ele></trkpt>
            <trkpt lat="51.721217" lon="10.388261"><ele>755.1</ele></trkpt>
            <trkpt lat="51.721133" lon="10.387956"><ele>754.9</ele></trkpt>
            <trkpt lat="51.721101" lon="10.387656"><ele>754.7</ele></trkpt>
            <trkpt lat="51.721102" lon="10.387418"><ele>753.8</ele></trkpt>
            <trkpt lat="51.721081" lon="10.387237"><ele>753.8</ele></trkpt>
            <trkpt lat="51.720996" lon="10.386822"><ele>752.7</ele></trkpt>
            <trkpt lat="51.720791" lon="10.385341"><ele>749.3</ele></trkpt>
            <trkpt lat="51.720795" lon="10.384763"><ele>748.5</ele></trkpt>
            <trkpt lat="51.720756" lon="10.384321"><ele>747.7</ele></trkpt>
            <trkpt lat="51.720693" lon="10.383865"><ele>747.3</ele></trkpt>
            <trkpt lat="51.720679" lon="10.383449"><ele>747</ele></trkpt>
            <trkpt lat="51.72058" lon="10.38247"><ele>746.8</ele></trkpt>
            <trkpt lat="51.720593" lon="10.382162"><ele>747</ele></trkpt>
            <trkpt lat="51.720649" lon="10.38195"><ele>747</ele></trkpt>
            <trkpt lat="51.720701" lon="10.381659"><ele>747.1</ele></trkpt>
            <trkpt lat="51.7207" lon="10.381528"><ele>747.1</ele></trkpt>
            <trkpt lat="51.720687" lon="10.381352"><ele>747.1</ele></trkpt>
            <trkpt lat="51.720527" lon="10.380425"><ele>747.2</ele></trkpt>
            <trkpt lat="51.72048" lon="10.379597"><ele>746.6</ele></trkpt>
            <trkpt lat="51.720512" lon="10.379145"><ele>746</ele></trkpt>
            <trkpt lat="51.720499" lon="10.378754"><ele>745.3</ele></trkpt>
            <trkpt lat="51.72052" lon="10.378617"><ele>745.2</ele></trkpt>
            <trkpt lat="51.720676" lon="10.378022"><ele>744.7</ele></trkpt>
            <trkpt lat="51.720694" lon="10.377863"><ele>744.4</ele></trkpt>
            <trkpt lat="51.720678" lon="10.377732"><ele>744.2</ele></trkpt>
            <trkpt lat="51.720543" lon="10.377329"><ele>743.7</ele></trkpt>
            <trkpt lat="51.7205" lon="10.377058"><ele>743.4</ele></trkpt>
            <trkpt lat="51.720493" lon="10.37682"><ele>743.1</ele></trkpt>
            <trkpt lat="51.72038" lon="10.376255"><ele>742.5</ele></trkpt>
            <trkpt lat="51.720328" lon="10.375781"><ele>742.1</ele></trkpt>
            <trkpt lat="51.720305" lon="10.375327"><ele>740.7</ele></trkpt>
            <trkpt lat="51.720226" lon="10.374954"><ele>739.5</ele></trkpt>
            <trkpt lat="51.720018" lon="10.373744"><ele>734.9</ele></trkpt>
            <trkpt lat="51.719873" lon="10.373118"><ele>734.3</ele></trkpt>
            <trkpt lat="51.719847" lon="10.372502"><ele>735</ele></trkpt>
            <trkpt lat="51.71984" lon="10.371857"><ele>735.1</ele></trkpt>
            <trkpt lat="51.720011" lon="10.371098"><ele>735.4</ele></trkpt>
            <trkpt lat="51.720005" lon="10.370925"><ele>734.8</ele></trkpt>
            <trkpt lat="51.719939" lon="10.370502"><ele>734</ele></trkpt>
            <trkpt lat="51.719925" lon="10.370196"><ele>733.2</ele></trkpt>
            <trkpt lat="51.719745" lon="10.369164"><ele>733.1</ele></trkpt>
            <trkpt lat="51.719719" lon="10.36851"><ele>733</ele></trkpt>
            <trkpt lat="51.719737" lon="10.368323"><ele>733</ele></trkpt>
            <trkpt lat="51.719839" lon="10.368044"><ele>733.4</ele></trkpt>
            <trkpt lat="51.720036" lon="10.367675"><ele>734</ele></trkpt>
            <trkpt lat="51.720264" lon="10.36678"><ele>733.6</ele></trkpt>
            <trkpt lat="51.720264" lon="10.366669"><ele>734</ele></trkpt>
            <trkpt lat="51.720273" lon="10.366322"><ele>727.2</ele></trkpt>
            <trkpt lat="51.720248" lon="10.366073"><ele>725.5</ele></trkpt>
            <trkpt lat="51.720216" lon="10.365369"><ele>723.8</ele></trkpt>
            <trkpt lat="51.72004" lon="10.364158"><ele>719.3</ele></trkpt>
            <trkpt lat="51.719906" lon="10.363092"><ele>716.7</ele></trkpt>
            <trkpt lat="51.719803" lon="10.361973"><ele>716.3</ele></trkpt>
            <trkpt lat="51.719805" lon="10.361646"><ele>716.6</ele></trkpt>
            <trkpt lat="51.719862" lon="10.360537"><ele>717.4</ele></trkpt>
            <trkpt lat="51.719859" lon="10.360158"><ele>718.6</ele></trkpt>
            <trkpt lat="51.719752" lon="10.359393"><ele>720.8</ele></trkpt>
            <trkpt lat="51.719703" lon="10.358929"><ele>721.5</ele></trkpt>
            <trkpt lat="51.719461" lon="10.358405"><ele>722.5</ele></trkpt>
            <trkpt lat="51.71938" lon="10.357918"><ele>723.7</ele></trkpt>
            <trkpt lat="51.719098" lon="10.357181"><ele>724.2</ele></trkpt>
            <trkpt lat="51.718946" lon="10.356674"><ele>724.2</ele></trkpt>
            <trkpt lat="51.718866" lon="10.356244"><ele>724.2</ele></trkpt>
            <trkpt lat="51.718853" lon="10.356059"><ele>725</ele></trkpt>
            <trkpt lat="51.718876" lon="10.356014"><ele>721.9</ele></trkpt>
            <trkpt lat="51.719019" lon="10.35546"><ele>719.3</ele></trkpt>
            <trkpt lat="51.719065" lon="10.355183"><ele>718.7</ele></trkpt>
            <trkpt lat="51.719058" lon="10.354947"><ele>718.1</ele></trkpt>
            <trkpt lat="51.719082" lon="10.354141"><ele>717</ele></trkpt>
            <trkpt lat="51.719125" lon="10.353465"><ele>712.5</ele></trkpt>
            <trkpt lat="51.719651" lon="10.352113"><ele>699.5</ele></trkpt>
            <trkpt lat="51.71986" lon="10.35168"><ele>694.9</ele></trkpt>
            <trkpt lat="51.720136" lon="10.351324"><ele>686.6</ele></trkpt>
            <trkpt lat="51.720271" lon="10.351195"><ele>685.4</ele></trkpt>
            <trkpt lat="51.720619" lon="10.350943"><ele>682.3</ele></trkpt>
            <trkpt lat="51.720865" lon="10.350634"><ele>678.9</ele></trkpt>
            <trkpt lat="51.720913" lon="10.350515"><ele>677.2</ele></trkpt>
            <trkpt lat="51.720979" lon="10.350424"><ele>675.9</ele></trkpt>
            <trkpt lat="51.721236" lon="10.350268"><ele>672.7</ele></trkpt>
            <trkpt lat="51.721345" lon="10.350148"><ele>671.5</ele></trkpt>
            <trkpt lat="51.721483" lon="10.349821"><ele>668.5</ele></trkpt>
            <trkpt lat="51.721637" lon="10.349365"><ele>667.3</ele></trkpt>
            <trkpt lat="51.72185" lon="10.348608"><ele>659.5</ele></trkpt>
            <trkpt lat="51.722042" lon="10.346756"><ele>649.6</ele></trkpt>
            <trkpt lat="51.722132" lon="10.346049"><ele>643</ele></trkpt>
            <trkpt lat="51.722222" lon="10.345613"><ele>631</ele></trkpt>
            <trkpt lat="51.722117" lon="10.344227"><ele>626</ele></trkpt>
            <trkpt lat="51.722045" lon="10.343396"><ele>619.1</ele></trkpt>
            <trkpt lat="51.72207" lon="10.34319"><ele>618.8</ele></trkpt>
            <trkpt lat="51.722184" lon="10.342894"><ele>617.5</ele></trkpt>
            <trkpt lat="51.722347" lon="10.342692"><ele>615.1</ele></trkpt>
            <trkpt lat="51.72268" lon="10.34211"><ele>612.4</ele></trkpt>
            <trkpt lat="51.723042" lon="10.341623"><ele>610</ele></trkpt>
            <trkpt lat="51.723217" lon="10.341444"><ele>607.7</ele></trkpt>
            <trkpt lat="51.723413" lon="10.341402"><ele>607</ele></trkpt>
            <trkpt lat="51.723524" lon="10.341432"><ele>593</ele></trkpt>
            <trkpt lat="51.723562" lon="10.341185"><ele>596.2</ele></trkpt>
            <trkpt lat="51.723565" lon="10.340974"><ele>596.5</ele></trkpt>
            <trkpt lat="51.723535" lon="10.34082"><ele>596.7</ele></trkpt>
            <trkpt lat="51.723405" lon="10.340467"><ele>598.1</ele></trkpt>
            <trkpt lat="51.723374" lon="10.340339"><ele>598.5</ele></trkpt>
            <trkpt lat="51.723343" lon="10.339939"><ele>598.6</ele></trkpt>
            <trkpt lat="51.723222" lon="10.33949"><ele>598.2</ele></trkpt>
            <trkpt lat="51.723183" lon="10.33926"><ele>597.8</ele></trkpt>
            <trkpt lat="51.723172" lon="10.338682"><ele>595.3</ele></trkpt>
            <trkpt lat="51.723151" lon="10.33841"><ele>594.6</ele></trkpt>
            <trkpt lat="51.723058" lon="10.337819"><ele>592.9</ele></trkpt>
            <trkpt lat="51.723027" lon="10.337436"><ele>591.6</ele></trkpt>
            <trkpt lat="51.723019" lon="10.337096"><ele>590.7</ele></trkpt>
            <trkpt lat="51.723025" lon="10.336918"><ele>591.3</ele></trkpt>
            <trkpt lat="51.723046" lon="10.336795"><ele>586</ele></trkpt>
            <trkpt lat="51.723169" lon="10.336366"><ele>578.7</ele></trkpt>
            <trkpt lat="51.723192" lon="10.336247"><ele>577.8</ele></trkpt>
        </trkseg>
    </trk>
</gpx>
