<?xml version="1.0" encoding="UTF-8"?>
<gpx version="1.1" creator="HWN Route Compare (OpenRouteService)" xmlns="http://www.topografix.com/GPX/1/1">
    <metadata>
        <name>OpenRouteService – Tour C3</name>
    </metadata>
    <trk>
        <name>OpenRouteService – Tour C3</name>
        <trkseg>
            <trkpt lat="51.77606" lon="10.350993"><ele>572</ele></trkpt>
            <trkpt lat="51.775942" lon="10.350997"><ele>572</ele></trkpt>
            <trkpt lat="51.775745" lon="10.351131"><ele>576.7</ele></trkpt>
            <trkpt lat="51.77514" lon="10.351466"><ele>576.5</ele></trkpt>
            <trkpt lat="51.774989" lon="10.351581"><ele>580</ele></trkpt>
            <trkpt lat="51.774729" lon="10.351792"><ele>578.7</ele></trkpt>
            <trkpt lat="51.774638" lon="10.351897"><ele>578</ele></trkpt>
            <trkpt lat="51.774462" lon="10.351829"><ele>578.8</ele></trkpt>
            <trkpt lat="51.773109" lon="10.351033"><ele>580.8</ele></trkpt>
            <trkpt lat="51.772998" lon="10.351"><ele>580.8</ele></trkpt>
            <trkpt lat="51.772928" lon="10.351012"><ele>581</ele></trkpt>
            <trkpt lat="51.77274" lon="10.351166"><ele>584.8</ele></trkpt>
            <trkpt lat="51.772534" lon="10.351378"><ele>584.2</ele></trkpt>
            <trkpt lat="51.772452" lon="10.351491"><ele>584.7</ele></trkpt>
            <trkpt lat="51.772247" lon="10.351856"><ele>585.1</ele></trkpt>
            <trkpt lat="51.772063" lon="10.352074"><ele>585.6</ele></trkpt>
            <trkpt lat="51.771909" lon="10.352197"><ele>586.4</ele></trkpt>
            <trkpt lat="51.771857" lon="10.352188"><ele>591</ele></trkpt>
            <trkpt lat="51.771847" lon="10.352268"><ele>591</ele></trkpt>
            <trkpt lat="51.771694" lon="10.352695"><ele>594.5</ele></trkpt>
            <trkpt lat="51.77144" lon="10.353165"><ele>596.3</ele></trkpt>
            <trkpt lat="51.771283" lon="10.353669"><ele>596.7</ele></trkpt>
            <trkpt lat="51.771204" lon="10.353868"><ele>596.9</ele></trkpt>
            <trkpt lat="51.771078" lon="10.35407"><ele>597.4</ele></trkpt>
            <trkpt lat="51.770759" lon="10.354478"><ele>599.1</ele></trkpt>
            <trkpt lat="51.770657" lon="10.354707"><ele>599.3</ele></trkpt>
            <trkpt lat="51.770345" lon="10.355169"><ele>600.1</ele></trkpt>
            <trkpt lat="51.770268" lon="10.355322"><ele>600.6</ele></trkpt>
            <trkpt lat="51.770086" lon="10.356067"><ele>600.9</ele></trkpt>
            <trkpt lat="51.770027" lon="10.356167"><ele>600.8</ele></trkpt>
            <trkpt lat="51.769945" lon="10.356236"><ele>601.5</ele></trkpt>
            <trkpt lat="51.769829" lon="10.35639"><ele>602.4</ele></trkpt>
            <trkpt lat="51.769491" lon="10.356659"><ele>604</ele></trkpt>
            <trkpt lat="51.76933" lon="10.35682"><ele>606</ele></trkpt>
            <trkpt lat="51.769239" lon="10.356845"><ele>606.4</ele></trkpt>
            <trkpt lat="51.76914" lon="10.356816"><ele>605.8</ele></trkpt>
            <trkpt lat="51.768685" lon="10.356584"><ele>606.3</ele></trkpt>
            <trkpt lat="51.768547" lon="10.356569"><ele>606.5</ele></trkpt>
            <trkpt lat="51.768463" lon="10.356625"><ele>608</ele></trkpt>
            <trkpt lat="51.76753" lon="10.355752"><ele>609.2</ele></trkpt>
            <trkpt lat="51.767265" lon="10.355551"><ele>609.6</ele></trkpt>
            <trkpt lat="51.767084" lon="10.355466"><ele>609.8</ele></trkpt>
            <trkpt lat="51.766752" lon="10.355373"><ele>607.9</ele></trkpt>
            <trkpt lat="51.76658" lon="10.355326"><ele>606</ele></trkpt>
            <trkpt lat="51.766525" lon="10.355598"><ele>605.1</ele></trkpt>
            <trkpt lat="51.766506" lon="10.355966"><ele>605.2</ele></trkpt>
            <trkpt lat="51.766522" lon="10.35649"><ele>604.7</ele></trkpt>
            <trkpt lat="51.766574" lon="10.356907"><ele>604.7</ele></trkpt>
            <trkpt lat="51.766934" lon="10.358311"><ele>600.1</ele></trkpt>
            <trkpt lat="51.76709" lon="10.359031"><ele>596.5</ele></trkpt>
            <trkpt lat="51.767353" lon="10.360522"><ele>591</ele></trkpt>
            <trkpt lat="51.767369" lon="10.360821"><ele>590.3</ele></trkpt>
            <trkpt lat="51.767349" lon="10.361182"><ele>589.3</ele></trkpt>
            <trkpt lat="51.767283" lon="10.361485"><ele>589.3</ele></trkpt>
            <trkpt lat="51.767185" lon="10.361681"><ele>589.1</ele></trkpt>
            <trkpt lat="51.767016" lon="10.361892"><ele>588.3</ele></trkpt>
            <trkpt lat="51.766868" lon="10.361984"><ele>588.2</ele></trkpt>
            <trkpt lat="51.766333" lon="10.36199"><ele>582</ele></trkpt>
            <trkpt lat="51.765931" lon="10.361998"><ele>573.8</ele></trkpt>
            <trkpt lat="51.765713" lon="10.362049"><ele>573.5</ele></trkpt>
            <trkpt lat="51.765592" lon="10.36213"><ele>573.2</ele></trkpt>
            <trkpt lat="51.765496" lon="10.362235"><ele>572.9</ele></trkpt>
            <trkpt lat="51.76543" lon="10.362373"><ele>572.7</ele></trkpt>
            <trkpt lat="51.765388" lon="10.36259"><ele>572.3</ele></trkpt>
            <trkpt lat="51.76538" lon="10.362827"><ele>571.6</ele></trkpt>
            <trkpt lat="51.765429" lon="10.363138"><ele>571.3</ele></trkpt>
            <trkpt lat="51.765534" lon="10.363511"><ele>570.8</ele></trkpt>
            <trkpt lat="51.765639" lon="10.363964"><ele>569.5</ele></trkpt>
            <trkpt lat="51.765796" lon="10.364741"><ele>567.8</ele></trkpt>
            <trkpt lat="51.766003" lon="10.365391"><ele>568.6</ele></trkpt>
            <trkpt lat="51.766153" lon="10.365958"><ele>569.6</ele></trkpt>
            <trkpt lat="51.766213" lon="10.36636"><ele>572</ele></trkpt>
            <trkpt lat="51.766251" lon="10.366923"><ele>569</ele></trkpt>
            <trkpt lat="51.766263" lon="10.367367"><ele>569</ele></trkpt>
            <trkpt lat="51.766248" lon="10.367547"><ele>568.8</ele></trkpt>
            <trkpt lat="51.766193" lon="10.367728"><ele>568.5</ele></trkpt>
            <trkpt lat="51.766107" lon="10.367932"><ele>567</ele></trkpt>
            <trkpt lat="51.766018" lon="10.368323"><ele>567</ele></trkpt>
            <trkpt lat="51.76603" lon="10.368421"><ele>563.6</ele></trkpt>
            <trkpt lat="51.766203" lon="10.368737"><ele>563.7</ele></trkpt>
            <trkpt lat="51.766839" lon="10.369527"><ele>560</ele></trkpt>
            <trkpt lat="51.767341" lon="10.369631"><ele>555.7</ele></trkpt>
            <trkpt lat="51.767597" lon="10.369926"><ele>554.4</ele></trkpt>
            <trkpt lat="51.767812" lon="10.370393"><ele>553.6</ele></trkpt>
            <trkpt lat="51.76845" lon="10.37139"><ele>540.1</ele></trkpt>
            <trkpt lat="51.768778" lon="10.372066"><ele>528.7</ele></trkpt>
            <trkpt lat="51.769031" lon="10.372812"><ele>521.2</ele></trkpt>
            <trkpt lat="51.769163" lon="10.373633"><ele>511.3</ele></trkpt>
            <trkpt lat="51.769332" lon="10.375244"><ele>495.7</ele></trkpt>
            <trkpt lat="51.769407" lon="10.376823"><ele>482</ele></trkpt>
            <trkpt lat="51.769382" lon="10.377261"><ele>476.5</ele></trkpt>
            <trkpt lat="51.769318" lon="10.377482"><ele>475.5</ele></trkpt>
            <trkpt lat="51.769216" lon="10.37774"><ele>475.8</ele></trkpt>
            <trkpt lat="51.768844" lon="10.378524"><ele>470</ele></trkpt>
            <trkpt lat="51.768627" lon="10.379228"><ele>462.9</ele></trkpt>
            <trkpt lat="51.768508" lon="10.37984"><ele>455</ele></trkpt>
            <trkpt lat="51.768382" lon="10.380383"><ele>446.4</ele></trkpt>
            <trkpt lat="51.768211" lon="10.380927"><ele>440.5</ele></trkpt>
            <trkpt lat="51.767684" lon="10.381806"><ele>435</ele></trkpt>
            <trkpt lat="51.767613" lon="10.381891"><ele>434.2</ele></trkpt>
            <trkpt lat="51.767535" lon="10.381944"><ele>433.5</ele></trkpt>
            <trkpt lat="51.767128" lon="10.381899"><ele>425</ele></trkpt>
            <trkpt lat="51.766659" lon="10.381704"><ele>424.8</ele></trkpt>
            <trkpt lat="51.766467" lon="10.38165"><ele>425.9</ele></trkpt>
            <trkpt lat="51.766142" lon="10.38165"><ele>427</ele></trkpt>
            <trkpt lat="51.766051" lon="10.381672"><ele>418</ele></trkpt>
            <trkpt lat="51.765877" lon="10.381718"><ele>422.6</ele></trkpt>
            <trkpt lat="51.76555" lon="10.381851"><ele>423.2</ele></trkpt>
            <trkpt lat="51.76546" lon="10.381916"><ele>423</ele></trkpt>
            <trkpt lat="51.765371" lon="10.382043"><ele>422.7</ele></trkpt>
            <trkpt lat="51.765092" lon="10.382626"><ele>422</ele></trkpt>
            <trkpt lat="51.764802" lon="10.38387"><ele>414.5</ele></trkpt>
            <trkpt lat="51.764703" lon="10.384219"><ele>414</ele></trkpt>
            <trkpt lat="51.764435" lon="10.384921"><ele>414.6</ele></trkpt>
            <trkpt lat="51.764193" lon="10.38542"><ele>415.3</ele></trkpt>
            <trkpt lat="51.764066" lon="10.385588"><ele>416.8</ele></trkpt>
            <trkpt lat="51.763805" lon="10.385825"><ele>419.1</ele></trkpt>
            <trkpt lat="51.763336" lon="10.386092"><ele>421.5</ele></trkpt>
            <trkpt lat="51.763123" lon="10.386269"><ele>422.5</ele></trkpt>
            <trkpt lat="51.762907" lon="10.386675"><ele>425.6</ele></trkpt>
            <trkpt lat="51.762182" lon="10.387457"><ele>426.4</ele></trkpt>
            <trkpt lat="51.762027" lon="10.387572"><ele>426.5</ele></trkpt>
            <trkpt lat="51.761744" lon="10.387712"><ele>428</ele></trkpt>
            <trkpt lat="51.761694" lon="10.387742"><ele>433</ele></trkpt>
            <trkpt lat="51.76166" lon="10.387795"><ele>443</ele></trkpt>
            <trkpt lat="51.761673" lon="10.387873"><ele>427.4</ele></trkpt>
            <trkpt lat="51.761804" lon="10.388048"><ele>427.4</ele></trkpt>
            <trkpt lat="51.762003" lon="10.38826"><ele>426.6</ele></trkpt>
            <trkpt lat="51.762106" lon="10.388412"><ele>425.9</ele></trkpt>
            <trkpt lat="51.762294" lon="10.388817"><ele>423.8</ele></trkpt>
            <trkpt lat="51.762441" lon="10.388979"><ele>421.6</ele></trkpt>
            <trkpt lat="51.762663" lon="10.389179"><ele>418.7</ele></trkpt>
            <trkpt lat="51.763123" lon="10.389679"><ele>414.4</ele></trkpt>
            <trkpt lat="51.76332" lon="10.390057"><ele>411.8</ele></trkpt>
            <trkpt lat="51.763395" lon="10.39025"><ele>411.8</ele></trkpt>
            <trkpt lat="51.763401" lon="10.390362"><ele>411.7</ele></trkpt>
            <trkpt lat="51.763188" lon="10.391076"><ele>397</ele></trkpt>
            <trkpt lat="51.762786" lon="10.390678"><ele>400</ele></trkpt>
            <trkpt lat="51.762766" lon="10.390722"><ele>400</ele></trkpt>
            <trkpt lat="51.762619" lon="10.390591"><ele>400</ele></trkpt>
            <trkpt lat="51.762536" lon="10.390518"><ele>400</ele></trkpt>
            <trkpt lat="51.76241" lon="10.390419"><ele>392</ele></trkpt>
            <trkpt lat="51.762322" lon="10.39031"><ele>392</ele></trkpt>
            <trkpt lat="51.762202" lon="10.390167"><ele>392</ele></trkpt>
            <trkpt lat="51.762149" lon="10.390111"><ele>392</ele></trkpt>
            <trkpt lat="51.761983" lon="10.390008"><ele>392</ele></trkpt>
            <trkpt lat="51.761955" lon="10.39012"><ele>392</ele></trkpt>
            <trkpt lat="51.761874" lon="10.39044"><ele>392</ele></trkpt>
            <trkpt lat="51.761844" lon="10.390517"><ele>392</ele></trkpt>
            <trkpt lat="51.761794" lon="10.390625"><ele>392</ele></trkpt>
            <trkpt lat="51.761771" lon="10.39068"><ele>393.6</ele></trkpt>
            <trkpt lat="51.7612" lon="10.390782"><ele>394.6</ele></trkpt>
            <trkpt lat="51.760761" lon="10.391061"><ele>394.5</ele></trkpt>
            <trkpt lat="51.760559" lon="10.391549"><ele>394.8</ele></trkpt>
            <trkpt lat="51.76026" lon="10.392144"><ele>398.2</ele></trkpt>
            <trkpt lat="51.75957" lon="10.393201"><ele>412</ele></trkpt>
            <trkpt lat="51.759819" lon="10.393689"><ele>423.4</ele></trkpt>
            <trkpt lat="51.759998" lon="10.393915"><ele>424.1</ele></trkpt>
            <trkpt lat="51.760154" lon="10.394081"><ele>423.7</ele></trkpt>
            <trkpt lat="51.760898" lon="10.394596"><ele>425.2</ele></trkpt>
            <trkpt lat="51.761051" lon="10.394789"><ele>425.2</ele></trkpt>
            <trkpt lat="51.761117" lon="10.394918"><ele>424.7</ele></trkpt>
            <trkpt lat="51.761134" lon="10.395261"><ele>424.7</ele></trkpt>
            <trkpt lat="51.761021" lon="10.395905"><ele>428.6</ele></trkpt>
            <trkpt lat="51.760905" lon="10.396114"><ele>430.4</ele></trkpt>
            <trkpt lat="51.76043" lon="10.397251"><ele>440.2</ele></trkpt>
            <trkpt lat="51.760333" lon="10.397514"><ele>443.7</ele></trkpt>
            <trkpt lat="51.760301" lon="10.397781"><ele>451</ele></trkpt>
            <trkpt lat="51.760266" lon="10.398114"><ele>451.3</ele></trkpt>
            <trkpt lat="51.760253" lon="10.398526"><ele>452</ele></trkpt>
            <trkpt lat="51.760128" lon="10.399046"><ele>452</ele></trkpt>
            <trkpt lat="51.759955" lon="10.398848"><ele>471.2</ele></trkpt>
            <trkpt lat="51.759915" lon="10.398673"><ele>470</ele></trkpt>
            <trkpt lat="51.759819" lon="10.397632"><ele>465.6</ele></trkpt>
            <trkpt lat="51.759816" lon="10.39711"><ele>464.7</ele></trkpt>
            <trkpt lat="51.759784" lon="10.396726"><ele>465.1</ele></trkpt>
            <trkpt lat="51.759713" lon="10.396501"><ele>465.6</ele></trkpt>
            <trkpt lat="51.759404" lon="10.395991"><ele>466.1</ele></trkpt>
            <trkpt lat="51.759138" lon="10.395785"><ele>466.5</ele></trkpt>
            <trkpt lat="51.759003" lon="10.395793"><ele>467.2</ele></trkpt>
            <trkpt lat="51.758914" lon="10.395858"><ele>468</ele></trkpt>
            <trkpt lat="51.758641" lon="10.396433"><ele>468.2</ele></trkpt>
            <trkpt lat="51.758393" lon="10.396747"><ele>477</ele></trkpt>
            <trkpt lat="51.758299" lon="10.396937"><ele>487.4</ele></trkpt>
            <trkpt lat="51.758176" lon="10.397278"><ele>489.4</ele></trkpt>
            <trkpt lat="51.758072" lon="10.397413"><ele>491.2</ele></trkpt>
            <trkpt lat="51.757899" lon="10.397594"><ele>492.8</ele></trkpt>
            <trkpt lat="51.757593" lon="10.397794"><ele>494.6</ele></trkpt>
            <trkpt lat="51.757341" lon="10.398052"><ele>494.7</ele></trkpt>
            <trkpt lat="51.757223" lon="10.398215"><ele>497.5</ele></trkpt>
            <trkpt lat="51.757117" lon="10.398279"><ele>498.4</ele></trkpt>
            <trkpt lat="51.756927" lon="10.398251"><ele>500.7</ele></trkpt>
            <trkpt lat="51.756671" lon="10.398125"><ele>502</ele></trkpt>
            <trkpt lat="51.756321" lon="10.397897"><ele>504.6</ele></trkpt>
            <trkpt lat="51.755046" lon="10.396635"><ele>506.7</ele></trkpt>
            <trkpt lat="51.754951" lon="10.396598"><ele>507.7</ele></trkpt>
            <trkpt lat="51.754848" lon="10.396616"><ele>509.1</ele></trkpt>
            <trkpt lat="51.754684" lon="10.396761"><ele>510.9</ele></trkpt>
            <trkpt lat="51.754578" lon="10.39692"><ele>511.3</ele></trkpt>
            <trkpt lat="51.754533" lon="10.397054"><ele>511.6</ele></trkpt>
            <trkpt lat="51.754502" lon="10.397589"><ele>512.8</ele></trkpt>
            <trkpt lat="51.754477" lon="10.397714"><ele>512.3</ele></trkpt>
            <trkpt lat="51.75443" lon="10.397816"><ele>512.2</ele></trkpt>
            <trkpt lat="51.754342" lon="10.39795"><ele>511.6</ele></trkpt>
            <trkpt lat="51.7542" lon="10.398063"><ele>511</ele></trkpt>
            <trkpt lat="51.753739" lon="10.398301"><ele>509</ele></trkpt>
            <trkpt lat="51.753749" lon="10.398339"><ele>517</ele></trkpt>
            <trkpt lat="51.753766" lon="10.398332"><ele>509</ele></trkpt>
            <trkpt lat="51.753793" lon="10.398319"><ele>509</ele></trkpt>
            <trkpt lat="51.753766" lon="10.398332"><ele>509</ele></trkpt>
            <trkpt lat="51.753749" lon="10.398339"><ele>517</ele></trkpt>
            <trkpt lat="51.753739" lon="10.398301"><ele>509</ele></trkpt>
            <trkpt lat="51.7542" lon="10.398063"><ele>511</ele></trkpt>
            <trkpt lat="51.754342" lon="10.39795"><ele>511.6</ele></trkpt>
            <trkpt lat="51.75443" lon="10.397816"><ele>512.2</ele></trkpt>
            <trkpt lat="51.754477" lon="10.397714"><ele>512.3</ele></trkpt>
            <trkpt lat="51.754502" lon="10.397589"><ele>512.8</ele></trkpt>
            <trkpt lat="51.754533" lon="10.397054"><ele>511.6</ele></trkpt>
            <trkpt lat="51.754578" lon="10.39692"><ele>511.3</ele></trkpt>
            <trkpt lat="51.754684" lon="10.396761"><ele>510.9</ele></trkpt>
            <trkpt lat="51.754848" lon="10.396616"><ele>509.1</ele></trkpt>
            <trkpt lat="51.754951" lon="10.396598"><ele>507.7</ele></trkpt>
            <trkpt lat="51.755046" lon="10.396635"><ele>506.7</ele></trkpt>
            <trkpt lat="51.756321" lon="10.397897"><ele>504.6</ele></trkpt>
            <trkpt lat="51.756671" lon="10.398125"><ele>502</ele></trkpt>
            <trkpt lat="51.756927" lon="10.398251"><ele>500.7</ele></trkpt>
            <trkpt lat="51.757117" lon="10.398279"><ele>498.4</ele></trkpt>
            <trkpt lat="51.757223" lon="10.398215"><ele>497.5</ele></trkpt>
            <trkpt lat="51.757341" lon="10.398052"><ele>494.7</ele></trkpt>
            <trkpt lat="51.757593" lon="10.397794"><ele>494.6</ele></trkpt>
            <trkpt lat="51.757899" lon="10.397594"><ele>492.8</ele></trkpt>
            <trkpt lat="51.758072" lon="10.397413"><ele>491.2</ele></trkpt>
            <trkpt lat="51.758176" lon="10.397278"><ele>489.4</ele></trkpt>
            <trkpt lat="51.758299" lon="10.396937"><ele>487.4</ele></trkpt>
            <trkpt lat="51.758393" lon="10.396747"><ele>477</ele></trkpt>
            <trkpt lat="51.758641" lon="10.396433"><ele>468.2</ele></trkpt>
            <trkpt lat="51.758914" lon="10.395858"><ele>468</ele></trkpt>
            <trkpt lat="51.759003" lon="10.395793"><ele>467.2</ele></trkpt>
            <trkpt lat="51.759138" lon="10.395785"><ele>466.5</ele></trkpt>
            <trkpt lat="51.759404" lon="10.395991"><ele>466.1</ele></trkpt>
            <trkpt lat="51.759713" lon="10.396501"><ele>465.6</ele></trkpt>
            <trkpt lat="51.759784" lon="10.396726"><ele>465.1</ele></trkpt>
            <trkpt lat="51.759816" lon="10.39711"><ele>464.7</ele></trkpt>
            <trkpt lat="51.759819" lon="10.397632"><ele>465.6</ele></trkpt>
            <trkpt lat="51.759915" lon="10.398673"><ele>470</ele></trkpt>
            <trkpt lat="51.759955" lon="10.398848"><ele>471.2</ele></trkpt>
            <trkpt lat="51.760128" lon="10.399046"><ele>452</ele></trkpt>
            <trkpt lat="51.760253" lon="10.398526"><ele>452</ele></trkpt>
            <trkpt lat="51.760375" lon="10.398311"><ele>451.3</ele></trkpt>
            <trkpt lat="51.760534" lon="10.398175"><ele>451</ele></trkpt>
            <trkpt lat="51.760779" lon="10.398114"><ele>444.6</ele></trkpt>
            <trkpt lat="51.761103" lon="10.398108"><ele>442.5</ele></trkpt>
            <trkpt lat="51.761403" lon="10.398194"><ele>434</ele></trkpt>
            <trkpt lat="51.762056" lon="10.398706"><ele>429</ele></trkpt>
            <trkpt lat="51.762126" lon="10.398763"><ele>429</ele></trkpt>
            <trkpt lat="51.762215" lon="10.398837"><ele>429</ele></trkpt>
            <trkpt lat="51.762286" lon="10.398836"><ele>429</ele></trkpt>
            <trkpt lat="51.762507" lon="10.398586"><ele>424.4</ele></trkpt>
            <trkpt lat="51.762845" lon="10.398326"><ele>424</ele></trkpt>
            <trkpt lat="51.763024" lon="10.398125"><ele>423.8</ele></trkpt>
            <trkpt lat="51.763412" lon="10.397584"><ele>419</ele></trkpt>
            <trkpt lat="51.763613" lon="10.397367"><ele>416.5</ele></trkpt>
            <trkpt lat="51.764036" lon="10.396984"><ele>414</ele></trkpt>
            <trkpt lat="51.764127" lon="10.396852"><ele>414.6</ele></trkpt>
            <trkpt lat="51.764195" lon="10.396714"><ele>415.3</ele></trkpt>
            <trkpt lat="51.764306" lon="10.396412"><ele>415</ele></trkpt>
            <trkpt lat="51.764376" lon="10.396266"><ele>415</ele></trkpt>
            <trkpt lat="51.764471" lon="10.39594"><ele>415</ele></trkpt>
            <trkpt lat="51.764409" lon="10.395346"><ele>411.3</ele></trkpt>
            <trkpt lat="51.764295" lon="10.39465"><ele>407</ele></trkpt>
            <trkpt lat="51.7642" lon="10.394049"><ele>402.2</ele></trkpt>
            <trkpt lat="51.764026" lon="10.39313"><ele>401.7</ele></trkpt>
            <trkpt lat="51.763991" lon="10.392857"><ele>401.3</ele></trkpt>
            <trkpt lat="51.764018" lon="10.392591"><ele>399</ele></trkpt>
            <trkpt lat="51.764057" lon="10.392508"><ele>399</ele></trkpt>
            <trkpt lat="51.764124" lon="10.392421"><ele>396</ele></trkpt>
            <trkpt lat="51.764151" lon="10.392598"><ele>401.8</ele></trkpt>
            <trkpt lat="51.764212" lon="10.392758"><ele>402.4</ele></trkpt>
            <trkpt lat="51.764401" lon="10.393023"><ele>406</ele></trkpt>
            <trkpt lat="51.764482" lon="10.392963"><ele>406</ele></trkpt>
            <trkpt lat="51.764536" lon="10.392887"><ele>406</ele></trkpt>
            <trkpt lat="51.764676" lon="10.392822"><ele>406</ele></trkpt>
            <trkpt lat="51.764757" lon="10.392844"><ele>409.8</ele></trkpt>
            <trkpt lat="51.764789" lon="10.392765"><ele>409.4</ele></trkpt>
            <trkpt lat="51.764798" lon="10.392628"><ele>409.1</ele></trkpt>
            <trkpt lat="51.764741" lon="10.392358"><ele>409.1</ele></trkpt>
            <trkpt lat="51.764755" lon="10.392255"><ele>409.1</ele></trkpt>
            <trkpt lat="51.764796" lon="10.392165"><ele>409.1</ele></trkpt>
            <trkpt lat="51.764946" lon="10.392323"><ele>409.1</ele></trkpt>
            <trkpt lat="51.765116" lon="10.392601"><ele>420</ele></trkpt>
            <trkpt lat="51.765201" lon="10.392623"><ele>420</ele></trkpt>
            <trkpt lat="51.765531" lon="10.392566"><ele>420</ele></trkpt>
            <trkpt lat="51.765655" lon="10.392509"><ele>420</ele></trkpt>
            <trkpt lat="51.765614" lon="10.392351"><ele>425</ele></trkpt>
            <trkpt lat="51.765592" lon="10.392188"><ele>425.3</ele></trkpt>
            <trkpt lat="51.765626" lon="10.391978"><ele>427</ele></trkpt>
            <trkpt lat="51.76566" lon="10.391911"><ele>436.1</ele></trkpt>
            <trkpt lat="51.765712" lon="10.391901"><ele>436.5</ele></trkpt>
            <trkpt lat="51.765788" lon="10.39194"><ele>435.5</ele></trkpt>
            <trkpt lat="51.766006" lon="10.392184"><ele>438.1</ele></trkpt>
            <trkpt lat="51.766223" lon="10.392383"><ele>438.8</ele></trkpt>
            <trkpt lat="51.766494" lon="10.392581"><ele>441.8</ele></trkpt>
            <trkpt lat="51.766774" lon="10.39268"><ele>444.1</ele></trkpt>
            <trkpt lat="51.766911" lon="10.392779"><ele>448.9</ele></trkpt>
            <trkpt lat="51.767036" lon="10.392919"><ele>454.8</ele></trkpt>
            <trkpt lat="51.767503" lon="10.393602"><ele>458.1</ele></trkpt>
            <trkpt lat="51.767748" lon="10.393793"><ele>461.6</ele></trkpt>
            <trkpt lat="51.767922" lon="10.393866"><ele>462.7</ele></trkpt>
            <trkpt lat="51.768092" lon="10.393876"><ele>463</ele></trkpt>
            <trkpt lat="51.768262" lon="10.393794"><ele>462.7</ele></trkpt>
            <trkpt lat="51.768621" lon="10.393532"><ele>464.1</ele></trkpt>
            <trkpt lat="51.768837" lon="10.393344"><ele>464.7</ele></trkpt>
            <trkpt lat="51.768926" lon="10.393309"><ele>466.8</ele></trkpt>
            <trkpt lat="51.768998" lon="10.393332"><ele>469.1</ele></trkpt>
            <trkpt lat="51.769055" lon="10.393407"><ele>470.3</ele></trkpt>
            <trkpt lat="51.769137" lon="10.393651"><ele>472.4</ele></trkpt>
            <trkpt lat="51.769535" lon="10.395343"><ele>481.2</ele></trkpt>
            <trkpt lat="51.769628" lon="10.395653"><ele>482.3</ele></trkpt>
            <trkpt lat="51.769843" lon="10.39603"><ele>484.9</ele></trkpt>
            <trkpt lat="51.770192" lon="10.396436"><ele>487.4</ele></trkpt>
            <trkpt lat="51.770318" lon="10.396558"><ele>488.5</ele></trkpt>
            <trkpt lat="51.770438" lon="10.396659"><ele>489.5</ele></trkpt>
            <trkpt lat="51.770815" lon="10.396808"><ele>491.7</ele></trkpt>
            <trkpt lat="51.770885" lon="10.396862"><ele>492.5</ele></trkpt>
            <trkpt lat="51.770961" lon="10.397051"><ele>493.2</ele></trkpt>
            <trkpt lat="51.771037" lon="10.397347"><ele>497.3</ele></trkpt>
            <trkpt lat="51.771074" lon="10.397677"><ele>498.7</ele></trkpt>
            <trkpt lat="51.771161" lon="10.398029"><ele>499.8</ele></trkpt>
            <trkpt lat="51.771455" lon="10.398527"><ele>502.3</ele></trkpt>
            <trkpt lat="51.771782" lon="10.398884"><ele>507.8</ele></trkpt>
            <trkpt lat="51.771913" lon="10.398926"><ele>507.9</ele></trkpt>
            <trkpt lat="51.772016" lon="10.39893"><ele>509.5</ele></trkpt>
            <trkpt lat="51.772416" lon="10.398743"><ele>512.4</ele></trkpt>
            <trkpt lat="51.772671" lon="10.398746"><ele>517.6</ele></trkpt>
            <trkpt lat="51.772848" lon="10.39883"><ele>520</ele></trkpt>
            <trkpt lat="51.772978" lon="10.39892"><ele>521.2</ele></trkpt>
            <trkpt lat="51.773102" lon="10.39907"><ele>522.3</ele></trkpt>
            <trkpt lat="51.773353" lon="10.399653"><ele>526.2</ele></trkpt>
            <trkpt lat="51.773443" lon="10.39981"><ele>528.8</ele></trkpt>
            <trkpt lat="51.773554" lon="10.399917"><ele>531.2</ele></trkpt>
            <trkpt lat="51.773686" lon="10.399979"><ele>531.5</ele></trkpt>
            <trkpt lat="51.77407" lon="10.400035"><ele>534</ele></trkpt>
            <trkpt lat="51.774203" lon="10.400117"><ele>535.5</ele></trkpt>
            <trkpt lat="51.774371" lon="10.40033"><ele>537.5</ele></trkpt>
            <trkpt lat="51.774556" lon="10.4007"><ele>539.3</ele></trkpt>
            <trkpt lat="51.774696" lon="10.400934"><ele>539.3</ele></trkpt>
            <trkpt lat="51.77489" lon="10.401123"><ele>539.8</ele></trkpt>
            <trkpt lat="51.775028" lon="10.401169"><ele>539.8</ele></trkpt>
            <trkpt lat="51.775153" lon="10.401145"><ele>540.8</ele></trkpt>
            <trkpt lat="51.775256" lon="10.401048"><ele>541.7</ele></trkpt>
            <trkpt lat="51.775521" lon="10.400576"><ele>544.6</ele></trkpt>
            <trkpt lat="51.775715" lon="10.400425"><ele>546.9</ele></trkpt>
            <trkpt lat="51.77594" lon="10.400312"><ele>549.9</ele></trkpt>
            <trkpt lat="51.776357" lon="10.400396"><ele>555.3</ele></trkpt>
            <trkpt lat="51.776534" lon="10.400515"><ele>556.9</ele></trkpt>
            <trkpt lat="51.776954" lon="10.401031"><ele>557.7</ele></trkpt>
            <trkpt lat="51.777039" lon="10.401089"><ele>557.4</ele></trkpt>
            <trkpt lat="51.777087" lon="10.401076"><ele>557</ele></trkpt>
            <trkpt lat="51.777123" lon="10.401024"><ele>553</ele></trkpt>
            <trkpt lat="51.777135" lon="10.400974"><ele>560.9</ele></trkpt>
            <trkpt lat="51.777112" lon="10.400875"><ele>560</ele></trkpt>
            <trkpt lat="51.777021" lon="10.400707"><ele>561</ele></trkpt>
            <trkpt lat="51.776799" lon="10.400329"><ele>563.4</ele></trkpt>
            <trkpt lat="51.776522" lon="10.399929"><ele>564.6</ele></trkpt>
            <trkpt lat="51.776356" lon="10.399742"><ele>565.7</ele></trkpt>
            <trkpt lat="51.775831" lon="10.399392"><ele>570.1</ele></trkpt>
            <trkpt lat="51.7757" lon="10.399278"><ele>569.8</ele></trkpt>
            <trkpt lat="51.775522" lon="10.399058"><ele>570.2</ele></trkpt>
            <trkpt lat="51.775275" lon="10.398664"><ele>570.3</ele></trkpt>
            <trkpt lat="51.775103" lon="10.398329"><ele>570.3</ele></trkpt>
            <trkpt lat="51.774998" lon="10.398072"><ele>569.9</ele></trkpt>
            <trkpt lat="51.774977" lon="10.397941"><ele>569.7</ele></trkpt>
            <trkpt lat="51.774982" lon="10.397818"><ele>569.6</ele></trkpt>
            <trkpt lat="51.775022" lon="10.397725"><ele>572</ele></trkpt>
            <trkpt lat="51.775138" lon="10.397634"><ele>573.8</ele></trkpt>
            <trkpt lat="51.775328" lon="10.39755"><ele>573.8</ele></trkpt>
            <trkpt lat="51.775798" lon="10.397197"><ele>573.8</ele></trkpt>
            <trkpt lat="51.775857" lon="10.397108"><ele>574.5</ele></trkpt>
            <trkpt lat="51.775904" lon="10.396973"><ele>575.4</ele></trkpt>
            <trkpt lat="51.776133" lon="10.396036"><ele>575.6</ele></trkpt>
            <trkpt lat="51.776205" lon="10.395876"><ele>576.1</ele></trkpt>
            <trkpt lat="51.776288" lon="10.395783"><ele>575</ele></trkpt>
            <trkpt lat="51.776385" lon="10.395733"><ele>574</ele></trkpt>
            <trkpt lat="51.776863" lon="10.395595"><ele>578.4</ele></trkpt>
            <trkpt lat="51.776994" lon="10.395582"><ele>578.1</ele></trkpt>
            <trkpt lat="51.77754" lon="10.395671"><ele>581.2</ele></trkpt>
            <trkpt lat="51.777756" lon="10.395628"><ele>590</ele></trkpt>
            <trkpt lat="51.777893" lon="10.395558"><ele>591</ele></trkpt>
            <trkpt lat="51.777958" lon="10.39548"><ele>597</ele></trkpt>
            <trkpt lat="51.778084" lon="10.394973"><ele>596.4</ele></trkpt>
            <trkpt lat="51.778161" lon="10.394399"><ele>596.4</ele></trkpt>
            <trkpt lat="51.778191" lon="10.393583"><ele>596.7</ele></trkpt>
            <trkpt lat="51.778193" lon="10.392753"><ele>597.6</ele></trkpt>
            <trkpt lat="51.77824" lon="10.391823"><ele>599.2</ele></trkpt>
            <trkpt lat="51.778198" lon="10.39154"><ele>600</ele></trkpt>
            <trkpt lat="51.778107" lon="10.391207"><ele>601.6</ele></trkpt>
            <trkpt lat="51.777797" lon="10.390515"><ele>602.6</ele></trkpt>
            <trkpt lat="51.777393" lon="10.389371"><ele>598.9</ele></trkpt>
            <trkpt lat="51.777197" lon="10.388585"><ele>597.8</ele></trkpt>
            <trkpt lat="51.77714" lon="10.388207"><ele>596.5</ele></trkpt>
            <trkpt lat="51.777136" lon="10.387954"><ele>596.8</ele></trkpt>
            <trkpt lat="51.777149" lon="10.387849"><ele>596.9</ele></trkpt>
            <trkpt lat="51.777162" lon="10.387735"><ele>597</ele></trkpt>
            <trkpt lat="51.777213" lon="10.387553"><ele>597.3</ele></trkpt>
            <trkpt lat="51.777261" lon="10.38747"><ele>603</ele></trkpt>
            <trkpt lat="51.777323" lon="10.387393"><ele>600.9</ele></trkpt>
            <trkpt lat="51.777436" lon="10.38733"><ele>601.1</ele></trkpt>
            <trkpt lat="51.777584" lon="10.387314"><ele>600.5</ele></trkpt>
            <trkpt lat="51.777829" lon="10.38739"><ele>599.6</ele></trkpt>
            <trkpt lat="51.778036" lon="10.387541"><ele>599.6</ele></trkpt>
            <trkpt lat="51.778165" lon="10.387567"><ele>600</ele></trkpt>
            <trkpt lat="51.778243" lon="10.387491"><ele>596.5</ele></trkpt>
            <trkpt lat="51.778285" lon="10.387351"><ele>596.5</ele></trkpt>
            <trkpt lat="51.778321" lon="10.386533"><ele>595.6</ele></trkpt>
            <trkpt lat="51.778341" lon="10.386421"><ele>595</ele></trkpt>
            <trkpt lat="51.778474" lon="10.386409"><ele>600.4</ele></trkpt>
            <trkpt lat="51.778841" lon="10.386817"><ele>605.5</ele></trkpt>
            <trkpt lat="51.778895" lon="10.386975"><ele>606.1</ele></trkpt>
            <trkpt lat="51.778924" lon="10.387208"><ele>608.1</ele></trkpt>
            <trkpt lat="51.77912" lon="10.387639"><ele>610.9</ele></trkpt>
            <trkpt lat="51.779274" lon="10.388327"><ele>613.1</ele></trkpt>
            <trkpt lat="51.779421" lon="10.388664"><ele>614.5</ele></trkpt>
            <trkpt lat="51.779523" lon="10.388984"><ele>615.3</ele></trkpt>
            <trkpt lat="51.779685" lon="10.389391"><ele>628</ele></trkpt>
            <trkpt lat="51.780181" lon="10.390237"><ele>631.4</ele></trkpt>
            <trkpt lat="51.780433" lon="10.390704"><ele>631.3</ele></trkpt>
            <trkpt lat="51.780646" lon="10.390914"><ele>631.2</ele></trkpt>
            <trkpt lat="51.781038" lon="10.391143"><ele>632.1</ele></trkpt>
            <trkpt lat="51.781348" lon="10.391103"><ele>632.2</ele></trkpt>
            <trkpt lat="51.781962" lon="10.392255"><ele>635</ele></trkpt>
            <trkpt lat="51.782175" lon="10.39238"><ele>638</ele></trkpt>
            <trkpt lat="51.783319" lon="10.393512"><ele>643.9</ele></trkpt>
            <trkpt lat="51.783681" lon="10.393816"><ele>646.9</ele></trkpt>
            <trkpt lat="51.783921" lon="10.393983"><ele>647.5</ele></trkpt>
            <trkpt lat="51.7843" lon="10.394465"><ele>652</ele></trkpt>
            <trkpt lat="51.784459" lon="10.394611"><ele>652.9</ele></trkpt>
            <trkpt lat="51.785112" lon="10.394971"><ele>653.8</ele></trkpt>
            <trkpt lat="51.785502" lon="10.395391"><ele>654</ele></trkpt>
            <trkpt lat="51.786594" lon="10.394976"><ele>652.7</ele></trkpt>
            <trkpt lat="51.787225" lon="10.395079"><ele>651.2</ele></trkpt>
            <trkpt lat="51.787726" lon="10.395208"><ele>646.8</ele></trkpt>
            <trkpt lat="51.78859" lon="10.39595"><ele>637.4</ele></trkpt>
            <trkpt lat="51.78891" lon="10.396113"><ele>637.7</ele></trkpt>
            <trkpt lat="51.789078" lon="10.396166"><ele>636.8</ele></trkpt>
            <trkpt lat="51.789357" lon="10.39608"><ele>632.9</ele></trkpt>
            <trkpt lat="51.789518" lon="10.395984"><ele>626</ele></trkpt>
            <trkpt lat="51.789697" lon="10.395777"><ele>623.6</ele></trkpt>
            <trkpt lat="51.789894" lon="10.395617"><ele>622.7</ele></trkpt>
            <trkpt lat="51.790163" lon="10.395246"><ele>621.7</ele></trkpt>
            <trkpt lat="51.790254" lon="10.39523"><ele>618</ele></trkpt>
            <trkpt lat="51.790321" lon="10.395248"><ele>618</ele></trkpt>
            <trkpt lat="51.790404" lon="10.394725"><ele>617</ele></trkpt>
            <trkpt lat="51.790481" lon="10.394755"><ele>617</ele></trkpt>
            <trkpt lat="51.790656" lon="10.394946"><ele>617</ele></trkpt>
            <trkpt lat="51.791133" lon="10.394258"><ele>626.7</ele></trkpt>
            <trkpt lat="51.791243" lon="10.394021"><ele>626.4</ele></trkpt>
            <trkpt lat="51.791366" lon="10.393676"><ele>626.1</ele></trkpt>
            <trkpt lat="51.792099" lon="10.39102"><ele>626.8</ele></trkpt>
            <trkpt lat="51.792551" lon="10.388234"><ele>617.2</ele></trkpt>
            <trkpt lat="51.792592" lon="10.387781"><ele>617.3</ele></trkpt>
            <trkpt lat="51.79314" lon="10.384283"><ele>617.7</ele></trkpt>
            <trkpt lat="51.793164" lon="10.384013"><ele>618</ele></trkpt>
            <trkpt lat="51.793276" lon="10.384406"><ele>612.4</ele></trkpt>
            <trkpt lat="51.793551" lon="10.385543"><ele>610.9</ele></trkpt>
            <trkpt lat="51.793702" lon="10.38603"><ele>607.9</ele></trkpt>
            <trkpt lat="51.794056" lon="10.387015"><ele>606.7</ele></trkpt>
            <trkpt lat="51.794173" lon="10.387537"><ele>606.1</ele></trkpt>
            <trkpt lat="51.794187" lon="10.387968"><ele>606.5</ele></trkpt>
            <trkpt lat="51.794153" lon="10.388305"><ele>606.8</ele></trkpt>
            <trkpt lat="51.794165" lon="10.388486"><ele>606.6</ele></trkpt>
            <trkpt lat="51.794452" lon="10.389594"><ele>606.2</ele></trkpt>
            <trkpt lat="51.794908" lon="10.390512"><ele>606.1</ele></trkpt>
            <trkpt lat="51.795207" lon="10.390883"><ele>604.7</ele></trkpt>
            <trkpt lat="51.795301" lon="10.390971"><ele>604.6</ele></trkpt>
            <trkpt lat="51.796135" lon="10.391425"><ele>601</ele></trkpt>
            <trkpt lat="51.796326" lon="10.391011"><ele>601</ele></trkpt>
            <trkpt lat="51.796577" lon="10.390557"><ele>599.9</ele></trkpt>
            <trkpt lat="51.796773" lon="10.390436"><ele>599.7</ele></trkpt>
            <trkpt lat="51.797139" lon="10.390366"><ele>599</ele></trkpt>
            <trkpt lat="51.797371" lon="10.389905"><ele>597.3</ele></trkpt>
            <trkpt lat="51.797498" lon="10.389734"><ele>597.8</ele></trkpt>
            <trkpt lat="51.797617" lon="10.389651"><ele>600</ele></trkpt>
            <trkpt lat="51.797743" lon="10.389508"><ele>598</ele></trkpt>
            <trkpt lat="51.797851" lon="10.389293"><ele>597.6</ele></trkpt>
            <trkpt lat="51.797932" lon="10.389089"><ele>597.1</ele></trkpt>
            <trkpt lat="51.798007" lon="10.388778"><ele>595</ele></trkpt>
            <trkpt lat="51.797908" lon="10.388789"><ele>593.6</ele></trkpt>
            <trkpt lat="51.798007" lon="10.388778"><ele>595</ele></trkpt>
            <trkpt lat="51.797932" lon="10.389089"><ele>597.1</ele></trkpt>
            <trkpt lat="51.797851" lon="10.389293"><ele>597.6</ele></trkpt>
            <trkpt lat="51.797743" lon="10.389508"><ele>598</ele></trkpt>
            <trkpt lat="51.797617" lon="10.389651"><ele>600</ele></trkpt>
            <trkpt lat="51.797498" lon="10.389734"><ele>597.8</ele></trkpt>
            <trkpt lat="51.797371" lon="10.389905"><ele>597.3</ele></trkpt>
            <trkpt lat="51.797139" lon="10.390366"><ele>599</ele></trkpt>
            <trkpt lat="51.796773" lon="10.390436"><ele>599.7</ele></trkpt>
            <trkpt lat="51.796577" lon="10.390557"><ele>599.9</ele></trkpt>
            <trkpt lat="51.796326" lon="10.391011"><ele>601</ele></trkpt>
            <trkpt lat="51.796135" lon="10.391425"><ele>601</ele></trkpt>
            <trkpt lat="51.795301" lon="10.390971"><ele>604.6</ele></trkpt>
            <trkpt lat="51.795207" lon="10.390883"><ele>604.7</ele></trkpt>
            <trkpt lat="51.794908" lon="10.390512"><ele>606.1</ele></trkpt>
            <trkpt lat="51.794452" lon="10.389594"><ele>606.2</ele></trkpt>
            <trkpt lat="51.794165" lon="10.388486"><ele>606.6</ele></trkpt>
            <trkpt lat="51.794153" lon="10.388305"><ele>606.8</ele></trkpt>
            <trkpt lat="51.794187" lon="10.387968"><ele>606.5</ele></trkpt>
            <trkpt lat="51.794173" lon="10.387537"><ele>606.1</ele></trkpt>
            <trkpt lat="51.794056" lon="10.387015"><ele>606.7</ele></trkpt>
            <trkpt lat="51.793702" lon="10.38603"><ele>607.9</ele></trkpt>
            <trkpt lat="51.793551" lon="10.385543"><ele>610.9</ele></trkpt>
            <trkpt lat="51.793276" lon="10.384406"><ele>612.4</ele></trkpt>
            <trkpt lat="51.793164" lon="10.384013"><ele>618</ele></trkpt>
            <trkpt lat="51.792916" lon="10.382995"><ele>618.8</ele></trkpt>
            <trkpt lat="51.79267" lon="10.382259"><ele>619.2</ele></trkpt>
            <trkpt lat="51.792253" lon="10.380649"><ele>622.5</ele></trkpt>
            <trkpt lat="51.791865" lon="10.379552"><ele>623</ele></trkpt>
            <trkpt lat="51.791567" lon="10.378631"><ele>623.1</ele></trkpt>
            <trkpt lat="51.791128" lon="10.377023"><ele>622.5</ele></trkpt>
            <trkpt lat="51.79083" lon="10.376099"><ele>620.5</ele></trkpt>
            <trkpt lat="51.790468" lon="10.374847"><ele>620.2</ele></trkpt>
            <trkpt lat="51.790409" lon="10.3747"><ele>620</ele></trkpt>
            <trkpt lat="51.790356" lon="10.374623"><ele>619.8</ele></trkpt>
            <trkpt lat="51.790308" lon="10.37461"><ele>619</ele></trkpt>
            <trkpt lat="51.790245" lon="10.377681"><ele>627</ele></trkpt>
            <trkpt lat="51.789055" lon="10.37848"><ele>622.1</ele></trkpt>
            <trkpt lat="51.788907" lon="10.378497"><ele>620.1</ele></trkpt>
            <trkpt lat="51.788793" lon="10.378436"><ele>619.5</ele></trkpt>
            <trkpt lat="51.787695" lon="10.376954"><ele>620</ele></trkpt>
            <trkpt lat="51.787395" lon="10.37651"><ele>620</ele></trkpt>
            <trkpt lat="51.78621" lon="10.3749"><ele>629</ele></trkpt>
            <trkpt lat="51.786163" lon="10.374981"><ele>629</ele></trkpt>
            <trkpt lat="51.786029" lon="10.375734"><ele>617</ele></trkpt>
            <trkpt lat="51.785862" lon="10.376286"><ele>616.3</ele></trkpt>
            <trkpt lat="51.785767" lon="10.376784"><ele>616</ele></trkpt>
            <trkpt lat="51.785662" lon="10.376991"><ele>616.6</ele></trkpt>
            <trkpt lat="51.785648" lon="10.377046"><ele>616</ele></trkpt>
            <trkpt lat="51.785663" lon="10.377079"><ele>612</ele></trkpt>
            <trkpt lat="51.785703" lon="10.377147"><ele>612</ele></trkpt>
            <trkpt lat="51.785713" lon="10.377277"><ele>587.4</ele></trkpt>
            <trkpt lat="51.78569" lon="10.377371"><ele>586.4</ele></trkpt>
            <trkpt lat="51.785688" lon="10.377375"><ele>585</ele></trkpt>
            <trkpt lat="51.78569" lon="10.377371"><ele>586.4</ele></trkpt>
            <trkpt lat="51.785713" lon="10.377277"><ele>587.4</ele></trkpt>
            <trkpt lat="51.785703" lon="10.377147"><ele>612</ele></trkpt>
            <trkpt lat="51.785663" lon="10.377079"><ele>612</ele></trkpt>
            <trkpt lat="51.785648" lon="10.377046"><ele>616</ele></trkpt>
            <trkpt lat="51.785662" lon="10.376991"><ele>616.6</ele></trkpt>
            <trkpt lat="51.785767" lon="10.376784"><ele>616</ele></trkpt>
            <trkpt lat="51.785862" lon="10.376286"><ele>616.3</ele></trkpt>
            <trkpt lat="51.786029" lon="10.375734"><ele>617</ele></trkpt>
            <trkpt lat="51.786163" lon="10.374981"><ele>629</ele></trkpt>
            <trkpt lat="51.78621" lon="10.3749"><ele>629</ele></trkpt>
            <trkpt lat="51.7859" lon="10.374452"><ele>629</ele></trkpt>
            <trkpt lat="51.78432" lon="10.372341"><ele>648</ele></trkpt>
            <trkpt lat="51.784078" lon="10.372063"><ele>648</ele></trkpt>
            <trkpt lat="51.783436" lon="10.371122"><ele>645</ele></trkpt>
            <trkpt lat="51.782428" lon="10.369803"><ele>640.7</ele></trkpt>
            <trkpt lat="51.781931" lon="10.368992"><ele>639</ele></trkpt>
            <trkpt lat="51.781833" lon="10.36878"><ele>639.3</ele></trkpt>
            <trkpt lat="51.782104" lon="10.368107"><ele>640</ele></trkpt>
            <trkpt lat="51.78289" lon="10.366222"><ele>626</ele></trkpt>
            <trkpt lat="51.783601" lon="10.364435"><ele>619</ele></trkpt>
            <trkpt lat="51.783336" lon="10.364284"><ele>619.8</ele></trkpt>
            <trkpt lat="51.782428" lon="10.363447"><ele>622</ele></trkpt>
            <trkpt lat="51.782443" lon="10.363419"><ele>620.7</ele></trkpt>
            <trkpt lat="51.782158" lon="10.3626"><ele>618</ele></trkpt>
            <trkpt lat="51.781899" lon="10.361837"><ele>611.8</ele></trkpt>
            <trkpt lat="51.781816" lon="10.361373"><ele>610</ele></trkpt>
            <trkpt lat="51.781631" lon="10.359987"><ele>605.4</ele></trkpt>
            <trkpt lat="51.781548" lon="10.359576"><ele>603.3</ele></trkpt>
            <trkpt lat="51.781451" lon="10.359273"><ele>602</ele></trkpt>
            <trkpt lat="51.781228" lon="10.358781"><ele>599.6</ele></trkpt>
            <trkpt lat="51.780791" lon="10.357894"><ele>598.4</ele></trkpt>
            <trkpt lat="51.780503" lon="10.35738"><ele>597</ele></trkpt>
            <trkpt lat="51.780424" lon="10.357267"><ele>594</ele></trkpt>
            <trkpt lat="51.780106" lon="10.356817"><ele>592.5</ele></trkpt>
            <trkpt lat="51.779947" lon="10.356634"><ele>592.1</ele></trkpt>
            <trkpt lat="51.779832" lon="10.356574"><ele>591</ele></trkpt>
            <trkpt lat="51.780123" lon="10.355365"><ele>588</ele></trkpt>
            <trkpt lat="51.780128" lon="10.355158"><ele>588.2</ele></trkpt>
            <trkpt lat="51.780196" lon="10.354743"><ele>587.7</ele></trkpt>
            <trkpt lat="51.78024" lon="10.354568"><ele>587.1</ele></trkpt>
            <trkpt lat="51.780309" lon="10.35448"><ele>586.1</ele></trkpt>
            <trkpt lat="51.780348" lon="10.354397"><ele>583</ele></trkpt>
            <trkpt lat="51.78041" lon="10.354015"><ele>579.9</ele></trkpt>
            <trkpt lat="51.780453" lon="10.353558"><ele>577</ele></trkpt>
            <trkpt lat="51.780462" lon="10.353483"><ele>577</ele></trkpt>
            <trkpt lat="51.780468" lon="10.353454"><ele>577</ele></trkpt>
            <trkpt lat="51.780485" lon="10.353113"><ele>575.8</ele></trkpt>
            <trkpt lat="51.780527" lon="10.353027"><ele>575.7</ele></trkpt>
            <trkpt lat="51.78054" lon="10.352817"><ele>575</ele></trkpt>
            <trkpt lat="51.780189" lon="10.352099"><ele>571.4</ele></trkpt>
            <trkpt lat="51.780092" lon="10.351949"><ele>570.8</ele></trkpt>
            <trkpt lat="51.780014" lon="10.351906"><ele>570.6</ele></trkpt>
            <trkpt lat="51.779929" lon="10.351812"><ele>570.1</ele></trkpt>
            <trkpt lat="51.779876" lon="10.351652"><ele>569.9</ele></trkpt>
            <trkpt lat="51.779307" lon="10.351213"><ele>569</ele></trkpt>
            <trkpt lat="51.779272" lon="10.351142"><ele>568.9</ele></trkpt>
            <trkpt lat="51.779008" lon="10.351001"><ele>568.6</ele></trkpt>
            <trkpt lat="51.778786" lon="10.350929"><ele>568.4</ele></trkpt>
            <trkpt lat="51.778662" lon="10.350933"><ele>568.3</ele></trkpt>
            <trkpt lat="51.77857" lon="10.350999"><ele>568.3</ele></trkpt>
            <trkpt lat="51.778443" lon="10.350998"><ele>567</ele></trkpt>
            <trkpt lat="51.778331" lon="10.350919"><ele>562.7</ele></trkpt>
            <trkpt lat="51.778117" lon="10.350452"><ele>561</ele></trkpt>
            <trkpt lat="51.777937" lon="10.350505"><ele>561</ele></trkpt>
            <trkpt lat="51.77783" lon="10.350539"><ele>561</ele></trkpt>
            <trkpt lat="51.776745" lon="10.350779"><ele>566</ele></trkpt>
            <trkpt lat="51.776072" lon="10.350993"><ele>572</ele></trkpt>
            <trkpt lat="51.77606" lon="10.350993"><ele>572</ele></trkpt>
        </trkseg>
    </trk>
</gpx>
