<?xml version="1.0" encoding="UTF-8"?>
<gpx version="1.1" creator="HWN Route Compare (OpenRouteService)" xmlns="http://www.topografix.com/GPX/1/1">
    <metadata>
        <name>OpenRouteService – Tour C4</name>
    </metadata>
    <trk>
        <name>OpenRouteService – Tour C4</name>
        <trkseg>
            <trkpt lat="51.628893" lon="10.408878"><ele>363</ele></trkpt>
            <trkpt lat="51.6289" lon="10.408893"><ele>363</ele></trkpt>
            <trkpt lat="51.629091" lon="10.409402"><ele>363</ele></trkpt>
            <trkpt lat="51.629142" lon="10.409682"><ele>367.8</ele></trkpt>
            <trkpt lat="51.629173" lon="10.409737"><ele>382</ele></trkpt>
            <trkpt lat="51.629351" lon="10.409692"><ele>382</ele></trkpt>
            <trkpt lat="51.629426" lon="10.409639"><ele>382</ele></trkpt>
            <trkpt lat="51.629559" lon="10.409641"><ele>382</ele></trkpt>
            <trkpt lat="51.629648" lon="10.409611"><ele>382</ele></trkpt>
            <trkpt lat="51.629715" lon="10.409512"><ele>382</ele></trkpt>
            <trkpt lat="51.629752" lon="10.409415"><ele>382</ele></trkpt>
            <trkpt lat="51.629784" lon="10.409227"><ele>382</ele></trkpt>
            <trkpt lat="51.629876" lon="10.409181"><ele>376.1</ele></trkpt>
            <trkpt lat="51.629981" lon="10.409196"><ele>376.6</ele></trkpt>
            <trkpt lat="51.630132" lon="10.409144"><ele>376.1</ele></trkpt>
            <trkpt lat="51.630199" lon="10.409237"><ele>376.2</ele></trkpt>
            <trkpt lat="51.630354" lon="10.409364"><ele>376.4</ele></trkpt>
            <trkpt lat="51.630437" lon="10.409417"><ele>375.5</ele></trkpt>
            <trkpt lat="51.630633" lon="10.409467"><ele>375.8</ele></trkpt>
            <trkpt lat="51.630695" lon="10.409361"><ele>376</ele></trkpt>
            <trkpt lat="51.630714" lon="10.409149"><ele>376.1</ele></trkpt>
            <trkpt lat="51.630745" lon="10.409124"><ele>376</ele></trkpt>
            <trkpt lat="51.630774" lon="10.409101"><ele>376</ele></trkpt>
            <trkpt lat="51.63096" lon="10.409208"><ele>374</ele></trkpt>
            <trkpt lat="51.630995" lon="10.40921"><ele>373.6</ele></trkpt>
            <trkpt lat="51.631138" lon="10.40909"><ele>372.3</ele></trkpt>
            <trkpt lat="51.631328" lon="10.408998"><ele>370.1</ele></trkpt>
            <trkpt lat="51.631464" lon="10.408893"><ele>368.4</ele></trkpt>
            <trkpt lat="51.631655" lon="10.40863"><ele>347</ele></trkpt>
            <trkpt lat="51.631681" lon="10.408503"><ele>333.9</ele></trkpt>
            <trkpt lat="51.631674" lon="10.408434"><ele>333.6</ele></trkpt>
            <trkpt lat="51.631607" lon="10.408229"><ele>334.1</ele></trkpt>
            <trkpt lat="51.631589" lon="10.408127"><ele>334.6</ele></trkpt>
            <trkpt lat="51.631631" lon="10.407922"><ele>335.1</ele></trkpt>
            <trkpt lat="51.631724" lon="10.407768"><ele>333.9</ele></trkpt>
            <trkpt lat="51.631774" lon="10.407715"><ele>332.8</ele></trkpt>
            <trkpt lat="51.631913" lon="10.407705"><ele>323</ele></trkpt>
            <trkpt lat="51.631976" lon="10.407917"><ele>325.4</ele></trkpt>
            <trkpt lat="51.632067" lon="10.408118"><ele>325.1</ele></trkpt>
            <trkpt lat="51.632268" lon="10.408432"><ele>325.7</ele></trkpt>
            <trkpt lat="51.632392" lon="10.40858"><ele>331</ele></trkpt>
            <trkpt lat="51.632436" lon="10.408512"><ele>331</ele></trkpt>
            <trkpt lat="51.632486" lon="10.408368"><ele>331</ele></trkpt>
            <trkpt lat="51.632551" lon="10.408141"><ele>338.9</ele></trkpt>
            <trkpt lat="51.632601" lon="10.408033"><ele>338.6</ele></trkpt>
            <trkpt lat="51.632615" lon="10.407897"><ele>338.6</ele></trkpt>
            <trkpt lat="51.632743" lon="10.407406"><ele>339.8</ele></trkpt>
            <trkpt lat="51.632832" lon="10.407231"><ele>340.5</ele></trkpt>
            <trkpt lat="51.632957" lon="10.407039"><ele>341.1</ele></trkpt>
            <trkpt lat="51.633193" lon="10.406839"><ele>341.5</ele></trkpt>
            <trkpt lat="51.633282" lon="10.406797"><ele>341.1</ele></trkpt>
            <trkpt lat="51.633367" lon="10.406792"><ele>341.2</ele></trkpt>
            <trkpt lat="51.633577" lon="10.406696"><ele>344.5</ele></trkpt>
            <trkpt lat="51.633655" lon="10.406695"><ele>345.7</ele></trkpt>
            <trkpt lat="51.633707" lon="10.406661"><ele>347.2</ele></trkpt>
            <trkpt lat="51.63389" lon="10.406618"><ele>349.8</ele></trkpt>
            <trkpt lat="51.634154" lon="10.406596"><ele>353.2</ele></trkpt>
            <trkpt lat="51.634282" lon="10.406455"><ele>355.8</ele></trkpt>
            <trkpt lat="51.634421" lon="10.406337"><ele>358.1</ele></trkpt>
            <trkpt lat="51.634769" lon="10.406112"><ele>360.9</ele></trkpt>
            <trkpt lat="51.634839" lon="10.40585"><ele>361.3</ele></trkpt>
            <trkpt lat="51.634882" lon="10.40575"><ele>361.8</ele></trkpt>
            <trkpt lat="51.635036" lon="10.405542"><ele>363.7</ele></trkpt>
            <trkpt lat="51.635188" lon="10.405146"><ele>368.9</ele></trkpt>
            <trkpt lat="51.635223" lon="10.404995"><ele>370.9</ele></trkpt>
            <trkpt lat="51.635257" lon="10.404943"><ele>372.5</ele></trkpt>
            <trkpt lat="51.635297" lon="10.404925"><ele>388</ele></trkpt>
            <trkpt lat="51.635152" lon="10.40478"><ele>388</ele></trkpt>
            <trkpt lat="51.635006" lon="10.404582"><ele>388</ele></trkpt>
            <trkpt lat="51.63506" lon="10.404506"><ele>388</ele></trkpt>
            <trkpt lat="51.635048" lon="10.404392"><ele>388</ele></trkpt>
            <trkpt lat="51.635044" lon="10.404344"><ele>388</ele></trkpt>
            <trkpt lat="51.635088" lon="10.40434"><ele>388</ele></trkpt>
            <trkpt lat="51.635095" lon="10.404292"><ele>391.6</ele></trkpt>
            <trkpt lat="51.635118" lon="10.404262"><ele>391.2</ele></trkpt>
            <trkpt lat="51.635586" lon="10.40403"><ele>392.1</ele></trkpt>
            <trkpt lat="51.635767" lon="10.403824"><ele>393</ele></trkpt>
            <trkpt lat="51.635817" lon="10.403795"><ele>397</ele></trkpt>
            <trkpt lat="51.635923" lon="10.403768"><ele>396</ele></trkpt>
            <trkpt lat="51.636036" lon="10.403832"><ele>396</ele></trkpt>
            <trkpt lat="51.636145" lon="10.403936"><ele>396</ele></trkpt>
            <trkpt lat="51.636244" lon="10.404073"><ele>396</ele></trkpt>
            <trkpt lat="51.636323" lon="10.404224"><ele>394.5</ele></trkpt>
            <trkpt lat="51.636679" lon="10.404634"><ele>394.3</ele></trkpt>
            <trkpt lat="51.636794" lon="10.40486"><ele>394</ele></trkpt>
            <trkpt lat="51.636864" lon="10.404939"><ele>392</ele></trkpt>
            <trkpt lat="51.636997" lon="10.405096"><ele>395</ele></trkpt>
            <trkpt lat="51.637201" lon="10.40528"><ele>392.7</ele></trkpt>
            <trkpt lat="51.637311" lon="10.405455"><ele>393</ele></trkpt>
            <trkpt lat="51.637417" lon="10.405755"><ele>393.2</ele></trkpt>
            <trkpt lat="51.63755" lon="10.40601"><ele>392.7</ele></trkpt>
            <trkpt lat="51.637846" lon="10.406335"><ele>392.3</ele></trkpt>
            <trkpt lat="51.638044" lon="10.406523"><ele>391.6</ele></trkpt>
            <trkpt lat="51.638238" lon="10.40665"><ele>389</ele></trkpt>
            <trkpt lat="51.638397" lon="10.406766"><ele>393</ele></trkpt>
            <trkpt lat="51.638471" lon="10.406884"><ele>395</ele></trkpt>
            <trkpt lat="51.638607" lon="10.407447"><ele>395</ele></trkpt>
            <trkpt lat="51.638871" lon="10.408813"><ele>395</ele></trkpt>
            <trkpt lat="51.638922" lon="10.409359"><ele>396.1</ele></trkpt>
            <trkpt lat="51.638886" lon="10.409678"><ele>396.4</ele></trkpt>
            <trkpt lat="51.638899" lon="10.40995"><ele>396.4</ele></trkpt>
            <trkpt lat="51.639" lon="10.410197"><ele>396.6</ele></trkpt>
            <trkpt lat="51.639143" lon="10.410468"><ele>397.3</ele></trkpt>
            <trkpt lat="51.639466" lon="10.411391"><ele>399.3</ele></trkpt>
            <trkpt lat="51.639811" lon="10.413344"><ele>403</ele></trkpt>
            <trkpt lat="51.639892" lon="10.413608"><ele>403</ele></trkpt>
            <trkpt lat="51.639977" lon="10.413885"><ele>403</ele></trkpt>
            <trkpt lat="51.640999" lon="10.415863"><ele>420</ele></trkpt>
            <trkpt lat="51.641092" lon="10.415812"><ele>419.9</ele></trkpt>
            <trkpt lat="51.641249" lon="10.415841"><ele>419.8</ele></trkpt>
            <trkpt lat="51.641344" lon="10.415908"><ele>419.9</ele></trkpt>
            <trkpt lat="51.641662" lon="10.416205"><ele>419.8</ele></trkpt>
            <trkpt lat="51.641815" lon="10.416285"><ele>419.9</ele></trkpt>
            <trkpt lat="51.641881" lon="10.416287"><ele>420</ele></trkpt>
            <trkpt lat="51.642129" lon="10.416198"><ele>420.6</ele></trkpt>
            <trkpt lat="51.642517" lon="10.416214"><ele>420.5</ele></trkpt>
            <trkpt lat="51.642603" lon="10.416245"><ele>419.9</ele></trkpt>
            <trkpt lat="51.64293" lon="10.416517"><ele>418.8</ele></trkpt>
            <trkpt lat="51.643317" lon="10.416688"><ele>427</ele></trkpt>
            <trkpt lat="51.643408" lon="10.416825"><ele>408</ele></trkpt>
            <trkpt lat="51.643412" lon="10.416961"><ele>414.7</ele></trkpt>
            <trkpt lat="51.643157" lon="10.418888"><ele>426.2</ele></trkpt>
            <trkpt lat="51.643043" lon="10.420059"><ele>442</ele></trkpt>
            <trkpt lat="51.643082" lon="10.420648"><ele>425.6</ele></trkpt>
            <trkpt lat="51.64318" lon="10.421349"><ele>427.3</ele></trkpt>
            <trkpt lat="51.643428" lon="10.42256"><ele>391</ele></trkpt>
            <trkpt lat="51.643501" lon="10.422475"><ele>394</ele></trkpt>
            <trkpt lat="51.643771" lon="10.422512"><ele>391</ele></trkpt>
            <trkpt lat="51.644014" lon="10.422013"><ele>388.8</ele></trkpt>
            <trkpt lat="51.644128" lon="10.421827"><ele>388.1</ele></trkpt>
            <trkpt lat="51.644268" lon="10.421674"><ele>387.4</ele></trkpt>
            <trkpt lat="51.644675" lon="10.421395"><ele>387.1</ele></trkpt>
            <trkpt lat="51.644771" lon="10.421393"><ele>387.4</ele></trkpt>
            <trkpt lat="51.644967" lon="10.421467"><ele>385</ele></trkpt>
            <trkpt lat="51.645166" lon="10.421524"><ele>390.4</ele></trkpt>
            <trkpt lat="51.645291" lon="10.421516"><ele>389.9</ele></trkpt>
            <trkpt lat="51.645408" lon="10.421453"><ele>389.4</ele></trkpt>
            <trkpt lat="51.64568" lon="10.42123"><ele>389.2</ele></trkpt>
            <trkpt lat="51.64582" lon="10.42108"><ele>389.4</ele></trkpt>
            <trkpt lat="51.64615" lon="10.420621"><ele>387.1</ele></trkpt>
            <trkpt lat="51.646229" lon="10.420547"><ele>387</ele></trkpt>
            <trkpt lat="51.646296" lon="10.420528"><ele>386.9</ele></trkpt>
            <trkpt lat="51.646513" lon="10.420541"><ele>386.9</ele></trkpt>
            <trkpt lat="51.646611" lon="10.420464"><ele>386.9</ele></trkpt>
            <trkpt lat="51.646793" lon="10.420245"><ele>387.1</ele></trkpt>
            <trkpt lat="51.646876" lon="10.420174"><ele>386.5</ele></trkpt>
            <trkpt lat="51.646924" lon="10.420079"><ele>387.1</ele></trkpt>
            <trkpt lat="51.646978" lon="10.41965"><ele>387</ele></trkpt>
            <trkpt lat="51.647137" lon="10.419322"><ele>387.6</ele></trkpt>
            <trkpt lat="51.64718" lon="10.419255"><ele>387.9</ele></trkpt>
            <trkpt lat="51.647257" lon="10.419206"><ele>388.2</ele></trkpt>
            <trkpt lat="51.647338" lon="10.419202"><ele>388.5</ele></trkpt>
            <trkpt lat="51.647536" lon="10.419309"><ele>389.7</ele></trkpt>
            <trkpt lat="51.647645" lon="10.419432"><ele>389.8</ele></trkpt>
            <trkpt lat="51.64825" lon="10.420254"><ele>393.8</ele></trkpt>
            <trkpt lat="51.648396" lon="10.42055"><ele>398.7</ele></trkpt>
            <trkpt lat="51.648626" lon="10.42094"><ele>403.6</ele></trkpt>
            <trkpt lat="51.648724" lon="10.421151"><ele>402.2</ele></trkpt>
            <trkpt lat="51.648773" lon="10.421371"><ele>412</ele></trkpt>
            <trkpt lat="51.648812" lon="10.422118"><ele>427</ele></trkpt>
            <trkpt lat="51.648846" lon="10.422334"><ele>426.9</ele></trkpt>
            <trkpt lat="51.64887" lon="10.422408"><ele>426.9</ele></trkpt>
            <trkpt lat="51.648962" lon="10.422539"><ele>426.7</ele></trkpt>
            <trkpt lat="51.649048" lon="10.422555"><ele>425.4</ele></trkpt>
            <trkpt lat="51.649203" lon="10.422539"><ele>424.3</ele></trkpt>
            <trkpt lat="51.649392" lon="10.422576"><ele>424.4</ele></trkpt>
            <trkpt lat="51.649832" lon="10.422723"><ele>425.1</ele></trkpt>
            <trkpt lat="51.650319" lon="10.422852"><ele>424.7</ele></trkpt>
            <trkpt lat="51.650605" lon="10.423038"><ele>426.2</ele></trkpt>
            <trkpt lat="51.650762" lon="10.423226"><ele>426.6</ele></trkpt>
            <trkpt lat="51.650811" lon="10.423259"><ele>426.7</ele></trkpt>
            <trkpt lat="51.650909" lon="10.423266"><ele>428.2</ele></trkpt>
            <trkpt lat="51.650992" lon="10.423236"><ele>435.9</ele></trkpt>
            <trkpt lat="51.65109" lon="10.423147"><ele>436.3</ele></trkpt>
            <trkpt lat="51.651218" lon="10.422968"><ele>437.3</ele></trkpt>
            <trkpt lat="51.651305" lon="10.422885"><ele>437.8</ele></trkpt>
            <trkpt lat="51.6514" lon="10.422851"><ele>438.4</ele></trkpt>
            <trkpt lat="51.651501" lon="10.422878"><ele>439.6</ele></trkpt>
            <trkpt lat="51.651573" lon="10.422932"><ele>442.1</ele></trkpt>
            <trkpt lat="51.651655" lon="10.423054"><ele>444.4</ele></trkpt>
            <trkpt lat="51.652115" lon="10.423907"><ele>456.3</ele></trkpt>
            <trkpt lat="51.652175" lon="10.424086"><ele>457.8</ele></trkpt>
            <trkpt lat="51.652191" lon="10.424179"><ele>458.1</ele></trkpt>
            <trkpt lat="51.652182" lon="10.424242"><ele>457.6</ele></trkpt>
            <trkpt lat="51.652167" lon="10.424304"><ele>458.8</ele></trkpt>
            <trkpt lat="51.651872" lon="10.424822"><ele>462.1</ele></trkpt>
            <trkpt lat="51.651791" lon="10.425011"><ele>470.5</ele></trkpt>
            <trkpt lat="51.651739" lon="10.425195"><ele>473.2</ele></trkpt>
            <trkpt lat="51.651707" lon="10.425394"><ele>476.1</ele></trkpt>
            <trkpt lat="51.651699" lon="10.425615"><ele>479.4</ele></trkpt>
            <trkpt lat="51.651691" lon="10.426321"><ele>494.5</ele></trkpt>
            <trkpt lat="51.6517" lon="10.426723"><ele>495.8</ele></trkpt>
            <trkpt lat="51.651718" lon="10.426847"><ele>495.6</ele></trkpt>
            <trkpt lat="51.651808" lon="10.427425"><ele>498.4</ele></trkpt>
            <trkpt lat="51.651847" lon="10.427565"><ele>499.4</ele></trkpt>
            <trkpt lat="51.652053" lon="10.427995"><ele>498.5</ele></trkpt>
            <trkpt lat="51.652104" lon="10.428052"><ele>498.2</ele></trkpt>
            <trkpt lat="51.652206" lon="10.428036"><ele>497.4</ele></trkpt>
            <trkpt lat="51.652546" lon="10.427485"><ele>495.2</ele></trkpt>
            <trkpt lat="51.652632" lon="10.427417"><ele>495.6</ele></trkpt>
            <trkpt lat="51.653266" lon="10.427436"><ele>500</ele></trkpt>
            <trkpt lat="51.653505" lon="10.427507"><ele>503.3</ele></trkpt>
            <trkpt lat="51.653629" lon="10.427594"><ele>505.1</ele></trkpt>
            <trkpt lat="51.653811" lon="10.427769"><ele>508.7</ele></trkpt>
            <trkpt lat="51.654072" lon="10.428066"><ele>516.5</ele></trkpt>
            <trkpt lat="51.654272" lon="10.428358"><ele>518.5</ele></trkpt>
            <trkpt lat="51.654739" lon="10.429194"><ele>529</ele></trkpt>
            <trkpt lat="51.654979" lon="10.429439"><ele>529.1</ele></trkpt>
            <trkpt lat="51.655416" lon="10.429796"><ele>529.8</ele></trkpt>
            <trkpt lat="51.655505" lon="10.429839"><ele>529.8</ele></trkpt>
            <trkpt lat="51.655596" lon="10.429857"><ele>529.9</ele></trkpt>
            <trkpt lat="51.655824" lon="10.429825"><ele>530.5</ele></trkpt>
            <trkpt lat="51.656152" lon="10.429745"><ele>530.9</ele></trkpt>
            <trkpt lat="51.656251" lon="10.429784"><ele>534</ele></trkpt>
            <trkpt lat="51.656304" lon="10.429856"><ele>548</ele></trkpt>
            <trkpt lat="51.656327" lon="10.429941"><ele>549.6</ele></trkpt>
            <trkpt lat="51.656357" lon="10.430475"><ele>554.2</ele></trkpt>
            <trkpt lat="51.656389" lon="10.430756"><ele>556.2</ele></trkpt>
            <trkpt lat="51.656449" lon="10.431041"><ele>558.1</ele></trkpt>
            <trkpt lat="51.656669" lon="10.431635"><ele>561.2</ele></trkpt>
            <trkpt lat="51.65689" lon="10.432044"><ele>568.9</ele></trkpt>
            <trkpt lat="51.65695" lon="10.432187"><ele>573.3</ele></trkpt>
            <trkpt lat="51.657006" lon="10.43253"><ele>576.3</ele></trkpt>
            <trkpt lat="51.657029" lon="10.432871"><ele>577.9</ele></trkpt>
            <trkpt lat="51.657026" lon="10.433359"><ele>579.3</ele></trkpt>
            <trkpt lat="51.657051" lon="10.433551"><ele>579.9</ele></trkpt>
            <trkpt lat="51.657102" lon="10.433744"><ele>580.4</ele></trkpt>
            <trkpt lat="51.657196" lon="10.43399"><ele>579.8</ele></trkpt>
            <trkpt lat="51.657301" lon="10.434151"><ele>579.9</ele></trkpt>
            <trkpt lat="51.657603" lon="10.43431"><ele>580.6</ele></trkpt>
            <trkpt lat="51.6578" lon="10.434367"><ele>581</ele></trkpt>
            <trkpt lat="51.658049" lon="10.434397"><ele>581.7</ele></trkpt>
            <trkpt lat="51.658199" lon="10.434494"><ele>582.6</ele></trkpt>
            <trkpt lat="51.65826" lon="10.434566"><ele>583</ele></trkpt>
            <trkpt lat="51.658524" lon="10.435143"><ele>585.7</ele></trkpt>
            <trkpt lat="51.658591" lon="10.435246"><ele>585.5</ele></trkpt>
            <trkpt lat="51.658963" lon="10.435673"><ele>586.4</ele></trkpt>
            <trkpt lat="51.65917" lon="10.435961"><ele>585.7</ele></trkpt>
            <trkpt lat="51.659352" lon="10.436153"><ele>585.4</ele></trkpt>
            <trkpt lat="51.65947" lon="10.436228"><ele>584.6</ele></trkpt>
            <trkpt lat="51.659588" lon="10.436232"><ele>583.8</ele></trkpt>
            <trkpt lat="51.659694" lon="10.436201"><ele>584.5</ele></trkpt>
            <trkpt lat="51.659924" lon="10.436047"><ele>584.5</ele></trkpt>
            <trkpt lat="51.660245" lon="10.435766"><ele>583.5</ele></trkpt>
            <trkpt lat="51.660416" lon="10.435564"><ele>583.8</ele></trkpt>
            <trkpt lat="51.66057" lon="10.435471"><ele>584.6</ele></trkpt>
            <trkpt lat="51.660672" lon="10.435472"><ele>585</ele></trkpt>
            <trkpt lat="51.660795" lon="10.43552"><ele>585.7</ele></trkpt>
            <trkpt lat="51.660992" lon="10.435682"><ele>586</ele></trkpt>
            <trkpt lat="51.661093" lon="10.435799"><ele>593</ele></trkpt>
            <trkpt lat="51.66164" lon="10.435448"><ele>609.5</ele></trkpt>
            <trkpt lat="51.661834" lon="10.435198"><ele>611.8</ele></trkpt>
            <trkpt lat="51.662066" lon="10.435091"><ele>613.3</ele></trkpt>
            <trkpt lat="51.662144" lon="10.435071"><ele>614.1</ele></trkpt>
            <trkpt lat="51.662471" lon="10.435193"><ele>617.8</ele></trkpt>
            <trkpt lat="51.662782" lon="10.435199"><ele>619</ele></trkpt>
            <trkpt lat="51.662921" lon="10.435253"><ele>618.9</ele></trkpt>
            <trkpt lat="51.663001" lon="10.435309"><ele>619.2</ele></trkpt>
            <trkpt lat="51.663261" lon="10.435366"><ele>620.1</ele></trkpt>
            <trkpt lat="51.663599" lon="10.435195"><ele>620.7</ele></trkpt>
            <trkpt lat="51.663751" lon="10.435074"><ele>627</ele></trkpt>
            <trkpt lat="51.663973" lon="10.434682"><ele>614.3</ele></trkpt>
            <trkpt lat="51.664182" lon="10.434426"><ele>616.2</ele></trkpt>
            <trkpt lat="51.664351" lon="10.434064"><ele>615.7</ele></trkpt>
            <trkpt lat="51.664487" lon="10.433887"><ele>616.4</ele></trkpt>
            <trkpt lat="51.664941" lon="10.433488"><ele>616.9</ele></trkpt>
            <trkpt lat="51.66511" lon="10.433274"><ele>617.2</ele></trkpt>
            <trkpt lat="51.66564" lon="10.432164"><ele>614</ele></trkpt>
            <trkpt lat="51.665677" lon="10.432028"><ele>614</ele></trkpt>
            <trkpt lat="51.665715" lon="10.431914"><ele>614</ele></trkpt>
            <trkpt lat="51.665817" lon="10.431837"><ele>614</ele></trkpt>
            <trkpt lat="51.665831" lon="10.43169"><ele>614</ele></trkpt>
            <trkpt lat="51.665924" lon="10.431566"><ele>638.4</ele></trkpt>
            <trkpt lat="51.665914" lon="10.431383"><ele>638.7</ele></trkpt>
            <trkpt lat="51.666019" lon="10.431215"><ele>639.4</ele></trkpt>
            <trkpt lat="51.666163" lon="10.43112"><ele>639.8</ele></trkpt>
            <trkpt lat="51.666376" lon="10.431055"><ele>640.7</ele></trkpt>
            <trkpt lat="51.666518" lon="10.430924"><ele>641.7</ele></trkpt>
            <trkpt lat="51.666849" lon="10.430944"><ele>642.2</ele></trkpt>
            <trkpt lat="51.666926" lon="10.431022"><ele>641.4</ele></trkpt>
            <trkpt lat="51.667041" lon="10.431079"><ele>640.6</ele></trkpt>
            <trkpt lat="51.66712" lon="10.431092"><ele>654</ele></trkpt>
            <trkpt lat="51.667148" lon="10.431058"><ele>663</ele></trkpt>
            <trkpt lat="51.667446" lon="10.431098"><ele>661.9</ele></trkpt>
            <trkpt lat="51.667601" lon="10.431071"><ele>662.7</ele></trkpt>
            <trkpt lat="51.667716" lon="10.430995"><ele>663.4</ele></trkpt>
            <trkpt lat="51.667806" lon="10.430842"><ele>664.3</ele></trkpt>
            <trkpt lat="51.667787" lon="10.430693"><ele>665.4</ele></trkpt>
            <trkpt lat="51.66775" lon="10.430615"><ele>665.9</ele></trkpt>
            <trkpt lat="51.667584" lon="10.430392"><ele>666.9</ele></trkpt>
            <trkpt lat="51.667408" lon="10.430104"><ele>666.3</ele></trkpt>
            <trkpt lat="51.667584" lon="10.430392"><ele>666.9</ele></trkpt>
            <trkpt lat="51.66775" lon="10.430615"><ele>665.9</ele></trkpt>
            <trkpt lat="51.667787" lon="10.430693"><ele>665.4</ele></trkpt>
            <trkpt lat="51.667806" lon="10.430842"><ele>664.3</ele></trkpt>
            <trkpt lat="51.667716" lon="10.430995"><ele>663.4</ele></trkpt>
            <trkpt lat="51.667601" lon="10.431071"><ele>662.7</ele></trkpt>
            <trkpt lat="51.667446" lon="10.431098"><ele>661.9</ele></trkpt>
            <trkpt lat="51.667148" lon="10.431058"><ele>663</ele></trkpt>
            <trkpt lat="51.66712" lon="10.431092"><ele>654</ele></trkpt>
            <trkpt lat="51.667041" lon="10.431079"><ele>640.6</ele></trkpt>
            <trkpt lat="51.666926" lon="10.431022"><ele>641.4</ele></trkpt>
            <trkpt lat="51.666849" lon="10.430944"><ele>642.2</ele></trkpt>
            <trkpt lat="51.666518" lon="10.430924"><ele>641.7</ele></trkpt>
            <trkpt lat="51.666376" lon="10.431055"><ele>640.7</ele></trkpt>
            <trkpt lat="51.666163" lon="10.43112"><ele>639.8</ele></trkpt>
            <trkpt lat="51.666019" lon="10.431215"><ele>639.4</ele></trkpt>
            <trkpt lat="51.665914" lon="10.431383"><ele>638.7</ele></trkpt>
            <trkpt lat="51.665924" lon="10.431566"><ele>638.4</ele></trkpt>
            <trkpt lat="51.665831" lon="10.43169"><ele>614</ele></trkpt>
            <trkpt lat="51.665817" lon="10.431837"><ele>614</ele></trkpt>
            <trkpt lat="51.665715" lon="10.431914"><ele>614</ele></trkpt>
            <trkpt lat="51.665677" lon="10.432028"><ele>614</ele></trkpt>
            <trkpt lat="51.66564" lon="10.432164"><ele>614</ele></trkpt>
            <trkpt lat="51.66511" lon="10.433274"><ele>617.2</ele></trkpt>
            <trkpt lat="51.664941" lon="10.433488"><ele>616.9</ele></trkpt>
            <trkpt lat="51.664487" lon="10.433887"><ele>616.4</ele></trkpt>
            <trkpt lat="51.664351" lon="10.434064"><ele>615.7</ele></trkpt>
            <trkpt lat="51.664182" lon="10.434426"><ele>616.2</ele></trkpt>
            <trkpt lat="51.663973" lon="10.434682"><ele>614.3</ele></trkpt>
            <trkpt lat="51.663751" lon="10.435074"><ele>627</ele></trkpt>
            <trkpt lat="51.663599" lon="10.435195"><ele>620.7</ele></trkpt>
            <trkpt lat="51.663261" lon="10.435366"><ele>620.1</ele></trkpt>
            <trkpt lat="51.663001" lon="10.435309"><ele>619.2</ele></trkpt>
            <trkpt lat="51.662921" lon="10.435253"><ele>618.9</ele></trkpt>
            <trkpt lat="51.662782" lon="10.435199"><ele>619</ele></trkpt>
            <trkpt lat="51.662471" lon="10.435193"><ele>617.8</ele></trkpt>
            <trkpt lat="51.662144" lon="10.435071"><ele>614.1</ele></trkpt>
            <trkpt lat="51.662066" lon="10.435091"><ele>613.3</ele></trkpt>
            <trkpt lat="51.661834" lon="10.435198"><ele>611.8</ele></trkpt>
            <trkpt lat="51.66164" lon="10.435448"><ele>609.5</ele></trkpt>
            <trkpt lat="51.661093" lon="10.435799"><ele>593</ele></trkpt>
            <trkpt lat="51.661031" lon="10.435851"><ele>596.4</ele></trkpt>
            <trkpt lat="51.66073" lon="10.43595"><ele>595.6</ele></trkpt>
            <trkpt lat="51.66048" lon="10.436226"><ele>597.1</ele></trkpt>
            <trkpt lat="51.660189" lon="10.436453"><ele>600.1</ele></trkpt>
            <trkpt lat="51.659578" lon="10.436667"><ele>602.7</ele></trkpt>
            <trkpt lat="51.65934" lon="10.436776"><ele>602.5</ele></trkpt>
            <trkpt lat="51.659172" lon="10.436802"><ele>602.1</ele></trkpt>
            <trkpt lat="51.658986" lon="10.436736"><ele>601</ele></trkpt>
            <trkpt lat="51.658821" lon="10.436619"><ele>600.3</ele></trkpt>
            <trkpt lat="51.658464" lon="10.436457"><ele>600.5</ele></trkpt>
            <trkpt lat="51.658216" lon="10.436159"><ele>600.9</ele></trkpt>
            <trkpt lat="51.658024" lon="10.435828"><ele>601</ele></trkpt>
            <trkpt lat="51.657831" lon="10.435587"><ele>601.1</ele></trkpt>
            <trkpt lat="51.65756" lon="10.435372"><ele>601.4</ele></trkpt>
            <trkpt lat="51.657378" lon="10.43528"><ele>601.7</ele></trkpt>
            <trkpt lat="51.657176" lon="10.43531"><ele>601.7</ele></trkpt>
            <trkpt lat="51.657008" lon="10.435381"><ele>603</ele></trkpt>
            <trkpt lat="51.656482" lon="10.435321"><ele>606.5</ele></trkpt>
            <trkpt lat="51.656266" lon="10.435337"><ele>603.8</ele></trkpt>
            <trkpt lat="51.655855" lon="10.435577"><ele>601.1</ele></trkpt>
            <trkpt lat="51.655561" lon="10.435717"><ele>600</ele></trkpt>
            <trkpt lat="51.655161" lon="10.435826"><ele>598.5</ele></trkpt>
            <trkpt lat="51.654994" lon="10.435953"><ele>598.4</ele></trkpt>
            <trkpt lat="51.654803" lon="10.436018"><ele>598.3</ele></trkpt>
            <trkpt lat="51.654657" lon="10.436109"><ele>596</ele></trkpt>
            <trkpt lat="51.654541" lon="10.436275"><ele>599.4</ele></trkpt>
            <trkpt lat="51.654442" lon="10.436674"><ele>599.4</ele></trkpt>
            <trkpt lat="51.654313" lon="10.437008"><ele>598.9</ele></trkpt>
            <trkpt lat="51.654226" lon="10.437184"><ele>598.4</ele></trkpt>
            <trkpt lat="51.654148" lon="10.437568"><ele>596.5</ele></trkpt>
            <trkpt lat="51.654057" lon="10.437778"><ele>595.4</ele></trkpt>
            <trkpt lat="51.653804" lon="10.438203"><ele>593.7</ele></trkpt>
            <trkpt lat="51.653672" lon="10.438497"><ele>592</ele></trkpt>
            <trkpt lat="51.653592" lon="10.4388"><ele>589.9</ele></trkpt>
            <trkpt lat="51.653473" lon="10.439011"><ele>586.2</ele></trkpt>
            <trkpt lat="51.65332" lon="10.439254"><ele>585.5</ele></trkpt>
            <trkpt lat="51.653153" lon="10.439377"><ele>585.4</ele></trkpt>
            <trkpt lat="51.65271" lon="10.439545"><ele>584.9</ele></trkpt>
            <trkpt lat="51.652467" lon="10.439679"><ele>584.7</ele></trkpt>
            <trkpt lat="51.65183" lon="10.440755"><ele>590</ele></trkpt>
            <trkpt lat="51.651442" lon="10.441759"><ele>571.9</ele></trkpt>
            <trkpt lat="51.651396" lon="10.441838"><ele>572.7</ele></trkpt>
            <trkpt lat="51.651333" lon="10.441895"><ele>573.6</ele></trkpt>
            <trkpt lat="51.651275" lon="10.441874"><ele>567</ele></trkpt>
            <trkpt lat="51.650999" lon="10.441299"><ele>562.4</ele></trkpt>
            <trkpt lat="51.650818" lon="10.440995"><ele>560.5</ele></trkpt>
            <trkpt lat="51.650389" lon="10.440523"><ele>560</ele></trkpt>
            <trkpt lat="51.650005" lon="10.440199"><ele>551.7</ele></trkpt>
            <trkpt lat="51.649797" lon="10.440073"><ele>550.3</ele></trkpt>
            <trkpt lat="51.649527" lon="10.439994"><ele>545.9</ele></trkpt>
            <trkpt lat="51.648443" lon="10.43993"><ele>537.9</ele></trkpt>
            <trkpt lat="51.648303" lon="10.439881"><ele>537.7</ele></trkpt>
            <trkpt lat="51.647944" lon="10.439637"><ele>529</ele></trkpt>
            <trkpt lat="51.647786" lon="10.43964"><ele>528.8</ele></trkpt>
            <trkpt lat="51.646534" lon="10.440317"><ele>522.8</ele></trkpt>
            <trkpt lat="51.646133" lon="10.44037"><ele>519.5</ele></trkpt>
            <trkpt lat="51.645668" lon="10.440625"><ele>512.9</ele></trkpt>
            <trkpt lat="51.645374" lon="10.440622"><ele>512.9</ele></trkpt>
            <trkpt lat="51.645102" lon="10.440718"><ele>503.8</ele></trkpt>
            <trkpt lat="51.644569" lon="10.440985"><ele>497.6</ele></trkpt>
            <trkpt lat="51.644037" lon="10.441294"><ele>491.9</ele></trkpt>
            <trkpt lat="51.64385" lon="10.44145"><ele>493.1</ele></trkpt>
            <trkpt lat="51.643791" lon="10.441457"><ele>486</ele></trkpt>
            <trkpt lat="51.643551" lon="10.441755"><ele>489</ele></trkpt>
            <trkpt lat="51.643445" lon="10.442214"><ele>489</ele></trkpt>
            <trkpt lat="51.643384" lon="10.44254"><ele>489</ele></trkpt>
            <trkpt lat="51.643306" lon="10.442899"><ele>480.6</ele></trkpt>
            <trkpt lat="51.643132" lon="10.443905"><ele>481.3</ele></trkpt>
            <trkpt lat="51.643075" lon="10.44412"><ele>481.5</ele></trkpt>
            <trkpt lat="51.642957" lon="10.444375"><ele>481.6</ele></trkpt>
            <trkpt lat="51.642781" lon="10.444889"><ele>479</ele></trkpt>
            <trkpt lat="51.642625" lon="10.44528"><ele>461.2</ele></trkpt>
            <trkpt lat="51.642285" lon="10.44626"><ele>457.3</ele></trkpt>
            <trkpt lat="51.642053" lon="10.447198"><ele>454.7</ele></trkpt>
            <trkpt lat="51.641949" lon="10.447371"><ele>453</ele></trkpt>
            <trkpt lat="51.641713" lon="10.447677"><ele>448.9</ele></trkpt>
            <trkpt lat="51.64151" lon="10.447994"><ele>443.7</ele></trkpt>
            <trkpt lat="51.640961" lon="10.448521"><ele>436.8</ele></trkpt>
            <trkpt lat="51.64081" lon="10.448758"><ele>433.6</ele></trkpt>
            <trkpt lat="51.640507" lon="10.449006"><ele>432.3</ele></trkpt>
            <trkpt lat="51.640382" lon="10.449076"><ele>433</ele></trkpt>
            <trkpt lat="51.640028" lon="10.449545"><ele>431</ele></trkpt>
            <trkpt lat="51.640024" lon="10.449645"><ele>431</ele></trkpt>
            <trkpt lat="51.639975" lon="10.449639"><ele>428</ele></trkpt>
            <trkpt lat="51.639921" lon="10.449565"><ele>428.3</ele></trkpt>
            <trkpt lat="51.639893" lon="10.449479"><ele>427</ele></trkpt>
            <trkpt lat="51.639723" lon="10.449535"><ele>427</ele></trkpt>
            <trkpt lat="51.639585" lon="10.449434"><ele>423.3</ele></trkpt>
            <trkpt lat="51.63937" lon="10.449408"><ele>422.3</ele></trkpt>
            <trkpt lat="51.639078" lon="10.449498"><ele>412</ele></trkpt>
            <trkpt lat="51.63856" lon="10.449919"><ele>414.4</ele></trkpt>
            <trkpt lat="51.638319" lon="10.450065"><ele>414.9</ele></trkpt>
            <trkpt lat="51.637848" lon="10.450436"><ele>415.3</ele></trkpt>
            <trkpt lat="51.637706" lon="10.450782"><ele>416</ele></trkpt>
            <trkpt lat="51.637562" lon="10.4508"><ele>412.1</ele></trkpt>
            <trkpt lat="51.637413" lon="10.450869"><ele>413.3</ele></trkpt>
            <trkpt lat="51.637135" lon="10.450954"><ele>413.8</ele></trkpt>
            <trkpt lat="51.636955" lon="10.45106"><ele>414.3</ele></trkpt>
            <trkpt lat="51.636849" lon="10.451183"><ele>414.7</ele></trkpt>
            <trkpt lat="51.636637" lon="10.452458"><ele>410.2</ele></trkpt>
            <trkpt lat="51.636542" lon="10.452707"><ele>405.8</ele></trkpt>
            <trkpt lat="51.636399" lon="10.453237"><ele>402.3</ele></trkpt>
            <trkpt lat="51.636189" lon="10.453546"><ele>400</ele></trkpt>
            <trkpt lat="51.636065" lon="10.454369"><ele>397.9</ele></trkpt>
            <trkpt lat="51.635989" lon="10.454659"><ele>385</ele></trkpt>
            <trkpt lat="51.635918" lon="10.454726"><ele>384.4</ele></trkpt>
            <trkpt lat="51.635482" lon="10.456413"><ele>373</ele></trkpt>
            <trkpt lat="51.635598" lon="10.456241"><ele>369.4</ele></trkpt>
            <trkpt lat="51.635808" lon="10.455622"><ele>372.6</ele></trkpt>
            <trkpt lat="51.635924" lon="10.455552"><ele>371.8</ele></trkpt>
            <trkpt lat="51.636047" lon="10.455621"><ele>371.1</ele></trkpt>
            <trkpt lat="51.636129" lon="10.455779"><ele>370.4</ele></trkpt>
            <trkpt lat="51.636216" lon="10.456021"><ele>354</ele></trkpt>
            <trkpt lat="51.636167" lon="10.456126"><ele>350.8</ele></trkpt>
            <trkpt lat="51.636179" lon="10.456288"><ele>350.3</ele></trkpt>
            <trkpt lat="51.636136" lon="10.456438"><ele>349.9</ele></trkpt>
            <trkpt lat="51.636065" lon="10.456524"><ele>349.4</ele></trkpt>
            <trkpt lat="51.635945" lon="10.456771"><ele>348.1</ele></trkpt>
            <trkpt lat="51.635918" lon="10.456858"><ele>341</ele></trkpt>
            <trkpt lat="51.635941" lon="10.456988"><ele>341</ele></trkpt>
            <trkpt lat="51.635993" lon="10.457144"><ele>341</ele></trkpt>
            <trkpt lat="51.636187" lon="10.457435"><ele>341</ele></trkpt>
            <trkpt lat="51.636229" lon="10.457461"><ele>341</ele></trkpt>
            <trkpt lat="51.636261" lon="10.457519"><ele>331.4</ele></trkpt>
            <trkpt lat="51.636302" lon="10.457735"><ele>327</ele></trkpt>
            <trkpt lat="51.636392" lon="10.457789"><ele>327</ele></trkpt>
            <trkpt lat="51.636224" lon="10.458079"><ele>327</ele></trkpt>
            <trkpt lat="51.636112" lon="10.458196"><ele>327</ele></trkpt>
            <trkpt lat="51.635884" lon="10.459122"><ele>313</ele></trkpt>
            <trkpt lat="51.635934" lon="10.459431"><ele>314</ele></trkpt>
            <trkpt lat="51.635894" lon="10.459642"><ele>314</ele></trkpt>
            <trkpt lat="51.635879" lon="10.459855"><ele>314</ele></trkpt>
            <trkpt lat="51.636223" lon="10.460067"><ele>316</ele></trkpt>
            <trkpt lat="51.636132" lon="10.460237"><ele>320.5</ele></trkpt>
            <trkpt lat="51.635507" lon="10.460691"><ele>318.6</ele></trkpt>
            <trkpt lat="51.635314" lon="10.46087"><ele>320.5</ele></trkpt>
            <trkpt lat="51.635184" lon="10.460934"><ele>332</ele></trkpt>
            <trkpt lat="51.634846" lon="10.461054"><ele>320</ele></trkpt>
            <trkpt lat="51.634653" lon="10.461179"><ele>320</ele></trkpt>
            <trkpt lat="51.634515" lon="10.461362"><ele>320</ele></trkpt>
            <trkpt lat="51.634495" lon="10.462019"><ele>336.2</ele></trkpt>
            <trkpt lat="51.634347" lon="10.462628"><ele>338.2</ele></trkpt>
            <trkpt lat="51.63424" lon="10.462847"><ele>338.3</ele></trkpt>
            <trkpt lat="51.634121" lon="10.463248"><ele>338.7</ele></trkpt>
            <trkpt lat="51.63416" lon="10.463562"><ele>341.6</ele></trkpt>
            <trkpt lat="51.634175" lon="10.463849"><ele>342.2</ele></trkpt>
            <trkpt lat="51.63428" lon="10.464165"><ele>343.9</ele></trkpt>
            <trkpt lat="51.634386" lon="10.46433"><ele>351</ele></trkpt>
            <trkpt lat="51.634553" lon="10.464285"><ele>351</ele></trkpt>
            <trkpt lat="51.635104" lon="10.464146"><ele>378.8</ele></trkpt>
            <trkpt lat="51.635352" lon="10.464196"><ele>379.3</ele></trkpt>
            <trkpt lat="51.635587" lon="10.464317"><ele>383.6</ele></trkpt>
            <trkpt lat="51.635869" lon="10.464542"><ele>389.9</ele></trkpt>
            <trkpt lat="51.636052" lon="10.464594"><ele>397</ele></trkpt>
            <trkpt lat="51.636305" lon="10.46461"><ele>402.1</ele></trkpt>
            <trkpt lat="51.636756" lon="10.464583"><ele>407.1</ele></trkpt>
            <trkpt lat="51.637101" lon="10.464808"><ele>408.7</ele></trkpt>
            <trkpt lat="51.637324" lon="10.464753"><ele>409.1</ele></trkpt>
            <trkpt lat="51.637417" lon="10.464818"><ele>409.8</ele></trkpt>
            <trkpt lat="51.63753" lon="10.465045"><ele>418</ele></trkpt>
            <trkpt lat="51.637706" lon="10.465265"><ele>418</ele></trkpt>
            <trkpt lat="51.638" lon="10.465482"><ele>418</ele></trkpt>
            <trkpt lat="51.638253" lon="10.465744"><ele>418</ele></trkpt>
            <trkpt lat="51.638308" lon="10.465797"><ele>418</ele></trkpt>
            <trkpt lat="51.638351" lon="10.465939"><ele>439</ele></trkpt>
            <trkpt lat="51.638442" lon="10.466229"><ele>448.1</ele></trkpt>
            <trkpt lat="51.638586" lon="10.466889"><ele>450.9</ele></trkpt>
            <trkpt lat="51.638781" lon="10.467413"><ele>449.4</ele></trkpt>
            <trkpt lat="51.638798" lon="10.467519"><ele>452</ele></trkpt>
            <trkpt lat="51.639397" lon="10.467612"><ele>471</ele></trkpt>
            <trkpt lat="51.639824" lon="10.467844"><ele>476.6</ele></trkpt>
            <trkpt lat="51.640014" lon="10.468057"><ele>478.5</ele></trkpt>
            <trkpt lat="51.640211" lon="10.46821"><ele>486</ele></trkpt>
            <trkpt lat="51.640389" lon="10.468592"><ele>492</ele></trkpt>
            <trkpt lat="51.640448" lon="10.468945"><ele>493.7</ele></trkpt>
            <trkpt lat="51.640514" lon="10.469546"><ele>497</ele></trkpt>
            <trkpt lat="51.640675" lon="10.470072"><ele>495.3</ele></trkpt>
            <trkpt lat="51.64079" lon="10.470622"><ele>493.9</ele></trkpt>
            <trkpt lat="51.640918" lon="10.471498"><ele>524</ele></trkpt>
            <trkpt lat="51.640889" lon="10.47161"><ele>524.8</ele></trkpt>
            <trkpt lat="51.640885" lon="10.471797"><ele>525</ele></trkpt>
            <trkpt lat="51.640857" lon="10.471855"><ele>526</ele></trkpt>
            <trkpt lat="51.640839" lon="10.471895"><ele>526</ele></trkpt>
            <trkpt lat="51.640855" lon="10.471958"><ele>526</ele></trkpt>
            <trkpt lat="51.64082" lon="10.47222"><ele>514</ele></trkpt>
            <trkpt lat="51.640855" lon="10.471958"><ele>526</ele></trkpt>
            <trkpt lat="51.640839" lon="10.471895"><ele>526</ele></trkpt>
            <trkpt lat="51.640857" lon="10.471855"><ele>526</ele></trkpt>
            <trkpt lat="51.640885" lon="10.471797"><ele>525</ele></trkpt>
            <trkpt lat="51.640889" lon="10.47161"><ele>524.8</ele></trkpt>
            <trkpt lat="51.640918" lon="10.471498"><ele>524</ele></trkpt>
            <trkpt lat="51.64079" lon="10.470622"><ele>493.9</ele></trkpt>
            <trkpt lat="51.640675" lon="10.470072"><ele>495.3</ele></trkpt>
            <trkpt lat="51.640514" lon="10.469546"><ele>497</ele></trkpt>
            <trkpt lat="51.640448" lon="10.468945"><ele>493.7</ele></trkpt>
            <trkpt lat="51.640389" lon="10.468592"><ele>492</ele></trkpt>
            <trkpt lat="51.640211" lon="10.46821"><ele>486</ele></trkpt>
            <trkpt lat="51.640014" lon="10.468057"><ele>478.5</ele></trkpt>
            <trkpt lat="51.639824" lon="10.467844"><ele>476.6</ele></trkpt>
            <trkpt lat="51.639397" lon="10.467612"><ele>471</ele></trkpt>
            <trkpt lat="51.638798" lon="10.467519"><ele>452</ele></trkpt>
            <trkpt lat="51.638781" lon="10.467413"><ele>449.4</ele></trkpt>
            <trkpt lat="51.638586" lon="10.466889"><ele>450.9</ele></trkpt>
            <trkpt lat="51.638442" lon="10.466229"><ele>448.1</ele></trkpt>
            <trkpt lat="51.638351" lon="10.465939"><ele>439</ele></trkpt>
            <trkpt lat="51.638308" lon="10.465797"><ele>418</ele></trkpt>
            <trkpt lat="51.638253" lon="10.465744"><ele>418</ele></trkpt>
            <trkpt lat="51.638" lon="10.465482"><ele>418</ele></trkpt>
            <trkpt lat="51.637706" lon="10.465265"><ele>418</ele></trkpt>
            <trkpt lat="51.63753" lon="10.465045"><ele>418</ele></trkpt>
            <trkpt lat="51.637417" lon="10.464818"><ele>409.8</ele></trkpt>
            <trkpt lat="51.637324" lon="10.464753"><ele>409.1</ele></trkpt>
            <trkpt lat="51.637101" lon="10.464808"><ele>408.7</ele></trkpt>
            <trkpt lat="51.636756" lon="10.464583"><ele>407.1</ele></trkpt>
            <trkpt lat="51.636305" lon="10.46461"><ele>402.1</ele></trkpt>
            <trkpt lat="51.636052" lon="10.464594"><ele>397</ele></trkpt>
            <trkpt lat="51.635869" lon="10.464542"><ele>389.9</ele></trkpt>
            <trkpt lat="51.635587" lon="10.464317"><ele>383.6</ele></trkpt>
            <trkpt lat="51.635352" lon="10.464196"><ele>379.3</ele></trkpt>
            <trkpt lat="51.635104" lon="10.464146"><ele>378.8</ele></trkpt>
            <trkpt lat="51.634553" lon="10.464285"><ele>351</ele></trkpt>
            <trkpt lat="51.634386" lon="10.46433"><ele>351</ele></trkpt>
            <trkpt lat="51.63428" lon="10.464165"><ele>343.9</ele></trkpt>
            <trkpt lat="51.634175" lon="10.463849"><ele>342.2</ele></trkpt>
            <trkpt lat="51.63416" lon="10.463562"><ele>341.6</ele></trkpt>
            <trkpt lat="51.634121" lon="10.463248"><ele>338.7</ele></trkpt>
            <trkpt lat="51.63424" lon="10.462847"><ele>338.3</ele></trkpt>
            <trkpt lat="51.634347" lon="10.462628"><ele>338.2</ele></trkpt>
            <trkpt lat="51.634495" lon="10.462019"><ele>336.2</ele></trkpt>
            <trkpt lat="51.634515" lon="10.461362"><ele>320</ele></trkpt>
            <trkpt lat="51.634653" lon="10.461179"><ele>320</ele></trkpt>
            <trkpt lat="51.634846" lon="10.461054"><ele>320</ele></trkpt>
            <trkpt lat="51.635184" lon="10.460934"><ele>332</ele></trkpt>
            <trkpt lat="51.635314" lon="10.46087"><ele>320.5</ele></trkpt>
            <trkpt lat="51.635507" lon="10.460691"><ele>318.6</ele></trkpt>
            <trkpt lat="51.636132" lon="10.460237"><ele>320.5</ele></trkpt>
            <trkpt lat="51.636223" lon="10.460067"><ele>316</ele></trkpt>
            <trkpt lat="51.635879" lon="10.459855"><ele>314</ele></trkpt>
            <trkpt lat="51.635894" lon="10.459642"><ele>314</ele></trkpt>
            <trkpt lat="51.635934" lon="10.459431"><ele>314</ele></trkpt>
            <trkpt lat="51.635884" lon="10.459122"><ele>313</ele></trkpt>
            <trkpt lat="51.636112" lon="10.458196"><ele>327</ele></trkpt>
            <trkpt lat="51.636224" lon="10.458079"><ele>327</ele></trkpt>
            <trkpt lat="51.636392" lon="10.457789"><ele>327</ele></trkpt>
            <trkpt lat="51.636302" lon="10.457735"><ele>327</ele></trkpt>
            <trkpt lat="51.636261" lon="10.457519"><ele>331.4</ele></trkpt>
            <trkpt lat="51.636229" lon="10.457461"><ele>341</ele></trkpt>
            <trkpt lat="51.636187" lon="10.457435"><ele>341</ele></trkpt>
            <trkpt lat="51.635993" lon="10.457144"><ele>341</ele></trkpt>
            <trkpt lat="51.635941" lon="10.456988"><ele>341</ele></trkpt>
            <trkpt lat="51.635918" lon="10.456858"><ele>341</ele></trkpt>
            <trkpt lat="51.635945" lon="10.456771"><ele>348.1</ele></trkpt>
            <trkpt lat="51.636065" lon="10.456524"><ele>349.4</ele></trkpt>
            <trkpt lat="51.636136" lon="10.456438"><ele>349.9</ele></trkpt>
            <trkpt lat="51.636179" lon="10.456288"><ele>350.3</ele></trkpt>
            <trkpt lat="51.636167" lon="10.456126"><ele>350.8</ele></trkpt>
            <trkpt lat="51.636216" lon="10.456021"><ele>354</ele></trkpt>
            <trkpt lat="51.636129" lon="10.455779"><ele>370.4</ele></trkpt>
            <trkpt lat="51.636047" lon="10.455621"><ele>371.1</ele></trkpt>
            <trkpt lat="51.635924" lon="10.455552"><ele>371.8</ele></trkpt>
            <trkpt lat="51.635808" lon="10.455622"><ele>372.6</ele></trkpt>
            <trkpt lat="51.635598" lon="10.456241"><ele>369.4</ele></trkpt>
            <trkpt lat="51.635482" lon="10.456413"><ele>373</ele></trkpt>
            <trkpt lat="51.635918" lon="10.454726"><ele>384.4</ele></trkpt>
            <trkpt lat="51.635989" lon="10.454659"><ele>385</ele></trkpt>
            <trkpt lat="51.636065" lon="10.454369"><ele>397.9</ele></trkpt>
            <trkpt lat="51.636189" lon="10.453546"><ele>400</ele></trkpt>
            <trkpt lat="51.636399" lon="10.453237"><ele>402.3</ele></trkpt>
            <trkpt lat="51.636542" lon="10.452707"><ele>405.8</ele></trkpt>
            <trkpt lat="51.636637" lon="10.452458"><ele>410.2</ele></trkpt>
            <trkpt lat="51.636849" lon="10.451183"><ele>414.7</ele></trkpt>
            <trkpt lat="51.636955" lon="10.45106"><ele>414.3</ele></trkpt>
            <trkpt lat="51.637135" lon="10.450954"><ele>413.8</ele></trkpt>
            <trkpt lat="51.637413" lon="10.450869"><ele>413.3</ele></trkpt>
            <trkpt lat="51.637562" lon="10.4508"><ele>412.1</ele></trkpt>
            <trkpt lat="51.637706" lon="10.450782"><ele>416</ele></trkpt>
            <trkpt lat="51.637848" lon="10.450436"><ele>415.3</ele></trkpt>
            <trkpt lat="51.638319" lon="10.450065"><ele>414.9</ele></trkpt>
            <trkpt lat="51.63856" lon="10.449919"><ele>414.4</ele></trkpt>
            <trkpt lat="51.639078" lon="10.449498"><ele>412</ele></trkpt>
            <trkpt lat="51.63937" lon="10.449408"><ele>422.3</ele></trkpt>
            <trkpt lat="51.639585" lon="10.449434"><ele>423.3</ele></trkpt>
            <trkpt lat="51.639723" lon="10.449535"><ele>427</ele></trkpt>
            <trkpt lat="51.639893" lon="10.449479"><ele>427</ele></trkpt>
            <trkpt lat="51.639921" lon="10.449565"><ele>428.3</ele></trkpt>
            <trkpt lat="51.639975" lon="10.449639"><ele>428</ele></trkpt>
            <trkpt lat="51.640024" lon="10.449645"><ele>431</ele></trkpt>
            <trkpt lat="51.640028" lon="10.449545"><ele>431</ele></trkpt>
            <trkpt lat="51.640382" lon="10.449076"><ele>433</ele></trkpt>
            <trkpt lat="51.640507" lon="10.449006"><ele>432.3</ele></trkpt>
            <trkpt lat="51.64081" lon="10.448758"><ele>433.6</ele></trkpt>
            <trkpt lat="51.640961" lon="10.448521"><ele>436.8</ele></trkpt>
            <trkpt lat="51.64151" lon="10.447994"><ele>443.7</ele></trkpt>
            <trkpt lat="51.641713" lon="10.447677"><ele>448.9</ele></trkpt>
            <trkpt lat="51.641949" lon="10.447371"><ele>453</ele></trkpt>
            <trkpt lat="51.642053" lon="10.447198"><ele>454.7</ele></trkpt>
            <trkpt lat="51.642285" lon="10.44626"><ele>457.3</ele></trkpt>
            <trkpt lat="51.642625" lon="10.44528"><ele>461.2</ele></trkpt>
            <trkpt lat="51.642781" lon="10.444889"><ele>479</ele></trkpt>
            <trkpt lat="51.642957" lon="10.444375"><ele>481.6</ele></trkpt>
            <trkpt lat="51.643075" lon="10.44412"><ele>481.5</ele></trkpt>
            <trkpt lat="51.643132" lon="10.443905"><ele>481.3</ele></trkpt>
            <trkpt lat="51.643306" lon="10.442899"><ele>480.6</ele></trkpt>
            <trkpt lat="51.643376" lon="10.442577"><ele>484.8</ele></trkpt>
            <trkpt lat="51.643384" lon="10.44254"><ele>489</ele></trkpt>
            <trkpt lat="51.643246" lon="10.442468"><ele>480.3</ele></trkpt>
            <trkpt lat="51.643197" lon="10.442404"><ele>477</ele></trkpt>
            <trkpt lat="51.643116" lon="10.442271"><ele>470.2</ele></trkpt>
            <trkpt lat="51.642936" lon="10.441802"><ele>470.5</ele></trkpt>
            <trkpt lat="51.642788" lon="10.441466"><ele>468.9</ele></trkpt>
            <trkpt lat="51.642672" lon="10.441282"><ele>469.3</ele></trkpt>
            <trkpt lat="51.642531" lon="10.441121"><ele>468.6</ele></trkpt>
            <trkpt lat="51.642183" lon="10.440796"><ele>463.9</ele></trkpt>
            <trkpt lat="51.641968" lon="10.440668"><ele>460.8</ele></trkpt>
            <trkpt lat="51.641593" lon="10.440498"><ele>457.6</ele></trkpt>
            <trkpt lat="51.641393" lon="10.440447"><ele>454.4</ele></trkpt>
            <trkpt lat="51.641195" lon="10.440431"><ele>451.9</ele></trkpt>
            <trkpt lat="51.640903" lon="10.440517"><ele>449.4</ele></trkpt>
            <trkpt lat="51.640109" lon="10.440893"><ele>445.1</ele></trkpt>
            <trkpt lat="51.639809" lon="10.440991"><ele>443.1</ele></trkpt>
            <trkpt lat="51.639702" lon="10.440951"><ele>442</ele></trkpt>
            <trkpt lat="51.639421" lon="10.440747"><ele>440.7</ele></trkpt>
            <trkpt lat="51.639226" lon="10.440506"><ele>440</ele></trkpt>
            <trkpt lat="51.63913" lon="10.440299"><ele>458</ele></trkpt>
            <trkpt lat="51.639039" lon="10.440055"><ele>449.6</ele></trkpt>
            <trkpt lat="51.638774" lon="10.438261"><ele>445.5</ele></trkpt>
            <trkpt lat="51.638726" lon="10.438038"><ele>440.6</ele></trkpt>
            <trkpt lat="51.638672" lon="10.43787"><ele>429</ele></trkpt>
            <trkpt lat="51.638514" lon="10.437534"><ele>419.8</ele></trkpt>
            <trkpt lat="51.638449" lon="10.437434"><ele>419.3</ele></trkpt>
            <trkpt lat="51.638331" lon="10.437282"><ele>419.1</ele></trkpt>
            <trkpt lat="51.638212" lon="10.43719"><ele>418.7</ele></trkpt>
            <trkpt lat="51.637925" lon="10.437067"><ele>418.2</ele></trkpt>
            <trkpt lat="51.637488" lon="10.436805"><ele>416.7</ele></trkpt>
            <trkpt lat="51.637325" lon="10.436808"><ele>414.2</ele></trkpt>
            <trkpt lat="51.637189" lon="10.436916"><ele>409</ele></trkpt>
            <trkpt lat="51.636978" lon="10.436426"><ele>402.8</ele></trkpt>
            <trkpt lat="51.636865" lon="10.435808"><ele>400.7</ele></trkpt>
            <trkpt lat="51.636853" lon="10.43562"><ele>400.3</ele></trkpt>
            <trkpt lat="51.636883" lon="10.435324"><ele>400.3</ele></trkpt>
            <trkpt lat="51.636866" lon="10.435057"><ele>400.2</ele></trkpt>
            <trkpt lat="51.636881" lon="10.434807"><ele>399.9</ele></trkpt>
            <trkpt lat="51.63686" lon="10.434725"><ele>399.5</ele></trkpt>
            <trkpt lat="51.636767" lon="10.434565"><ele>399.2</ele></trkpt>
            <trkpt lat="51.636699" lon="10.434406"><ele>398.8</ele></trkpt>
            <trkpt lat="51.636608" lon="10.434105"><ele>398.9</ele></trkpt>
            <trkpt lat="51.636412" lon="10.433714"><ele>392</ele></trkpt>
            <trkpt lat="51.636352" lon="10.433562"><ele>389.8</ele></trkpt>
            <trkpt lat="51.63623" lon="10.433029"><ele>389.3</ele></trkpt>
            <trkpt lat="51.636145" lon="10.432753"><ele>389.7</ele></trkpt>
            <trkpt lat="51.635926" lon="10.432362"><ele>390.4</ele></trkpt>
            <trkpt lat="51.635798" lon="10.432273"><ele>389.9</ele></trkpt>
            <trkpt lat="51.635712" lon="10.432169"><ele>388.2</ele></trkpt>
            <trkpt lat="51.635544" lon="10.431698"><ele>373</ele></trkpt>
            <trkpt lat="51.635401" lon="10.431313"><ele>366</ele></trkpt>
            <trkpt lat="51.635174" lon="10.430828"><ele>362.2</ele></trkpt>
            <trkpt lat="51.635048" lon="10.430626"><ele>362</ele></trkpt>
            <trkpt lat="51.634921" lon="10.430375"><ele>362.1</ele></trkpt>
            <trkpt lat="51.634808" lon="10.430109"><ele>362.3</ele></trkpt>
            <trkpt lat="51.63474" lon="10.429814"><ele>361.3</ele></trkpt>
            <trkpt lat="51.634706" lon="10.429466"><ele>356</ele></trkpt>
            <trkpt lat="51.634665" lon="10.429146"><ele>352.9</ele></trkpt>
            <trkpt lat="51.634596" lon="10.42894"><ele>350</ele></trkpt>
            <trkpt lat="51.634399" lon="10.428663"><ele>345.4</ele></trkpt>
            <trkpt lat="51.634139" lon="10.428434"><ele>344.8</ele></trkpt>
            <trkpt lat="51.633786" lon="10.428176"><ele>344.7</ele></trkpt>
            <trkpt lat="51.633582" lon="10.42799"><ele>344.6</ele></trkpt>
            <trkpt lat="51.633313" lon="10.427826"><ele>343.9</ele></trkpt>
            <trkpt lat="51.633057" lon="10.427579"><ele>341</ele></trkpt>
            <trkpt lat="51.632914" lon="10.427322"><ele>327.7</ele></trkpt>
            <trkpt lat="51.632613" lon="10.426522"><ele>324.2</ele></trkpt>
            <trkpt lat="51.632217" lon="10.425302"><ele>320.9</ele></trkpt>
            <trkpt lat="51.63206" lon="10.424692"><ele>319.9</ele></trkpt>
            <trkpt lat="51.631926" lon="10.424425"><ele>316</ele></trkpt>
            <trkpt lat="51.6318" lon="10.424297"><ele>316</ele></trkpt>
            <trkpt lat="51.631677" lon="10.424189"><ele>316</ele></trkpt>
            <trkpt lat="51.631625" lon="10.424128"><ele>315</ele></trkpt>
            <trkpt lat="51.631474" lon="10.423944"><ele>315</ele></trkpt>
            <trkpt lat="51.631385" lon="10.42371"><ele>315</ele></trkpt>
            <trkpt lat="51.631339" lon="10.42365"><ele>313.1</ele></trkpt>
            <trkpt lat="51.631206" lon="10.423372"><ele>313</ele></trkpt>
            <trkpt lat="51.630486" lon="10.421377"><ele>310</ele></trkpt>
            <trkpt lat="51.630318" lon="10.420836"><ele>309</ele></trkpt>
            <trkpt lat="51.630366" lon="10.420701"><ele>319.9</ele></trkpt>
            <trkpt lat="51.630278" lon="10.41941"><ele>331.5</ele></trkpt>
            <trkpt lat="51.630227" lon="10.419009"><ele>331.2</ele></trkpt>
            <trkpt lat="51.630052" lon="10.418353"><ele>334.5</ele></trkpt>
            <trkpt lat="51.630048" lon="10.418055"><ele>335</ele></trkpt>
            <trkpt lat="51.630113" lon="10.417803"><ele>335.5</ele></trkpt>
            <trkpt lat="51.630331" lon="10.417333"><ele>337.3</ele></trkpt>
            <trkpt lat="51.6304" lon="10.417623"><ele>338.8</ele></trkpt>
            <trkpt lat="51.630421" lon="10.417844"><ele>338.9</ele></trkpt>
            <trkpt lat="51.630471" lon="10.417955"><ele>339.1</ele></trkpt>
            <trkpt lat="51.630725" lon="10.418013"><ele>341</ele></trkpt>
            <trkpt lat="51.630827" lon="10.418056"><ele>341</ele></trkpt>
            <trkpt lat="51.630947" lon="10.417542"><ele>359.3</ele></trkpt>
            <trkpt lat="51.631058" lon="10.417202"><ele>370</ele></trkpt>
            <trkpt lat="51.631167" lon="10.416812"><ele>370</ele></trkpt>
            <trkpt lat="51.63103" lon="10.416271"><ele>380.8</ele></trkpt>
            <trkpt lat="51.630947" lon="10.416206"><ele>383</ele></trkpt>
            <trkpt lat="51.630504" lon="10.416082"><ele>371.7</ele></trkpt>
            <trkpt lat="51.630318" lon="10.415994"><ele>370.7</ele></trkpt>
            <trkpt lat="51.63012" lon="10.415866"><ele>370.3</ele></trkpt>
            <trkpt lat="51.629498" lon="10.415256"><ele>367.9</ele></trkpt>
            <trkpt lat="51.629273" lon="10.41516"><ele>367.7</ele></trkpt>
            <trkpt lat="51.62918" lon="10.415085"><ele>367.9</ele></trkpt>
            <trkpt lat="51.628842" lon="10.414668"><ele>366</ele></trkpt>
            <trkpt lat="51.628603" lon="10.414558"><ele>361</ele></trkpt>
            <trkpt lat="51.628403" lon="10.414472"><ele>355</ele></trkpt>
            <trkpt lat="51.628243" lon="10.414361"><ele>354</ele></trkpt>
            <trkpt lat="51.628203" lon="10.414266"><ele>353.3</ele></trkpt>
            <trkpt lat="51.628209" lon="10.414159"><ele>352.6</ele></trkpt>
            <trkpt lat="51.628255" lon="10.413994"><ele>351.9</ele></trkpt>
            <trkpt lat="51.628523" lon="10.413435"><ele>352.9</ele></trkpt>
            <trkpt lat="51.628734" lon="10.412869"><ele>353.4</ele></trkpt>
            <trkpt lat="51.628873" lon="10.412395"><ele>355</ele></trkpt>
            <trkpt lat="51.628929" lon="10.412203"><ele>355</ele></trkpt>
            <trkpt lat="51.629118" lon="10.411991"><ele>366.1</ele></trkpt>
            <trkpt lat="51.629267" lon="10.411635"><ele>367.7</ele></trkpt>
            <trkpt lat="51.629372" lon="10.411348"><ele>369</ele></trkpt>
            <trkpt lat="51.629505" lon="10.410814"><ele>380</ele></trkpt>
            <trkpt lat="51.629533" lon="10.410639"><ele>380</ele></trkpt>
            <trkpt lat="51.629523" lon="10.410471"><ele>380</ele></trkpt>
            <trkpt lat="51.629343" lon="10.410066"><ele>380.7</ele></trkpt>
            <trkpt lat="51.629173" lon="10.409737"><ele>382</ele></trkpt>
            <trkpt lat="51.629142" lon="10.409682"><ele>367.8</ele></trkpt>
            <trkpt lat="51.629091" lon="10.409402"><ele>363</ele></trkpt>
            <trkpt lat="51.6289" lon="10.408893"><ele>363</ele></trkpt>
            <trkpt lat="51.628893" lon="10.408878"><ele>363</ele></trkpt>
        </trkseg>
    </trk>
</gpx>
