<?xml version="1.0" encoding="UTF-8"?>
<gpx version="1.1" creator="HWN Route Compare (OpenRouteService)" xmlns="http://www.topografix.com/GPX/1/1">
    <metadata>
        <name>OpenRouteService – Tour C5</name>
    </metadata>
    <trk>
        <name>OpenRouteService – Tour C5</name>
        <trkseg>
            <trkpt lat="51.762687" lon="10.445434"><ele>617</ele></trkpt>
            <trkpt lat="51.762622" lon="10.445384"><ele>617</ele></trkpt>
            <trkpt lat="51.762519" lon="10.445213"><ele>617</ele></trkpt>
            <trkpt lat="51.762503" lon="10.445152"><ele>617</ele></trkpt>
            <trkpt lat="51.762521" lon="10.445021"><ele>617</ele></trkpt>
            <trkpt lat="51.762441" lon="10.444549"><ele>635.4</ele></trkpt>
            <trkpt lat="51.762373" lon="10.444265"><ele>636.6</ele></trkpt>
            <trkpt lat="51.761921" lon="10.442721"><ele>642.1</ele></trkpt>
            <trkpt lat="51.761766" lon="10.441959"><ele>641.8</ele></trkpt>
            <trkpt lat="51.761582" lon="10.441324"><ele>644.6</ele></trkpt>
            <trkpt lat="51.761359" lon="10.440632"><ele>645.5</ele></trkpt>
            <trkpt lat="51.761158" lon="10.440164"><ele>645.7</ele></trkpt>
            <trkpt lat="51.761043" lon="10.439987"><ele>645.5</ele></trkpt>
            <trkpt lat="51.76094" lon="10.439886"><ele>644.4</ele></trkpt>
            <trkpt lat="51.760793" lon="10.439766"><ele>645.2</ele></trkpt>
            <trkpt lat="51.760568" lon="10.439645"><ele>647.1</ele></trkpt>
            <trkpt lat="51.760273" lon="10.439536"><ele>647.2</ele></trkpt>
            <trkpt lat="51.760057" lon="10.439485"><ele>647</ele></trkpt>
            <trkpt lat="51.759524" lon="10.439524"><ele>649.8</ele></trkpt>
            <trkpt lat="51.759433" lon="10.439419"><ele>650.7</ele></trkpt>
            <trkpt lat="51.759414" lon="10.43922"><ele>651</ele></trkpt>
            <trkpt lat="51.759431" lon="10.439125"><ele>651.2</ele></trkpt>
            <trkpt lat="51.75955" lon="10.438831"><ele>651.9</ele></trkpt>
            <trkpt lat="51.759716" lon="10.438204"><ele>653.6</ele></trkpt>
            <trkpt lat="51.759813" lon="10.437951"><ele>654.3</ele></trkpt>
            <trkpt lat="51.760284" lon="10.437236"><ele>657.2</ele></trkpt>
            <trkpt lat="51.760351" lon="10.437008"><ele>657.1</ele></trkpt>
            <trkpt lat="51.760365" lon="10.436725"><ele>657</ele></trkpt>
            <trkpt lat="51.760312" lon="10.435946"><ele>656.8</ele></trkpt>
            <trkpt lat="51.760344" lon="10.43543"><ele>663</ele></trkpt>
            <trkpt lat="51.760258" lon="10.435742"><ele>663.2</ele></trkpt>
            <trkpt lat="51.760159" lon="10.436409"><ele>664.4</ele></trkpt>
            <trkpt lat="51.760121" lon="10.436565"><ele>664.9</ele></trkpt>
            <trkpt lat="51.760043" lon="10.436814"><ele>668.9</ele></trkpt>
            <trkpt lat="51.75995" lon="10.43697"><ele>671.2</ele></trkpt>
            <trkpt lat="51.759194" lon="10.437703"><ele>683.3</ele></trkpt>
            <trkpt lat="51.75839" lon="10.438299"><ele>706.1</ele></trkpt>
            <trkpt lat="51.757892" lon="10.43887"><ele>715.7</ele></trkpt>
            <trkpt lat="51.757741" lon="10.438999"><ele>718.9</ele></trkpt>
            <trkpt lat="51.757367" lon="10.439206"><ele>725.3</ele></trkpt>
            <trkpt lat="51.756647" lon="10.43938"><ele>730.4</ele></trkpt>
            <trkpt lat="51.756532" lon="10.439446"><ele>730.5</ele></trkpt>
            <trkpt lat="51.756363" lon="10.439595"><ele>731.3</ele></trkpt>
            <trkpt lat="51.756193" lon="10.439862"><ele>731.2</ele></trkpt>
            <trkpt lat="51.756135" lon="10.439994"><ele>730.9</ele></trkpt>
            <trkpt lat="51.756106" lon="10.440127"><ele>730.3</ele></trkpt>
            <trkpt lat="51.756127" lon="10.44025"><ele>730</ele></trkpt>
            <trkpt lat="51.756137" lon="10.440278"><ele>730</ele></trkpt>
            <trkpt lat="51.756222" lon="10.440379"><ele>727.4</ele></trkpt>
            <trkpt lat="51.756463" lon="10.440559"><ele>727.1</ele></trkpt>
            <trkpt lat="51.756592" lon="10.440683"><ele>726.5</ele></trkpt>
            <trkpt lat="51.756828" lon="10.440974"><ele>726.1</ele></trkpt>
            <trkpt lat="51.756881" lon="10.441099"><ele>722</ele></trkpt>
            <trkpt lat="51.757415" lon="10.44194"><ele>726.3</ele></trkpt>
            <trkpt lat="51.758097" lon="10.44318"><ele>733.6</ele></trkpt>
            <trkpt lat="51.758417" lon="10.443823"><ele>738.5</ele></trkpt>
            <trkpt lat="51.758542" lon="10.444197"><ele>741.2</ele></trkpt>
            <trkpt lat="51.758593" lon="10.444548"><ele>742.8</ele></trkpt>
            <trkpt lat="51.758633" lon="10.444973"><ele>746.7</ele></trkpt>
            <trkpt lat="51.758632" lon="10.445461"><ele>752</ele></trkpt>
            <trkpt lat="51.758426" lon="10.446557"><ele>759.6</ele></trkpt>
            <trkpt lat="51.758315" lon="10.447044"><ele>765.1</ele></trkpt>
            <trkpt lat="51.758235" lon="10.447326"><ele>766.3</ele></trkpt>
            <trkpt lat="51.757818" lon="10.448379"><ele>775.2</ele></trkpt>
            <trkpt lat="51.757473" lon="10.449439"><ele>793.2</ele></trkpt>
            <trkpt lat="51.757218" lon="10.45047"><ele>798.5</ele></trkpt>
            <trkpt lat="51.75709" lon="10.451081"><ele>803.5</ele></trkpt>
            <trkpt lat="51.757021" lon="10.451883"><ele>807.2</ele></trkpt>
            <trkpt lat="51.756937" lon="10.453655"><ele>817.4</ele></trkpt>
            <trkpt lat="51.756951" lon="10.454172"><ele>819.2</ele></trkpt>
            <trkpt lat="51.757056" lon="10.454516"><ele>818.6</ele></trkpt>
            <trkpt lat="51.757151" lon="10.454693"><ele>818.3</ele></trkpt>
            <trkpt lat="51.757339" lon="10.455567"><ele>817.8</ele></trkpt>
            <trkpt lat="51.757696" lon="10.456368"><ele>817.2</ele></trkpt>
            <trkpt lat="51.757889" lon="10.456597"><ele>815</ele></trkpt>
            <trkpt lat="51.758075" lon="10.456636"><ele>813.7</ele></trkpt>
            <trkpt lat="51.758398" lon="10.456647"><ele>811</ele></trkpt>
            <trkpt lat="51.758325" lon="10.457007"><ele>821.7</ele></trkpt>
            <trkpt lat="51.7583" lon="10.457223"><ele>821.7</ele></trkpt>
            <trkpt lat="51.758303" lon="10.457376"><ele>821.6</ele></trkpt>
            <trkpt lat="51.758337" lon="10.45767"><ele>821.6</ele></trkpt>
            <trkpt lat="51.758596" lon="10.459062"><ele>826</ele></trkpt>
            <trkpt lat="51.758412" lon="10.459048"><ele>823.5</ele></trkpt>
            <trkpt lat="51.758157" lon="10.459068"><ele>821.6</ele></trkpt>
            <trkpt lat="51.757045" lon="10.45936"><ele>820.3</ele></trkpt>
            <trkpt lat="51.756867" lon="10.459379"><ele>820.5</ele></trkpt>
            <trkpt lat="51.756672" lon="10.459351"><ele>820</ele></trkpt>
            <trkpt lat="51.756057" lon="10.459164"><ele>819.1</ele></trkpt>
            <trkpt lat="51.755441" lon="10.459037"><ele>816.6</ele></trkpt>
            <trkpt lat="51.754867" lon="10.459024"><ele>814.8</ele></trkpt>
            <trkpt lat="51.754725" lon="10.459063"><ele>814.6</ele></trkpt>
            <trkpt lat="51.754582" lon="10.459148"><ele>812.6</ele></trkpt>
            <trkpt lat="51.754434" lon="10.459285"><ele>811.4</ele></trkpt>
            <trkpt lat="51.75429" lon="10.459479"><ele>811.2</ele></trkpt>
            <trkpt lat="51.753797" lon="10.460254"><ele>805</ele></trkpt>
            <trkpt lat="51.753643" lon="10.460543"><ele>803.5</ele></trkpt>
            <trkpt lat="51.753469" lon="10.460753"><ele>801.7</ele></trkpt>
            <trkpt lat="51.753256" lon="10.460971"><ele>799.6</ele></trkpt>
            <trkpt lat="51.753113" lon="10.461073"><ele>799</ele></trkpt>
            <trkpt lat="51.752907" lon="10.461143"><ele>799</ele></trkpt>
            <trkpt lat="51.752807" lon="10.461118"><ele>799</ele></trkpt>
            <trkpt lat="51.752592" lon="10.460941"><ele>799</ele></trkpt>
            <trkpt lat="51.752282" lon="10.460533"><ele>796.7</ele></trkpt>
            <trkpt lat="51.751971" lon="10.460071"><ele>796.4</ele></trkpt>
            <trkpt lat="51.750578" lon="10.457861"><ele>781.2</ele></trkpt>
            <trkpt lat="51.750376" lon="10.457509"><ele>781.7</ele></trkpt>
            <trkpt lat="51.750185" lon="10.45713"><ele>781</ele></trkpt>
            <trkpt lat="51.749795" lon="10.456199"><ele>780.3</ele></trkpt>
            <trkpt lat="51.749328" lon="10.455371"><ele>780.1</ele></trkpt>
            <trkpt lat="51.749086" lon="10.454898"><ele>779.1</ele></trkpt>
            <trkpt lat="51.748988" lon="10.454745"><ele>778</ele></trkpt>
            <trkpt lat="51.748918" lon="10.454951"><ele>775</ele></trkpt>
            <trkpt lat="51.749082" lon="10.455493"><ele>774</ele></trkpt>
            <trkpt lat="51.749188" lon="10.455964"><ele>773.9</ele></trkpt>
            <trkpt lat="51.749425" lon="10.456819"><ele>771.1</ele></trkpt>
            <trkpt lat="51.749463" lon="10.457134"><ele>770.3</ele></trkpt>
            <trkpt lat="51.749473" lon="10.457612"><ele>769.3</ele></trkpt>
            <trkpt lat="51.749447" lon="10.458562"><ele>762.3</ele></trkpt>
            <trkpt lat="51.749558" lon="10.460019"><ele>751.1</ele></trkpt>
            <trkpt lat="51.749679" lon="10.460589"><ele>751.3</ele></trkpt>
            <trkpt lat="51.749608" lon="10.46209"><ele>744.5</ele></trkpt>
            <trkpt lat="51.749662" lon="10.462769"><ele>740.8</ele></trkpt>
            <trkpt lat="51.749691" lon="10.463568"><ele>738.3</ele></trkpt>
            <trkpt lat="51.749964" lon="10.465048"><ele>734.4</ele></trkpt>
            <trkpt lat="51.750293" lon="10.466114"><ele>731.1</ele></trkpt>
            <trkpt lat="51.750581" lon="10.467631"><ele>724</ele></trkpt>
            <trkpt lat="51.750678" lon="10.469306"><ele>720</ele></trkpt>
            <trkpt lat="51.750861" lon="10.470156"><ele>719.8</ele></trkpt>
            <trkpt lat="51.750967" lon="10.471065"><ele>718.9</ele></trkpt>
            <trkpt lat="51.751015" lon="10.471329"><ele>718</ele></trkpt>
            <trkpt lat="51.751353" lon="10.472533"><ele>710.3</ele></trkpt>
            <trkpt lat="51.75137" lon="10.473045"><ele>709.6</ele></trkpt>
            <trkpt lat="51.751342" lon="10.473642"><ele>700</ele></trkpt>
            <trkpt lat="51.751232" lon="10.4738"><ele>698.4</ele></trkpt>
            <trkpt lat="51.751056" lon="10.473898"><ele>698.6</ele></trkpt>
            <trkpt lat="51.750839" lon="10.473826"><ele>698.4</ele></trkpt>
            <trkpt lat="51.75068" lon="10.473576"><ele>697.4</ele></trkpt>
            <trkpt lat="51.750361" lon="10.47289"><ele>697.3</ele></trkpt>
            <trkpt lat="51.750158" lon="10.472776"><ele>697.1</ele></trkpt>
            <trkpt lat="51.749776" lon="10.472813"><ele>695</ele></trkpt>
            <trkpt lat="51.749484" lon="10.472864"><ele>691.1</ele></trkpt>
            <trkpt lat="51.749005" lon="10.472899"><ele>690</ele></trkpt>
            <trkpt lat="51.748623" lon="10.472847"><ele>689.1</ele></trkpt>
            <trkpt lat="51.747964" lon="10.472263"><ele>681.7</ele></trkpt>
            <trkpt lat="51.747624" lon="10.472143"><ele>679.5</ele></trkpt>
            <trkpt lat="51.747151" lon="10.472032"><ele>668.4</ele></trkpt>
            <trkpt lat="51.746726" lon="10.471886"><ele>666.8</ele></trkpt>
            <trkpt lat="51.746157" lon="10.471654"><ele>663.6</ele></trkpt>
            <trkpt lat="51.745998" lon="10.471706"><ele>663.6</ele></trkpt>
            <trkpt lat="51.74595" lon="10.47186"><ele>663.6</ele></trkpt>
            <trkpt lat="51.746088" lon="10.472598"><ele>663.5</ele></trkpt>
            <trkpt lat="51.74635" lon="10.473454"><ele>663.4</ele></trkpt>
            <trkpt lat="51.746595" lon="10.473872"><ele>662.6</ele></trkpt>
            <trkpt lat="51.746696" lon="10.474162"><ele>664</ele></trkpt>
            <trkpt lat="51.746747" lon="10.475169"><ele>666</ele></trkpt>
            <trkpt lat="51.746745" lon="10.475302"><ele>666</ele></trkpt>
            <trkpt lat="51.746717" lon="10.475393"><ele>666</ele></trkpt>
            <trkpt lat="51.746664" lon="10.475468"><ele>660</ele></trkpt>
            <trkpt lat="51.746471" lon="10.475534"><ele>658</ele></trkpt>
            <trkpt lat="51.746205" lon="10.475576"><ele>656</ele></trkpt>
            <trkpt lat="51.745966" lon="10.475508"><ele>653.2</ele></trkpt>
            <trkpt lat="51.744756" lon="10.474822"><ele>644.6</ele></trkpt>
            <trkpt lat="51.744393" lon="10.474547"><ele>641.5</ele></trkpt>
            <trkpt lat="51.744188" lon="10.474418"><ele>634.3</ele></trkpt>
            <trkpt lat="51.743835" lon="10.474306"><ele>633.8</ele></trkpt>
            <trkpt lat="51.743284" lon="10.474007"><ele>631.6</ele></trkpt>
            <trkpt lat="51.743075" lon="10.473989"><ele>631.1</ele></trkpt>
            <trkpt lat="51.743002" lon="10.47402"><ele>631.3</ele></trkpt>
            <trkpt lat="51.742937" lon="10.474116"><ele>631.6</ele></trkpt>
            <trkpt lat="51.742895" lon="10.474263"><ele>632.1</ele></trkpt>
            <trkpt lat="51.742899" lon="10.474464"><ele>632.3</ele></trkpt>
            <trkpt lat="51.743017" lon="10.475206"><ele>633.3</ele></trkpt>
            <trkpt lat="51.743027" lon="10.475448"><ele>633.3</ele></trkpt>
            <trkpt lat="51.743009" lon="10.475723"><ele>633.2</ele></trkpt>
            <trkpt lat="51.742873" lon="10.476332"><ele>634</ele></trkpt>
            <trkpt lat="51.742674" lon="10.476872"><ele>634.4</ele></trkpt>
            <trkpt lat="51.742603" lon="10.476933"><ele>637</ele></trkpt>
            <trkpt lat="51.74282" lon="10.477242"><ele>633.6</ele></trkpt>
            <trkpt lat="51.743176" lon="10.477576"><ele>630.5</ele></trkpt>
            <trkpt lat="51.743378" lon="10.477808"><ele>628.1</ele></trkpt>
            <trkpt lat="51.74393" lon="10.479379"><ele>617.2</ele></trkpt>
            <trkpt lat="51.744042" lon="10.479525"><ele>616.7</ele></trkpt>
            <trkpt lat="51.744138" lon="10.479705"><ele>616.1</ele></trkpt>
            <trkpt lat="51.744122" lon="10.479791"><ele>616.2</ele></trkpt>
            <trkpt lat="51.744042" lon="10.479842"><ele>616.3</ele></trkpt>
            <trkpt lat="51.74393" lon="10.479782"><ele>616.9</ele></trkpt>
            <trkpt lat="51.743691" lon="10.479447"><ele>617.7</ele></trkpt>
            <trkpt lat="51.743426" lon="10.479173"><ele>619</ele></trkpt>
            <trkpt lat="51.743192" lon="10.478984"><ele>621.2</ele></trkpt>
            <trkpt lat="51.743112" lon="10.479018"><ele>620.7</ele></trkpt>
            <trkpt lat="51.743085" lon="10.479104"><ele>620.2</ele></trkpt>
            <trkpt lat="51.743601" lon="10.480117"><ele>614.9</ele></trkpt>
            <trkpt lat="51.743856" lon="10.480555"><ele>615.5</ele></trkpt>
            <trkpt lat="51.744021" lon="10.480778"><ele>612.4</ele></trkpt>
            <trkpt lat="51.744249" lon="10.480786"><ele>610.6</ele></trkpt>
            <trkpt lat="51.744589" lon="10.480735"><ele>600.7</ele></trkpt>
            <trkpt lat="51.745695" lon="10.480237"><ele>595.3</ele></trkpt>
            <trkpt lat="51.745747" lon="10.480239"><ele>595.1</ele></trkpt>
            <trkpt lat="51.745791" lon="10.480271"><ele>595</ele></trkpt>
            <trkpt lat="51.745824" lon="10.480312"><ele>594.8</ele></trkpt>
            <trkpt lat="51.745844" lon="10.480415"><ele>595.4</ele></trkpt>
            <trkpt lat="51.745828" lon="10.480486"><ele>596.2</ele></trkpt>
            <trkpt lat="51.745714" lon="10.480618"><ele>596.2</ele></trkpt>
            <trkpt lat="51.74564" lon="10.480741"><ele>597</ele></trkpt>
            <trkpt lat="51.745609" lon="10.480866"><ele>585</ele></trkpt>
            <trkpt lat="51.745587" lon="10.481238"><ele>585</ele></trkpt>
            <trkpt lat="51.745709" lon="10.48123"><ele>581.2</ele></trkpt>
            <trkpt lat="51.746031" lon="10.481311"><ele>580.8</ele></trkpt>
            <trkpt lat="51.746276" lon="10.481436"><ele>580.4</ele></trkpt>
            <trkpt lat="51.746434" lon="10.481573"><ele>580.2</ele></trkpt>
            <trkpt lat="51.746777" lon="10.482034"><ele>578.6</ele></trkpt>
            <trkpt lat="51.746882" lon="10.482243"><ele>576.7</ele></trkpt>
            <trkpt lat="51.746968" lon="10.482506"><ele>583</ele></trkpt>
            <trkpt lat="51.746612" lon="10.48243"><ele>580</ele></trkpt>
            <trkpt lat="51.746484" lon="10.482416"><ele>579.4</ele></trkpt>
            <trkpt lat="51.746407" lon="10.482443"><ele>578.5</ele></trkpt>
            <trkpt lat="51.74619" lon="10.482618"><ele>579.5</ele></trkpt>
            <trkpt lat="51.745912" lon="10.482912"><ele>581.3</ele></trkpt>
            <trkpt lat="51.745802" lon="10.482996"><ele>581.6</ele></trkpt>
            <trkpt lat="51.745541" lon="10.48308"><ele>582.5</ele></trkpt>
            <trkpt lat="51.745292" lon="10.483222"><ele>584</ele></trkpt>
            <trkpt lat="51.745107" lon="10.483262"><ele>585.9</ele></trkpt>
            <trkpt lat="51.744774" lon="10.483269"><ele>586.2</ele></trkpt>
            <trkpt lat="51.744695" lon="10.483295"><ele>586</ele></trkpt>
            <trkpt lat="51.744441" lon="10.483593"><ele>587</ele></trkpt>
            <trkpt lat="51.744087" lon="10.483859"><ele>590.6</ele></trkpt>
            <trkpt lat="51.743741" lon="10.484001"><ele>593.9</ele></trkpt>
            <trkpt lat="51.743159" lon="10.484306"><ele>602.2</ele></trkpt>
            <trkpt lat="51.742866" lon="10.484429"><ele>603.9</ele></trkpt>
            <trkpt lat="51.742699" lon="10.484485"><ele>605.5</ele></trkpt>
            <trkpt lat="51.742512" lon="10.48451"><ele>605.9</ele></trkpt>
            <trkpt lat="51.742216" lon="10.484468"><ele>606.4</ele></trkpt>
            <trkpt lat="51.742113" lon="10.484504"><ele>606</ele></trkpt>
            <trkpt lat="51.742031" lon="10.484583"><ele>605.3</ele></trkpt>
            <trkpt lat="51.74198" lon="10.48468"><ele>605</ele></trkpt>
            <trkpt lat="51.741783" lon="10.485271"><ele>604.8</ele></trkpt>
            <trkpt lat="51.741689" lon="10.485497"><ele>605.2</ele></trkpt>
            <trkpt lat="51.741385" lon="10.486106"><ele>602</ele></trkpt>
            <trkpt lat="51.741231" lon="10.486541"><ele>598.6</ele></trkpt>
            <trkpt lat="51.740986" lon="10.487543"><ele>596.4</ele></trkpt>
            <trkpt lat="51.740852" lon="10.488266"><ele>598.6</ele></trkpt>
            <trkpt lat="51.740675" lon="10.488937"><ele>599.4</ele></trkpt>
            <trkpt lat="51.740607" lon="10.489259"><ele>598.7</ele></trkpt>
            <trkpt lat="51.740553" lon="10.489655"><ele>596.5</ele></trkpt>
            <trkpt lat="51.740549" lon="10.489969"><ele>596</ele></trkpt>
            <trkpt lat="51.740568" lon="10.490479"><ele>598</ele></trkpt>
            <trkpt lat="51.740604" lon="10.490751"><ele>602.7</ele></trkpt>
            <trkpt lat="51.740736" lon="10.491455"><ele>603.6</ele></trkpt>
            <trkpt lat="51.740991" lon="10.492365"><ele>608.6</ele></trkpt>
            <trkpt lat="51.741326" lon="10.493407"><ele>613.6</ele></trkpt>
            <trkpt lat="51.741476" lon="10.494024"><ele>618.5</ele></trkpt>
            <trkpt lat="51.741594" lon="10.494549"><ele>619.3</ele></trkpt>
            <trkpt lat="51.741802" lon="10.495914"><ele>632</ele></trkpt>
            <trkpt lat="51.741934" lon="10.496351"><ele>632</ele></trkpt>
            <trkpt lat="51.742066" lon="10.496601"><ele>632</ele></trkpt>
            <trkpt lat="51.742112" lon="10.49669"><ele>634</ele></trkpt>
            <trkpt lat="51.742258" lon="10.496981"><ele>633.6</ele></trkpt>
            <trkpt lat="51.742683" lon="10.497516"><ele>633.6</ele></trkpt>
            <trkpt lat="51.742748" lon="10.497655"><ele>633.5</ele></trkpt>
            <trkpt lat="51.742811" lon="10.497926"><ele>633</ele></trkpt>
            <trkpt lat="51.742754" lon="10.497935"><ele>637.7</ele></trkpt>
            <trkpt lat="51.74261" lon="10.497753"><ele>640.3</ele></trkpt>
            <trkpt lat="51.742534" lon="10.49769"><ele>641.3</ele></trkpt>
            <trkpt lat="51.741804" lon="10.497676"><ele>642.9</ele></trkpt>
            <trkpt lat="51.741267" lon="10.497486"><ele>650</ele></trkpt>
            <trkpt lat="51.74095" lon="10.497058"><ele>655.5</ele></trkpt>
            <trkpt lat="51.740675" lon="10.496745"><ele>654.9</ele></trkpt>
            <trkpt lat="51.740606" lon="10.496596"><ele>653.5</ele></trkpt>
            <trkpt lat="51.74038" lon="10.495945"><ele>651.1</ele></trkpt>
            <trkpt lat="51.740246" lon="10.49562"><ele>648.6</ele></trkpt>
            <trkpt lat="51.740058" lon="10.495337"><ele>648.2</ele></trkpt>
            <trkpt lat="51.739897" lon="10.495175"><ele>648.4</ele></trkpt>
            <trkpt lat="51.739703" lon="10.495035"><ele>645.6</ele></trkpt>
            <trkpt lat="51.739326" lon="10.494824"><ele>641.1</ele></trkpt>
            <trkpt lat="51.739173" lon="10.494696"><ele>640.4</ele></trkpt>
            <trkpt lat="51.738965" lon="10.494448"><ele>638.9</ele></trkpt>
            <trkpt lat="51.738828" lon="10.494328"><ele>638.4</ele></trkpt>
            <trkpt lat="51.738378" lon="10.494093"><ele>637.1</ele></trkpt>
            <trkpt lat="51.738214" lon="10.494076"><ele>636.6</ele></trkpt>
            <trkpt lat="51.737499" lon="10.494186"><ele>635.8</ele></trkpt>
            <trkpt lat="51.737188" lon="10.494196"><ele>634.8</ele></trkpt>
            <trkpt lat="51.736679" lon="10.494104"><ele>631.5</ele></trkpt>
            <trkpt lat="51.736505" lon="10.494116"><ele>631.7</ele></trkpt>
            <trkpt lat="51.736349" lon="10.494156"><ele>632.4</ele></trkpt>
            <trkpt lat="51.73617" lon="10.494269"><ele>633.1</ele></trkpt>
            <trkpt lat="51.735946" lon="10.494463"><ele>633</ele></trkpt>
            <trkpt lat="51.735017" lon="10.495463"><ele>632.8</ele></trkpt>
            <trkpt lat="51.734753" lon="10.495789"><ele>631.7</ele></trkpt>
            <trkpt lat="51.734494" lon="10.496152"><ele>633.7</ele></trkpt>
            <trkpt lat="51.733997" lon="10.496906"><ele>633.1</ele></trkpt>
            <trkpt lat="51.733086" lon="10.498204"><ele>641.9</ele></trkpt>
            <trkpt lat="51.732792" lon="10.498587"><ele>644.8</ele></trkpt>
            <trkpt lat="51.732244" lon="10.499229"><ele>649.1</ele></trkpt>
            <trkpt lat="51.732169" lon="10.49936"><ele>648.4</ele></trkpt>
            <trkpt lat="51.732144" lon="10.49944"><ele>653</ele></trkpt>
            <trkpt lat="51.732114" lon="10.499566"><ele>648.1</ele></trkpt>
            <trkpt lat="51.732104" lon="10.499729"><ele>647.5</ele></trkpt>
            <trkpt lat="51.732119" lon="10.499916"><ele>646.8</ele></trkpt>
            <trkpt lat="51.732264" lon="10.500689"><ele>643.4</ele></trkpt>
            <trkpt lat="51.732363" lon="10.501671"><ele>639</ele></trkpt>
            <trkpt lat="51.732329" lon="10.503072"><ele>634.9</ele></trkpt>
            <trkpt lat="51.732288" lon="10.503382"><ele>635.2</ele></trkpt>
            <trkpt lat="51.732144" lon="10.504063"><ele>634.9</ele></trkpt>
            <trkpt lat="51.732081" lon="10.504317"><ele>633.5</ele></trkpt>
            <trkpt lat="51.731919" lon="10.504841"><ele>630</ele></trkpt>
            <trkpt lat="51.731802" lon="10.505348"><ele>627.7</ele></trkpt>
            <trkpt lat="51.73154" lon="10.506245"><ele>623.1</ele></trkpt>
            <trkpt lat="51.731452" lon="10.506621"><ele>624.1</ele></trkpt>
            <trkpt lat="51.7314" lon="10.506954"><ele>624.3</ele></trkpt>
            <trkpt lat="51.731247" lon="10.508022"><ele>626</ele></trkpt>
            <trkpt lat="51.731217" lon="10.508401"><ele>626.7</ele></trkpt>
            <trkpt lat="51.731216" lon="10.508582"><ele>627</ele></trkpt>
            <trkpt lat="51.731312" lon="10.509192"><ele>627.9</ele></trkpt>
            <trkpt lat="51.731323" lon="10.509445"><ele>627.8</ele></trkpt>
            <trkpt lat="51.731298" lon="10.51014"><ele>632</ele></trkpt>
            <trkpt lat="51.731362" lon="10.510223"><ele>650.9</ele></trkpt>
            <trkpt lat="51.731412" lon="10.510348"><ele>653.6</ele></trkpt>
            <trkpt lat="51.731502" lon="10.510751"><ele>656.4</ele></trkpt>
            <trkpt lat="51.731525" lon="10.510793"><ele>657.4</ele></trkpt>
            <trkpt lat="51.731935" lon="10.510862"><ele>659.5</ele></trkpt>
            <trkpt lat="51.7321" lon="10.510802"><ele>659.2</ele></trkpt>
            <trkpt lat="51.732196" lon="10.510827"><ele>659.1</ele></trkpt>
            <trkpt lat="51.73228" lon="10.510948"><ele>658.9</ele></trkpt>
            <trkpt lat="51.732365" lon="10.511232"><ele>658.6</ele></trkpt>
            <trkpt lat="51.73228" lon="10.510948"><ele>658.9</ele></trkpt>
            <trkpt lat="51.732196" lon="10.510827"><ele>659.1</ele></trkpt>
            <trkpt lat="51.7321" lon="10.510802"><ele>659.2</ele></trkpt>
            <trkpt lat="51.731935" lon="10.510862"><ele>659.5</ele></trkpt>
            <trkpt lat="51.731525" lon="10.510793"><ele>657.4</ele></trkpt>
            <trkpt lat="51.731502" lon="10.510751"><ele>656.4</ele></trkpt>
            <trkpt lat="51.731412" lon="10.510348"><ele>653.6</ele></trkpt>
            <trkpt lat="51.731362" lon="10.510223"><ele>650.9</ele></trkpt>
            <trkpt lat="51.731298" lon="10.51014"><ele>632</ele></trkpt>
            <trkpt lat="51.731323" lon="10.509445"><ele>627.8</ele></trkpt>
            <trkpt lat="51.731312" lon="10.509192"><ele>627.9</ele></trkpt>
            <trkpt lat="51.731216" lon="10.508582"><ele>627</ele></trkpt>
            <trkpt lat="51.731217" lon="10.508401"><ele>626.7</ele></trkpt>
            <trkpt lat="51.731247" lon="10.508022"><ele>626</ele></trkpt>
            <trkpt lat="51.7314" lon="10.506954"><ele>624.3</ele></trkpt>
            <trkpt lat="51.731452" lon="10.506621"><ele>624.1</ele></trkpt>
            <trkpt lat="51.73154" lon="10.506245"><ele>623.1</ele></trkpt>
            <trkpt lat="51.731802" lon="10.505348"><ele>627.7</ele></trkpt>
            <trkpt lat="51.731919" lon="10.504841"><ele>630</ele></trkpt>
            <trkpt lat="51.732081" lon="10.504317"><ele>633.5</ele></trkpt>
            <trkpt lat="51.732144" lon="10.504063"><ele>634.9</ele></trkpt>
            <trkpt lat="51.732288" lon="10.503382"><ele>635.2</ele></trkpt>
            <trkpt lat="51.732329" lon="10.503072"><ele>634.9</ele></trkpt>
            <trkpt lat="51.732363" lon="10.501671"><ele>639</ele></trkpt>
            <trkpt lat="51.732264" lon="10.500689"><ele>643.4</ele></trkpt>
            <trkpt lat="51.732119" lon="10.499916"><ele>646.8</ele></trkpt>
            <trkpt lat="51.732104" lon="10.499729"><ele>647.5</ele></trkpt>
            <trkpt lat="51.732114" lon="10.499566"><ele>648.1</ele></trkpt>
            <trkpt lat="51.732144" lon="10.49944"><ele>653</ele></trkpt>
            <trkpt lat="51.732169" lon="10.49936"><ele>648.4</ele></trkpt>
            <trkpt lat="51.732244" lon="10.499229"><ele>649.1</ele></trkpt>
            <trkpt lat="51.732792" lon="10.498587"><ele>644.8</ele></trkpt>
            <trkpt lat="51.733086" lon="10.498204"><ele>641.9</ele></trkpt>
            <trkpt lat="51.733997" lon="10.496906"><ele>633.1</ele></trkpt>
            <trkpt lat="51.734494" lon="10.496152"><ele>633.7</ele></trkpt>
            <trkpt lat="51.734753" lon="10.495789"><ele>631.7</ele></trkpt>
            <trkpt lat="51.735017" lon="10.495463"><ele>632.8</ele></trkpt>
            <trkpt lat="51.735946" lon="10.494463"><ele>633</ele></trkpt>
            <trkpt lat="51.73617" lon="10.494269"><ele>633.1</ele></trkpt>
            <trkpt lat="51.736349" lon="10.494156"><ele>632.4</ele></trkpt>
            <trkpt lat="51.736505" lon="10.494116"><ele>631.7</ele></trkpt>
            <trkpt lat="51.736679" lon="10.494104"><ele>631.5</ele></trkpt>
            <trkpt lat="51.737188" lon="10.494196"><ele>634.8</ele></trkpt>
            <trkpt lat="51.737499" lon="10.494186"><ele>635.8</ele></trkpt>
            <trkpt lat="51.738214" lon="10.494076"><ele>636.6</ele></trkpt>
            <trkpt lat="51.738378" lon="10.494093"><ele>637.1</ele></trkpt>
            <trkpt lat="51.738828" lon="10.494328"><ele>638.4</ele></trkpt>
            <trkpt lat="51.738965" lon="10.494448"><ele>638.9</ele></trkpt>
            <trkpt lat="51.739173" lon="10.494696"><ele>640.4</ele></trkpt>
            <trkpt lat="51.739326" lon="10.494824"><ele>641.1</ele></trkpt>
            <trkpt lat="51.739703" lon="10.495035"><ele>645.6</ele></trkpt>
            <trkpt lat="51.739897" lon="10.495175"><ele>648.4</ele></trkpt>
            <trkpt lat="51.740058" lon="10.495337"><ele>648.2</ele></trkpt>
            <trkpt lat="51.740246" lon="10.49562"><ele>648.6</ele></trkpt>
            <trkpt lat="51.74038" lon="10.495945"><ele>651.1</ele></trkpt>
            <trkpt lat="51.740606" lon="10.496596"><ele>653.5</ele></trkpt>
            <trkpt lat="51.740675" lon="10.496745"><ele>654.9</ele></trkpt>
            <trkpt lat="51.74095" lon="10.497058"><ele>655.5</ele></trkpt>
            <trkpt lat="51.741267" lon="10.497486"><ele>650</ele></trkpt>
            <trkpt lat="51.741804" lon="10.497676"><ele>642.9</ele></trkpt>
            <trkpt lat="51.742534" lon="10.49769"><ele>641.3</ele></trkpt>
            <trkpt lat="51.74261" lon="10.497753"><ele>640.3</ele></trkpt>
            <trkpt lat="51.742754" lon="10.497935"><ele>637.7</ele></trkpt>
            <trkpt lat="51.742811" lon="10.497926"><ele>633</ele></trkpt>
            <trkpt lat="51.742748" lon="10.497655"><ele>633.5</ele></trkpt>
            <trkpt lat="51.742683" lon="10.497516"><ele>633.6</ele></trkpt>
            <trkpt lat="51.742258" lon="10.496981"><ele>633.6</ele></trkpt>
            <trkpt lat="51.742112" lon="10.49669"><ele>634</ele></trkpt>
            <trkpt lat="51.742066" lon="10.496601"><ele>632</ele></trkpt>
            <trkpt lat="51.741934" lon="10.496351"><ele>632</ele></trkpt>
            <trkpt lat="51.741802" lon="10.495914"><ele>632</ele></trkpt>
            <trkpt lat="51.741594" lon="10.494549"><ele>619.3</ele></trkpt>
            <trkpt lat="51.741476" lon="10.494024"><ele>618.5</ele></trkpt>
            <trkpt lat="51.741326" lon="10.493407"><ele>613.6</ele></trkpt>
            <trkpt lat="51.740991" lon="10.492365"><ele>608.6</ele></trkpt>
            <trkpt lat="51.740736" lon="10.491455"><ele>603.6</ele></trkpt>
            <trkpt lat="51.740604" lon="10.490751"><ele>602.7</ele></trkpt>
            <trkpt lat="51.740568" lon="10.490479"><ele>598</ele></trkpt>
            <trkpt lat="51.740549" lon="10.489969"><ele>596</ele></trkpt>
            <trkpt lat="51.740553" lon="10.489655"><ele>596.5</ele></trkpt>
            <trkpt lat="51.740607" lon="10.489259"><ele>598.7</ele></trkpt>
            <trkpt lat="51.740675" lon="10.488937"><ele>599.4</ele></trkpt>
            <trkpt lat="51.740852" lon="10.488266"><ele>598.6</ele></trkpt>
            <trkpt lat="51.740986" lon="10.487543"><ele>596.4</ele></trkpt>
            <trkpt lat="51.741231" lon="10.486541"><ele>598.6</ele></trkpt>
            <trkpt lat="51.741385" lon="10.486106"><ele>602</ele></trkpt>
            <trkpt lat="51.741689" lon="10.485497"><ele>605.2</ele></trkpt>
            <trkpt lat="51.741783" lon="10.485271"><ele>604.8</ele></trkpt>
            <trkpt lat="51.74198" lon="10.48468"><ele>605</ele></trkpt>
            <trkpt lat="51.742031" lon="10.484583"><ele>605.3</ele></trkpt>
            <trkpt lat="51.742113" lon="10.484504"><ele>606</ele></trkpt>
            <trkpt lat="51.742216" lon="10.484468"><ele>606.4</ele></trkpt>
            <trkpt lat="51.742512" lon="10.48451"><ele>605.9</ele></trkpt>
            <trkpt lat="51.742699" lon="10.484485"><ele>605.5</ele></trkpt>
            <trkpt lat="51.742866" lon="10.484429"><ele>603.9</ele></trkpt>
            <trkpt lat="51.743159" lon="10.484306"><ele>602.2</ele></trkpt>
            <trkpt lat="51.743741" lon="10.484001"><ele>593.9</ele></trkpt>
            <trkpt lat="51.744087" lon="10.483859"><ele>590.6</ele></trkpt>
            <trkpt lat="51.744441" lon="10.483593"><ele>587</ele></trkpt>
            <trkpt lat="51.744695" lon="10.483295"><ele>586</ele></trkpt>
            <trkpt lat="51.744774" lon="10.483269"><ele>586.2</ele></trkpt>
            <trkpt lat="51.745107" lon="10.483262"><ele>585.9</ele></trkpt>
            <trkpt lat="51.745292" lon="10.483222"><ele>584</ele></trkpt>
            <trkpt lat="51.745541" lon="10.48308"><ele>582.5</ele></trkpt>
            <trkpt lat="51.745802" lon="10.482996"><ele>581.6</ele></trkpt>
            <trkpt lat="51.745912" lon="10.482912"><ele>581.3</ele></trkpt>
            <trkpt lat="51.74619" lon="10.482618"><ele>579.5</ele></trkpt>
            <trkpt lat="51.746407" lon="10.482443"><ele>578.5</ele></trkpt>
            <trkpt lat="51.746484" lon="10.482416"><ele>579.4</ele></trkpt>
            <trkpt lat="51.746612" lon="10.48243"><ele>580</ele></trkpt>
            <trkpt lat="51.746968" lon="10.482506"><ele>583</ele></trkpt>
            <trkpt lat="51.746882" lon="10.482243"><ele>576.7</ele></trkpt>
            <trkpt lat="51.746777" lon="10.482034"><ele>578.6</ele></trkpt>
            <trkpt lat="51.746434" lon="10.481573"><ele>580.2</ele></trkpt>
            <trkpt lat="51.746276" lon="10.481436"><ele>580.4</ele></trkpt>
            <trkpt lat="51.746031" lon="10.481311"><ele>580.8</ele></trkpt>
            <trkpt lat="51.745709" lon="10.48123"><ele>581.2</ele></trkpt>
            <trkpt lat="51.745587" lon="10.481238"><ele>585</ele></trkpt>
            <trkpt lat="51.745609" lon="10.480866"><ele>585</ele></trkpt>
            <trkpt lat="51.74564" lon="10.480741"><ele>597</ele></trkpt>
            <trkpt lat="51.745714" lon="10.480618"><ele>596.2</ele></trkpt>
            <trkpt lat="51.745828" lon="10.480486"><ele>596.2</ele></trkpt>
            <trkpt lat="51.745844" lon="10.480415"><ele>595.4</ele></trkpt>
            <trkpt lat="51.745824" lon="10.480312"><ele>594.8</ele></trkpt>
            <trkpt lat="51.745791" lon="10.480271"><ele>595</ele></trkpt>
            <trkpt lat="51.745747" lon="10.480239"><ele>595.1</ele></trkpt>
            <trkpt lat="51.745695" lon="10.480237"><ele>595.3</ele></trkpt>
            <trkpt lat="51.744589" lon="10.480735"><ele>600.7</ele></trkpt>
            <trkpt lat="51.744249" lon="10.480786"><ele>610.6</ele></trkpt>
            <trkpt lat="51.744021" lon="10.480778"><ele>612.4</ele></trkpt>
            <trkpt lat="51.743856" lon="10.480555"><ele>615.5</ele></trkpt>
            <trkpt lat="51.743601" lon="10.480117"><ele>614.9</ele></trkpt>
            <trkpt lat="51.743085" lon="10.479104"><ele>620.2</ele></trkpt>
            <trkpt lat="51.743112" lon="10.479018"><ele>620.7</ele></trkpt>
            <trkpt lat="51.743192" lon="10.478984"><ele>621.2</ele></trkpt>
            <trkpt lat="51.743426" lon="10.479173"><ele>619</ele></trkpt>
            <trkpt lat="51.743691" lon="10.479447"><ele>617.7</ele></trkpt>
            <trkpt lat="51.74393" lon="10.479782"><ele>616.9</ele></trkpt>
            <trkpt lat="51.744042" lon="10.479842"><ele>616.3</ele></trkpt>
            <trkpt lat="51.744122" lon="10.479791"><ele>616.2</ele></trkpt>
            <trkpt lat="51.744138" lon="10.479705"><ele>616.1</ele></trkpt>
            <trkpt lat="51.744042" lon="10.479525"><ele>616.7</ele></trkpt>
            <trkpt lat="51.74393" lon="10.479379"><ele>617.2</ele></trkpt>
            <trkpt lat="51.743378" lon="10.477808"><ele>628.1</ele></trkpt>
            <trkpt lat="51.743176" lon="10.477576"><ele>630.5</ele></trkpt>
            <trkpt lat="51.74282" lon="10.477242"><ele>633.6</ele></trkpt>
            <trkpt lat="51.742603" lon="10.476933"><ele>637</ele></trkpt>
            <trkpt lat="51.742674" lon="10.476872"><ele>634.4</ele></trkpt>
            <trkpt lat="51.742873" lon="10.476332"><ele>634</ele></trkpt>
            <trkpt lat="51.743009" lon="10.475723"><ele>633.2</ele></trkpt>
            <trkpt lat="51.743027" lon="10.475448"><ele>633.3</ele></trkpt>
            <trkpt lat="51.743017" lon="10.475206"><ele>633.3</ele></trkpt>
            <trkpt lat="51.742899" lon="10.474464"><ele>632.3</ele></trkpt>
            <trkpt lat="51.742895" lon="10.474263"><ele>632.1</ele></trkpt>
            <trkpt lat="51.742937" lon="10.474116"><ele>631.6</ele></trkpt>
            <trkpt lat="51.743002" lon="10.47402"><ele>631.3</ele></trkpt>
            <trkpt lat="51.743075" lon="10.473989"><ele>631.1</ele></trkpt>
            <trkpt lat="51.743284" lon="10.474007"><ele>631.6</ele></trkpt>
            <trkpt lat="51.743835" lon="10.474306"><ele>633.8</ele></trkpt>
            <trkpt lat="51.744188" lon="10.474418"><ele>634.3</ele></trkpt>
            <trkpt lat="51.744393" lon="10.474547"><ele>641.5</ele></trkpt>
            <trkpt lat="51.744756" lon="10.474822"><ele>644.6</ele></trkpt>
            <trkpt lat="51.745966" lon="10.475508"><ele>653.2</ele></trkpt>
            <trkpt lat="51.746205" lon="10.475576"><ele>656</ele></trkpt>
            <trkpt lat="51.746471" lon="10.475534"><ele>658</ele></trkpt>
            <trkpt lat="51.746664" lon="10.475468"><ele>660</ele></trkpt>
            <trkpt lat="51.746717" lon="10.475393"><ele>666</ele></trkpt>
            <trkpt lat="51.746745" lon="10.475302"><ele>666</ele></trkpt>
            <trkpt lat="51.746747" lon="10.475169"><ele>666</ele></trkpt>
            <trkpt lat="51.746696" lon="10.474162"><ele>664</ele></trkpt>
            <trkpt lat="51.746595" lon="10.473872"><ele>662.6</ele></trkpt>
            <trkpt lat="51.74635" lon="10.473454"><ele>663.4</ele></trkpt>
            <trkpt lat="51.746088" lon="10.472598"><ele>663.5</ele></trkpt>
            <trkpt lat="51.74595" lon="10.47186"><ele>663.6</ele></trkpt>
            <trkpt lat="51.745998" lon="10.471706"><ele>663.6</ele></trkpt>
            <trkpt lat="51.746157" lon="10.471654"><ele>663.6</ele></trkpt>
            <trkpt lat="51.746726" lon="10.471886"><ele>666.8</ele></trkpt>
            <trkpt lat="51.747151" lon="10.472032"><ele>668.4</ele></trkpt>
            <trkpt lat="51.747624" lon="10.472143"><ele>679.5</ele></trkpt>
            <trkpt lat="51.747964" lon="10.472263"><ele>681.7</ele></trkpt>
            <trkpt lat="51.748623" lon="10.472847"><ele>689.1</ele></trkpt>
            <trkpt lat="51.749005" lon="10.472899"><ele>690</ele></trkpt>
            <trkpt lat="51.749484" lon="10.472864"><ele>691.1</ele></trkpt>
            <trkpt lat="51.749776" lon="10.472813"><ele>695</ele></trkpt>
            <trkpt lat="51.750158" lon="10.472776"><ele>697.1</ele></trkpt>
            <trkpt lat="51.750361" lon="10.47289"><ele>697.3</ele></trkpt>
            <trkpt lat="51.75068" lon="10.473576"><ele>697.4</ele></trkpt>
            <trkpt lat="51.750839" lon="10.473826"><ele>698.4</ele></trkpt>
            <trkpt lat="51.751056" lon="10.473898"><ele>698.6</ele></trkpt>
            <trkpt lat="51.751232" lon="10.4738"><ele>698.4</ele></trkpt>
            <trkpt lat="51.751342" lon="10.473642"><ele>700</ele></trkpt>
            <trkpt lat="51.75137" lon="10.473045"><ele>709.6</ele></trkpt>
            <trkpt lat="51.751353" lon="10.472533"><ele>710.3</ele></trkpt>
            <trkpt lat="51.751015" lon="10.471329"><ele>718</ele></trkpt>
            <trkpt lat="51.750967" lon="10.471065"><ele>718.9</ele></trkpt>
            <trkpt lat="51.750861" lon="10.470156"><ele>719.8</ele></trkpt>
            <trkpt lat="51.750678" lon="10.469306"><ele>720</ele></trkpt>
            <trkpt lat="51.750581" lon="10.467631"><ele>724</ele></trkpt>
            <trkpt lat="51.750293" lon="10.466114"><ele>731.1</ele></trkpt>
            <trkpt lat="51.749964" lon="10.465048"><ele>734.4</ele></trkpt>
            <trkpt lat="51.749691" lon="10.463568"><ele>738.3</ele></trkpt>
            <trkpt lat="51.749662" lon="10.462769"><ele>740.8</ele></trkpt>
            <trkpt lat="51.749608" lon="10.46209"><ele>744.5</ele></trkpt>
            <trkpt lat="51.749679" lon="10.460589"><ele>751.3</ele></trkpt>
            <trkpt lat="51.749558" lon="10.460019"><ele>751.1</ele></trkpt>
            <trkpt lat="51.749447" lon="10.458562"><ele>762.3</ele></trkpt>
            <trkpt lat="51.749473" lon="10.457612"><ele>769.3</ele></trkpt>
            <trkpt lat="51.749463" lon="10.457134"><ele>770.3</ele></trkpt>
            <trkpt lat="51.749425" lon="10.456819"><ele>771.1</ele></trkpt>
            <trkpt lat="51.749188" lon="10.455964"><ele>773.9</ele></trkpt>
            <trkpt lat="51.749082" lon="10.455493"><ele>774</ele></trkpt>
            <trkpt lat="51.748918" lon="10.454951"><ele>775</ele></trkpt>
            <trkpt lat="51.748988" lon="10.454745"><ele>778</ele></trkpt>
            <trkpt lat="51.749086" lon="10.454898"><ele>779.1</ele></trkpt>
            <trkpt lat="51.749328" lon="10.455371"><ele>780.1</ele></trkpt>
            <trkpt lat="51.749795" lon="10.456199"><ele>780.3</ele></trkpt>
            <trkpt lat="51.750185" lon="10.45713"><ele>781</ele></trkpt>
            <trkpt lat="51.750376" lon="10.457509"><ele>781.7</ele></trkpt>
            <trkpt lat="51.750578" lon="10.457861"><ele>781.2</ele></trkpt>
            <trkpt lat="51.751971" lon="10.460071"><ele>796.4</ele></trkpt>
            <trkpt lat="51.752282" lon="10.460533"><ele>796.7</ele></trkpt>
            <trkpt lat="51.752592" lon="10.460941"><ele>799</ele></trkpt>
            <trkpt lat="51.752807" lon="10.461118"><ele>799</ele></trkpt>
            <trkpt lat="51.752907" lon="10.461143"><ele>799</ele></trkpt>
            <trkpt lat="51.753113" lon="10.461073"><ele>799</ele></trkpt>
            <trkpt lat="51.753256" lon="10.460971"><ele>799.6</ele></trkpt>
            <trkpt lat="51.753469" lon="10.460753"><ele>801.7</ele></trkpt>
            <trkpt lat="51.753643" lon="10.460543"><ele>803.5</ele></trkpt>
            <trkpt lat="51.753797" lon="10.460254"><ele>805</ele></trkpt>
            <trkpt lat="51.75429" lon="10.459479"><ele>811.2</ele></trkpt>
            <trkpt lat="51.754434" lon="10.459285"><ele>811.4</ele></trkpt>
            <trkpt lat="51.754582" lon="10.459148"><ele>812.6</ele></trkpt>
            <trkpt lat="51.754725" lon="10.459063"><ele>814.6</ele></trkpt>
            <trkpt lat="51.754867" lon="10.459024"><ele>814.8</ele></trkpt>
            <trkpt lat="51.755441" lon="10.459037"><ele>816.6</ele></trkpt>
            <trkpt lat="51.756057" lon="10.459164"><ele>819.1</ele></trkpt>
            <trkpt lat="51.756672" lon="10.459351"><ele>820</ele></trkpt>
            <trkpt lat="51.756867" lon="10.459379"><ele>820.5</ele></trkpt>
            <trkpt lat="51.757045" lon="10.45936"><ele>820.3</ele></trkpt>
            <trkpt lat="51.758157" lon="10.459068"><ele>821.6</ele></trkpt>
            <trkpt lat="51.758412" lon="10.459048"><ele>823.5</ele></trkpt>
            <trkpt lat="51.758596" lon="10.459062"><ele>826</ele></trkpt>
            <trkpt lat="51.758337" lon="10.45767"><ele>821.6</ele></trkpt>
            <trkpt lat="51.758303" lon="10.457376"><ele>821.6</ele></trkpt>
            <trkpt lat="51.7583" lon="10.457223"><ele>821.7</ele></trkpt>
            <trkpt lat="51.758325" lon="10.457007"><ele>821.7</ele></trkpt>
            <trkpt lat="51.758398" lon="10.456647"><ele>811</ele></trkpt>
            <trkpt lat="51.758075" lon="10.456636"><ele>813.7</ele></trkpt>
            <trkpt lat="51.757889" lon="10.456597"><ele>815</ele></trkpt>
            <trkpt lat="51.757696" lon="10.456368"><ele>817.2</ele></trkpt>
            <trkpt lat="51.757339" lon="10.455567"><ele>817.8</ele></trkpt>
            <trkpt lat="51.757151" lon="10.454693"><ele>818.3</ele></trkpt>
            <trkpt lat="51.757056" lon="10.454516"><ele>818.6</ele></trkpt>
            <trkpt lat="51.756951" lon="10.454172"><ele>819.2</ele></trkpt>
            <trkpt lat="51.756937" lon="10.453655"><ele>817.4</ele></trkpt>
            <trkpt lat="51.757021" lon="10.451883"><ele>807.2</ele></trkpt>
            <trkpt lat="51.75709" lon="10.451081"><ele>803.5</ele></trkpt>
            <trkpt lat="51.757218" lon="10.45047"><ele>798.5</ele></trkpt>
            <trkpt lat="51.757473" lon="10.449439"><ele>793.2</ele></trkpt>
            <trkpt lat="51.757818" lon="10.448379"><ele>775.2</ele></trkpt>
            <trkpt lat="51.758235" lon="10.447326"><ele>766.3</ele></trkpt>
            <trkpt lat="51.758315" lon="10.447044"><ele>765.1</ele></trkpt>
            <trkpt lat="51.758426" lon="10.446557"><ele>759.6</ele></trkpt>
            <trkpt lat="51.758632" lon="10.445461"><ele>752</ele></trkpt>
            <trkpt lat="51.758633" lon="10.444973"><ele>746.7</ele></trkpt>
            <trkpt lat="51.758593" lon="10.444548"><ele>742.8</ele></trkpt>
            <trkpt lat="51.758542" lon="10.444197"><ele>741.2</ele></trkpt>
            <trkpt lat="51.758417" lon="10.443823"><ele>738.5</ele></trkpt>
            <trkpt lat="51.758097" lon="10.44318"><ele>733.6</ele></trkpt>
            <trkpt lat="51.757415" lon="10.44194"><ele>726.3</ele></trkpt>
            <trkpt lat="51.756881" lon="10.441099"><ele>722</ele></trkpt>
            <trkpt lat="51.756828" lon="10.440974"><ele>726.1</ele></trkpt>
            <trkpt lat="51.756592" lon="10.440683"><ele>726.5</ele></trkpt>
            <trkpt lat="51.756463" lon="10.440559"><ele>727.1</ele></trkpt>
            <trkpt lat="51.756222" lon="10.440379"><ele>727.4</ele></trkpt>
            <trkpt lat="51.756137" lon="10.440278"><ele>730</ele></trkpt>
            <trkpt lat="51.756127" lon="10.44025"><ele>730</ele></trkpt>
            <trkpt lat="51.756106" lon="10.440127"><ele>730.3</ele></trkpt>
            <trkpt lat="51.756135" lon="10.439994"><ele>730.9</ele></trkpt>
            <trkpt lat="51.756193" lon="10.439862"><ele>731.2</ele></trkpt>
            <trkpt lat="51.756363" lon="10.439595"><ele>731.3</ele></trkpt>
            <trkpt lat="51.756532" lon="10.439446"><ele>730.5</ele></trkpt>
            <trkpt lat="51.756647" lon="10.43938"><ele>730.4</ele></trkpt>
            <trkpt lat="51.757367" lon="10.439206"><ele>725.3</ele></trkpt>
            <trkpt lat="51.757741" lon="10.438999"><ele>718.9</ele></trkpt>
            <trkpt lat="51.757892" lon="10.43887"><ele>715.7</ele></trkpt>
            <trkpt lat="51.75839" lon="10.438299"><ele>706.1</ele></trkpt>
            <trkpt lat="51.759194" lon="10.437703"><ele>683.3</ele></trkpt>
            <trkpt lat="51.75995" lon="10.43697"><ele>671.2</ele></trkpt>
            <trkpt lat="51.760043" lon="10.436814"><ele>668.9</ele></trkpt>
            <trkpt lat="51.760121" lon="10.436565"><ele>664.9</ele></trkpt>
            <trkpt lat="51.760159" lon="10.436409"><ele>664.4</ele></trkpt>
            <trkpt lat="51.760258" lon="10.435742"><ele>663.2</ele></trkpt>
            <trkpt lat="51.760344" lon="10.43543"><ele>663</ele></trkpt>
            <trkpt lat="51.760312" lon="10.435946"><ele>656.8</ele></trkpt>
            <trkpt lat="51.760365" lon="10.436725"><ele>657</ele></trkpt>
            <trkpt lat="51.760351" lon="10.437008"><ele>657.1</ele></trkpt>
            <trkpt lat="51.760284" lon="10.437236"><ele>657.2</ele></trkpt>
            <trkpt lat="51.759813" lon="10.437951"><ele>654.3</ele></trkpt>
            <trkpt lat="51.759716" lon="10.438204"><ele>653.6</ele></trkpt>
            <trkpt lat="51.75955" lon="10.438831"><ele>651.9</ele></trkpt>
            <trkpt lat="51.759431" lon="10.439125"><ele>651.2</ele></trkpt>
            <trkpt lat="51.759414" lon="10.43922"><ele>651</ele></trkpt>
            <trkpt lat="51.759433" lon="10.439419"><ele>650.7</ele></trkpt>
            <trkpt lat="51.759524" lon="10.439524"><ele>649.8</ele></trkpt>
            <trkpt lat="51.760057" lon="10.439485"><ele>647</ele></trkpt>
            <trkpt lat="51.760273" lon="10.439536"><ele>647.2</ele></trkpt>
            <trkpt lat="51.760568" lon="10.439645"><ele>647.1</ele></trkpt>
            <trkpt lat="51.760793" lon="10.439766"><ele>645.2</ele></trkpt>
            <trkpt lat="51.76094" lon="10.439886"><ele>644.4</ele></trkpt>
            <trkpt lat="51.761043" lon="10.439987"><ele>645.5</ele></trkpt>
            <trkpt lat="51.761158" lon="10.440164"><ele>645.7</ele></trkpt>
            <trkpt lat="51.761359" lon="10.440632"><ele>645.5</ele></trkpt>
            <trkpt lat="51.761582" lon="10.441324"><ele>644.6</ele></trkpt>
            <trkpt lat="51.761766" lon="10.441959"><ele>641.8</ele></trkpt>
            <trkpt lat="51.761921" lon="10.442721"><ele>642.1</ele></trkpt>
            <trkpt lat="51.762373" lon="10.444265"><ele>636.6</ele></trkpt>
            <trkpt lat="51.762441" lon="10.444549"><ele>635.4</ele></trkpt>
            <trkpt lat="51.762521" lon="10.445021"><ele>617</ele></trkpt>
            <trkpt lat="51.762503" lon="10.445152"><ele>617</ele></trkpt>
            <trkpt lat="51.762519" lon="10.445213"><ele>617</ele></trkpt>
            <trkpt lat="51.762622" lon="10.445384"><ele>617</ele></trkpt>
            <trkpt lat="51.762687" lon="10.445434"><ele>617</ele></trkpt>
        </trkseg>
    </trk>
</gpx>
