<?xml version="1.0" encoding="UTF-8"?>
<gpx version="1.1" creator="HWN Route Compare (OpenRouteService)" xmlns="http://www.topografix.com/GPX/1/1">
    <metadata>
        <name>OpenRouteService – Tour C6</name>
    </metadata>
    <trk>
        <name>OpenRouteService – Tour C6</name>
        <trkseg>
            <trkpt lat="51.805903" lon="10.445621"><ele>533</ele></trkpt>
            <trkpt lat="51.805922" lon="10.445674"><ele>543</ele></trkpt>
            <trkpt lat="51.805934" lon="10.445812"><ele>541.5</ele></trkpt>
            <trkpt lat="51.805912" lon="10.445976"><ele>541</ele></trkpt>
            <trkpt lat="51.805848" lon="10.446206"><ele>539</ele></trkpt>
            <trkpt lat="51.805801" lon="10.446284"><ele>507.8</ele></trkpt>
            <trkpt lat="51.805772" lon="10.446397"><ele>507.6</ele></trkpt>
            <trkpt lat="51.80576" lon="10.446519"><ele>507.4</ele></trkpt>
            <trkpt lat="51.805772" lon="10.446676"><ele>506.7</ele></trkpt>
            <trkpt lat="51.805695" lon="10.446776"><ele>506</ele></trkpt>
            <trkpt lat="51.805582" lon="10.446979"><ele>505.5</ele></trkpt>
            <trkpt lat="51.805471" lon="10.447339"><ele>504.4</ele></trkpt>
            <trkpt lat="51.805422" lon="10.447582"><ele>503.7</ele></trkpt>
            <trkpt lat="51.805414" lon="10.447842"><ele>496</ele></trkpt>
            <trkpt lat="51.80557" lon="10.448411"><ele>493</ele></trkpt>
            <trkpt lat="51.805675" lon="10.448996"><ele>491.5</ele></trkpt>
            <trkpt lat="51.80574" lon="10.449503"><ele>487</ele></trkpt>
            <trkpt lat="51.805727" lon="10.449643"><ele>487</ele></trkpt>
            <trkpt lat="51.805698" lon="10.449751"><ele>487</ele></trkpt>
            <trkpt lat="51.805672" lon="10.449876"><ele>483.7</ele></trkpt>
            <trkpt lat="51.805654" lon="10.450119"><ele>483.2</ele></trkpt>
            <trkpt lat="51.805632" lon="10.450198"><ele>482.7</ele></trkpt>
            <trkpt lat="51.805584" lon="10.450177"><ele>482.3</ele></trkpt>
            <trkpt lat="51.805471" lon="10.450009"><ele>480</ele></trkpt>
            <trkpt lat="51.805132" lon="10.44941"><ele>478</ele></trkpt>
            <trkpt lat="51.80487" lon="10.448844"><ele>467</ele></trkpt>
            <trkpt lat="51.804947" lon="10.449455"><ele>469.5</ele></trkpt>
            <trkpt lat="51.80494" lon="10.449529"><ele>471</ele></trkpt>
            <trkpt lat="51.804647" lon="10.448978"><ele>468</ele></trkpt>
            <trkpt lat="51.804557" lon="10.448853"><ele>468.2</ele></trkpt>
            <trkpt lat="51.804333" lon="10.448652"><ele>467</ele></trkpt>
            <trkpt lat="51.804281" lon="10.44865"><ele>467</ele></trkpt>
            <trkpt lat="51.804242" lon="10.44867"><ele>467</ele></trkpt>
            <trkpt lat="51.804181" lon="10.448472"><ele>467.5</ele></trkpt>
            <trkpt lat="51.804102" lon="10.448299"><ele>469</ele></trkpt>
            <trkpt lat="51.804023" lon="10.448154"><ele>469</ele></trkpt>
            <trkpt lat="51.80374" lon="10.447724"><ele>469</ele></trkpt>
            <trkpt lat="51.80369" lon="10.447652"><ele>469</ele></trkpt>
            <trkpt lat="51.803638" lon="10.44775"><ele>469</ele></trkpt>
            <trkpt lat="51.803416" lon="10.448067"><ele>469</ele></trkpt>
            <trkpt lat="51.803044" lon="10.448551"><ele>472.1</ele></trkpt>
            <trkpt lat="51.802995" lon="10.448595"><ele>471.9</ele></trkpt>
            <trkpt lat="51.802787" lon="10.448678"><ele>473</ele></trkpt>
            <trkpt lat="51.802609" lon="10.448828"><ele>473</ele></trkpt>
            <trkpt lat="51.802589" lon="10.448897"><ele>473</ele></trkpt>
            <trkpt lat="51.802594" lon="10.44904"><ele>473</ele></trkpt>
            <trkpt lat="51.80264" lon="10.449161"><ele>473</ele></trkpt>
            <trkpt lat="51.802808" lon="10.449426"><ele>489.4</ele></trkpt>
            <trkpt lat="51.803124" lon="10.449799"><ele>490.5</ele></trkpt>
            <trkpt lat="51.803254" lon="10.449993"><ele>491.4</ele></trkpt>
            <trkpt lat="51.803297" lon="10.450074"><ele>491.4</ele></trkpt>
            <trkpt lat="51.803303" lon="10.45014"><ele>494.7</ele></trkpt>
            <trkpt lat="51.803297" lon="10.450074"><ele>491.4</ele></trkpt>
            <trkpt lat="51.803254" lon="10.449993"><ele>491.4</ele></trkpt>
            <trkpt lat="51.803124" lon="10.449799"><ele>490.5</ele></trkpt>
            <trkpt lat="51.802808" lon="10.449426"><ele>489.4</ele></trkpt>
            <trkpt lat="51.80264" lon="10.449161"><ele>473</ele></trkpt>
            <trkpt lat="51.802594" lon="10.44904"><ele>473</ele></trkpt>
            <trkpt lat="51.802589" lon="10.448897"><ele>473</ele></trkpt>
            <trkpt lat="51.802609" lon="10.448828"><ele>473</ele></trkpt>
            <trkpt lat="51.802787" lon="10.448678"><ele>473</ele></trkpt>
            <trkpt lat="51.802638" lon="10.448644"><ele>473</ele></trkpt>
            <trkpt lat="51.802457" lon="10.448779"><ele>475.1</ele></trkpt>
            <trkpt lat="51.802408" lon="10.448851"><ele>475.1</ele></trkpt>
            <trkpt lat="51.802326" lon="10.448914"><ele>475.1</ele></trkpt>
            <trkpt lat="51.801783" lon="10.448876"><ele>475.2</ele></trkpt>
            <trkpt lat="51.801564" lon="10.448771"><ele>478</ele></trkpt>
            <trkpt lat="51.801507" lon="10.448747"><ele>478</ele></trkpt>
            <trkpt lat="51.801226" lon="10.448888"><ele>478</ele></trkpt>
            <trkpt lat="51.801052" lon="10.448959"><ele>478</ele></trkpt>
            <trkpt lat="51.801011" lon="10.448833"><ele>478</ele></trkpt>
            <trkpt lat="51.800953" lon="10.448815"><ele>478</ele></trkpt>
            <trkpt lat="51.800908" lon="10.449029"><ele>478</ele></trkpt>
            <trkpt lat="51.800793" lon="10.44939"><ele>489</ele></trkpt>
            <trkpt lat="51.800695" lon="10.449674"><ele>490.6</ele></trkpt>
            <trkpt lat="51.800579" lon="10.450131"><ele>494</ele></trkpt>
            <trkpt lat="51.800405" lon="10.450853"><ele>492</ele></trkpt>
            <trkpt lat="51.800177" lon="10.451579"><ele>492</ele></trkpt>
            <trkpt lat="51.800033" lon="10.452179"><ele>490</ele></trkpt>
            <trkpt lat="51.800008" lon="10.452369"><ele>489</ele></trkpt>
            <trkpt lat="51.800008" lon="10.452405"><ele>489</ele></trkpt>
            <trkpt lat="51.800001" lon="10.452691"><ele>491</ele></trkpt>
            <trkpt lat="51.799997" lon="10.452897"><ele>506</ele></trkpt>
            <trkpt lat="51.79999" lon="10.453187"><ele>506</ele></trkpt>
            <trkpt lat="51.799991" lon="10.453863"><ele>506</ele></trkpt>
            <trkpt lat="51.800003" lon="10.454058"><ele>494</ele></trkpt>
            <trkpt lat="51.800008" lon="10.454133"><ele>494</ele></trkpt>
            <trkpt lat="51.800025" lon="10.454416"><ele>502.4</ele></trkpt>
            <trkpt lat="51.800125" lon="10.455137"><ele>502.9</ele></trkpt>
            <trkpt lat="51.800223" lon="10.456344"><ele>507</ele></trkpt>
            <trkpt lat="51.800144" lon="10.456541"><ele>512.6</ele></trkpt>
            <trkpt lat="51.799907" lon="10.456883"><ele>514.1</ele></trkpt>
            <trkpt lat="51.799862" lon="10.457"><ele>513.8</ele></trkpt>
            <trkpt lat="51.799738" lon="10.45747"><ele>517</ele></trkpt>
            <trkpt lat="51.799686" lon="10.457663"><ele>519.4</ele></trkpt>
            <trkpt lat="51.799555" lon="10.458002"><ele>520</ele></trkpt>
            <trkpt lat="51.79934" lon="10.458382"><ele>523</ele></trkpt>
            <trkpt lat="51.799308" lon="10.458481"><ele>525.7</ele></trkpt>
            <trkpt lat="51.799278" lon="10.458672"><ele>526</ele></trkpt>
            <trkpt lat="51.799293" lon="10.458839"><ele>526.5</ele></trkpt>
            <trkpt lat="51.79936" lon="10.459197"><ele>526.9</ele></trkpt>
            <trkpt lat="51.799366" lon="10.459518"><ele>527.2</ele></trkpt>
            <trkpt lat="51.799322" lon="10.45969"><ele>527.4</ele></trkpt>
            <trkpt lat="51.799254" lon="10.459819"><ele>527.6</ele></trkpt>
            <trkpt lat="51.799141" lon="10.459955"><ele>543</ele></trkpt>
            <trkpt lat="51.798959" lon="10.460197"><ele>548</ele></trkpt>
            <trkpt lat="51.798864" lon="10.460389"><ele>548</ele></trkpt>
            <trkpt lat="51.79871" lon="10.460574"><ele>548</ele></trkpt>
            <trkpt lat="51.798614" lon="10.460537"><ele>548</ele></trkpt>
            <trkpt lat="51.79865" lon="10.460349"><ele>553.5</ele></trkpt>
            <trkpt lat="51.79865" lon="10.460278"><ele>553.2</ele></trkpt>
            <trkpt lat="51.798632" lon="10.460189"><ele>552.9</ele></trkpt>
            <trkpt lat="51.798609" lon="10.460153"><ele>552.7</ele></trkpt>
            <trkpt lat="51.7985" lon="10.460402"><ele>552.4</ele></trkpt>
            <trkpt lat="51.798371" lon="10.460483"><ele>552</ele></trkpt>
            <trkpt lat="51.798337" lon="10.460565"><ele>551.8</ele></trkpt>
            <trkpt lat="51.798287" lon="10.460877"><ele>553.8</ele></trkpt>
            <trkpt lat="51.798279" lon="10.460749"><ele>554.3</ele></trkpt>
            <trkpt lat="51.798245" lon="10.460632"><ele>554.9</ele></trkpt>
            <trkpt lat="51.798234" lon="10.460386"><ele>555.3</ele></trkpt>
            <trkpt lat="51.798073" lon="10.460199"><ele>564</ele></trkpt>
            <trkpt lat="51.797998" lon="10.460151"><ele>562.3</ele></trkpt>
            <trkpt lat="51.797775" lon="10.460076"><ele>562.6</ele></trkpt>
            <trkpt lat="51.797628" lon="10.45993"><ele>559</ele></trkpt>
            <trkpt lat="51.797577" lon="10.459894"><ele>565</ele></trkpt>
            <trkpt lat="51.797454" lon="10.459899"><ele>565</ele></trkpt>
            <trkpt lat="51.796137" lon="10.459354"><ele>574.7</ele></trkpt>
            <trkpt lat="51.796026" lon="10.459348"><ele>577</ele></trkpt>
            <trkpt lat="51.795956" lon="10.459476"><ele>577</ele></trkpt>
            <trkpt lat="51.795866" lon="10.459592"><ele>582.9</ele></trkpt>
            <trkpt lat="51.795757" lon="10.4598"><ele>582.9</ele></trkpt>
            <trkpt lat="51.79556" lon="10.460343"><ele>583.4</ele></trkpt>
            <trkpt lat="51.795258" lon="10.461045"><ele>585.1</ele></trkpt>
            <trkpt lat="51.79519" lon="10.461162"><ele>585.8</ele></trkpt>
            <trkpt lat="51.795073" lon="10.461305"><ele>587.4</ele></trkpt>
            <trkpt lat="51.794928" lon="10.461409"><ele>587</ele></trkpt>
            <trkpt lat="51.794917" lon="10.461422"><ele>587</ele></trkpt>
            <trkpt lat="51.794909" lon="10.461432"><ele>587</ele></trkpt>
            <trkpt lat="51.794879" lon="10.461461"><ele>587</ele></trkpt>
            <trkpt lat="51.794457" lon="10.461835"><ele>599.7</ele></trkpt>
            <trkpt lat="51.79345" lon="10.463256"><ele>610</ele></trkpt>
            <trkpt lat="51.792858" lon="10.463985"><ele>626.8</ele></trkpt>
            <trkpt lat="51.792657" lon="10.464184"><ele>627.7</ele></trkpt>
            <trkpt lat="51.792421" lon="10.464289"><ele>628.6</ele></trkpt>
            <trkpt lat="51.79185" lon="10.464452"><ele>632.2</ele></trkpt>
            <trkpt lat="51.791364" lon="10.464799"><ele>635.8</ele></trkpt>
            <trkpt lat="51.790982" lon="10.464906"><ele>641.7</ele></trkpt>
            <trkpt lat="51.790362" lon="10.464959"><ele>651.5</ele></trkpt>
            <trkpt lat="51.79025" lon="10.464945"><ele>651.7</ele></trkpt>
            <trkpt lat="51.789985" lon="10.46484"><ele>655</ele></trkpt>
            <trkpt lat="51.789757" lon="10.464819"><ele>657.6</ele></trkpt>
            <trkpt lat="51.789222" lon="10.464706"><ele>664.1</ele></trkpt>
            <trkpt lat="51.789124" lon="10.464722"><ele>666.2</ele></trkpt>
            <trkpt lat="51.789018" lon="10.464774"><ele>667.7</ele></trkpt>
            <trkpt lat="51.788864" lon="10.464892"><ele>670.5</ele></trkpt>
            <trkpt lat="51.788771" lon="10.464994"><ele>672.1</ele></trkpt>
            <trkpt lat="51.78853" lon="10.465325"><ele>674.1</ele></trkpt>
            <trkpt lat="51.78813" lon="10.46595"><ele>676.2</ele></trkpt>
            <trkpt lat="51.787962" lon="10.46609"><ele>676.3</ele></trkpt>
            <trkpt lat="51.787742" lon="10.466182"><ele>687</ele></trkpt>
            <trkpt lat="51.786798" lon="10.466759"><ele>703.4</ele></trkpt>
            <trkpt lat="51.786481" lon="10.466827"><ele>704</ele></trkpt>
            <trkpt lat="51.78604" lon="10.466811"><ele>705.3</ele></trkpt>
            <trkpt lat="51.785886" lon="10.466844"><ele>704.8</ele></trkpt>
            <trkpt lat="51.78569" lon="10.466987"><ele>704.6</ele></trkpt>
            <trkpt lat="51.785581" lon="10.467163"><ele>704.5</ele></trkpt>
            <trkpt lat="51.785537" lon="10.467283"><ele>705</ele></trkpt>
            <trkpt lat="51.785485" lon="10.467562"><ele>712.7</ele></trkpt>
            <trkpt lat="51.785478" lon="10.467603"><ele>720.4</ele></trkpt>
            <trkpt lat="51.785446" lon="10.468039"><ele>722.4</ele></trkpt>
            <trkpt lat="51.785421" lon="10.468211"><ele>723.1</ele></trkpt>
            <trkpt lat="51.785369" lon="10.468429"><ele>723.7</ele></trkpt>
            <trkpt lat="51.785176" lon="10.469072"><ele>723.5</ele></trkpt>
            <trkpt lat="51.784952" lon="10.469601"><ele>725.2</ele></trkpt>
            <trkpt lat="51.78487" lon="10.46993"><ele>730</ele></trkpt>
            <trkpt lat="51.784729" lon="10.470508"><ele>740.7</ele></trkpt>
            <trkpt lat="51.78462" lon="10.471184"><ele>740.9</ele></trkpt>
            <trkpt lat="51.784196" lon="10.473256"><ele>760.5</ele></trkpt>
            <trkpt lat="51.784094" lon="10.473868"><ele>761.5</ele></trkpt>
            <trkpt lat="51.783898" lon="10.474817"><ele>767</ele></trkpt>
            <trkpt lat="51.783911" lon="10.475187"><ele>772.7</ele></trkpt>
            <trkpt lat="51.783961" lon="10.475489"><ele>772.5</ele></trkpt>
            <trkpt lat="51.784223" lon="10.476481"><ele>775</ele></trkpt>
            <trkpt lat="51.784444" lon="10.477712"><ele>783.1</ele></trkpt>
            <trkpt lat="51.784763" lon="10.479354"><ele>789.2</ele></trkpt>
            <trkpt lat="51.784804" lon="10.479759"><ele>790.2</ele></trkpt>
            <trkpt lat="51.784845" lon="10.480525"><ele>793.4</ele></trkpt>
            <trkpt lat="51.784887" lon="10.480991"><ele>794</ele></trkpt>
            <trkpt lat="51.785051" lon="10.482284"><ele>797</ele></trkpt>
            <trkpt lat="51.785121" lon="10.482622"><ele>798.6</ele></trkpt>
            <trkpt lat="51.785235" lon="10.483039"><ele>801.1</ele></trkpt>
            <trkpt lat="51.785457" lon="10.483632"><ele>804.3</ele></trkpt>
            <trkpt lat="51.785685" lon="10.484444"><ele>805.8</ele></trkpt>
            <trkpt lat="51.785766" lon="10.484944"><ele>806.3</ele></trkpt>
            <trkpt lat="51.785789" lon="10.485172"><ele>814</ele></trkpt>
            <trkpt lat="51.785796" lon="10.485423"><ele>814</ele></trkpt>
            <trkpt lat="51.785832" lon="10.485717"><ele>811.8</ele></trkpt>
            <trkpt lat="51.785885" lon="10.486447"><ele>812.6</ele></trkpt>
            <trkpt lat="51.78592" lon="10.486693"><ele>815.5</ele></trkpt>
            <trkpt lat="51.786383" lon="10.489117"><ele>828.4</ele></trkpt>
            <trkpt lat="51.786696" lon="10.491189"><ele>837.6</ele></trkpt>
            <trkpt lat="51.78677" lon="10.491894"><ele>843.7</ele></trkpt>
            <trkpt lat="51.787119" lon="10.49384"><ele>858.2</ele></trkpt>
            <trkpt lat="51.787207" lon="10.494392"><ele>863.7</ele></trkpt>
            <trkpt lat="51.78725" lon="10.494781"><ele>866.4</ele></trkpt>
            <trkpt lat="51.787415" lon="10.49573"><ele>870</ele></trkpt>
            <trkpt lat="51.787496" lon="10.496812"><ele>873.1</ele></trkpt>
            <trkpt lat="51.78754" lon="10.497174"><ele>873</ele></trkpt>
            <trkpt lat="51.78758" lon="10.497311"><ele>873.3</ele></trkpt>
            <trkpt lat="51.787651" lon="10.497464"><ele>873.6</ele></trkpt>
            <trkpt lat="51.789402" lon="10.500282"><ele>884</ele></trkpt>
            <trkpt lat="51.789318" lon="10.500518"><ele>892.4</ele></trkpt>
            <trkpt lat="51.789311" lon="10.500609"><ele>893.7</ele></trkpt>
            <trkpt lat="51.789242" lon="10.500784"><ele>895.2</ele></trkpt>
            <trkpt lat="51.789221" lon="10.500902"><ele>895.9</ele></trkpt>
            <trkpt lat="51.789218" lon="10.501083"><ele>896.9</ele></trkpt>
            <trkpt lat="51.789201" lon="10.501201"><ele>897.5</ele></trkpt>
            <trkpt lat="51.789218" lon="10.501557"><ele>898.9</ele></trkpt>
            <trkpt lat="51.789267" lon="10.501701"><ele>899.3</ele></trkpt>
            <trkpt lat="51.789325" lon="10.50198"><ele>900.2</ele></trkpt>
            <trkpt lat="51.789321" lon="10.502294"><ele>900.6</ele></trkpt>
            <trkpt lat="51.789337" lon="10.50249"><ele>901</ele></trkpt>
            <trkpt lat="51.789365" lon="10.502575"><ele>901.1</ele></trkpt>
            <trkpt lat="51.789524" lon="10.502853"><ele>901.5</ele></trkpt>
            <trkpt lat="51.789668" lon="10.503169"><ele>902.1</ele></trkpt>
            <trkpt lat="51.789761" lon="10.503199"><ele>902.2</ele></trkpt>
            <trkpt lat="51.789918" lon="10.503302"><ele>902.3</ele></trkpt>
            <trkpt lat="51.790044" lon="10.503247"><ele>902.4</ele></trkpt>
            <trkpt lat="51.790089" lon="10.503309"><ele>902.7</ele></trkpt>
            <trkpt lat="51.790158" lon="10.503344"><ele>902.9</ele></trkpt>
            <trkpt lat="51.790199" lon="10.503419"><ele>902.7</ele></trkpt>
            <trkpt lat="51.790236" lon="10.503445"><ele>902.5</ele></trkpt>
            <trkpt lat="51.790293" lon="10.503432"><ele>902.4</ele></trkpt>
            <trkpt lat="51.790373" lon="10.503452"><ele>908</ele></trkpt>
            <trkpt lat="51.790431" lon="10.503466"><ele>908</ele></trkpt>
            <trkpt lat="51.790488" lon="10.503659"><ele>908</ele></trkpt>
            <trkpt lat="51.790614" lon="10.504082"><ele>908</ele></trkpt>
            <trkpt lat="51.79078" lon="10.504547"><ele>907.6</ele></trkpt>
            <trkpt lat="51.790795" lon="10.504635"><ele>907.2</ele></trkpt>
            <trkpt lat="51.791677" lon="10.507493"><ele>898</ele></trkpt>
            <trkpt lat="51.791947" lon="10.508411"><ele>886.9</ele></trkpt>
            <trkpt lat="51.79247" lon="10.51006"><ele>878</ele></trkpt>
            <trkpt lat="51.792531" lon="10.510292"><ele>870.3</ele></trkpt>
            <trkpt lat="51.79312" lon="10.512124"><ele>860</ele></trkpt>
            <trkpt lat="51.793375" lon="10.512893"><ele>856.8</ele></trkpt>
            <trkpt lat="51.793469" lon="10.513117"><ele>857.1</ele></trkpt>
            <trkpt lat="51.793611" lon="10.513597"><ele>849</ele></trkpt>
            <trkpt lat="51.793615" lon="10.513725"><ele>844.6</ele></trkpt>
            <trkpt lat="51.793684" lon="10.513998"><ele>843</ele></trkpt>
            <trkpt lat="51.793893" lon="10.514722"><ele>841.5</ele></trkpt>
            <trkpt lat="51.794015" lon="10.51507"><ele>841.2</ele></trkpt>
            <trkpt lat="51.794098" lon="10.516065"><ele>840.1</ele></trkpt>
            <trkpt lat="51.794122" lon="10.516196"><ele>835</ele></trkpt>
            <trkpt lat="51.794143" lon="10.516252"><ele>835</ele></trkpt>
            <trkpt lat="51.79416" lon="10.516302"><ele>835</ele></trkpt>
            <trkpt lat="51.793787" lon="10.516862"><ele>831.3</ele></trkpt>
            <trkpt lat="51.792948" lon="10.517854"><ele>829.3</ele></trkpt>
            <trkpt lat="51.792361" lon="10.518434"><ele>830.3</ele></trkpt>
            <trkpt lat="51.791827" lon="10.518866"><ele>829.9</ele></trkpt>
            <trkpt lat="51.791366" lon="10.519078"><ele>830.2</ele></trkpt>
            <trkpt lat="51.790969" lon="10.519221"><ele>829</ele></trkpt>
            <trkpt lat="51.790167" lon="10.519368"><ele>829</ele></trkpt>
            <trkpt lat="51.790119" lon="10.519391"><ele>829</ele></trkpt>
            <trkpt lat="51.790007" lon="10.51947"><ele>829.3</ele></trkpt>
            <trkpt lat="51.789637" lon="10.519645"><ele>829.3</ele></trkpt>
            <trkpt lat="51.788758" lon="10.51977"><ele>828.1</ele></trkpt>
            <trkpt lat="51.787363" lon="10.520305"><ele>825.5</ele></trkpt>
            <trkpt lat="51.78698" lon="10.520378"><ele>824</ele></trkpt>
            <trkpt lat="51.786267" lon="10.520314"><ele>822.3</ele></trkpt>
            <trkpt lat="51.785993" lon="10.520143"><ele>823.2</ele></trkpt>
            <trkpt lat="51.785774" lon="10.519928"><ele>822.6</ele></trkpt>
            <trkpt lat="51.785464" lon="10.519685"><ele>821.3</ele></trkpt>
            <trkpt lat="51.78517" lon="10.519035"><ele>821.1</ele></trkpt>
            <trkpt lat="51.785049" lon="10.51836"><ele>819.3</ele></trkpt>
            <trkpt lat="51.784871" lon="10.517923"><ele>818.8</ele></trkpt>
            <trkpt lat="51.784844" lon="10.5178"><ele>813</ele></trkpt>
            <trkpt lat="51.784642" lon="10.517731"><ele>813</ele></trkpt>
            <trkpt lat="51.784633" lon="10.517862"><ele>807</ele></trkpt>
            <trkpt lat="51.784597" lon="10.517979"><ele>806.9</ele></trkpt>
            <trkpt lat="51.784557" lon="10.518363"><ele>806.2</ele></trkpt>
            <trkpt lat="51.784543" lon="10.518748"><ele>805.5</ele></trkpt>
            <trkpt lat="51.784481" lon="10.519184"><ele>803.5</ele></trkpt>
            <trkpt lat="51.784294" lon="10.51984"><ele>801.2</ele></trkpt>
            <trkpt lat="51.784209" lon="10.520024"><ele>799.6</ele></trkpt>
            <trkpt lat="51.784131" lon="10.520611"><ele>794.4</ele></trkpt>
            <trkpt lat="51.784117" lon="10.520988"><ele>791.5</ele></trkpt>
            <trkpt lat="51.784077" lon="10.521162"><ele>791.2</ele></trkpt>
            <trkpt lat="51.783999" lon="10.521331"><ele>789.9</ele></trkpt>
            <trkpt lat="51.783881" lon="10.521742"><ele>789.5</ele></trkpt>
            <trkpt lat="51.783805" lon="10.52237"><ele>786</ele></trkpt>
            <trkpt lat="51.783721" lon="10.522684"><ele>784.5</ele></trkpt>
            <trkpt lat="51.783677" lon="10.523037"><ele>780</ele></trkpt>
            <trkpt lat="51.783666" lon="10.523136"><ele>774.4</ele></trkpt>
            <trkpt lat="51.783674" lon="10.523237"><ele>774.1</ele></trkpt>
            <trkpt lat="51.783738" lon="10.52352"><ele>772.7</ele></trkpt>
            <trkpt lat="51.783728" lon="10.523671"><ele>771.8</ele></trkpt>
            <trkpt lat="51.783324" lon="10.524135"><ele>770.1</ele></trkpt>
            <trkpt lat="51.78328" lon="10.524209"><ele>769.6</ele></trkpt>
            <trkpt lat="51.783237" lon="10.524385"><ele>769.2</ele></trkpt>
            <trkpt lat="51.783164" lon="10.525046"><ele>768.6</ele></trkpt>
            <trkpt lat="51.783145" lon="10.526168"><ele>764.5</ele></trkpt>
            <trkpt lat="51.783107" lon="10.526449"><ele>763.8</ele></trkpt>
            <trkpt lat="51.782749" lon="10.527257"><ele>760.4</ele></trkpt>
            <trkpt lat="51.782578" lon="10.527787"><ele>758.4</ele></trkpt>
            <trkpt lat="51.78252" lon="10.527868"><ele>758</ele></trkpt>
            <trkpt lat="51.782177" lon="10.528029"><ele>755.7</ele></trkpt>
            <trkpt lat="51.781859" lon="10.528116"><ele>755</ele></trkpt>
            <trkpt lat="51.781763" lon="10.5282"><ele>754.3</ele></trkpt>
            <trkpt lat="51.781559" lon="10.529136"><ele>753.5</ele></trkpt>
            <trkpt lat="51.781457" lon="10.529457"><ele>752.9</ele></trkpt>
            <trkpt lat="51.78135" lon="10.529599"><ele>753</ele></trkpt>
            <trkpt lat="51.781166" lon="10.529745"><ele>752.9</ele></trkpt>
            <trkpt lat="51.781111" lon="10.529815"><ele>753</ele></trkpt>
            <trkpt lat="51.78108" lon="10.529885"><ele>752.9</ele></trkpt>
            <trkpt lat="51.781" lon="10.530196"><ele>749</ele></trkpt>
            <trkpt lat="51.780977" lon="10.530271"><ele>749</ele></trkpt>
            <trkpt lat="51.780871" lon="10.530653"><ele>749</ele></trkpt>
            <trkpt lat="51.780747" lon="10.530903"><ele>744.2</ele></trkpt>
            <trkpt lat="51.780566" lon="10.531125"><ele>743.7</ele></trkpt>
            <trkpt lat="51.779986" lon="10.531641"><ele>743.5</ele></trkpt>
            <trkpt lat="51.779832" lon="10.531928"><ele>743.5</ele></trkpt>
            <trkpt lat="51.779639" lon="10.532514"><ele>740</ele></trkpt>
            <trkpt lat="51.779584" lon="10.532642"><ele>740</ele></trkpt>
            <trkpt lat="51.779639" lon="10.532514"><ele>740</ele></trkpt>
            <trkpt lat="51.779832" lon="10.531928"><ele>743.5</ele></trkpt>
            <trkpt lat="51.779986" lon="10.531641"><ele>743.5</ele></trkpt>
            <trkpt lat="51.780566" lon="10.531125"><ele>743.7</ele></trkpt>
            <trkpt lat="51.780747" lon="10.530903"><ele>744.2</ele></trkpt>
            <trkpt lat="51.780871" lon="10.530653"><ele>749</ele></trkpt>
            <trkpt lat="51.780977" lon="10.530271"><ele>749</ele></trkpt>
            <trkpt lat="51.781" lon="10.530196"><ele>749</ele></trkpt>
            <trkpt lat="51.78108" lon="10.529885"><ele>752.9</ele></trkpt>
            <trkpt lat="51.781111" lon="10.529815"><ele>753</ele></trkpt>
            <trkpt lat="51.781166" lon="10.529745"><ele>752.9</ele></trkpt>
            <trkpt lat="51.78135" lon="10.529599"><ele>753</ele></trkpt>
            <trkpt lat="51.781457" lon="10.529457"><ele>752.9</ele></trkpt>
            <trkpt lat="51.781559" lon="10.529136"><ele>753.5</ele></trkpt>
            <trkpt lat="51.781763" lon="10.5282"><ele>754.3</ele></trkpt>
            <trkpt lat="51.781859" lon="10.528116"><ele>755</ele></trkpt>
            <trkpt lat="51.782177" lon="10.528029"><ele>755.7</ele></trkpt>
            <trkpt lat="51.78252" lon="10.527868"><ele>758</ele></trkpt>
            <trkpt lat="51.782578" lon="10.527787"><ele>758.4</ele></trkpt>
            <trkpt lat="51.782749" lon="10.527257"><ele>760.4</ele></trkpt>
            <trkpt lat="51.783107" lon="10.526449"><ele>763.8</ele></trkpt>
            <trkpt lat="51.783145" lon="10.526168"><ele>764.5</ele></trkpt>
            <trkpt lat="51.783164" lon="10.525046"><ele>768.6</ele></trkpt>
            <trkpt lat="51.783237" lon="10.524385"><ele>769.2</ele></trkpt>
            <trkpt lat="51.78328" lon="10.524209"><ele>769.6</ele></trkpt>
            <trkpt lat="51.783324" lon="10.524135"><ele>770.1</ele></trkpt>
            <trkpt lat="51.783728" lon="10.523671"><ele>771.8</ele></trkpt>
            <trkpt lat="51.783738" lon="10.52352"><ele>772.7</ele></trkpt>
            <trkpt lat="51.783674" lon="10.523237"><ele>774.1</ele></trkpt>
            <trkpt lat="51.783666" lon="10.523136"><ele>774.4</ele></trkpt>
            <trkpt lat="51.783677" lon="10.523037"><ele>780</ele></trkpt>
            <trkpt lat="51.78384" lon="10.523026"><ele>782.3</ele></trkpt>
            <trkpt lat="51.784037" lon="10.522966"><ele>782.3</ele></trkpt>
            <trkpt lat="51.784126" lon="10.52296"><ele>782.1</ele></trkpt>
            <trkpt lat="51.784218" lon="10.522984"><ele>782.7</ele></trkpt>
            <trkpt lat="51.784507" lon="10.523304"><ele>784</ele></trkpt>
            <trkpt lat="51.785082" lon="10.524009"><ele>784.7</ele></trkpt>
            <trkpt lat="51.786171" lon="10.525134"><ele>783.3</ele></trkpt>
            <trkpt lat="51.786391" lon="10.525334"><ele>782.6</ele></trkpt>
            <trkpt lat="51.786525" lon="10.525412"><ele>782.5</ele></trkpt>
            <trkpt lat="51.786739" lon="10.52549"><ele>782.5</ele></trkpt>
            <trkpt lat="51.786946" lon="10.525609"><ele>782.2</ele></trkpt>
            <trkpt lat="51.787452" lon="10.526033"><ele>781.1</ele></trkpt>
            <trkpt lat="51.787979" lon="10.526361"><ele>780.2</ele></trkpt>
            <trkpt lat="51.78806" lon="10.526452"><ele>780.1</ele></trkpt>
            <trkpt lat="51.788466" lon="10.527033"><ele>779.3</ele></trkpt>
            <trkpt lat="51.788869" lon="10.527698"><ele>779.4</ele></trkpt>
            <trkpt lat="51.789187" lon="10.528353"><ele>780.4</ele></trkpt>
            <trkpt lat="51.78942" lon="10.528978"><ele>780.7</ele></trkpt>
            <trkpt lat="51.789584" lon="10.52957"><ele>781.3</ele></trkpt>
            <trkpt lat="51.789677" lon="10.529685"><ele>781.1</ele></trkpt>
            <trkpt lat="51.789765" lon="10.529714"><ele>781.5</ele></trkpt>
            <trkpt lat="51.789867" lon="10.529707"><ele>781.3</ele></trkpt>
            <trkpt lat="51.79052" lon="10.529555"><ele>783.4</ele></trkpt>
            <trkpt lat="51.790877" lon="10.529446"><ele>784.8</ele></trkpt>
            <trkpt lat="51.791044" lon="10.52942"><ele>786.6</ele></trkpt>
            <trkpt lat="51.791273" lon="10.529421"><ele>789</ele></trkpt>
            <trkpt lat="51.791729" lon="10.52949"><ele>789.8</ele></trkpt>
            <trkpt lat="51.792417" lon="10.52975"><ele>791.5</ele></trkpt>
            <trkpt lat="51.79262" lon="10.529773"><ele>792.3</ele></trkpt>
            <trkpt lat="51.792747" lon="10.529729"><ele>793</ele></trkpt>
            <trkpt lat="51.79336" lon="10.52939"><ele>788.8</ele></trkpt>
            <trkpt lat="51.794086" lon="10.529273"><ele>786.8</ele></trkpt>
            <trkpt lat="51.794181" lon="10.529206"><ele>785.9</ele></trkpt>
            <trkpt lat="51.794836" lon="10.528555"><ele>781</ele></trkpt>
            <trkpt lat="51.795133" lon="10.528188"><ele>777</ele></trkpt>
            <trkpt lat="51.795162" lon="10.528229"><ele>777</ele></trkpt>
            <trkpt lat="51.795192" lon="10.528189"><ele>777</ele></trkpt>
            <trkpt lat="51.795311" lon="10.528032"><ele>777</ele></trkpt>
            <trkpt lat="51.7954" lon="10.527853"><ele>777</ele></trkpt>
            <trkpt lat="51.795655" lon="10.528017"><ele>777</ele></trkpt>
            <trkpt lat="51.79577" lon="10.528128"><ele>777</ele></trkpt>
            <trkpt lat="51.795804" lon="10.528153"><ele>777</ele></trkpt>
            <trkpt lat="51.795922" lon="10.52826"><ele>771.2</ele></trkpt>
            <trkpt lat="51.79606" lon="10.528245"><ele>771.6</ele></trkpt>
            <trkpt lat="51.796154" lon="10.528261"><ele>771.9</ele></trkpt>
            <trkpt lat="51.796198" lon="10.528221"><ele>770</ele></trkpt>
            <trkpt lat="51.796233" lon="10.528254"><ele>770</ele></trkpt>
            <trkpt lat="51.796265" lon="10.528261"><ele>770.6</ele></trkpt>
            <trkpt lat="51.796291" lon="10.528408"><ele>770.8</ele></trkpt>
            <trkpt lat="51.796326" lon="10.528479"><ele>770.7</ele></trkpt>
            <trkpt lat="51.796481" lon="10.528654"><ele>771</ele></trkpt>
            <trkpt lat="51.796571" lon="10.528693"><ele>771</ele></trkpt>
            <trkpt lat="51.796645" lon="10.528772"><ele>771</ele></trkpt>
            <trkpt lat="51.796675" lon="10.52879"><ele>770</ele></trkpt>
            <trkpt lat="51.7968" lon="10.528851"><ele>766.1</ele></trkpt>
            <trkpt lat="51.796849" lon="10.528905"><ele>764</ele></trkpt>
            <trkpt lat="51.796924" lon="10.529012"><ele>764</ele></trkpt>
            <trkpt lat="51.796933" lon="10.529149"><ele>765.9</ele></trkpt>
            <trkpt lat="51.796978" lon="10.529211"><ele>767</ele></trkpt>
            <trkpt lat="51.797049" lon="10.529355"><ele>767</ele></trkpt>
            <trkpt lat="51.7971" lon="10.529371"><ele>767</ele></trkpt>
            <trkpt lat="51.797123" lon="10.529416"><ele>767</ele></trkpt>
            <trkpt lat="51.797182" lon="10.529773"><ele>767</ele></trkpt>
            <trkpt lat="51.797536" lon="10.529226"><ele>770.1</ele></trkpt>
            <trkpt lat="51.7977" lon="10.528893"><ele>771</ele></trkpt>
            <trkpt lat="51.797662" lon="10.527966"><ele>771</ele></trkpt>
            <trkpt lat="51.797691" lon="10.52731"><ele>771</ele></trkpt>
            <trkpt lat="51.797666" lon="10.527152"><ele>762.8</ele></trkpt>
            <trkpt lat="51.79733" lon="10.526281"><ele>761.9</ele></trkpt>
            <trkpt lat="51.797296" lon="10.526114"><ele>761.8</ele></trkpt>
            <trkpt lat="51.797277" lon="10.525924"><ele>761.7</ele></trkpt>
            <trkpt lat="51.797237" lon="10.52571"><ele>761.3</ele></trkpt>
            <trkpt lat="51.797242" lon="10.525552"><ele>761.1</ele></trkpt>
            <trkpt lat="51.797282" lon="10.525439"><ele>760.9</ele></trkpt>
            <trkpt lat="51.79729" lon="10.525266"><ele>760.6</ele></trkpt>
            <trkpt lat="51.797199" lon="10.524881"><ele>758.1</ele></trkpt>
            <trkpt lat="51.797201" lon="10.524808"><ele>752</ele></trkpt>
            <trkpt lat="51.797251" lon="10.524514"><ele>750.7</ele></trkpt>
            <trkpt lat="51.797257" lon="10.524284"><ele>750.9</ele></trkpt>
            <trkpt lat="51.797293" lon="10.524001"><ele>750.3</ele></trkpt>
            <trkpt lat="51.797329" lon="10.523848"><ele>747</ele></trkpt>
            <trkpt lat="51.79738" lon="10.523512"><ele>734.5</ele></trkpt>
            <trkpt lat="51.797401" lon="10.523258"><ele>734</ele></trkpt>
            <trkpt lat="51.797463" lon="10.52303"><ele>732.6</ele></trkpt>
            <trkpt lat="51.797517" lon="10.522391"><ele>731.4</ele></trkpt>
            <trkpt lat="51.7976" lon="10.521838"><ele>729.5</ele></trkpt>
            <trkpt lat="51.797842" lon="10.521113"><ele>712</ele></trkpt>
            <trkpt lat="51.797897" lon="10.520955"><ele>704.6</ele></trkpt>
            <trkpt lat="51.797965" lon="10.520858"><ele>705.1</ele></trkpt>
            <trkpt lat="51.798435" lon="10.520463"><ele>703.8</ele></trkpt>
            <trkpt lat="51.79853" lon="10.520356"><ele>703.2</ele></trkpt>
            <trkpt lat="51.798679" lon="10.520114"><ele>703.2</ele></trkpt>
            <trkpt lat="51.798834" lon="10.519974"><ele>702.3</ele></trkpt>
            <trkpt lat="51.79892" lon="10.519972"><ele>701.4</ele></trkpt>
            <trkpt lat="51.799292" lon="10.52011"><ele>698.6</ele></trkpt>
            <trkpt lat="51.799419" lon="10.520116"><ele>698.5</ele></trkpt>
            <trkpt lat="51.799616" lon="10.520073"><ele>697</ele></trkpt>
            <trkpt lat="51.800738" lon="10.51947"><ele>678.6</ele></trkpt>
            <trkpt lat="51.800979" lon="10.519459"><ele>675.6</ele></trkpt>
            <trkpt lat="51.801231" lon="10.519537"><ele>674.1</ele></trkpt>
            <trkpt lat="51.80144" lon="10.519695"><ele>673.9</ele></trkpt>
            <trkpt lat="51.801654" lon="10.519903"><ele>673.8</ele></trkpt>
            <trkpt lat="51.801805" lon="10.519933"><ele>664</ele></trkpt>
            <trkpt lat="51.801974" lon="10.51985"><ele>660.7</ele></trkpt>
            <trkpt lat="51.802029" lon="10.519779"><ele>661</ele></trkpt>
            <trkpt lat="51.802065" lon="10.519661"><ele>661.3</ele></trkpt>
            <trkpt lat="51.802074" lon="10.519509"><ele>661.6</ele></trkpt>
            <trkpt lat="51.801966" lon="10.518714"><ele>661.2</ele></trkpt>
            <trkpt lat="51.801962" lon="10.518381"><ele>660.6</ele></trkpt>
            <trkpt lat="51.801976" lon="10.51822"><ele>648</ele></trkpt>
            <trkpt lat="51.802037" lon="10.518222"><ele>648.4</ele></trkpt>
            <trkpt lat="51.802099" lon="10.518167"><ele>647.8</ele></trkpt>
            <trkpt lat="51.802172" lon="10.51802"><ele>647.8</ele></trkpt>
            <trkpt lat="51.802374" lon="10.517503"><ele>647.1</ele></trkpt>
            <trkpt lat="51.802688" lon="10.516849"><ele>647</ele></trkpt>
            <trkpt lat="51.802987" lon="10.516097"><ele>644.8</ele></trkpt>
            <trkpt lat="51.803399" lon="10.514919"><ele>638.7</ele></trkpt>
            <trkpt lat="51.803496" lon="10.514737"><ele>639</ele></trkpt>
            <trkpt lat="51.804078" lon="10.513915"><ele>643.4</ele></trkpt>
            <trkpt lat="51.804205" lon="10.513836"><ele>644.8</ele></trkpt>
            <trkpt lat="51.804078" lon="10.513915"><ele>643.4</ele></trkpt>
            <trkpt lat="51.803496" lon="10.514737"><ele>639</ele></trkpt>
            <trkpt lat="51.803399" lon="10.514919"><ele>638.7</ele></trkpt>
            <trkpt lat="51.802987" lon="10.516097"><ele>644.8</ele></trkpt>
            <trkpt lat="51.802688" lon="10.516849"><ele>647</ele></trkpt>
            <trkpt lat="51.802374" lon="10.517503"><ele>647.1</ele></trkpt>
            <trkpt lat="51.802172" lon="10.51802"><ele>647.8</ele></trkpt>
            <trkpt lat="51.802099" lon="10.518167"><ele>647.8</ele></trkpt>
            <trkpt lat="51.802037" lon="10.518222"><ele>648.4</ele></trkpt>
            <trkpt lat="51.801976" lon="10.51822"><ele>648</ele></trkpt>
            <trkpt lat="51.801914" lon="10.518146"><ele>648</ele></trkpt>
            <trkpt lat="51.80182" lon="10.518217"><ele>650.2</ele></trkpt>
            <trkpt lat="51.80162" lon="10.518535"><ele>654</ele></trkpt>
            <trkpt lat="51.801587" lon="10.518546"><ele>654</ele></trkpt>
            <trkpt lat="51.801197" lon="10.51859"><ele>657.4</ele></trkpt>
            <trkpt lat="51.801081" lon="10.518571"><ele>657.3</ele></trkpt>
            <trkpt lat="51.800731" lon="10.518442"><ele>657.4</ele></trkpt>
            <trkpt lat="51.80057" lon="10.518453"><ele>657.9</ele></trkpt>
            <trkpt lat="51.800517" lon="10.518391"><ele>658.3</ele></trkpt>
            <trkpt lat="51.8005" lon="10.518225"><ele>658.3</ele></trkpt>
            <trkpt lat="51.800504" lon="10.518067"><ele>658.3</ele></trkpt>
            <trkpt lat="51.800478" lon="10.517947"><ele>658.4</ele></trkpt>
            <trkpt lat="51.80045" lon="10.517931"><ele>658.4</ele></trkpt>
            <trkpt lat="51.800314" lon="10.51796"><ele>658.5</ele></trkpt>
            <trkpt lat="51.800072" lon="10.517877"><ele>659</ele></trkpt>
            <trkpt lat="51.800056" lon="10.517835"><ele>659</ele></trkpt>
            <trkpt lat="51.800098" lon="10.517756"><ele>659</ele></trkpt>
            <trkpt lat="51.800154" lon="10.517682"><ele>660.4</ele></trkpt>
            <trkpt lat="51.800211" lon="10.517539"><ele>660.3</ele></trkpt>
            <trkpt lat="51.800242" lon="10.517415"><ele>660</ele></trkpt>
            <trkpt lat="51.800213" lon="10.517262"><ele>659.5</ele></trkpt>
            <trkpt lat="51.799804" lon="10.517036"><ele>660.8</ele></trkpt>
            <trkpt lat="51.79977" lon="10.517003"><ele>661.3</ele></trkpt>
            <trkpt lat="51.799752" lon="10.516937"><ele>668</ele></trkpt>
            <trkpt lat="51.799751" lon="10.516898"><ele>668</ele></trkpt>
            <trkpt lat="51.799765" lon="10.516857"><ele>665.5</ele></trkpt>
            <trkpt lat="51.799811" lon="10.516841"><ele>665.7</ele></trkpt>
            <trkpt lat="51.800081" lon="10.516821"><ele>665.5</ele></trkpt>
            <trkpt lat="51.800187" lon="10.516796"><ele>665.1</ele></trkpt>
            <trkpt lat="51.800223" lon="10.516767"><ele>664.8</ele></trkpt>
            <trkpt lat="51.800263" lon="10.516636"><ele>664.6</ele></trkpt>
            <trkpt lat="51.80027" lon="10.516377"><ele>664.6</ele></trkpt>
            <trkpt lat="51.800321" lon="10.516214"><ele>664.8</ele></trkpt>
            <trkpt lat="51.800377" lon="10.516122"><ele>664.8</ele></trkpt>
            <trkpt lat="51.800636" lon="10.515835"><ele>665.8</ele></trkpt>
            <trkpt lat="51.800701" lon="10.515677"><ele>666.2</ele></trkpt>
            <trkpt lat="51.800764" lon="10.515357"><ele>666.8</ele></trkpt>
            <trkpt lat="51.800805" lon="10.515267"><ele>667.2</ele></trkpt>
            <trkpt lat="51.801055" lon="10.515052"><ele>666.9</ele></trkpt>
            <trkpt lat="51.801107" lon="10.514958"><ele>667.7</ele></trkpt>
            <trkpt lat="51.80118" lon="10.514693"><ele>668.5</ele></trkpt>
            <trkpt lat="51.80123" lon="10.514421"><ele>669</ele></trkpt>
            <trkpt lat="51.801238" lon="10.514262"><ele>669.5</ele></trkpt>
            <trkpt lat="51.801197" lon="10.514078"><ele>670.1</ele></trkpt>
            <trkpt lat="51.801124" lon="10.513874"><ele>670.9</ele></trkpt>
            <trkpt lat="51.801122" lon="10.513808"><ele>671.5</ele></trkpt>
            <trkpt lat="51.801368" lon="10.513283"><ele>673.5</ele></trkpt>
            <trkpt lat="51.801552" lon="10.512813"><ele>679.6</ele></trkpt>
            <trkpt lat="51.801694" lon="10.512316"><ele>680.4</ele></trkpt>
            <trkpt lat="51.801781" lon="10.511881"><ele>667</ele></trkpt>
            <trkpt lat="51.801776" lon="10.511675"><ele>678.1</ele></trkpt>
            <trkpt lat="51.801797" lon="10.511418"><ele>677.7</ele></trkpt>
            <trkpt lat="51.801789" lon="10.511264"><ele>677.3</ele></trkpt>
            <trkpt lat="51.801673" lon="10.510959"><ele>676.2</ele></trkpt>
            <trkpt lat="51.801648" lon="10.510817"><ele>679.3</ele></trkpt>
            <trkpt lat="51.801655" lon="10.510749"><ele>680.6</ele></trkpt>
            <trkpt lat="51.801626" lon="10.510619"><ele>682.9</ele></trkpt>
            <trkpt lat="51.801553" lon="10.51059"><ele>700</ele></trkpt>
            <trkpt lat="51.801335" lon="10.510668"><ele>700</ele></trkpt>
            <trkpt lat="51.801191" lon="10.51079"><ele>700</ele></trkpt>
            <trkpt lat="51.801172" lon="10.510787"><ele>700</ele></trkpt>
            <trkpt lat="51.801108" lon="10.510579"><ele>700</ele></trkpt>
            <trkpt lat="51.801092" lon="10.510394"><ele>700</ele></trkpt>
            <trkpt lat="51.800856" lon="10.5103"><ele>700</ele></trkpt>
            <trkpt lat="51.800833" lon="10.510259"><ele>718</ele></trkpt>
            <trkpt lat="51.800878" lon="10.510186"><ele>702.6</ele></trkpt>
            <trkpt lat="51.801316" lon="10.509822"><ele>698.4</ele></trkpt>
            <trkpt lat="51.801417" lon="10.509704"><ele>697.9</ele></trkpt>
            <trkpt lat="51.801578" lon="10.509067"><ele>696.6</ele></trkpt>
            <trkpt lat="51.801775" lon="10.508766"><ele>696</ele></trkpt>
            <trkpt lat="51.801888" lon="10.508664"><ele>694.8</ele></trkpt>
            <trkpt lat="51.801959" lon="10.508636"><ele>695.4</ele></trkpt>
            <trkpt lat="51.802315" lon="10.508569"><ele>686</ele></trkpt>
            <trkpt lat="51.802539" lon="10.508458"><ele>674.9</ele></trkpt>
            <trkpt lat="51.802715" lon="10.50819"><ele>673.7</ele></trkpt>
            <trkpt lat="51.803114" lon="10.506817"><ele>671.4</ele></trkpt>
            <trkpt lat="51.803197" lon="10.506647"><ele>667</ele></trkpt>
            <trkpt lat="51.803194" lon="10.506403"><ele>667</ele></trkpt>
            <trkpt lat="51.80313" lon="10.505968"><ele>667</ele></trkpt>
            <trkpt lat="51.803107" lon="10.50545"><ele>668.5</ele></trkpt>
            <trkpt lat="51.803003" lon="10.505089"><ele>669</ele></trkpt>
            <trkpt lat="51.802977" lon="10.505057"><ele>669</ele></trkpt>
            <trkpt lat="51.802959" lon="10.504877"><ele>659.2</ele></trkpt>
            <trkpt lat="51.803041" lon="10.504411"><ele>661.1</ele></trkpt>
            <trkpt lat="51.803403" lon="10.503673"><ele>657.3</ele></trkpt>
            <trkpt lat="51.80352" lon="10.503476"><ele>656</ele></trkpt>
            <trkpt lat="51.803552" lon="10.503391"><ele>654.8</ele></trkpt>
            <trkpt lat="51.803575" lon="10.50311"><ele>653.7</ele></trkpt>
            <trkpt lat="51.803644" lon="10.503037"><ele>652.7</ele></trkpt>
            <trkpt lat="51.804013" lon="10.502861"><ele>649</ele></trkpt>
            <trkpt lat="51.804185" lon="10.502598"><ele>646.4</ele></trkpt>
            <trkpt lat="51.804268" lon="10.50221"><ele>645.8</ele></trkpt>
            <trkpt lat="51.804267" lon="10.502004"><ele>645.1</ele></trkpt>
            <trkpt lat="51.8042" lon="10.501731"><ele>644.3</ele></trkpt>
            <trkpt lat="51.804184" lon="10.501539"><ele>643.5</ele></trkpt>
            <trkpt lat="51.804261" lon="10.501256"><ele>638</ele></trkpt>
            <trkpt lat="51.804267" lon="10.501233"><ele>638</ele></trkpt>
            <trkpt lat="51.804301" lon="10.501093"><ele>639</ele></trkpt>
            <trkpt lat="51.804314" lon="10.500097"><ele>639.5</ele></trkpt>
            <trkpt lat="51.804275" lon="10.499894"><ele>639.5</ele></trkpt>
            <trkpt lat="51.804314" lon="10.499625"><ele>639.3</ele></trkpt>
            <trkpt lat="51.804257" lon="10.499348"><ele>639.5</ele></trkpt>
            <trkpt lat="51.804297" lon="10.498869"><ele>639.6</ele></trkpt>
            <trkpt lat="51.804226" lon="10.498437"><ele>640.4</ele></trkpt>
            <trkpt lat="51.804229" lon="10.498331"><ele>640.4</ele></trkpt>
            <trkpt lat="51.804202" lon="10.498143"><ele>640.8</ele></trkpt>
            <trkpt lat="51.804157" lon="10.49804"><ele>641.8</ele></trkpt>
            <trkpt lat="51.804116" lon="10.496808"><ele>646.9</ele></trkpt>
            <trkpt lat="51.804089" lon="10.496638"><ele>647.6</ele></trkpt>
            <trkpt lat="51.80411" lon="10.496463"><ele>647.9</ele></trkpt>
            <trkpt lat="51.804118" lon="10.496121"><ele>649.3</ele></trkpt>
            <trkpt lat="51.804084" lon="10.495738"><ele>649.4</ele></trkpt>
            <trkpt lat="51.804139" lon="10.495167"><ele>649.2</ele></trkpt>
            <trkpt lat="51.80425" lon="10.494735"><ele>647.7</ele></trkpt>
            <trkpt lat="51.804322" lon="10.494549"><ele>647</ele></trkpt>
            <trkpt lat="51.804361" lon="10.494403"><ele>646.3</ele></trkpt>
            <trkpt lat="51.804386" lon="10.494287"><ele>645.9</ele></trkpt>
            <trkpt lat="51.804415" lon="10.493986"><ele>645.2</ele></trkpt>
            <trkpt lat="51.804508" lon="10.493776"><ele>644.7</ele></trkpt>
            <trkpt lat="51.80463" lon="10.493299"><ele>642.9</ele></trkpt>
            <trkpt lat="51.804646" lon="10.493128"><ele>642</ele></trkpt>
            <trkpt lat="51.804631" lon="10.492887"><ele>642</ele></trkpt>
            <trkpt lat="51.804733" lon="10.492535"><ele>642</ele></trkpt>
            <trkpt lat="51.804733" lon="10.492388"><ele>642</ele></trkpt>
            <trkpt lat="51.804678" lon="10.491942"><ele>642</ele></trkpt>
            <trkpt lat="51.804539" lon="10.490789"><ele>635.1</ele></trkpt>
            <trkpt lat="51.803984" lon="10.489731"><ele>633.9</ele></trkpt>
            <trkpt lat="51.803857" lon="10.489524"><ele>633.6</ele></trkpt>
            <trkpt lat="51.803821" lon="10.48944"><ele>633.2</ele></trkpt>
            <trkpt lat="51.803754" lon="10.489159"><ele>621</ele></trkpt>
            <trkpt lat="51.80373" lon="10.48899"><ele>617.8</ele></trkpt>
            <trkpt lat="51.803709" lon="10.488609"><ele>618.2</ele></trkpt>
            <trkpt lat="51.803657" lon="10.488281"><ele>618.2</ele></trkpt>
            <trkpt lat="51.803649" lon="10.487963"><ele>617.2</ele></trkpt>
            <trkpt lat="51.803582" lon="10.487806"><ele>616.7</ele></trkpt>
            <trkpt lat="51.803543" lon="10.48766"><ele>613</ele></trkpt>
            <trkpt lat="51.803528" lon="10.487665"><ele>613</ele></trkpt>
            <trkpt lat="51.803507" lon="10.487682"><ele>613</ele></trkpt>
            <trkpt lat="51.803479" lon="10.487804"><ele>613</ele></trkpt>
            <trkpt lat="51.803482" lon="10.487827"><ele>613</ele></trkpt>
            <trkpt lat="51.803479" lon="10.487804"><ele>613</ele></trkpt>
            <trkpt lat="51.803507" lon="10.487682"><ele>613</ele></trkpt>
            <trkpt lat="51.803528" lon="10.487665"><ele>613</ele></trkpt>
            <trkpt lat="51.803543" lon="10.48766"><ele>613</ele></trkpt>
            <trkpt lat="51.80352" lon="10.487569"><ele>613</ele></trkpt>
            <trkpt lat="51.803595" lon="10.487407"><ele>601.3</ele></trkpt>
            <trkpt lat="51.803691" lon="10.487328"><ele>600.8</ele></trkpt>
            <trkpt lat="51.803715" lon="10.48721"><ele>600.2</ele></trkpt>
            <trkpt lat="51.803644" lon="10.486074"><ele>595.8</ele></trkpt>
            <trkpt lat="51.803645" lon="10.485745"><ele>593.7</ele></trkpt>
            <trkpt lat="51.803665" lon="10.485493"><ele>593.7</ele></trkpt>
            <trkpt lat="51.803603" lon="10.484502"><ele>588</ele></trkpt>
            <trkpt lat="51.803621" lon="10.484239"><ele>587.4</ele></trkpt>
            <trkpt lat="51.803658" lon="10.484055"><ele>586.8</ele></trkpt>
            <trkpt lat="51.803732" lon="10.483851"><ele>586.9</ele></trkpt>
            <trkpt lat="51.804095" lon="10.48336"><ele>577</ele></trkpt>
            <trkpt lat="51.804104" lon="10.483306"><ele>574.8</ele></trkpt>
            <trkpt lat="51.80415" lon="10.483238"><ele>574.4</ele></trkpt>
            <trkpt lat="51.804292" lon="10.483121"><ele>570</ele></trkpt>
            <trkpt lat="51.804802" lon="10.482488"><ele>566.3</ele></trkpt>
            <trkpt lat="51.805183" lon="10.482167"><ele>565.3</ele></trkpt>
            <trkpt lat="51.805387" lon="10.481791"><ele>564.4</ele></trkpt>
            <trkpt lat="51.805543" lon="10.48136"><ele>563.6</ele></trkpt>
            <trkpt lat="51.805675" lon="10.481107"><ele>563.4</ele></trkpt>
            <trkpt lat="51.805777" lon="10.480778"><ele>561.7</ele></trkpt>
            <trkpt lat="51.805842" lon="10.480363"><ele>560.6</ele></trkpt>
            <trkpt lat="51.805918" lon="10.48004"><ele>559.6</ele></trkpt>
            <trkpt lat="51.806311" lon="10.479044"><ele>556</ele></trkpt>
            <trkpt lat="51.806379" lon="10.478907"><ele>555.9</ele></trkpt>
            <trkpt lat="51.806645" lon="10.478736"><ele>555.2</ele></trkpt>
            <trkpt lat="51.806792" lon="10.47852"><ele>554.5</ele></trkpt>
            <trkpt lat="51.806936" lon="10.47824"><ele>554</ele></trkpt>
            <trkpt lat="51.807064" lon="10.47792"><ele>553.8</ele></trkpt>
            <trkpt lat="51.807111" lon="10.477672"><ele>554</ele></trkpt>
            <trkpt lat="51.807192" lon="10.477439"><ele>553.6</ele></trkpt>
            <trkpt lat="51.807463" lon="10.476938"><ele>552.4</ele></trkpt>
            <trkpt lat="51.807508" lon="10.47673"><ele>552.5</ele></trkpt>
            <trkpt lat="51.80751" lon="10.476411"><ele>551.8</ele></trkpt>
            <trkpt lat="51.80743" lon="10.47547"><ele>550.7</ele></trkpt>
            <trkpt lat="51.807384" lon="10.475276"><ele>547</ele></trkpt>
            <trkpt lat="51.807545" lon="10.475027"><ele>542.9</ele></trkpt>
            <trkpt lat="51.807631" lon="10.474851"><ele>542.4</ele></trkpt>
            <trkpt lat="51.807635" lon="10.474661"><ele>540.8</ele></trkpt>
            <trkpt lat="51.807614" lon="10.47449"><ele>539.4</ele></trkpt>
            <trkpt lat="51.8073" lon="10.473768"><ele>536.5</ele></trkpt>
            <trkpt lat="51.807175" lon="10.473388"><ele>535.8</ele></trkpt>
            <trkpt lat="51.807083" lon="10.472988"><ele>534.7</ele></trkpt>
            <trkpt lat="51.807048" lon="10.47275"><ele>533.7</ele></trkpt>
            <trkpt lat="51.807047" lon="10.472526"><ele>533.2</ele></trkpt>
            <trkpt lat="51.807" lon="10.472295"><ele>531.8</ele></trkpt>
            <trkpt lat="51.806908" lon="10.471968"><ele>532</ele></trkpt>
            <trkpt lat="51.806813" lon="10.471473"><ele>530.6</ele></trkpt>
            <trkpt lat="51.806821" lon="10.471253"><ele>529.2</ele></trkpt>
            <trkpt lat="51.806601" lon="10.469667"><ele>519.7</ele></trkpt>
            <trkpt lat="51.806596" lon="10.469235"><ele>516.1</ele></trkpt>
            <trkpt lat="51.806685" lon="10.468954"><ele>513.4</ele></trkpt>
            <trkpt lat="51.806736" lon="10.468712"><ele>513.2</ele></trkpt>
            <trkpt lat="51.806751" lon="10.468364"><ele>513</ele></trkpt>
            <trkpt lat="51.80688" lon="10.467614"><ele>512</ele></trkpt>
            <trkpt lat="51.806949" lon="10.467354"><ele>511.3</ele></trkpt>
            <trkpt lat="51.807044" lon="10.467081"><ele>505</ele></trkpt>
            <trkpt lat="51.807199" lon="10.466779"><ele>505.6</ele></trkpt>
            <trkpt lat="51.80738" lon="10.466588"><ele>505.4</ele></trkpt>
            <trkpt lat="51.8075" lon="10.466386"><ele>504.8</ele></trkpt>
            <trkpt lat="51.807683" lon="10.465975"><ele>504.6</ele></trkpt>
            <trkpt lat="51.807851" lon="10.465491"><ele>504.2</ele></trkpt>
            <trkpt lat="51.807935" lon="10.4652"><ele>504.1</ele></trkpt>
            <trkpt lat="51.808045" lon="10.465005"><ele>503.9</ele></trkpt>
            <trkpt lat="51.808137" lon="10.46471"><ele>501</ele></trkpt>
            <trkpt lat="51.808213" lon="10.464692"><ele>501</ele></trkpt>
            <trkpt lat="51.808278" lon="10.464648"><ele>501</ele></trkpt>
            <trkpt lat="51.808299" lon="10.464603"><ele>501</ele></trkpt>
            <trkpt lat="51.808302" lon="10.464577"><ele>501</ele></trkpt>
            <trkpt lat="51.80822" lon="10.464282"><ele>501</ele></trkpt>
            <trkpt lat="51.80819" lon="10.464021"><ele>501</ele></trkpt>
            <trkpt lat="51.808192" lon="10.463592"><ele>501.2</ele></trkpt>
            <trkpt lat="51.808148" lon="10.46267"><ele>501.8</ele></trkpt>
            <trkpt lat="51.808092" lon="10.462374"><ele>501.9</ele></trkpt>
            <trkpt lat="51.807936" lon="10.461737"><ele>502.1</ele></trkpt>
            <trkpt lat="51.807793" lon="10.461474"><ele>502.2</ele></trkpt>
            <trkpt lat="51.807665" lon="10.460988"><ele>503</ele></trkpt>
            <trkpt lat="51.807539" lon="10.460025"><ele>496</ele></trkpt>
            <trkpt lat="51.807413" lon="10.459373"><ele>495.1</ele></trkpt>
            <trkpt lat="51.807384" lon="10.459063"><ele>495.4</ele></trkpt>
            <trkpt lat="51.807397" lon="10.458961"><ele>495.8</ele></trkpt>
            <trkpt lat="51.807449" lon="10.458805"><ele>493</ele></trkpt>
            <trkpt lat="51.807469" lon="10.45891"><ele>493</ele></trkpt>
            <trkpt lat="51.807549" lon="10.458917"><ele>507.9</ele></trkpt>
            <trkpt lat="51.807682" lon="10.458807"><ele>508.4</ele></trkpt>
            <trkpt lat="51.807931" lon="10.458724"><ele>508.9</ele></trkpt>
            <trkpt lat="51.808023" lon="10.458618"><ele>509.2</ele></trkpt>
            <trkpt lat="51.808133" lon="10.4586"><ele>511</ele></trkpt>
            <trkpt lat="51.807996" lon="10.458019"><ele>521.3</ele></trkpt>
            <trkpt lat="51.807782" lon="10.457285"><ele>523</ele></trkpt>
            <trkpt lat="51.807565" lon="10.456696"><ele>530</ele></trkpt>
            <trkpt lat="51.807234" lon="10.455878"><ele>518</ele></trkpt>
            <trkpt lat="51.806956" lon="10.455267"><ele>515</ele></trkpt>
            <trkpt lat="51.806503" lon="10.454207"><ele>494</ele></trkpt>
            <trkpt lat="51.806192" lon="10.45347"><ele>498.8</ele></trkpt>
            <trkpt lat="51.805998" lon="10.452637"><ele>499</ele></trkpt>
            <trkpt lat="51.806031" lon="10.452228"><ele>499.6</ele></trkpt>
            <trkpt lat="51.806192" lon="10.45172"><ele>502</ele></trkpt>
            <trkpt lat="51.806162" lon="10.451557"><ele>499.8</ele></trkpt>
            <trkpt lat="51.806091" lon="10.45145"><ele>501.4</ele></trkpt>
            <trkpt lat="51.805953" lon="10.451426"><ele>502</ele></trkpt>
            <trkpt lat="51.805759" lon="10.451333"><ele>479</ele></trkpt>
            <trkpt lat="51.805725" lon="10.450988"><ele>479.4</ele></trkpt>
            <trkpt lat="51.805715" lon="10.450663"><ele>480</ele></trkpt>
            <trkpt lat="51.805682" lon="10.450068"><ele>481.8</ele></trkpt>
            <trkpt lat="51.805698" lon="10.449751"><ele>487</ele></trkpt>
            <trkpt lat="51.805727" lon="10.449643"><ele>487</ele></trkpt>
            <trkpt lat="51.80574" lon="10.449503"><ele>487</ele></trkpt>
            <trkpt lat="51.805675" lon="10.448996"><ele>491.5</ele></trkpt>
            <trkpt lat="51.80557" lon="10.448411"><ele>493</ele></trkpt>
            <trkpt lat="51.805414" lon="10.447842"><ele>496</ele></trkpt>
            <trkpt lat="51.805422" lon="10.447582"><ele>503.7</ele></trkpt>
            <trkpt lat="51.805471" lon="10.447339"><ele>504.4</ele></trkpt>
            <trkpt lat="51.805582" lon="10.446979"><ele>505.5</ele></trkpt>
            <trkpt lat="51.805695" lon="10.446776"><ele>506</ele></trkpt>
            <trkpt lat="51.805772" lon="10.446676"><ele>506.7</ele></trkpt>
            <trkpt lat="51.80576" lon="10.446519"><ele>507.4</ele></trkpt>
            <trkpt lat="51.805772" lon="10.446397"><ele>507.6</ele></trkpt>
            <trkpt lat="51.805801" lon="10.446284"><ele>507.8</ele></trkpt>
            <trkpt lat="51.805848" lon="10.446206"><ele>539</ele></trkpt>
            <trkpt lat="51.805912" lon="10.445976"><ele>541</ele></trkpt>
            <trkpt lat="51.805934" lon="10.445812"><ele>541.5</ele></trkpt>
            <trkpt lat="51.805922" lon="10.445674"><ele>543</ele></trkpt>
            <trkpt lat="51.805903" lon="10.445621"><ele>533</ele></trkpt>
        </trkseg>
    </trk>
</gpx>
