<?xml version="1.0" encoding="UTF-8"?>
<gpx version="1.1" creator="HWN Route Compare (OpenRouteService)" xmlns="http://www.topografix.com/GPX/1/1">
    <metadata>
        <name>OpenRouteService – Tour C7</name>
    </metadata>
    <trk>
        <name>OpenRouteService – Tour C7</name>
        <trkseg>
            <trkpt lat="51.732365" lon="10.511232"><ele>658.6</ele></trkpt>
            <trkpt lat="51.73228" lon="10.510948"><ele>658.9</ele></trkpt>
            <trkpt lat="51.732196" lon="10.510827"><ele>659.1</ele></trkpt>
            <trkpt lat="51.7321" lon="10.510802"><ele>659.2</ele></trkpt>
            <trkpt lat="51.731935" lon="10.510862"><ele>659.5</ele></trkpt>
            <trkpt lat="51.731525" lon="10.510793"><ele>657.4</ele></trkpt>
            <trkpt lat="51.731502" lon="10.510751"><ele>656.4</ele></trkpt>
            <trkpt lat="51.731412" lon="10.510348"><ele>653.6</ele></trkpt>
            <trkpt lat="51.731362" lon="10.510223"><ele>650.9</ele></trkpt>
            <trkpt lat="51.731298" lon="10.51014"><ele>632</ele></trkpt>
            <trkpt lat="51.731272" lon="10.510415"><ele>636.6</ele></trkpt>
            <trkpt lat="51.731235" lon="10.510611"><ele>637.2</ele></trkpt>
            <trkpt lat="51.73116" lon="10.510876"><ele>638</ele></trkpt>
            <trkpt lat="51.730984" lon="10.511255"><ele>637.3</ele></trkpt>
            <trkpt lat="51.730835" lon="10.511465"><ele>640</ele></trkpt>
            <trkpt lat="51.730751" lon="10.511397"><ele>632.1</ele></trkpt>
            <trkpt lat="51.730679" lon="10.511397"><ele>631.5</ele></trkpt>
            <trkpt lat="51.730597" lon="10.511433"><ele>631.3</ele></trkpt>
            <trkpt lat="51.730306" lon="10.511674"><ele>632.4</ele></trkpt>
            <trkpt lat="51.730129" lon="10.511747"><ele>633.3</ele></trkpt>
            <trkpt lat="51.729964" lon="10.511782"><ele>633.3</ele></trkpt>
            <trkpt lat="51.729789" lon="10.511781"><ele>633.6</ele></trkpt>
            <trkpt lat="51.729299" lon="10.511629"><ele>634.4</ele></trkpt>
            <trkpt lat="51.729167" lon="10.511537"><ele>633.7</ele></trkpt>
            <trkpt lat="51.729113" lon="10.511474"><ele>634.6</ele></trkpt>
            <trkpt lat="51.729012" lon="10.511266"><ele>637.5</ele></trkpt>
            <trkpt lat="51.728981" lon="10.511148"><ele>638.2</ele></trkpt>
            <trkpt lat="51.728973" lon="10.510905"><ele>639.1</ele></trkpt>
            <trkpt lat="51.729007" lon="10.50969"><ele>642.2</ele></trkpt>
            <trkpt lat="51.728778" lon="10.508833"><ele>643</ele></trkpt>
            <trkpt lat="51.728715" lon="10.508579"><ele>636.7</ele></trkpt>
            <trkpt lat="51.72871" lon="10.508275"><ele>636.6</ele></trkpt>
            <trkpt lat="51.728764" lon="10.50777"><ele>635.7</ele></trkpt>
            <trkpt lat="51.728774" lon="10.507435"><ele>634.1</ele></trkpt>
            <trkpt lat="51.728711" lon="10.50658"><ele>631.1</ele></trkpt>
            <trkpt lat="51.728757" lon="10.506007"><ele>628.4</ele></trkpt>
            <trkpt lat="51.728838" lon="10.505281"><ele>625.6</ele></trkpt>
            <trkpt lat="51.728833" lon="10.504603"><ele>623.4</ele></trkpt>
            <trkpt lat="51.728934" lon="10.503837"><ele>618</ele></trkpt>
            <trkpt lat="51.728938" lon="10.502433"><ele>594.3</ele></trkpt>
            <trkpt lat="51.72897" lon="10.501004"><ele>578.9</ele></trkpt>
            <trkpt lat="51.728953" lon="10.500567"><ele>576.3</ele></trkpt>
            <trkpt lat="51.728856" lon="10.500135"><ele>566.2</ele></trkpt>
            <trkpt lat="51.728717" lon="10.499823"><ele>565.2</ele></trkpt>
            <trkpt lat="51.727841" lon="10.498703"><ele>556.6</ele></trkpt>
            <trkpt lat="51.727703" lon="10.498431"><ele>553.9</ele></trkpt>
            <trkpt lat="51.72733" lon="10.498123"><ele>551</ele></trkpt>
            <trkpt lat="51.726681" lon="10.497845"><ele>552.5</ele></trkpt>
            <trkpt lat="51.7261" lon="10.497706"><ele>548.3</ele></trkpt>
            <trkpt lat="51.724848" lon="10.497613"><ele>525.3</ele></trkpt>
            <trkpt lat="51.72475" lon="10.49758"><ele>514</ele></trkpt>
            <trkpt lat="51.724651" lon="10.497521"><ele>514</ele></trkpt>
            <trkpt lat="51.724341" lon="10.49709"><ele>510</ele></trkpt>
            <trkpt lat="51.72382" lon="10.496647"><ele>507.6</ele></trkpt>
            <trkpt lat="51.723641" lon="10.496564"><ele>508.8</ele></trkpt>
            <trkpt lat="51.723125" lon="10.496523"><ele>505.7</ele></trkpt>
            <trkpt lat="51.722844" lon="10.496382"><ele>502</ele></trkpt>
            <trkpt lat="51.722624" lon="10.496037"><ele>492</ele></trkpt>
            <trkpt lat="51.722525" lon="10.495815"><ele>489.7</ele></trkpt>
            <trkpt lat="51.722481" lon="10.495608"><ele>490</ele></trkpt>
            <trkpt lat="51.722449" lon="10.495445"><ele>490</ele></trkpt>
            <trkpt lat="51.722294" lon="10.494836"><ele>484</ele></trkpt>
            <trkpt lat="51.722241" lon="10.494586"><ele>484</ele></trkpt>
            <trkpt lat="51.722201" lon="10.494426"><ele>484</ele></trkpt>
            <trkpt lat="51.722139" lon="10.494169"><ele>482.7</ele></trkpt>
            <trkpt lat="51.721675" lon="10.493074"><ele>480</ele></trkpt>
            <trkpt lat="51.721223" lon="10.49147"><ele>475</ele></trkpt>
            <trkpt lat="51.72111" lon="10.491574"><ele>475.5</ele></trkpt>
            <trkpt lat="51.720982" lon="10.49143"><ele>475.4</ele></trkpt>
            <trkpt lat="51.720783" lon="10.491044"><ele>476.3</ele></trkpt>
            <trkpt lat="51.720594" lon="10.490787"><ele>474.7</ele></trkpt>
            <trkpt lat="51.720436" lon="10.490771"><ele>474.3</ele></trkpt>
            <trkpt lat="51.71986" lon="10.491129"><ele>476.8</ele></trkpt>
            <trkpt lat="51.719296" lon="10.491651"><ele>483.6</ele></trkpt>
            <trkpt lat="51.719134" lon="10.491961"><ele>488.8</ele></trkpt>
            <trkpt lat="51.718867" lon="10.49352"><ele>510</ele></trkpt>
            <trkpt lat="51.718574" lon="10.494674"><ele>551</ele></trkpt>
            <trkpt lat="51.718048" lon="10.495584"><ele>573.1</ele></trkpt>
            <trkpt lat="51.717623" lon="10.496026"><ele>578.8</ele></trkpt>
            <trkpt lat="51.717237" lon="10.496327"><ele>588.1</ele></trkpt>
            <trkpt lat="51.717048" lon="10.496393"><ele>589</ele></trkpt>
            <trkpt lat="51.71682" lon="10.496255"><ele>589.8</ele></trkpt>
            <trkpt lat="51.716516" lon="10.496158"><ele>596.2</ele></trkpt>
            <trkpt lat="51.716317" lon="10.496031"><ele>597.6</ele></trkpt>
            <trkpt lat="51.715928" lon="10.496061"><ele>601.4</ele></trkpt>
            <trkpt lat="51.715471" lon="10.496173"><ele>598</ele></trkpt>
            <trkpt lat="51.715433" lon="10.49647"><ele>598</ele></trkpt>
            <trkpt lat="51.715387" lon="10.496619"><ele>598</ele></trkpt>
            <trkpt lat="51.715316" lon="10.49647"><ele>604.2</ele></trkpt>
            <trkpt lat="51.715288" lon="10.496361"><ele>603.5</ele></trkpt>
            <trkpt lat="51.715229" lon="10.495971"><ele>604.5</ele></trkpt>
            <trkpt lat="51.715239" lon="10.494939"><ele>608.2</ele></trkpt>
            <trkpt lat="51.715257" lon="10.494521"><ele>609.1</ele></trkpt>
            <trkpt lat="51.715334" lon="10.494124"><ele>611.5</ele></trkpt>
            <trkpt lat="51.715455" lon="10.493639"><ele>613.7</ele></trkpt>
            <trkpt lat="51.715495" lon="10.493332"><ele>613.5</ele></trkpt>
            <trkpt lat="51.715437" lon="10.493037"><ele>613.2</ele></trkpt>
            <trkpt lat="51.715317" lon="10.492762"><ele>613.3</ele></trkpt>
            <trkpt lat="51.715139" lon="10.492642"><ele>612.4</ele></trkpt>
            <trkpt lat="51.714758" lon="10.49258"><ele>609.9</ele></trkpt>
            <trkpt lat="51.714529" lon="10.49243"><ele>608</ele></trkpt>
            <trkpt lat="51.714317" lon="10.492373"><ele>605.3</ele></trkpt>
            <trkpt lat="51.713937" lon="10.492182"><ele>600.4</ele></trkpt>
            <trkpt lat="51.713773" lon="10.492137"><ele>599.3</ele></trkpt>
            <trkpt lat="51.713525" lon="10.492154"><ele>598.7</ele></trkpt>
            <trkpt lat="51.713352" lon="10.492091"><ele>598.5</ele></trkpt>
            <trkpt lat="51.713221" lon="10.491968"><ele>597.6</ele></trkpt>
            <trkpt lat="51.712413" lon="10.490946"><ele>594.8</ele></trkpt>
            <trkpt lat="51.712239" lon="10.490751"><ele>595.3</ele></trkpt>
            <trkpt lat="51.71197" lon="10.490251"><ele>597.6</ele></trkpt>
            <trkpt lat="51.71173" lon="10.489962"><ele>597.9</ele></trkpt>
            <trkpt lat="51.711451" lon="10.489401"><ele>599.3</ele></trkpt>
            <trkpt lat="51.711291" lon="10.489269"><ele>599.7</ele></trkpt>
            <trkpt lat="51.711153" lon="10.489202"><ele>600.3</ele></trkpt>
            <trkpt lat="51.710989" lon="10.489223"><ele>600.7</ele></trkpt>
            <trkpt lat="51.71081" lon="10.48936"><ele>600.3</ele></trkpt>
            <trkpt lat="51.71068" lon="10.489511"><ele>594</ele></trkpt>
            <trkpt lat="51.71054" lon="10.489748"><ele>585.7</ele></trkpt>
            <trkpt lat="51.71044" lon="10.490027"><ele>586.1</ele></trkpt>
            <trkpt lat="51.710153" lon="10.490984"><ele>585.3</ele></trkpt>
            <trkpt lat="51.710082" lon="10.491127"><ele>583.8</ele></trkpt>
            <trkpt lat="51.709973" lon="10.491258"><ele>582.5</ele></trkpt>
            <trkpt lat="51.709728" lon="10.491479"><ele>579.6</ele></trkpt>
            <trkpt lat="51.709495" lon="10.491793"><ele>577</ele></trkpt>
            <trkpt lat="51.709313" lon="10.492095"><ele>575.6</ele></trkpt>
            <trkpt lat="51.70916" lon="10.492506"><ele>572.6</ele></trkpt>
            <trkpt lat="51.70908" lon="10.492579"><ele>572.5</ele></trkpt>
            <trkpt lat="51.708925" lon="10.492625"><ele>571.4</ele></trkpt>
            <trkpt lat="51.708558" lon="10.492518"><ele>570.1</ele></trkpt>
            <trkpt lat="51.708402" lon="10.492592"><ele>569.1</ele></trkpt>
            <trkpt lat="51.708316" lon="10.492717"><ele>567.8</ele></trkpt>
            <trkpt lat="51.70831" lon="10.492953"><ele>565.4</ele></trkpt>
            <trkpt lat="51.708361" lon="10.493481"><ele>565.8</ele></trkpt>
            <trkpt lat="51.708308" lon="10.493691"><ele>563.5</ele></trkpt>
            <trkpt lat="51.70797" lon="10.494278"><ele>560.2</ele></trkpt>
            <trkpt lat="51.707766" lon="10.494492"><ele>558</ele></trkpt>
            <trkpt lat="51.707879" lon="10.494945"><ele>562.8</ele></trkpt>
            <trkpt lat="51.707917" lon="10.495181"><ele>563.8</ele></trkpt>
            <trkpt lat="51.707912" lon="10.495446"><ele>563.3</ele></trkpt>
            <trkpt lat="51.707883" lon="10.495643"><ele>566</ele></trkpt>
            <trkpt lat="51.707747" lon="10.495358"><ele>564</ele></trkpt>
            <trkpt lat="51.70759" lon="10.49519"><ele>564.3</ele></trkpt>
            <trkpt lat="51.70708" lon="10.49483"><ele>562.4</ele></trkpt>
            <trkpt lat="51.706867" lon="10.494628"><ele>561.3</ele></trkpt>
            <trkpt lat="51.706279" lon="10.494198"><ele>559</ele></trkpt>
            <trkpt lat="51.705683" lon="10.493895"><ele>560.1</ele></trkpt>
            <trkpt lat="51.705035" lon="10.493512"><ele>560.2</ele></trkpt>
            <trkpt lat="51.704734" lon="10.49328"><ele>559.8</ele></trkpt>
            <trkpt lat="51.704565" lon="10.493105"><ele>560.5</ele></trkpt>
            <trkpt lat="51.70431" lon="10.492718"><ele>561</ele></trkpt>
            <trkpt lat="51.703968" lon="10.492141"><ele>555.3</ele></trkpt>
            <trkpt lat="51.703162" lon="10.491219"><ele>532.2</ele></trkpt>
            <trkpt lat="51.702793" lon="10.491009"><ele>528.4</ele></trkpt>
            <trkpt lat="51.702429" lon="10.490643"><ele>528.1</ele></trkpt>
            <trkpt lat="51.702309" lon="10.490631"><ele>526.7</ele></trkpt>
            <trkpt lat="51.702039" lon="10.490907"><ele>524.8</ele></trkpt>
            <trkpt lat="51.701814" lon="10.491027"><ele>523.1</ele></trkpt>
            <trkpt lat="51.70177" lon="10.491115"><ele>520</ele></trkpt>
            <trkpt lat="51.701673" lon="10.490686"><ele>515</ele></trkpt>
            <trkpt lat="51.701537" lon="10.490777"><ele>512</ele></trkpt>
            <trkpt lat="51.701467" lon="10.490827"><ele>512</ele></trkpt>
            <trkpt lat="51.701533" lon="10.491181"><ele>511</ele></trkpt>
            <trkpt lat="51.70144" lon="10.491203"><ele>511.3</ele></trkpt>
            <trkpt lat="51.701076" lon="10.490758"><ele>512</ele></trkpt>
            <trkpt lat="51.700677" lon="10.490241"><ele>528.1</ele></trkpt>
            <trkpt lat="51.699985" lon="10.489468"><ele>551</ele></trkpt>
            <trkpt lat="51.699874" lon="10.489206"><ele>556.3</ele></trkpt>
            <trkpt lat="51.699794" lon="10.48887"><ele>557.8</ele></trkpt>
            <trkpt lat="51.699789" lon="10.488476"><ele>557.7</ele></trkpt>
            <trkpt lat="51.699746" lon="10.487791"><ele>551.6</ele></trkpt>
            <trkpt lat="51.699535" lon="10.486767"><ele>553.1</ele></trkpt>
            <trkpt lat="51.699479" lon="10.486315"><ele>553</ele></trkpt>
            <trkpt lat="51.69942" lon="10.486041"><ele>553.6</ele></trkpt>
            <trkpt lat="51.699369" lon="10.485911"><ele>555.4</ele></trkpt>
            <trkpt lat="51.699292" lon="10.48584"><ele>556.3</ele></trkpt>
            <trkpt lat="51.699159" lon="10.485831"><ele>557.2</ele></trkpt>
            <trkpt lat="51.698912" lon="10.485942"><ele>558.7</ele></trkpt>
            <trkpt lat="51.698722" lon="10.485987"><ele>558</ele></trkpt>
            <trkpt lat="51.698579" lon="10.48599"><ele>557.2</ele></trkpt>
            <trkpt lat="51.698448" lon="10.485962"><ele>557.5</ele></trkpt>
            <trkpt lat="51.698255" lon="10.485828"><ele>558.1</ele></trkpt>
            <trkpt lat="51.698073" lon="10.485638"><ele>558.5</ele></trkpt>
            <trkpt lat="51.697675" lon="10.484974"><ele>559.7</ele></trkpt>
            <trkpt lat="51.697534" lon="10.48481"><ele>562.1</ele></trkpt>
            <trkpt lat="51.697413" lon="10.484747"><ele>563.8</ele></trkpt>
            <trkpt lat="51.697249" lon="10.484708"><ele>564.4</ele></trkpt>
            <trkpt lat="51.697086" lon="10.484694"><ele>565.3</ele></trkpt>
            <trkpt lat="51.696379" lon="10.484713"><ele>566.5</ele></trkpt>
            <trkpt lat="51.69625" lon="10.484683"><ele>575</ele></trkpt>
            <trkpt lat="51.695778" lon="10.484572"><ele>574.3</ele></trkpt>
            <trkpt lat="51.695312" lon="10.484501"><ele>575.3</ele></trkpt>
            <trkpt lat="51.695214" lon="10.484458"><ele>575.5</ele></trkpt>
            <trkpt lat="51.694409" lon="10.483347"><ele>579</ele></trkpt>
            <trkpt lat="51.694124" lon="10.483042"><ele>587.1</ele></trkpt>
            <trkpt lat="51.693942" lon="10.48292"><ele>592</ele></trkpt>
            <trkpt lat="51.693544" lon="10.482732"><ele>592</ele></trkpt>
            <trkpt lat="51.693344" lon="10.482647"><ele>594.8</ele></trkpt>
            <trkpt lat="51.693116" lon="10.482511"><ele>595.4</ele></trkpt>
            <trkpt lat="51.692989" lon="10.482406"><ele>594.4</ele></trkpt>
            <trkpt lat="51.692809" lon="10.482203"><ele>595</ele></trkpt>
            <trkpt lat="51.692358" lon="10.481778"><ele>599.8</ele></trkpt>
            <trkpt lat="51.69223" lon="10.481709"><ele>598.7</ele></trkpt>
            <trkpt lat="51.691359" lon="10.48138"><ele>612.6</ele></trkpt>
            <trkpt lat="51.690429" lon="10.481091"><ele>620.5</ele></trkpt>
            <trkpt lat="51.69031" lon="10.481026"><ele>620</ele></trkpt>
            <trkpt lat="51.690168" lon="10.480911"><ele>619.5</ele></trkpt>
            <trkpt lat="51.69008" lon="10.480803"><ele>619.1</ele></trkpt>
            <trkpt lat="51.690042" lon="10.480616"><ele>619.8</ele></trkpt>
            <trkpt lat="51.690019" lon="10.480405"><ele>619.9</ele></trkpt>
            <trkpt lat="51.69004" lon="10.480154"><ele>620</ele></trkpt>
            <trkpt lat="51.690112" lon="10.479799"><ele>617.6</ele></trkpt>
            <trkpt lat="51.690359" lon="10.478961"><ele>616.3</ele></trkpt>
            <trkpt lat="51.690393" lon="10.478736"><ele>615.4</ele></trkpt>
            <trkpt lat="51.690459" lon="10.477934"><ele>613.9</ele></trkpt>
            <trkpt lat="51.690467" lon="10.477729"><ele>614.5</ele></trkpt>
            <trkpt lat="51.690451" lon="10.477577"><ele>614.9</ele></trkpt>
            <trkpt lat="51.690385" lon="10.477498"><ele>615.5</ele></trkpt>
            <trkpt lat="51.690308" lon="10.477468"><ele>617</ele></trkpt>
            <trkpt lat="51.689895" lon="10.477661"><ele>621.5</ele></trkpt>
            <trkpt lat="51.689763" lon="10.477681"><ele>622.2</ele></trkpt>
            <trkpt lat="51.689658" lon="10.47765"><ele>622.8</ele></trkpt>
            <trkpt lat="51.689586" lon="10.477597"><ele>622.5</ele></trkpt>
            <trkpt lat="51.689357" lon="10.477264"><ele>622.9</ele></trkpt>
            <trkpt lat="51.689297" lon="10.47712"><ele>623.3</ele></trkpt>
            <trkpt lat="51.689241" lon="10.476885"><ele>624.3</ele></trkpt>
            <trkpt lat="51.68917" lon="10.476694"><ele>626</ele></trkpt>
            <trkpt lat="51.688916" lon="10.476423"><ele>627.6</ele></trkpt>
            <trkpt lat="51.688825" lon="10.476258"><ele>626.9</ele></trkpt>
            <trkpt lat="51.688673" lon="10.475593"><ele>625.2</ele></trkpt>
            <trkpt lat="51.688644" lon="10.474735"><ele>623.4</ele></trkpt>
            <trkpt lat="51.688573" lon="10.474409"><ele>621.3</ele></trkpt>
            <trkpt lat="51.68846" lon="10.474164"><ele>620.7</ele></trkpt>
            <trkpt lat="51.68844" lon="10.474071"><ele>620.2</ele></trkpt>
            <trkpt lat="51.688451" lon="10.473955"><ele>619.8</ele></trkpt>
            <trkpt lat="51.688555" lon="10.473693"><ele>619.7</ele></trkpt>
            <trkpt lat="51.68858" lon="10.473574"><ele>619.5</ele></trkpt>
            <trkpt lat="51.68858" lon="10.473414"><ele>619</ele></trkpt>
            <trkpt lat="51.688539" lon="10.473299"><ele>618.8</ele></trkpt>
            <trkpt lat="51.68833" lon="10.472892"><ele>618.8</ele></trkpt>
            <trkpt lat="51.688302" lon="10.47274"><ele>618.9</ele></trkpt>
            <trkpt lat="51.688334" lon="10.472269"><ele>617</ele></trkpt>
            <trkpt lat="51.688363" lon="10.472216"><ele>617</ele></trkpt>
            <trkpt lat="51.688412" lon="10.472176"><ele>617</ele></trkpt>
            <trkpt lat="51.68844" lon="10.472081"><ele>619.7</ele></trkpt>
            <trkpt lat="51.688412" lon="10.472176"><ele>617</ele></trkpt>
            <trkpt lat="51.688363" lon="10.472216"><ele>617</ele></trkpt>
            <trkpt lat="51.688334" lon="10.472269"><ele>617</ele></trkpt>
            <trkpt lat="51.688302" lon="10.47274"><ele>618.9</ele></trkpt>
            <trkpt lat="51.68833" lon="10.472892"><ele>618.8</ele></trkpt>
            <trkpt lat="51.688539" lon="10.473299"><ele>618.8</ele></trkpt>
            <trkpt lat="51.68858" lon="10.473414"><ele>619</ele></trkpt>
            <trkpt lat="51.68858" lon="10.473574"><ele>619.5</ele></trkpt>
            <trkpt lat="51.688555" lon="10.473693"><ele>619.7</ele></trkpt>
            <trkpt lat="51.688451" lon="10.473955"><ele>619.8</ele></trkpt>
            <trkpt lat="51.68844" lon="10.474071"><ele>620.2</ele></trkpt>
            <trkpt lat="51.68846" lon="10.474164"><ele>620.7</ele></trkpt>
            <trkpt lat="51.688573" lon="10.474409"><ele>621.3</ele></trkpt>
            <trkpt lat="51.688644" lon="10.474735"><ele>623.4</ele></trkpt>
            <trkpt lat="51.688673" lon="10.475593"><ele>625.2</ele></trkpt>
            <trkpt lat="51.688825" lon="10.476258"><ele>626.9</ele></trkpt>
            <trkpt lat="51.688916" lon="10.476423"><ele>627.6</ele></trkpt>
            <trkpt lat="51.68917" lon="10.476694"><ele>626</ele></trkpt>
            <trkpt lat="51.689241" lon="10.476885"><ele>624.3</ele></trkpt>
            <trkpt lat="51.689297" lon="10.47712"><ele>623.3</ele></trkpt>
            <trkpt lat="51.689357" lon="10.477264"><ele>622.9</ele></trkpt>
            <trkpt lat="51.689586" lon="10.477597"><ele>622.5</ele></trkpt>
            <trkpt lat="51.689658" lon="10.47765"><ele>622.8</ele></trkpt>
            <trkpt lat="51.689763" lon="10.477681"><ele>622.2</ele></trkpt>
            <trkpt lat="51.689895" lon="10.477661"><ele>621.5</ele></trkpt>
            <trkpt lat="51.690308" lon="10.477468"><ele>617</ele></trkpt>
            <trkpt lat="51.690385" lon="10.477498"><ele>615.5</ele></trkpt>
            <trkpt lat="51.690451" lon="10.477577"><ele>614.9</ele></trkpt>
            <trkpt lat="51.690467" lon="10.477729"><ele>614.5</ele></trkpt>
            <trkpt lat="51.690459" lon="10.477934"><ele>613.9</ele></trkpt>
            <trkpt lat="51.690393" lon="10.478736"><ele>615.4</ele></trkpt>
            <trkpt lat="51.690359" lon="10.478961"><ele>616.3</ele></trkpt>
            <trkpt lat="51.690112" lon="10.479799"><ele>617.6</ele></trkpt>
            <trkpt lat="51.69004" lon="10.480154"><ele>620</ele></trkpt>
            <trkpt lat="51.690019" lon="10.480405"><ele>619.9</ele></trkpt>
            <trkpt lat="51.690042" lon="10.480616"><ele>619.8</ele></trkpt>
            <trkpt lat="51.69008" lon="10.480803"><ele>619.1</ele></trkpt>
            <trkpt lat="51.690168" lon="10.480911"><ele>619.5</ele></trkpt>
            <trkpt lat="51.69031" lon="10.481026"><ele>620</ele></trkpt>
            <trkpt lat="51.690429" lon="10.481091"><ele>620.5</ele></trkpt>
            <trkpt lat="51.691359" lon="10.48138"><ele>612.6</ele></trkpt>
            <trkpt lat="51.69223" lon="10.481709"><ele>598.7</ele></trkpt>
            <trkpt lat="51.692358" lon="10.481778"><ele>599.8</ele></trkpt>
            <trkpt lat="51.692809" lon="10.482203"><ele>595</ele></trkpt>
            <trkpt lat="51.692989" lon="10.482406"><ele>594.4</ele></trkpt>
            <trkpt lat="51.693116" lon="10.482511"><ele>595.4</ele></trkpt>
            <trkpt lat="51.693344" lon="10.482647"><ele>594.8</ele></trkpt>
            <trkpt lat="51.693544" lon="10.482732"><ele>592</ele></trkpt>
            <trkpt lat="51.693942" lon="10.48292"><ele>592</ele></trkpt>
            <trkpt lat="51.694124" lon="10.483042"><ele>587.1</ele></trkpt>
            <trkpt lat="51.694409" lon="10.483347"><ele>579</ele></trkpt>
            <trkpt lat="51.695214" lon="10.484458"><ele>575.5</ele></trkpt>
            <trkpt lat="51.695312" lon="10.484501"><ele>575.3</ele></trkpt>
            <trkpt lat="51.695778" lon="10.484572"><ele>574.3</ele></trkpt>
            <trkpt lat="51.69625" lon="10.484683"><ele>575</ele></trkpt>
            <trkpt lat="51.696379" lon="10.484713"><ele>566.5</ele></trkpt>
            <trkpt lat="51.697086" lon="10.484694"><ele>565.3</ele></trkpt>
            <trkpt lat="51.697249" lon="10.484708"><ele>564.4</ele></trkpt>
            <trkpt lat="51.697413" lon="10.484747"><ele>563.8</ele></trkpt>
            <trkpt lat="51.697534" lon="10.48481"><ele>562.1</ele></trkpt>
            <trkpt lat="51.697675" lon="10.484974"><ele>559.7</ele></trkpt>
            <trkpt lat="51.698073" lon="10.485638"><ele>558.5</ele></trkpt>
            <trkpt lat="51.698255" lon="10.485828"><ele>558.1</ele></trkpt>
            <trkpt lat="51.698448" lon="10.485962"><ele>557.5</ele></trkpt>
            <trkpt lat="51.698579" lon="10.48599"><ele>557.2</ele></trkpt>
            <trkpt lat="51.698722" lon="10.485987"><ele>558</ele></trkpt>
            <trkpt lat="51.698912" lon="10.485942"><ele>558.7</ele></trkpt>
            <trkpt lat="51.699159" lon="10.485831"><ele>557.2</ele></trkpt>
            <trkpt lat="51.699292" lon="10.48584"><ele>556.3</ele></trkpt>
            <trkpt lat="51.699369" lon="10.485911"><ele>555.4</ele></trkpt>
            <trkpt lat="51.69942" lon="10.486041"><ele>553.6</ele></trkpt>
            <trkpt lat="51.699479" lon="10.486315"><ele>553</ele></trkpt>
            <trkpt lat="51.699535" lon="10.486767"><ele>553.1</ele></trkpt>
            <trkpt lat="51.699746" lon="10.487791"><ele>551.6</ele></trkpt>
            <trkpt lat="51.699789" lon="10.488476"><ele>557.7</ele></trkpt>
            <trkpt lat="51.699794" lon="10.48887"><ele>557.8</ele></trkpt>
            <trkpt lat="51.699874" lon="10.489206"><ele>556.3</ele></trkpt>
            <trkpt lat="51.699985" lon="10.489468"><ele>551</ele></trkpt>
            <trkpt lat="51.699741" lon="10.489597"><ele>548.1</ele></trkpt>
            <trkpt lat="51.699628" lon="10.489698"><ele>547.7</ele></trkpt>
            <trkpt lat="51.69956" lon="10.489879"><ele>547.3</ele></trkpt>
            <trkpt lat="51.699558" lon="10.490111"><ele>546.7</ele></trkpt>
            <trkpt lat="51.699655" lon="10.490547"><ele>547</ele></trkpt>
            <trkpt lat="51.699669" lon="10.49097"><ele>547.1</ele></trkpt>
            <trkpt lat="51.699658" lon="10.49231"><ele>546</ele></trkpt>
            <trkpt lat="51.699606" lon="10.492899"><ele>545.8</ele></trkpt>
            <trkpt lat="51.699495" lon="10.493316"><ele>545</ele></trkpt>
            <trkpt lat="51.699368" lon="10.494228"><ele>534.1</ele></trkpt>
            <trkpt lat="51.699245" lon="10.494792"><ele>534.9</ele></trkpt>
            <trkpt lat="51.699116" lon="10.495748"><ele>527.6</ele></trkpt>
            <trkpt lat="51.698995" lon="10.496257"><ele>523.8</ele></trkpt>
            <trkpt lat="51.698786" lon="10.497029"><ele>515.9</ele></trkpt>
            <trkpt lat="51.698691" lon="10.49746"><ele>516.5</ele></trkpt>
            <trkpt lat="51.698604" lon="10.497692"><ele>513.1</ele></trkpt>
            <trkpt lat="51.698348" lon="10.498149"><ele>504.3</ele></trkpt>
            <trkpt lat="51.698305" lon="10.498251"><ele>502.1</ele></trkpt>
            <trkpt lat="51.698223" lon="10.498546"><ele>498.3</ele></trkpt>
            <trkpt lat="51.698136" lon="10.499444"><ele>485.7</ele></trkpt>
            <trkpt lat="51.698114" lon="10.499929"><ele>478.1</ele></trkpt>
            <trkpt lat="51.698078" lon="10.500038"><ele>475.1</ele></trkpt>
            <trkpt lat="51.697909" lon="10.500334"><ele>468.6</ele></trkpt>
            <trkpt lat="51.697567" lon="10.501198"><ele>465.7</ele></trkpt>
            <trkpt lat="51.697487" lon="10.501331"><ele>465.4</ele></trkpt>
            <trkpt lat="51.697464" lon="10.501496"><ele>463.7</ele></trkpt>
            <trkpt lat="51.697501" lon="10.501627"><ele>463.1</ele></trkpt>
            <trkpt lat="51.697697" lon="10.501899"><ele>448</ele></trkpt>
            <trkpt lat="51.697497" lon="10.502278"><ele>451</ele></trkpt>
            <trkpt lat="51.697334" lon="10.502518"><ele>450.4</ele></trkpt>
            <trkpt lat="51.697264" lon="10.502593"><ele>450</ele></trkpt>
            <trkpt lat="51.69737" lon="10.502629"><ele>450</ele></trkpt>
            <trkpt lat="51.697345" lon="10.502822"><ele>450</ele></trkpt>
            <trkpt lat="51.696861" lon="10.503073"><ele>450</ele></trkpt>
            <trkpt lat="51.696869" lon="10.503128"><ele>450</ele></trkpt>
            <trkpt lat="51.696741" lon="10.503207"><ele>444.8</ele></trkpt>
            <trkpt lat="51.696696" lon="10.503425"><ele>445.8</ele></trkpt>
            <trkpt lat="51.696622" lon="10.503651"><ele>443.7</ele></trkpt>
            <trkpt lat="51.696559" lon="10.503749"><ele>442.9</ele></trkpt>
            <trkpt lat="51.696569" lon="10.503882"><ele>436</ele></trkpt>
            <trkpt lat="51.696627" lon="10.503835"><ele>447.9</ele></trkpt>
            <trkpt lat="51.696794" lon="10.503766"><ele>452.1</ele></trkpt>
            <trkpt lat="51.69707" lon="10.503685"><ele>455.8</ele></trkpt>
            <trkpt lat="51.6972" lon="10.503687"><ele>457.2</ele></trkpt>
            <trkpt lat="51.697329" lon="10.503696"><ele>457.8</ele></trkpt>
            <trkpt lat="51.697432" lon="10.50373"><ele>459.1</ele></trkpt>
            <trkpt lat="51.697914" lon="10.50393"><ele>460.3</ele></trkpt>
            <trkpt lat="51.698005" lon="10.503835"><ele>462.4</ele></trkpt>
            <trkpt lat="51.698221" lon="10.503812"><ele>462.8</ele></trkpt>
            <trkpt lat="51.698304" lon="10.503822"><ele>462.6</ele></trkpt>
            <trkpt lat="51.698711" lon="10.503963"><ele>463.6</ele></trkpt>
            <trkpt lat="51.69895" lon="10.503986"><ele>470</ele></trkpt>
            <trkpt lat="51.699204" lon="10.504115"><ele>493.4</ele></trkpt>
            <trkpt lat="51.699556" lon="10.504368"><ele>499.2</ele></trkpt>
            <trkpt lat="51.699687" lon="10.504492"><ele>499.2</ele></trkpt>
            <trkpt lat="51.699793" lon="10.504623"><ele>499.2</ele></trkpt>
            <trkpt lat="51.699891" lon="10.504784"><ele>504.2</ele></trkpt>
            <trkpt lat="51.700021" lon="10.505059"><ele>504.8</ele></trkpt>
            <trkpt lat="51.700192" lon="10.505604"><ele>514.6</ele></trkpt>
            <trkpt lat="51.700507" lon="10.507591"><ele>540.1</ele></trkpt>
            <trkpt lat="51.700576" lon="10.507849"><ele>542.9</ele></trkpt>
            <trkpt lat="51.700649" lon="10.507987"><ele>541.9</ele></trkpt>
            <trkpt lat="51.70092" lon="10.508624"><ele>543</ele></trkpt>
            <trkpt lat="51.701174" lon="10.509256"><ele>549</ele></trkpt>
            <trkpt lat="51.701245" lon="10.509306"><ele>549</ele></trkpt>
            <trkpt lat="51.70126" lon="10.509463"><ele>549</ele></trkpt>
            <trkpt lat="51.701414" lon="10.509808"><ele>549</ele></trkpt>
            <trkpt lat="51.70145" lon="10.509865"><ele>549</ele></trkpt>
            <trkpt lat="51.701611" lon="10.510236"><ele>555</ele></trkpt>
            <trkpt lat="51.701761" lon="10.510298"><ele>556</ele></trkpt>
            <trkpt lat="51.701782" lon="10.510362"><ele>556</ele></trkpt>
            <trkpt lat="51.701908" lon="10.510509"><ele>556</ele></trkpt>
            <trkpt lat="51.702086" lon="10.51072"><ele>554.4</ele></trkpt>
            <trkpt lat="51.702341" lon="10.511078"><ele>555.7</ele></trkpt>
            <trkpt lat="51.702513" lon="10.511266"><ele>559.6</ele></trkpt>
            <trkpt lat="51.70303" lon="10.511706"><ele>559.6</ele></trkpt>
            <trkpt lat="51.703281" lon="10.51198"><ele>565.6</ele></trkpt>
            <trkpt lat="51.703512" lon="10.51227"><ele>570.3</ele></trkpt>
            <trkpt lat="51.703788" lon="10.512743"><ele>573.6</ele></trkpt>
            <trkpt lat="51.704169" lon="10.513327"><ele>580.1</ele></trkpt>
            <trkpt lat="51.704559" lon="10.513754"><ele>585.2</ele></trkpt>
            <trkpt lat="51.704764" lon="10.514039"><ele>584.7</ele></trkpt>
            <trkpt lat="51.704859" lon="10.514113"><ele>585.9</ele></trkpt>
            <trkpt lat="51.704972" lon="10.514152"><ele>586.3</ele></trkpt>
            <trkpt lat="51.705231" lon="10.51417"><ele>588.6</ele></trkpt>
            <trkpt lat="51.705406" lon="10.514212"><ele>589.6</ele></trkpt>
            <trkpt lat="51.705479" lon="10.51426"><ele>589.9</ele></trkpt>
            <trkpt lat="51.705551" lon="10.514377"><ele>590.4</ele></trkpt>
            <trkpt lat="51.705652" lon="10.514781"><ele>590.4</ele></trkpt>
            <trkpt lat="51.705738" lon="10.515168"><ele>592.6</ele></trkpt>
            <trkpt lat="51.705842" lon="10.515823"><ele>596.1</ele></trkpt>
            <trkpt lat="51.705892" lon="10.515989"><ele>595.6</ele></trkpt>
            <trkpt lat="51.705957" lon="10.516095"><ele>596.8</ele></trkpt>
            <trkpt lat="51.706038" lon="10.51616"><ele>598.1</ele></trkpt>
            <trkpt lat="51.706261" lon="10.5162"><ele>599.2</ele></trkpt>
            <trkpt lat="51.706732" lon="10.516137"><ele>601</ele></trkpt>
            <trkpt lat="51.70697" lon="10.516149"><ele>600.7</ele></trkpt>
            <trkpt lat="51.707354" lon="10.516357"><ele>607</ele></trkpt>
            <trkpt lat="51.707542" lon="10.516559"><ele>607</ele></trkpt>
            <trkpt lat="51.707799" lon="10.516665"><ele>607</ele></trkpt>
            <trkpt lat="51.707976" lon="10.516943"><ele>601</ele></trkpt>
            <trkpt lat="51.707982" lon="10.516954"><ele>601</ele></trkpt>
            <trkpt lat="51.708204" lon="10.517326"><ele>601</ele></trkpt>
            <trkpt lat="51.708257" lon="10.517409"><ele>601</ele></trkpt>
            <trkpt lat="51.70852" lon="10.517821"><ele>595</ele></trkpt>
            <trkpt lat="51.708637" lon="10.517971"><ele>595</ele></trkpt>
            <trkpt lat="51.708674" lon="10.518028"><ele>595</ele></trkpt>
            <trkpt lat="51.708774" lon="10.517981"><ele>595</ele></trkpt>
            <trkpt lat="51.708867" lon="10.517995"><ele>595</ele></trkpt>
            <trkpt lat="51.708972" lon="10.518011"><ele>595</ele></trkpt>
            <trkpt lat="51.709168" lon="10.518042"><ele>598</ele></trkpt>
            <trkpt lat="51.709267" lon="10.518666"><ele>603.3</ele></trkpt>
            <trkpt lat="51.709326" lon="10.518791"><ele>605</ele></trkpt>
            <trkpt lat="51.709703" lon="10.518895"><ele>605</ele></trkpt>
            <trkpt lat="51.709692" lon="10.518984"><ele>605</ele></trkpt>
            <trkpt lat="51.709688" lon="10.519125"><ele>604</ele></trkpt>
            <trkpt lat="51.709725" lon="10.519243"><ele>603</ele></trkpt>
            <trkpt lat="51.709832" lon="10.519348"><ele>603</ele></trkpt>
            <trkpt lat="51.709863" lon="10.519377"><ele>603</ele></trkpt>
            <trkpt lat="51.710103" lon="10.519588"><ele>611</ele></trkpt>
            <trkpt lat="51.710193" lon="10.519661"><ele>611</ele></trkpt>
            <trkpt lat="51.710263" lon="10.519721"><ele>611</ele></trkpt>
            <trkpt lat="51.710313" lon="10.51976"><ele>611</ele></trkpt>
            <trkpt lat="51.710727" lon="10.52028"><ele>613</ele></trkpt>
            <trkpt lat="51.711136" lon="10.521037"><ele>615.7</ele></trkpt>
            <trkpt lat="51.711304" lon="10.521293"><ele>617</ele></trkpt>
            <trkpt lat="51.711374" lon="10.52136"><ele>617</ele></trkpt>
            <trkpt lat="51.711376" lon="10.521405"><ele>617</ele></trkpt>
            <trkpt lat="51.711444" lon="10.521498"><ele>617</ele></trkpt>
            <trkpt lat="51.7116" lon="10.52171"><ele>615</ele></trkpt>
            <trkpt lat="51.711643" lon="10.521769"><ele>615</ele></trkpt>
            <trkpt lat="51.711818" lon="10.521996"><ele>619</ele></trkpt>
            <trkpt lat="51.712016" lon="10.522244"><ele>619</ele></trkpt>
            <trkpt lat="51.712044" lon="10.522277"><ele>619</ele></trkpt>
            <trkpt lat="51.712271" lon="10.522561"><ele>618</ele></trkpt>
            <trkpt lat="51.712367" lon="10.522681"><ele>618</ele></trkpt>
            <trkpt lat="51.712424" lon="10.522749"><ele>618</ele></trkpt>
            <trkpt lat="51.712498" lon="10.52284"><ele>618</ele></trkpt>
            <trkpt lat="51.712527" lon="10.522875"><ele>619</ele></trkpt>
            <trkpt lat="51.712684" lon="10.523038"><ele>619</ele></trkpt>
            <trkpt lat="51.71275" lon="10.5231"><ele>619</ele></trkpt>
            <trkpt lat="51.712812" lon="10.523157"><ele>619</ele></trkpt>
            <trkpt lat="51.7127" lon="10.523511"><ele>620</ele></trkpt>
            <trkpt lat="51.71278" lon="10.523574"><ele>620</ele></trkpt>
            <trkpt lat="51.713026" lon="10.523765"><ele>620</ele></trkpt>
            <trkpt lat="51.713413" lon="10.5241"><ele>625</ele></trkpt>
            <trkpt lat="51.713445" lon="10.52412"><ele>625</ele></trkpt>
            <trkpt lat="51.713808" lon="10.524261"><ele>619</ele></trkpt>
            <trkpt lat="51.713804" lon="10.524294"><ele>619</ele></trkpt>
            <trkpt lat="51.713805" lon="10.524369"><ele>619</ele></trkpt>
            <trkpt lat="51.71383" lon="10.524768"><ele>620.2</ele></trkpt>
            <trkpt lat="51.713865" lon="10.524864"><ele>620.2</ele></trkpt>
            <trkpt lat="51.714113" lon="10.525207"><ele>620.3</ele></trkpt>
            <trkpt lat="51.714214" lon="10.525395"><ele>621.7</ele></trkpt>
            <trkpt lat="51.71428" lon="10.525562"><ele>621.5</ele></trkpt>
            <trkpt lat="51.714282" lon="10.525595"><ele>621.3</ele></trkpt>
            <trkpt lat="51.714251" lon="10.525676"><ele>621.2</ele></trkpt>
            <trkpt lat="51.714189" lon="10.525693"><ele>623</ele></trkpt>
            <trkpt lat="51.714345" lon="10.525887"><ele>623</ele></trkpt>
            <trkpt lat="51.714386" lon="10.525965"><ele>623</ele></trkpt>
            <trkpt lat="51.71444" lon="10.52607"><ele>623</ele></trkpt>
            <trkpt lat="51.714478" lon="10.526201"><ele>623</ele></trkpt>
            <trkpt lat="51.714499" lon="10.52643"><ele>623</ele></trkpt>
            <trkpt lat="51.714525" lon="10.526539"><ele>623</ele></trkpt>
            <trkpt lat="51.714697" lon="10.526845"><ele>623</ele></trkpt>
            <trkpt lat="51.714979" lon="10.52729"><ele>623</ele></trkpt>
            <trkpt lat="51.715149" lon="10.527562"><ele>628.5</ele></trkpt>
            <trkpt lat="51.715361" lon="10.527733"><ele>629</ele></trkpt>
            <trkpt lat="51.715596" lon="10.52787"><ele>631</ele></trkpt>
            <trkpt lat="51.715685" lon="10.527965"><ele>632.1</ele></trkpt>
            <trkpt lat="51.715776" lon="10.52814"><ele>631.8</ele></trkpt>
            <trkpt lat="51.715812" lon="10.528727"><ele>635</ele></trkpt>
            <trkpt lat="51.71556" lon="10.528717"><ele>635</ele></trkpt>
            <trkpt lat="51.715474" lon="10.528781"><ele>635</ele></trkpt>
            <trkpt lat="51.715298" lon="10.529141"><ele>635</ele></trkpt>
            <trkpt lat="51.715157" lon="10.52946"><ele>638</ele></trkpt>
            <trkpt lat="51.715184" lon="10.52978"><ele>638.8</ele></trkpt>
            <trkpt lat="51.715279" lon="10.530113"><ele>642</ele></trkpt>
            <trkpt lat="51.715166" lon="10.530267"><ele>642</ele></trkpt>
            <trkpt lat="51.715223" lon="10.530364"><ele>642</ele></trkpt>
            <trkpt lat="51.715121" lon="10.530522"><ele>642</ele></trkpt>
            <trkpt lat="51.715108" lon="10.530606"><ele>642</ele></trkpt>
            <trkpt lat="51.71513" lon="10.530733"><ele>642</ele></trkpt>
            <trkpt lat="51.715291" lon="10.531037"><ele>642</ele></trkpt>
            <trkpt lat="51.715417" lon="10.531286"><ele>641.6</ele></trkpt>
            <trkpt lat="51.715576" lon="10.531659"><ele>641.6</ele></trkpt>
            <trkpt lat="51.715613" lon="10.531777"><ele>641.6</ele></trkpt>
            <trkpt lat="51.715649" lon="10.532025"><ele>641.5</ele></trkpt>
            <trkpt lat="51.715755" lon="10.53246"><ele>641.5</ele></trkpt>
            <trkpt lat="51.715791" lon="10.532712"><ele>641.4</ele></trkpt>
            <trkpt lat="51.715766" lon="10.533343"><ele>642</ele></trkpt>
            <trkpt lat="51.715927" lon="10.533865"><ele>659</ele></trkpt>
            <trkpt lat="51.715896" lon="10.534132"><ele>659</ele></trkpt>
            <trkpt lat="51.715942" lon="10.534345"><ele>664.5</ele></trkpt>
            <trkpt lat="51.715978" lon="10.534734"><ele>664.9</ele></trkpt>
            <trkpt lat="51.715936" lon="10.535374"><ele>665.7</ele></trkpt>
            <trkpt lat="51.715931" lon="10.536681"><ele>671.4</ele></trkpt>
            <trkpt lat="51.715889" lon="10.538694"><ele>679.3</ele></trkpt>
            <trkpt lat="51.715959" lon="10.539094"><ele>679.9</ele></trkpt>
            <trkpt lat="51.716122" lon="10.539652"><ele>685</ele></trkpt>
            <trkpt lat="51.71613" lon="10.539671"><ele>685</ele></trkpt>
            <trkpt lat="51.716357" lon="10.540089"><ele>690</ele></trkpt>
            <trkpt lat="51.716506" lon="10.540255"><ele>691</ele></trkpt>
            <trkpt lat="51.716695" lon="10.54053"><ele>693</ele></trkpt>
            <trkpt lat="51.717203" lon="10.541195"><ele>688.8</ele></trkpt>
            <trkpt lat="51.717255" lon="10.541326"><ele>687.1</ele></trkpt>
            <trkpt lat="51.717292" lon="10.541472"><ele>686.8</ele></trkpt>
            <trkpt lat="51.717344" lon="10.543212"><ele>679.6</ele></trkpt>
            <trkpt lat="51.717361" lon="10.543443"><ele>678.1</ele></trkpt>
            <trkpt lat="51.717689" lon="10.545314"><ele>667</ele></trkpt>
            <trkpt lat="51.717757" lon="10.545832"><ele>663.8</ele></trkpt>
            <trkpt lat="51.717842" lon="10.546182"><ele>661.6</ele></trkpt>
            <trkpt lat="51.717912" lon="10.546384"><ele>660.7</ele></trkpt>
            <trkpt lat="51.718385" lon="10.548089"><ele>640.8</ele></trkpt>
            <trkpt lat="51.718404" lon="10.548271"><ele>638.6</ele></trkpt>
            <trkpt lat="51.718381" lon="10.549187"><ele>634.8</ele></trkpt>
            <trkpt lat="51.718364" lon="10.549261"><ele>634</ele></trkpt>
            <trkpt lat="51.718284" lon="10.549388"><ele>631.6</ele></trkpt>
            <trkpt lat="51.718238" lon="10.549412"><ele>630.6</ele></trkpt>
            <trkpt lat="51.718131" lon="10.54939"><ele>630.5</ele></trkpt>
            <trkpt lat="51.717634" lon="10.549164"><ele>631.3</ele></trkpt>
            <trkpt lat="51.717409" lon="10.548968"><ele>632.9</ele></trkpt>
            <trkpt lat="51.717141" lon="10.5487"><ele>635.5</ele></trkpt>
            <trkpt lat="51.717017" lon="10.548516"><ele>636.4</ele></trkpt>
            <trkpt lat="51.71679" lon="10.548025"><ele>639.6</ele></trkpt>
            <trkpt lat="51.716631" lon="10.54755"><ele>642.7</ele></trkpt>
            <trkpt lat="51.716544" lon="10.547369"><ele>642.2</ele></trkpt>
            <trkpt lat="51.716482" lon="10.547295"><ele>642.2</ele></trkpt>
            <trkpt lat="51.716383" lon="10.547301"><ele>651</ele></trkpt>
            <trkpt lat="51.716432" lon="10.547728"><ele>632</ele></trkpt>
            <trkpt lat="51.71645" lon="10.548257"><ele>629.2</ele></trkpt>
            <trkpt lat="51.716748" lon="10.550546"><ele>598</ele></trkpt>
            <trkpt lat="51.716912" lon="10.550995"><ele>590.6</ele></trkpt>
            <trkpt lat="51.717055" lon="10.551277"><ele>585.3</ele></trkpt>
            <trkpt lat="51.717502" lon="10.552026"><ele>571.6</ele></trkpt>
            <trkpt lat="51.717951" lon="10.552857"><ele>556.6</ele></trkpt>
            <trkpt lat="51.718332" lon="10.553508"><ele>549.2</ele></trkpt>
            <trkpt lat="51.718386" lon="10.553627"><ele>550</ele></trkpt>
            <trkpt lat="51.718439" lon="10.553909"><ele>546.9</ele></trkpt>
            <trkpt lat="51.718598" lon="10.554475"><ele>547.6</ele></trkpt>
            <trkpt lat="51.71883" lon="10.554853"><ele>545.2</ele></trkpt>
            <trkpt lat="51.718855" lon="10.554962"><ele>545.2</ele></trkpt>
            <trkpt lat="51.718868" lon="10.555229"><ele>544.2</ele></trkpt>
            <trkpt lat="51.718847" lon="10.555365"><ele>542</ele></trkpt>
            <trkpt lat="51.718759" lon="10.555512"><ele>539.8</ele></trkpt>
            <trkpt lat="51.718216" lon="10.556033"><ele>532.5</ele></trkpt>
            <trkpt lat="51.717544" lon="10.556404"><ele>519.3</ele></trkpt>
            <trkpt lat="51.717404" lon="10.5565"><ele>517</ele></trkpt>
            <trkpt lat="51.717338" lon="10.556594"><ele>511</ele></trkpt>
            <trkpt lat="51.717314" lon="10.556883"><ele>506</ele></trkpt>
            <trkpt lat="51.717257" lon="10.557009"><ele>506</ele></trkpt>
            <trkpt lat="51.717187" lon="10.557082"><ele>506</ele></trkpt>
            <trkpt lat="51.717171" lon="10.557225"><ele>504.7</ele></trkpt>
            <trkpt lat="51.717334" lon="10.558008"><ele>502</ele></trkpt>
            <trkpt lat="51.717259" lon="10.558137"><ele>502</ele></trkpt>
            <trkpt lat="51.717182" lon="10.558271"><ele>502</ele></trkpt>
            <trkpt lat="51.716882" lon="10.558817"><ele>498.5</ele></trkpt>
            <trkpt lat="51.716422" lon="10.559595"><ele>497</ele></trkpt>
            <trkpt lat="51.716445" lon="10.5597"><ele>495</ele></trkpt>
            <trkpt lat="51.716429" lon="10.559846"><ele>494.5</ele></trkpt>
            <trkpt lat="51.716491" lon="10.560104"><ele>494</ele></trkpt>
            <trkpt lat="51.716497" lon="10.560218"><ele>493.8</ele></trkpt>
            <trkpt lat="51.7164" lon="10.560544"><ele>493.7</ele></trkpt>
            <trkpt lat="51.716209" lon="10.561629"><ele>493.5</ele></trkpt>
            <trkpt lat="51.716205" lon="10.561878"><ele>493.1</ele></trkpt>
            <trkpt lat="51.716268" lon="10.562098"><ele>493.1</ele></trkpt>
            <trkpt lat="51.716248" lon="10.562341"><ele>492</ele></trkpt>
            <trkpt lat="51.716278" lon="10.562376"><ele>495</ele></trkpt>
            <trkpt lat="51.716248" lon="10.562341"><ele>492</ele></trkpt>
            <trkpt lat="51.716268" lon="10.562098"><ele>493.1</ele></trkpt>
            <trkpt lat="51.716205" lon="10.561878"><ele>493.1</ele></trkpt>
            <trkpt lat="51.716209" lon="10.561629"><ele>493.5</ele></trkpt>
            <trkpt lat="51.7164" lon="10.560544"><ele>493.7</ele></trkpt>
            <trkpt lat="51.716497" lon="10.560218"><ele>493.8</ele></trkpt>
            <trkpt lat="51.716491" lon="10.560104"><ele>494</ele></trkpt>
            <trkpt lat="51.716429" lon="10.559846"><ele>494.5</ele></trkpt>
            <trkpt lat="51.716445" lon="10.5597"><ele>495</ele></trkpt>
            <trkpt lat="51.716422" lon="10.559595"><ele>497</ele></trkpt>
            <trkpt lat="51.716882" lon="10.558817"><ele>498.5</ele></trkpt>
            <trkpt lat="51.717182" lon="10.558271"><ele>502</ele></trkpt>
            <trkpt lat="51.717259" lon="10.558137"><ele>502</ele></trkpt>
            <trkpt lat="51.717334" lon="10.558008"><ele>502</ele></trkpt>
            <trkpt lat="51.717479" lon="10.557871"><ele>502.5</ele></trkpt>
            <trkpt lat="51.717634" lon="10.557777"><ele>502.6</ele></trkpt>
            <trkpt lat="51.717898" lon="10.557715"><ele>502.7</ele></trkpt>
            <trkpt lat="51.718065" lon="10.557715"><ele>503.4</ele></trkpt>
            <trkpt lat="51.718877" lon="10.557934"><ele>503.6</ele></trkpt>
            <trkpt lat="51.719006" lon="10.55794"><ele>503.6</ele></trkpt>
            <trkpt lat="51.719373" lon="10.557879"><ele>510</ele></trkpt>
            <trkpt lat="51.719459" lon="10.557064"><ele>521.8</ele></trkpt>
            <trkpt lat="51.719743" lon="10.554759"><ele>551.3</ele></trkpt>
            <trkpt lat="51.719895" lon="10.553922"><ele>554</ele></trkpt>
            <trkpt lat="51.720017" lon="10.553464"><ele>555.7</ele></trkpt>
            <trkpt lat="51.720076" lon="10.553156"><ele>556.6</ele></trkpt>
            <trkpt lat="51.720173" lon="10.552486"><ele>559.7</ele></trkpt>
            <trkpt lat="51.720245" lon="10.552261"><ele>560.9</ele></trkpt>
            <trkpt lat="51.720704" lon="10.551319"><ele>567.2</ele></trkpt>
            <trkpt lat="51.720842" lon="10.551072"><ele>567.7</ele></trkpt>
            <trkpt lat="51.721121" lon="10.550701"><ele>568.5</ele></trkpt>
            <trkpt lat="51.721197" lon="10.550546"><ele>569.5</ele></trkpt>
            <trkpt lat="51.721324" lon="10.550211"><ele>570.3</ele></trkpt>
            <trkpt lat="51.721398" lon="10.549955"><ele>570.8</ele></trkpt>
            <trkpt lat="51.721424" lon="10.549664"><ele>571</ele></trkpt>
            <trkpt lat="51.721427" lon="10.548865"><ele>575.7</ele></trkpt>
            <trkpt lat="51.721506" lon="10.548137"><ele>582.2</ele></trkpt>
            <trkpt lat="51.721569" lon="10.547059"><ele>586.5</ele></trkpt>
            <trkpt lat="51.721601" lon="10.546863"><ele>588.1</ele></trkpt>
            <trkpt lat="51.721654" lon="10.546692"><ele>589.1</ele></trkpt>
            <trkpt lat="51.721891" lon="10.546194"><ele>589</ele></trkpt>
            <trkpt lat="51.721941" lon="10.546007"><ele>588.7</ele></trkpt>
            <trkpt lat="51.722011" lon="10.545635"><ele>589.7</ele></trkpt>
            <trkpt lat="51.722075" lon="10.544987"><ele>590.3</ele></trkpt>
            <trkpt lat="51.722135" lon="10.54459"><ele>592.4</ele></trkpt>
            <trkpt lat="51.722202" lon="10.544297"><ele>595.4</ele></trkpt>
            <trkpt lat="51.722426" lon="10.543664"><ele>602.9</ele></trkpt>
            <trkpt lat="51.722747" lon="10.542427"><ele>606</ele></trkpt>
            <trkpt lat="51.722773" lon="10.542183"><ele>610</ele></trkpt>
            <trkpt lat="51.722878" lon="10.541673"><ele>611.2</ele></trkpt>
            <trkpt lat="51.722951" lon="10.541448"><ele>611.7</ele></trkpt>
            <trkpt lat="51.723261" lon="10.540707"><ele>614.5</ele></trkpt>
            <trkpt lat="51.723557" lon="10.539875"><ele>622.1</ele></trkpt>
            <trkpt lat="51.72394" lon="10.538996"><ele>625.7</ele></trkpt>
            <trkpt lat="51.723997" lon="10.538793"><ele>626.3</ele></trkpt>
            <trkpt lat="51.724165" lon="10.537971"><ele>638</ele></trkpt>
            <trkpt lat="51.724205" lon="10.537898"><ele>627</ele></trkpt>
            <trkpt lat="51.724366" lon="10.53757"><ele>635.8</ele></trkpt>
            <trkpt lat="51.724419" lon="10.537414"><ele>635.9</ele></trkpt>
            <trkpt lat="51.72445" lon="10.537238"><ele>635.9</ele></trkpt>
            <trkpt lat="51.724462" lon="10.537045"><ele>635.8</ele></trkpt>
            <trkpt lat="51.724442" lon="10.536604"><ele>636.2</ele></trkpt>
            <trkpt lat="51.724466" lon="10.536425"><ele>636.5</ele></trkpt>
            <trkpt lat="51.724562" lon="10.53623"><ele>637.5</ele></trkpt>
            <trkpt lat="51.72462" lon="10.536214"><ele>637.8</ele></trkpt>
            <trkpt lat="51.724708" lon="10.536246"><ele>638.1</ele></trkpt>
            <trkpt lat="51.724841" lon="10.536354"><ele>638.3</ele></trkpt>
            <trkpt lat="51.725103" lon="10.536731"><ele>638.5</ele></trkpt>
            <trkpt lat="51.725174" lon="10.536764"><ele>638.2</ele></trkpt>
            <trkpt lat="51.725253" lon="10.536767"><ele>638</ele></trkpt>
            <trkpt lat="51.725413" lon="10.536684"><ele>638</ele></trkpt>
            <trkpt lat="51.725574" lon="10.536522"><ele>639.6</ele></trkpt>
            <trkpt lat="51.725888" lon="10.536131"><ele>645</ele></trkpt>
            <trkpt lat="51.726265" lon="10.535595"><ele>661.3</ele></trkpt>
            <trkpt lat="51.72659" lon="10.534972"><ele>665.4</ele></trkpt>
            <trkpt lat="51.726915" lon="10.534285"><ele>670.1</ele></trkpt>
            <trkpt lat="51.727243" lon="10.533498"><ele>673.6</ele></trkpt>
            <trkpt lat="51.727541" lon="10.532872"><ele>675.8</ele></trkpt>
            <trkpt lat="51.727694" lon="10.532689"><ele>675.9</ele></trkpt>
            <trkpt lat="51.728093" lon="10.532309"><ele>679.7</ele></trkpt>
            <trkpt lat="51.728587" lon="10.531588"><ele>684.5</ele></trkpt>
            <trkpt lat="51.728861" lon="10.531266"><ele>687.4</ele></trkpt>
            <trkpt lat="51.729153" lon="10.530853"><ele>689.7</ele></trkpt>
            <trkpt lat="51.729419" lon="10.530367"><ele>689.5</ele></trkpt>
            <trkpt lat="51.729689" lon="10.529745"><ele>690.5</ele></trkpt>
            <trkpt lat="51.729877" lon="10.52946"><ele>691.7</ele></trkpt>
            <trkpt lat="51.730052" lon="10.529283"><ele>692</ele></trkpt>
            <trkpt lat="51.730179" lon="10.529147"><ele>698</ele></trkpt>
            <trkpt lat="51.730211" lon="10.529235"><ele>692</ele></trkpt>
            <trkpt lat="51.730244" lon="10.529322"><ele>692</ele></trkpt>
            <trkpt lat="51.730252" lon="10.529349"><ele>692</ele></trkpt>
            <trkpt lat="51.730303" lon="10.529583"><ele>692</ele></trkpt>
            <trkpt lat="51.730305" lon="10.529772"><ele>687.4</ele></trkpt>
            <trkpt lat="51.730155" lon="10.530863"><ele>686.4</ele></trkpt>
            <trkpt lat="51.730139" lon="10.531229"><ele>685.1</ele></trkpt>
            <trkpt lat="51.729967" lon="10.533109"><ele>674.7</ele></trkpt>
            <trkpt lat="51.729727" lon="10.534735"><ele>673.9</ele></trkpt>
            <trkpt lat="51.729492" lon="10.535653"><ele>675</ele></trkpt>
            <trkpt lat="51.729376" lon="10.536352"><ele>675.5</ele></trkpt>
            <trkpt lat="51.729315" lon="10.537034"><ele>678</ele></trkpt>
            <trkpt lat="51.729238" lon="10.53777"><ele>684</ele></trkpt>
            <trkpt lat="51.729196" lon="10.538046"><ele>680.6</ele></trkpt>
            <trkpt lat="51.729238" lon="10.53777"><ele>684</ele></trkpt>
            <trkpt lat="51.729315" lon="10.537034"><ele>678</ele></trkpt>
            <trkpt lat="51.729376" lon="10.536352"><ele>675.5</ele></trkpt>
            <trkpt lat="51.729492" lon="10.535653"><ele>675</ele></trkpt>
            <trkpt lat="51.729727" lon="10.534735"><ele>673.9</ele></trkpt>
            <trkpt lat="51.729967" lon="10.533109"><ele>674.7</ele></trkpt>
            <trkpt lat="51.730139" lon="10.531229"><ele>685.1</ele></trkpt>
            <trkpt lat="51.730155" lon="10.530863"><ele>686.4</ele></trkpt>
            <trkpt lat="51.730305" lon="10.529772"><ele>687.4</ele></trkpt>
            <trkpt lat="51.730303" lon="10.529583"><ele>692</ele></trkpt>
            <trkpt lat="51.730252" lon="10.529349"><ele>692</ele></trkpt>
            <trkpt lat="51.730244" lon="10.529322"><ele>692</ele></trkpt>
            <trkpt lat="51.730211" lon="10.529235"><ele>692</ele></trkpt>
            <trkpt lat="51.730179" lon="10.529147"><ele>698</ele></trkpt>
            <trkpt lat="51.730152" lon="10.528979"><ele>700.7</ele></trkpt>
            <trkpt lat="51.730258" lon="10.528196"><ele>700.7</ele></trkpt>
            <trkpt lat="51.730333" lon="10.527478"><ele>701.8</ele></trkpt>
            <trkpt lat="51.730375" lon="10.526933"><ele>708</ele></trkpt>
            <trkpt lat="51.730376" lon="10.526753"><ele>708</ele></trkpt>
            <trkpt lat="51.730364" lon="10.526269"><ele>710.8</ele></trkpt>
            <trkpt lat="51.730291" lon="10.525519"><ele>710.9</ele></trkpt>
            <trkpt lat="51.730254" lon="10.525293"><ele>711</ele></trkpt>
            <trkpt lat="51.730209" lon="10.525149"><ele>711.1</ele></trkpt>
            <trkpt lat="51.730108" lon="10.524917"><ele>715</ele></trkpt>
            <trkpt lat="51.729842" lon="10.524572"><ele>714.1</ele></trkpt>
            <trkpt lat="51.729697" lon="10.524331"><ele>714.1</ele></trkpt>
            <trkpt lat="51.729407" lon="10.523602"><ele>713.9</ele></trkpt>
            <trkpt lat="51.729289" lon="10.523407"><ele>713.9</ele></trkpt>
            <trkpt lat="51.729127" lon="10.52323"><ele>713.8</ele></trkpt>
            <trkpt lat="51.728572" lon="10.522783"><ele>713.6</ele></trkpt>
            <trkpt lat="51.728522" lon="10.522727"><ele>713.5</ele></trkpt>
            <trkpt lat="51.728495" lon="10.522663"><ele>713.5</ele></trkpt>
            <trkpt lat="51.72848" lon="10.522536"><ele>713</ele></trkpt>
            <trkpt lat="51.728442" lon="10.522453"><ele>711</ele></trkpt>
            <trkpt lat="51.728404" lon="10.522391"><ele>710.3</ele></trkpt>
            <trkpt lat="51.728347" lon="10.522349"><ele>710.1</ele></trkpt>
            <trkpt lat="51.727878" lon="10.522276"><ele>708</ele></trkpt>
            <trkpt lat="51.727617" lon="10.52216"><ele>708</ele></trkpt>
            <trkpt lat="51.727768" lon="10.521188"><ele>706.4</ele></trkpt>
            <trkpt lat="51.727855" lon="10.520788"><ele>706.2</ele></trkpt>
            <trkpt lat="51.727971" lon="10.520558"><ele>705.8</ele></trkpt>
            <trkpt lat="51.72838" lon="10.520014"><ele>707</ele></trkpt>
            <trkpt lat="51.728473" lon="10.519803"><ele>702.1</ele></trkpt>
            <trkpt lat="51.728531" lon="10.519503"><ele>702.1</ele></trkpt>
            <trkpt lat="51.728651" lon="10.518633"><ele>698</ele></trkpt>
            <trkpt lat="51.729128" lon="10.517836"><ele>689.8</ele></trkpt>
            <trkpt lat="51.72953" lon="10.517307"><ele>688.8</ele></trkpt>
            <trkpt lat="51.729739" lon="10.517001"><ele>687.4</ele></trkpt>
            <trkpt lat="51.729956" lon="10.516743"><ele>687.3</ele></trkpt>
            <trkpt lat="51.730066" lon="10.516523"><ele>686.2</ele></trkpt>
            <trkpt lat="51.730282" lon="10.51596"><ele>684</ele></trkpt>
            <trkpt lat="51.730388" lon="10.515772"><ele>682.9</ele></trkpt>
            <trkpt lat="51.730742" lon="10.515353"><ele>680</ele></trkpt>
            <trkpt lat="51.730929" lon="10.51522"><ele>679</ele></trkpt>
            <trkpt lat="51.731094" lon="10.51505"><ele>679.1</ele></trkpt>
            <trkpt lat="51.731173" lon="10.5149"><ele>678.6</ele></trkpt>
            <trkpt lat="51.731189" lon="10.514839"><ele>678.4</ele></trkpt>
            <trkpt lat="51.731201" lon="10.514508"><ele>677.6</ele></trkpt>
            <trkpt lat="51.731217" lon="10.514368"><ele>676.7</ele></trkpt>
            <trkpt lat="51.731251" lon="10.514237"><ele>676.4</ele></trkpt>
            <trkpt lat="51.731363" lon="10.514029"><ele>675.4</ele></trkpt>
            <trkpt lat="51.731448" lon="10.513933"><ele>674.8</ele></trkpt>
            <trkpt lat="51.731775" lon="10.513682"><ele>674.2</ele></trkpt>
            <trkpt lat="51.732081" lon="10.513309"><ele>673.1</ele></trkpt>
            <trkpt lat="51.732178" lon="10.513224"><ele>672.6</ele></trkpt>
            <trkpt lat="51.732294" lon="10.513069"><ele>672.3</ele></trkpt>
            <trkpt lat="51.732451" lon="10.51259"><ele>671.8</ele></trkpt>
            <trkpt lat="51.732524" lon="10.512206"><ele>672.1</ele></trkpt>
            <trkpt lat="51.732555" lon="10.511881"><ele>673.1</ele></trkpt>
            <trkpt lat="51.732518" lon="10.511521"><ele>684</ele></trkpt>
            <trkpt lat="51.732365" lon="10.511232"><ele>658.6</ele></trkpt>
        </trkseg>
    </trk>
</gpx>
