<?xml version="1.0" encoding="UTF-8"?>
<gpx version="1.1" creator="HWN Route Compare (OpenRouteService)" xmlns="http://www.topografix.com/GPX/1/1">
    <metadata>
        <name>OpenRouteService – Tour D1</name>
    </metadata>
    <trk>
        <name>OpenRouteService – Tour D1</name>
        <trkseg>
            <trkpt lat="51.702889" lon="10.791172"><ele>461.3</ele></trkpt>
            <trkpt lat="51.70292" lon="10.791508"><ele>463</ele></trkpt>
            <trkpt lat="51.703048" lon="10.791518"><ele>466.4</ele></trkpt>
            <trkpt lat="51.703151" lon="10.791593"><ele>466.3</ele></trkpt>
            <trkpt lat="51.70357" lon="10.791999"><ele>467.5</ele></trkpt>
            <trkpt lat="51.703688" lon="10.792156"><ele>467.7</ele></trkpt>
            <trkpt lat="51.703839" lon="10.792419"><ele>467.9</ele></trkpt>
            <trkpt lat="51.703903" lon="10.79259"><ele>468</ele></trkpt>
            <trkpt lat="51.703977" lon="10.792878"><ele>468.2</ele></trkpt>
            <trkpt lat="51.704068" lon="10.793345"><ele>468.8</ele></trkpt>
            <trkpt lat="51.70407" lon="10.793611"><ele>468.5</ele></trkpt>
            <trkpt lat="51.704" lon="10.794083"><ele>468.3</ele></trkpt>
            <trkpt lat="51.703841" lon="10.794768"><ele>467.6</ele></trkpt>
            <trkpt lat="51.703785" lon="10.795117"><ele>465</ele></trkpt>
            <trkpt lat="51.703804" lon="10.795276"><ele>463.7</ele></trkpt>
            <trkpt lat="51.703898" lon="10.795493"><ele>463.8</ele></trkpt>
            <trkpt lat="51.704303" lon="10.796171"><ele>463.1</ele></trkpt>
            <trkpt lat="51.704398" lon="10.796457"><ele>460</ele></trkpt>
            <trkpt lat="51.704574" lon="10.796959"><ele>470</ele></trkpt>
            <trkpt lat="51.704737" lon="10.797323"><ele>467.5</ele></trkpt>
            <trkpt lat="51.70481" lon="10.797448"><ele>467.6</ele></trkpt>
            <trkpt lat="51.704849" lon="10.797498"><ele>467.8</ele></trkpt>
            <trkpt lat="51.704889" lon="10.797498"><ele>468.4</ele></trkpt>
            <trkpt lat="51.704996" lon="10.79729"><ele>468.7</ele></trkpt>
            <trkpt lat="51.705195" lon="10.796446"><ele>466</ele></trkpt>
            <trkpt lat="51.705236" lon="10.796428"><ele>453</ele></trkpt>
            <trkpt lat="51.705364" lon="10.796888"><ele>466.1</ele></trkpt>
            <trkpt lat="51.705393" lon="10.79705"><ele>466.8</ele></trkpt>
            <trkpt lat="51.705401" lon="10.797241"><ele>466.5</ele></trkpt>
            <trkpt lat="51.705436" lon="10.797395"><ele>466.5</ele></trkpt>
            <trkpt lat="51.705633" lon="10.797849"><ele>468.8</ele></trkpt>
            <trkpt lat="51.705694" lon="10.797965"><ele>468.8</ele></trkpt>
            <trkpt lat="51.705767" lon="10.798042"><ele>468.8</ele></trkpt>
            <trkpt lat="51.705777" lon="10.798098"><ele>468.8</ele></trkpt>
            <trkpt lat="51.705814" lon="10.798152"><ele>468.8</ele></trkpt>
            <trkpt lat="51.705865" lon="10.798174"><ele>468.9</ele></trkpt>
            <trkpt lat="51.705963" lon="10.798278"><ele>469.4</ele></trkpt>
            <trkpt lat="51.706125" lon="10.798491"><ele>470.8</ele></trkpt>
            <trkpt lat="51.706257" lon="10.798561"><ele>471.4</ele></trkpt>
            <trkpt lat="51.706324" lon="10.798573"><ele>472</ele></trkpt>
            <trkpt lat="51.706363" lon="10.798551"><ele>472.3</ele></trkpt>
            <trkpt lat="51.706445" lon="10.79863"><ele>473.3</ele></trkpt>
            <trkpt lat="51.706555" lon="10.798689"><ele>474</ele></trkpt>
            <trkpt lat="51.706593" lon="10.798664"><ele>474.3</ele></trkpt>
            <trkpt lat="51.706775" lon="10.798631"><ele>474.1</ele></trkpt>
            <trkpt lat="51.706801" lon="10.798526"><ele>473.8</ele></trkpt>
            <trkpt lat="51.706838" lon="10.798492"><ele>473.9</ele></trkpt>
            <trkpt lat="51.706961" lon="10.798486"><ele>471</ele></trkpt>
            <trkpt lat="51.707047" lon="10.798444"><ele>471</ele></trkpt>
            <trkpt lat="51.707102" lon="10.798371"><ele>471</ele></trkpt>
            <trkpt lat="51.70715" lon="10.798365"><ele>471</ele></trkpt>
            <trkpt lat="51.707175" lon="10.798388"><ele>471</ele></trkpt>
            <trkpt lat="51.707244" lon="10.798739"><ele>471</ele></trkpt>
            <trkpt lat="51.707341" lon="10.79896"><ele>471</ele></trkpt>
            <trkpt lat="51.707448" lon="10.798915"><ele>466.4</ele></trkpt>
            <trkpt lat="51.707665" lon="10.798895"><ele>466</ele></trkpt>
            <trkpt lat="51.707736" lon="10.798864"><ele>466.1</ele></trkpt>
            <trkpt lat="51.708187" lon="10.798488"><ele>466.5</ele></trkpt>
            <trkpt lat="51.708334" lon="10.798429"><ele>466</ele></trkpt>
            <trkpt lat="51.708404" lon="10.798434"><ele>465.6</ele></trkpt>
            <trkpt lat="51.708503" lon="10.798476"><ele>464.7</ele></trkpt>
            <trkpt lat="51.708576" lon="10.798556"><ele>464.3</ele></trkpt>
            <trkpt lat="51.708867" lon="10.798966"><ele>462.6</ele></trkpt>
            <trkpt lat="51.709123" lon="10.799408"><ele>471</ele></trkpt>
            <trkpt lat="51.709169" lon="10.799319"><ele>454</ele></trkpt>
            <trkpt lat="51.709351" lon="10.798947"><ele>444</ele></trkpt>
            <trkpt lat="51.709612" lon="10.798383"><ele>444</ele></trkpt>
            <trkpt lat="51.709807" lon="10.797967"><ele>450</ele></trkpt>
            <trkpt lat="51.709847" lon="10.797889"><ele>450</ele></trkpt>
            <trkpt lat="51.710261" lon="10.798373"><ele>449.3</ele></trkpt>
            <trkpt lat="51.71049" lon="10.798504"><ele>448.5</ele></trkpt>
            <trkpt lat="51.710634" lon="10.798636"><ele>447.7</ele></trkpt>
            <trkpt lat="51.710749" lon="10.798896"><ele>447.4</ele></trkpt>
            <trkpt lat="51.711183" lon="10.800015"><ele>446</ele></trkpt>
            <trkpt lat="51.71152" lon="10.800979"><ele>447.8</ele></trkpt>
            <trkpt lat="51.711678" lon="10.801433"><ele>449.6</ele></trkpt>
            <trkpt lat="51.711988" lon="10.802178"><ele>450.2</ele></trkpt>
            <trkpt lat="51.712174" lon="10.802526"><ele>449.1</ele></trkpt>
            <trkpt lat="51.712316" lon="10.802681"><ele>449.9</ele></trkpt>
            <trkpt lat="51.712417" lon="10.802761"><ele>448.9</ele></trkpt>
            <trkpt lat="51.712571" lon="10.80284"><ele>465</ele></trkpt>
            <trkpt lat="51.712942" lon="10.803016"><ele>469.8</ele></trkpt>
            <trkpt lat="51.713188" lon="10.803244"><ele>469.2</ele></trkpt>
            <trkpt lat="51.713313" lon="10.803256"><ele>468.7</ele></trkpt>
            <trkpt lat="51.713374" lon="10.803215"><ele>468.9</ele></trkpt>
            <trkpt lat="51.713416" lon="10.803166"><ele>469</ele></trkpt>
            <trkpt lat="51.713456" lon="10.803061"><ele>470</ele></trkpt>
            <trkpt lat="51.713476" lon="10.802769"><ele>470.1</ele></trkpt>
            <trkpt lat="51.713405" lon="10.801615"><ele>475.1</ele></trkpt>
            <trkpt lat="51.713426" lon="10.800894"><ele>484.4</ele></trkpt>
            <trkpt lat="51.713453" lon="10.80051"><ele>488.3</ele></trkpt>
            <trkpt lat="51.713693" lon="10.799019"><ele>498</ele></trkpt>
            <trkpt lat="51.713682" lon="10.798883"><ele>498</ele></trkpt>
            <trkpt lat="51.71396" lon="10.798905"><ele>496.6</ele></trkpt>
            <trkpt lat="51.714384" lon="10.799071"><ele>496.3</ele></trkpt>
            <trkpt lat="51.71461" lon="10.799059"><ele>496.2</ele></trkpt>
            <trkpt lat="51.714798" lon="10.798995"><ele>496.1</ele></trkpt>
            <trkpt lat="51.715016" lon="10.798885"><ele>496.1</ele></trkpt>
            <trkpt lat="51.715213" lon="10.798639"><ele>495.9</ele></trkpt>
            <trkpt lat="51.715318" lon="10.798386"><ele>495</ele></trkpt>
            <trkpt lat="51.715631" lon="10.798778"><ele>494.8</ele></trkpt>
            <trkpt lat="51.715863" lon="10.799122"><ele>495</ele></trkpt>
            <trkpt lat="51.716034" lon="10.799448"><ele>494.8</ele></trkpt>
            <trkpt lat="51.716149" lon="10.799734"><ele>494</ele></trkpt>
            <trkpt lat="51.716236" lon="10.799888"><ele>491.6</ele></trkpt>
            <trkpt lat="51.716582" lon="10.80034"><ele>491.5</ele></trkpt>
            <trkpt lat="51.716918" lon="10.800908"><ele>487</ele></trkpt>
            <trkpt lat="51.717155" lon="10.8013"><ele>482.2</ele></trkpt>
            <trkpt lat="51.71749" lon="10.801635"><ele>483.1</ele></trkpt>
            <trkpt lat="51.717685" lon="10.801892"><ele>481.6</ele></trkpt>
            <trkpt lat="51.717726" lon="10.801982"><ele>480.9</ele></trkpt>
            <trkpt lat="51.71776" lon="10.802006"><ele>480.3</ele></trkpt>
            <trkpt lat="51.717836" lon="10.801996"><ele>475</ele></trkpt>
            <trkpt lat="51.71788" lon="10.80214"><ele>471.4</ele></trkpt>
            <trkpt lat="51.71801" lon="10.802243"><ele>469.9</ele></trkpt>
            <trkpt lat="51.718428" lon="10.802315"><ele>467.4</ele></trkpt>
            <trkpt lat="51.718605" lon="10.802284"><ele>467.3</ele></trkpt>
            <trkpt lat="51.718759" lon="10.802354"><ele>466.8</ele></trkpt>
            <trkpt lat="51.719016" lon="10.802634"><ele>466.6</ele></trkpt>
            <trkpt lat="51.719177" lon="10.802906"><ele>465.7</ele></trkpt>
            <trkpt lat="51.719761" lon="10.804024"><ele>466</ele></trkpt>
            <trkpt lat="51.719892" lon="10.804197"><ele>470</ele></trkpt>
            <trkpt lat="51.720878" lon="10.803988"><ele>462.1</ele></trkpt>
            <trkpt lat="51.721096" lon="10.803541"><ele>462.5</ele></trkpt>
            <trkpt lat="51.721243" lon="10.803285"><ele>463.7</ele></trkpt>
            <trkpt lat="51.72139" lon="10.803209"><ele>464.2</ele></trkpt>
            <trkpt lat="51.722153" lon="10.803323"><ele>468.8</ele></trkpt>
            <trkpt lat="51.722571" lon="10.803266"><ele>475.4</ele></trkpt>
            <trkpt lat="51.723042" lon="10.803498"><ele>482.3</ele></trkpt>
            <trkpt lat="51.723211" lon="10.803483"><ele>483.2</ele></trkpt>
            <trkpt lat="51.72354" lon="10.803289"><ele>487.2</ele></trkpt>
            <trkpt lat="51.723709" lon="10.803123"><ele>486.8</ele></trkpt>
            <trkpt lat="51.724075" lon="10.802995"><ele>489.4</ele></trkpt>
            <trkpt lat="51.725214" lon="10.803029"><ele>506</ele></trkpt>
            <trkpt lat="51.725662" lon="10.803004"><ele>506</ele></trkpt>
            <trkpt lat="51.725814" lon="10.802949"><ele>506</ele></trkpt>
            <trkpt lat="51.725846" lon="10.803046"><ele>509</ele></trkpt>
            <trkpt lat="51.725998" lon="10.80286"><ele>510.8</ele></trkpt>
            <trkpt lat="51.726872" lon="10.801603"><ele>512.7</ele></trkpt>
            <trkpt lat="51.727583" lon="10.80051"><ele>515</ele></trkpt>
            <trkpt lat="51.72966" lon="10.797371"><ele>499</ele></trkpt>
            <trkpt lat="51.730416" lon="10.797753"><ele>493</ele></trkpt>
            <trkpt lat="51.730454" lon="10.797833"><ele>491</ele></trkpt>
            <trkpt lat="51.731205" lon="10.798262"><ele>487.2</ele></trkpt>
            <trkpt lat="51.731465" lon="10.798331"><ele>486.9</ele></trkpt>
            <trkpt lat="51.731616" lon="10.798325"><ele>484.7</ele></trkpt>
            <trkpt lat="51.732916" lon="10.798576"><ele>474.5</ele></trkpt>
            <trkpt lat="51.733378" lon="10.798645"><ele>468.3</ele></trkpt>
            <trkpt lat="51.733978" lon="10.798913"><ele>465.8</ele></trkpt>
            <trkpt lat="51.734505" lon="10.799481"><ele>460.4</ele></trkpt>
            <trkpt lat="51.734651" lon="10.799908"><ele>459</ele></trkpt>
            <trkpt lat="51.734777" lon="10.80013"><ele>459.3</ele></trkpt>
            <trkpt lat="51.7352" lon="10.800591"><ele>455.6</ele></trkpt>
            <trkpt lat="51.735402" lon="10.800938"><ele>452</ele></trkpt>
            <trkpt lat="51.735527" lon="10.801385"><ele>457.2</ele></trkpt>
            <trkpt lat="51.735592" lon="10.801854"><ele>458.1</ele></trkpt>
            <trkpt lat="51.735616" lon="10.802429"><ele>458.9</ele></trkpt>
            <trkpt lat="51.7356" lon="10.802912"><ele>460</ele></trkpt>
            <trkpt lat="51.735501" lon="10.803797"><ele>463.9</ele></trkpt>
            <trkpt lat="51.735487" lon="10.804034"><ele>465</ele></trkpt>
            <trkpt lat="51.735587" lon="10.805052"><ele>466.5</ele></trkpt>
            <trkpt lat="51.735487" lon="10.804034"><ele>465</ele></trkpt>
            <trkpt lat="51.735501" lon="10.803797"><ele>463.9</ele></trkpt>
            <trkpt lat="51.7356" lon="10.802912"><ele>460</ele></trkpt>
            <trkpt lat="51.735616" lon="10.802429"><ele>458.9</ele></trkpt>
            <trkpt lat="51.735592" lon="10.801854"><ele>458.1</ele></trkpt>
            <trkpt lat="51.735527" lon="10.801385"><ele>457.2</ele></trkpt>
            <trkpt lat="51.735402" lon="10.800938"><ele>452</ele></trkpt>
            <trkpt lat="51.735426" lon="10.800723"><ele>448.7</ele></trkpt>
            <trkpt lat="51.735452" lon="10.800639"><ele>447</ele></trkpt>
            <trkpt lat="51.735888" lon="10.800156"><ele>434</ele></trkpt>
            <trkpt lat="51.735932" lon="10.800101"><ele>434</ele></trkpt>
            <trkpt lat="51.736079" lon="10.799902"><ele>444</ele></trkpt>
            <trkpt lat="51.736173" lon="10.799644"><ele>449.8</ele></trkpt>
            <trkpt lat="51.73627" lon="10.799233"><ele>450.3</ele></trkpt>
            <trkpt lat="51.736565" lon="10.798167"><ele>452.7</ele></trkpt>
            <trkpt lat="51.73665" lon="10.797351"><ele>455.6</ele></trkpt>
            <trkpt lat="51.736817" lon="10.796902"><ele>455.5</ele></trkpt>
            <trkpt lat="51.737011" lon="10.79644"><ele>455</ele></trkpt>
            <trkpt lat="51.737463" lon="10.79528"><ele>457.5</ele></trkpt>
            <trkpt lat="51.737594" lon="10.794756"><ele>456.9</ele></trkpt>
            <trkpt lat="51.738135" lon="10.792081"><ele>456.7</ele></trkpt>
            <trkpt lat="51.738413" lon="10.791093"><ele>454.4</ele></trkpt>
            <trkpt lat="51.73861" lon="10.790587"><ele>452.2</ele></trkpt>
            <trkpt lat="51.738646" lon="10.79041"><ele>451.3</ele></trkpt>
            <trkpt lat="51.73868" lon="10.789986"><ele>446</ele></trkpt>
            <trkpt lat="51.738692" lon="10.789876"><ele>447.5</ele></trkpt>
            <trkpt lat="51.738677" lon="10.789443"><ele>447.3</ele></trkpt>
            <trkpt lat="51.738636" lon="10.788787"><ele>448.1</ele></trkpt>
            <trkpt lat="51.738706" lon="10.786231"><ele>457.4</ele></trkpt>
            <trkpt lat="51.738926" lon="10.78512"><ele>458.7</ele></trkpt>
            <trkpt lat="51.739041" lon="10.78469"><ele>459.6</ele></trkpt>
            <trkpt lat="51.739602" lon="10.783624"><ele>455.6</ele></trkpt>
            <trkpt lat="51.739964" lon="10.782861"><ele>452</ele></trkpt>
            <trkpt lat="51.740169" lon="10.782339"><ele>449.2</ele></trkpt>
            <trkpt lat="51.740325" lon="10.781771"><ele>448</ele></trkpt>
            <trkpt lat="51.74039" lon="10.781411"><ele>447.7</ele></trkpt>
            <trkpt lat="51.740518" lon="10.780358"><ele>444</ele></trkpt>
            <trkpt lat="51.740552" lon="10.779481"><ele>442.3</ele></trkpt>
            <trkpt lat="51.740689" lon="10.778107"><ele>441.5</ele></trkpt>
            <trkpt lat="51.740713" lon="10.777699"><ele>441.7</ele></trkpt>
            <trkpt lat="51.740717" lon="10.77734"><ele>441.3</ele></trkpt>
            <trkpt lat="51.740698" lon="10.777026"><ele>440.9</ele></trkpt>
            <trkpt lat="51.740597" lon="10.776224"><ele>440.6</ele></trkpt>
            <trkpt lat="51.740589" lon="10.775535"><ele>445</ele></trkpt>
            <trkpt lat="51.74059" lon="10.775239"><ele>445</ele></trkpt>
            <trkpt lat="51.740614" lon="10.77491"><ele>445.7</ele></trkpt>
            <trkpt lat="51.740608" lon="10.774714"><ele>446</ele></trkpt>
            <trkpt lat="51.740593" lon="10.774624"><ele>446</ele></trkpt>
            <trkpt lat="51.740606" lon="10.773962"><ele>443.9</ele></trkpt>
            <trkpt lat="51.740568" lon="10.773412"><ele>443.1</ele></trkpt>
            <trkpt lat="51.740378" lon="10.772757"><ele>443</ele></trkpt>
            <trkpt lat="51.740149" lon="10.772228"><ele>441.5</ele></trkpt>
            <trkpt lat="51.740013" lon="10.771807"><ele>437</ele></trkpt>
            <trkpt lat="51.739789" lon="10.771144"><ele>456.5</ele></trkpt>
            <trkpt lat="51.739751" lon="10.770968"><ele>457</ele></trkpt>
            <trkpt lat="51.739605" lon="10.769577"><ele>458</ele></trkpt>
            <trkpt lat="51.739568" lon="10.769619"><ele>462.1</ele></trkpt>
            <trkpt lat="51.739533" lon="10.76982"><ele>461.7</ele></trkpt>
            <trkpt lat="51.739434" lon="10.770139"><ele>461.3</ele></trkpt>
            <trkpt lat="51.739359" lon="10.770165"><ele>461.4</ele></trkpt>
            <trkpt lat="51.739313" lon="10.770123"><ele>461.7</ele></trkpt>
            <trkpt lat="51.739235" lon="10.769963"><ele>461.7</ele></trkpt>
            <trkpt lat="51.739154" lon="10.769704"><ele>462.4</ele></trkpt>
            <trkpt lat="51.739" lon="10.768988"><ele>463</ele></trkpt>
            <trkpt lat="51.738964" lon="10.768285"><ele>463.6</ele></trkpt>
            <trkpt lat="51.738886" lon="10.767866"><ele>466</ele></trkpt>
            <trkpt lat="51.738831" lon="10.767716"><ele>466.5</ele></trkpt>
            <trkpt lat="51.738801" lon="10.76768"><ele>463</ele></trkpt>
            <trkpt lat="51.738757" lon="10.76764"><ele>463</ele></trkpt>
            <trkpt lat="51.73867" lon="10.767588"><ele>463</ele></trkpt>
            <trkpt lat="51.738603" lon="10.767488"><ele>456</ele></trkpt>
            <trkpt lat="51.73849" lon="10.767358"><ele>456</ele></trkpt>
            <trkpt lat="51.738461" lon="10.767229"><ele>456</ele></trkpt>
            <trkpt lat="51.73849" lon="10.767358"><ele>456</ele></trkpt>
            <trkpt lat="51.738603" lon="10.767488"><ele>456</ele></trkpt>
            <trkpt lat="51.73867" lon="10.767588"><ele>463</ele></trkpt>
            <trkpt lat="51.738757" lon="10.76764"><ele>463</ele></trkpt>
            <trkpt lat="51.738801" lon="10.76768"><ele>463</ele></trkpt>
            <trkpt lat="51.738936" lon="10.767634"><ele>463</ele></trkpt>
            <trkpt lat="51.738942" lon="10.76756"><ele>458.5</ele></trkpt>
            <trkpt lat="51.738818" lon="10.767365"><ele>458.2</ele></trkpt>
            <trkpt lat="51.738757" lon="10.767234"><ele>458.1</ele></trkpt>
            <trkpt lat="51.73875" lon="10.767192"><ele>458</ele></trkpt>
            <trkpt lat="51.73879" lon="10.767217"><ele>457.9</ele></trkpt>
            <trkpt lat="51.738779" lon="10.767164"><ele>457.8</ele></trkpt>
            <trkpt lat="51.738721" lon="10.767057"><ele>457.7</ele></trkpt>
            <trkpt lat="51.738731" lon="10.767028"><ele>457.6</ele></trkpt>
            <trkpt lat="51.738784" lon="10.76703"><ele>457.5</ele></trkpt>
            <trkpt lat="51.739019" lon="10.767189"><ele>457.4</ele></trkpt>
            <trkpt lat="51.739033" lon="10.76715"><ele>457.3</ele></trkpt>
            <trkpt lat="51.738942" lon="10.766909"><ele>456</ele></trkpt>
            <trkpt lat="51.738947" lon="10.766799"><ele>456</ele></trkpt>
            <trkpt lat="51.739071" lon="10.766848"><ele>456</ele></trkpt>
            <trkpt lat="51.73914" lon="10.766674"><ele>456</ele></trkpt>
            <trkpt lat="51.739227" lon="10.766452"><ele>430</ele></trkpt>
            <trkpt lat="51.739265" lon="10.766339"><ele>430</ele></trkpt>
            <trkpt lat="51.739209" lon="10.766144"><ele>430.5</ele></trkpt>
            <trkpt lat="51.739088" lon="10.765852"><ele>429.6</ele></trkpt>
            <trkpt lat="51.738997" lon="10.765357"><ele>428.8</ele></trkpt>
            <trkpt lat="51.738936" lon="10.76518"><ele>429</ele></trkpt>
            <trkpt lat="51.738877" lon="10.765104"><ele>429.2</ele></trkpt>
            <trkpt lat="51.738816" lon="10.764935"><ele>428</ele></trkpt>
            <trkpt lat="51.73846" lon="10.764627"><ele>428</ele></trkpt>
            <trkpt lat="51.738498" lon="10.764488"><ele>428</ele></trkpt>
            <trkpt lat="51.73855" lon="10.764328"><ele>430.9</ele></trkpt>
            <trkpt lat="51.738553" lon="10.764235"><ele>430.5</ele></trkpt>
            <trkpt lat="51.738176" lon="10.763685"><ele>430.6</ele></trkpt>
            <trkpt lat="51.737766" lon="10.763145"><ele>431.3</ele></trkpt>
            <trkpt lat="51.737696" lon="10.763111"><ele>431.9</ele></trkpt>
            <trkpt lat="51.737622" lon="10.763003"><ele>436</ele></trkpt>
            <trkpt lat="51.737588" lon="10.762721"><ele>437</ele></trkpt>
            <trkpt lat="51.737559" lon="10.762592"><ele>437.2</ele></trkpt>
            <trkpt lat="51.737513" lon="10.762441"><ele>437.4</ele></trkpt>
            <trkpt lat="51.737403" lon="10.762211"><ele>437</ele></trkpt>
            <trkpt lat="51.736861" lon="10.761337"><ele>443</ele></trkpt>
            <trkpt lat="51.736619" lon="10.761209"><ele>441.4</ele></trkpt>
            <trkpt lat="51.736507" lon="10.761183"><ele>441.4</ele></trkpt>
            <trkpt lat="51.736404" lon="10.761259"><ele>441.3</ele></trkpt>
            <trkpt lat="51.736381" lon="10.761325"><ele>441.3</ele></trkpt>
            <trkpt lat="51.736356" lon="10.761506"><ele>441.2</ele></trkpt>
            <trkpt lat="51.735729" lon="10.761578"><ele>441.2</ele></trkpt>
            <trkpt lat="51.735524" lon="10.76156"><ele>441</ele></trkpt>
            <trkpt lat="51.73526" lon="10.76149"><ele>441.9</ele></trkpt>
            <trkpt lat="51.734337" lon="10.761066"><ele>443.6</ele></trkpt>
            <trkpt lat="51.73356" lon="10.760753"><ele>447.9</ele></trkpt>
            <trkpt lat="51.733054" lon="10.760612"><ele>449.6</ele></trkpt>
            <trkpt lat="51.732868" lon="10.760587"><ele>450.6</ele></trkpt>
            <trkpt lat="51.732618" lon="10.760616"><ele>450.9</ele></trkpt>
            <trkpt lat="51.732281" lon="10.760712"><ele>452.2</ele></trkpt>
            <trkpt lat="51.731795" lon="10.760979"><ele>451.7</ele></trkpt>
            <trkpt lat="51.729889" lon="10.762234"><ele>445.2</ele></trkpt>
            <trkpt lat="51.729496" lon="10.762552"><ele>442</ele></trkpt>
            <trkpt lat="51.729441" lon="10.762616"><ele>442</ele></trkpt>
            <trkpt lat="51.729358" lon="10.762726"><ele>442</ele></trkpt>
            <trkpt lat="51.729024" lon="10.763179"><ele>449</ele></trkpt>
            <trkpt lat="51.728905" lon="10.763154"><ele>456.9</ele></trkpt>
            <trkpt lat="51.728712" lon="10.763157"><ele>457.8</ele></trkpt>
            <trkpt lat="51.728473" lon="10.76311"><ele>458.7</ele></trkpt>
            <trkpt lat="51.728282" lon="10.762999"><ele>464.7</ele></trkpt>
            <trkpt lat="51.727809" lon="10.762509"><ele>465.5</ele></trkpt>
            <trkpt lat="51.727199" lon="10.762039"><ele>472.5</ele></trkpt>
            <trkpt lat="51.726707" lon="10.761803"><ele>476.8</ele></trkpt>
            <trkpt lat="51.726362" lon="10.76161"><ele>482.2</ele></trkpt>
            <trkpt lat="51.725794" lon="10.761191"><ele>485.3</ele></trkpt>
            <trkpt lat="51.725313" lon="10.760983"><ele>491</ele></trkpt>
            <trkpt lat="51.724808" lon="10.761164"><ele>490.8</ele></trkpt>
            <trkpt lat="51.724474" lon="10.761138"><ele>490.5</ele></trkpt>
            <trkpt lat="51.72366" lon="10.760646"><ele>488.9</ele></trkpt>
            <trkpt lat="51.722786" lon="10.760014"><ele>487.4</ele></trkpt>
            <trkpt lat="51.72261" lon="10.759859"><ele>489.2</ele></trkpt>
            <trkpt lat="51.722181" lon="10.759334"><ele>491.6</ele></trkpt>
            <trkpt lat="51.721655" lon="10.758548"><ele>494.4</ele></trkpt>
            <trkpt lat="51.721332" lon="10.75814"><ele>496</ele></trkpt>
            <trkpt lat="51.72078" lon="10.757269"><ele>494.6</ele></trkpt>
            <trkpt lat="51.719862" lon="10.756417"><ele>489.6</ele></trkpt>
            <trkpt lat="51.719476" lon="10.755991"><ele>487.2</ele></trkpt>
            <trkpt lat="51.71906" lon="10.755663"><ele>484</ele></trkpt>
            <trkpt lat="51.718667" lon="10.755256"><ele>483.2</ele></trkpt>
            <trkpt lat="51.718346" lon="10.754791"><ele>482.4</ele></trkpt>
            <trkpt lat="51.717406" lon="10.753148"><ele>476.7</ele></trkpt>
            <trkpt lat="51.717183" lon="10.752843"><ele>474.9</ele></trkpt>
            <trkpt lat="51.717064" lon="10.752725"><ele>473.6</ele></trkpt>
            <trkpt lat="51.716702" lon="10.75254"><ele>473</ele></trkpt>
            <trkpt lat="51.716538" lon="10.752383"><ele>472.1</ele></trkpt>
            <trkpt lat="51.716204" lon="10.751997"><ele>472</ele></trkpt>
            <trkpt lat="51.716056" lon="10.75177"><ele>472.2</ele></trkpt>
            <trkpt lat="51.715972" lon="10.751512"><ele>472.6</ele></trkpt>
            <trkpt lat="51.715943" lon="10.751247"><ele>472.9</ele></trkpt>
            <trkpt lat="51.715987" lon="10.750678"><ele>473.1</ele></trkpt>
            <trkpt lat="51.715963" lon="10.750467"><ele>472.6</ele></trkpt>
            <trkpt lat="51.715885" lon="10.750305"><ele>472.6</ele></trkpt>
            <trkpt lat="51.715333" lon="10.749838"><ele>472.6</ele></trkpt>
            <trkpt lat="51.715101" lon="10.749557"><ele>472.2</ele></trkpt>
            <trkpt lat="51.714935" lon="10.749256"><ele>472.4</ele></trkpt>
            <trkpt lat="51.714815" lon="10.748884"><ele>474.1</ele></trkpt>
            <trkpt lat="51.714462" lon="10.747483"><ele>476.1</ele></trkpt>
            <trkpt lat="51.714331" lon="10.74703"><ele>479</ele></trkpt>
            <trkpt lat="51.713927" lon="10.746067"><ele>467.3</ele></trkpt>
            <trkpt lat="51.713601" lon="10.745048"><ele>465.8</ele></trkpt>
            <trkpt lat="51.713394" lon="10.744573"><ele>465.6</ele></trkpt>
            <trkpt lat="51.713275" lon="10.744222"><ele>456</ele></trkpt>
            <trkpt lat="51.71313" lon="10.743768"><ele>458</ele></trkpt>
            <trkpt lat="51.712941" lon="10.743231"><ele>458</ele></trkpt>
            <trkpt lat="51.712756" lon="10.742798"><ele>458</ele></trkpt>
            <trkpt lat="51.712501" lon="10.74216"><ele>454</ele></trkpt>
            <trkpt lat="51.712456" lon="10.742126"><ele>450</ele></trkpt>
            <trkpt lat="51.712449" lon="10.741855"><ele>450</ele></trkpt>
            <trkpt lat="51.71246" lon="10.741688"><ele>450</ele></trkpt>
            <trkpt lat="51.712406" lon="10.741668"><ele>454.6</ele></trkpt>
            <trkpt lat="51.712304" lon="10.741574"><ele>455.1</ele></trkpt>
            <trkpt lat="51.712109" lon="10.74136"><ele>456</ele></trkpt>
            <trkpt lat="51.711839" lon="10.741193"><ele>457.2</ele></trkpt>
            <trkpt lat="51.711656" lon="10.741048"><ele>457.9</ele></trkpt>
            <trkpt lat="51.711565" lon="10.740944"><ele>468</ele></trkpt>
            <trkpt lat="51.711511" lon="10.740808"><ele>457.5</ele></trkpt>
            <trkpt lat="51.711475" lon="10.740584"><ele>457.6</ele></trkpt>
            <trkpt lat="51.711414" lon="10.740434"><ele>457.8</ele></trkpt>
            <trkpt lat="51.711204" lon="10.740081"><ele>458.1</ele></trkpt>
            <trkpt lat="51.711084" lon="10.740056"><ele>458.3</ele></trkpt>
            <trkpt lat="51.710937" lon="10.739979"><ele>458.5</ele></trkpt>
            <trkpt lat="51.710777" lon="10.739817"><ele>462</ele></trkpt>
            <trkpt lat="51.710116" lon="10.739002"><ele>459</ele></trkpt>
            <trkpt lat="51.709929" lon="10.738799"><ele>459.8</ele></trkpt>
            <trkpt lat="51.709824" lon="10.73872"><ele>459</ele></trkpt>
            <trkpt lat="51.709736" lon="10.738724"><ele>464.4</ele></trkpt>
            <trkpt lat="51.70969" lon="10.738803"><ele>465.2</ele></trkpt>
            <trkpt lat="51.709684" lon="10.73891"><ele>466.1</ele></trkpt>
            <trkpt lat="51.709704" lon="10.739036"><ele>467.1</ele></trkpt>
            <trkpt lat="51.709857" lon="10.739557"><ele>478</ele></trkpt>
            <trkpt lat="51.709979" lon="10.739859"><ele>485.4</ele></trkpt>
            <trkpt lat="51.710154" lon="10.740112"><ele>485.9</ele></trkpt>
            <trkpt lat="51.710258" lon="10.740305"><ele>486.9</ele></trkpt>
            <trkpt lat="51.710376" lon="10.740607"><ele>487.9</ele></trkpt>
            <trkpt lat="51.710463" lon="10.740952"><ele>491.8</ele></trkpt>
            <trkpt lat="51.710487" lon="10.741261"><ele>493.4</ele></trkpt>
            <trkpt lat="51.71048" lon="10.741411"><ele>493.7</ele></trkpt>
            <trkpt lat="51.710449" lon="10.741537"><ele>495</ele></trkpt>
            <trkpt lat="51.710389" lon="10.74166"><ele>495.4</ele></trkpt>
            <trkpt lat="51.710226" lon="10.741819"><ele>495.9</ele></trkpt>
            <trkpt lat="51.709981" lon="10.74201"><ele>495.2</ele></trkpt>
            <trkpt lat="51.709369" lon="10.742296"><ele>511</ele></trkpt>
            <trkpt lat="51.708306" lon="10.742737"><ele>523.6</ele></trkpt>
            <trkpt lat="51.70766" lon="10.74278"><ele>527.3</ele></trkpt>
            <trkpt lat="51.70751" lon="10.742871"><ele>529.8</ele></trkpt>
            <trkpt lat="51.707301" lon="10.743068"><ele>533.7</ele></trkpt>
            <trkpt lat="51.706248" lon="10.743634"><ele>538.9</ele></trkpt>
            <trkpt lat="51.706202" lon="10.743687"><ele>539.5</ele></trkpt>
            <trkpt lat="51.706139" lon="10.743839"><ele>539</ele></trkpt>
            <trkpt lat="51.706074" lon="10.744263"><ele>543</ele></trkpt>
            <trkpt lat="51.706045" lon="10.744173"><ele>539.6</ele></trkpt>
            <trkpt lat="51.705977" lon="10.74406"><ele>539.4</ele></trkpt>
            <trkpt lat="51.705958" lon="10.743982"><ele>539.6</ele></trkpt>
            <trkpt lat="51.705695" lon="10.742322"><ele>536.1</ele></trkpt>
            <trkpt lat="51.705667" lon="10.74208"><ele>534.9</ele></trkpt>
            <trkpt lat="51.705662" lon="10.74164"><ele>533.4</ele></trkpt>
            <trkpt lat="51.705636" lon="10.741366"><ele>531.5</ele></trkpt>
            <trkpt lat="51.705668" lon="10.740796"><ele>515</ele></trkpt>
            <trkpt lat="51.705593" lon="10.740797"><ele>513.2</ele></trkpt>
            <trkpt lat="51.705668" lon="10.740796"><ele>515</ele></trkpt>
            <trkpt lat="51.705636" lon="10.741366"><ele>531.5</ele></trkpt>
            <trkpt lat="51.705662" lon="10.74164"><ele>533.4</ele></trkpt>
            <trkpt lat="51.705667" lon="10.74208"><ele>534.9</ele></trkpt>
            <trkpt lat="51.705695" lon="10.742322"><ele>536.1</ele></trkpt>
            <trkpt lat="51.705958" lon="10.743982"><ele>539.6</ele></trkpt>
            <trkpt lat="51.705977" lon="10.74406"><ele>539.4</ele></trkpt>
            <trkpt lat="51.706045" lon="10.744173"><ele>539.6</ele></trkpt>
            <trkpt lat="51.706074" lon="10.744263"><ele>543</ele></trkpt>
            <trkpt lat="51.705969" lon="10.744922"><ele>543.3</ele></trkpt>
            <trkpt lat="51.705851" lon="10.745288"><ele>544</ele></trkpt>
            <trkpt lat="51.705731" lon="10.746"><ele>544.3</ele></trkpt>
            <trkpt lat="51.705526" lon="10.747383"><ele>543</ele></trkpt>
            <trkpt lat="51.705435" lon="10.74802"><ele>541.3</ele></trkpt>
            <trkpt lat="51.705099" lon="10.749692"><ele>535.2</ele></trkpt>
            <trkpt lat="51.704978" lon="10.750245"><ele>533</ele></trkpt>
            <trkpt lat="51.704901" lon="10.750418"><ele>531</ele></trkpt>
            <trkpt lat="51.704648" lon="10.75058"><ele>531</ele></trkpt>
            <trkpt lat="51.704331" lon="10.750563"><ele>526.5</ele></trkpt>
            <trkpt lat="51.704242" lon="10.75052"><ele>523.9</ele></trkpt>
            <trkpt lat="51.704169" lon="10.750453"><ele>523.6</ele></trkpt>
            <trkpt lat="51.704079" lon="10.750317"><ele>523.3</ele></trkpt>
            <trkpt lat="51.703801" lon="10.749689"><ele>523.1</ele></trkpt>
            <trkpt lat="51.703594" lon="10.749107"><ele>522.7</ele></trkpt>
            <trkpt lat="51.703508" lon="10.749011"><ele>522.4</ele></trkpt>
            <trkpt lat="51.703441" lon="10.74898"><ele>522.4</ele></trkpt>
            <trkpt lat="51.703342" lon="10.749008"><ele>522.1</ele></trkpt>
            <trkpt lat="51.70327" lon="10.749086"><ele>522.1</ele></trkpt>
            <trkpt lat="51.703209" lon="10.749224"><ele>522.3</ele></trkpt>
            <trkpt lat="51.703199" lon="10.749322"><ele>522.3</ele></trkpt>
            <trkpt lat="51.703268" lon="10.749657"><ele>522.6</ele></trkpt>
            <trkpt lat="51.703266" lon="10.749748"><ele>522.6</ele></trkpt>
            <trkpt lat="51.703241" lon="10.749836"><ele>522.7</ele></trkpt>
            <trkpt lat="51.703147" lon="10.749982"><ele>522.8</ele></trkpt>
            <trkpt lat="51.703045" lon="10.750078"><ele>522.9</ele></trkpt>
            <trkpt lat="51.702352" lon="10.750332"><ele>522.6</ele></trkpt>
            <trkpt lat="51.702197" lon="10.750408"><ele>522.7</ele></trkpt>
            <trkpt lat="51.70206" lon="10.750524"><ele>522.8</ele></trkpt>
            <trkpt lat="51.701778" lon="10.750881"><ele>523</ele></trkpt>
            <trkpt lat="51.701963" lon="10.751083"><ele>523</ele></trkpt>
            <trkpt lat="51.702141" lon="10.751351"><ele>523</ele></trkpt>
            <trkpt lat="51.701971" lon="10.752163"><ele>525.1</ele></trkpt>
            <trkpt lat="51.701941" lon="10.752386"><ele>524.9</ele></trkpt>
            <trkpt lat="51.701941" lon="10.752998"><ele>525.3</ele></trkpt>
            <trkpt lat="51.701985" lon="10.753423"><ele>531</ele></trkpt>
            <trkpt lat="51.702263" lon="10.756075"><ele>534.7</ele></trkpt>
            <trkpt lat="51.702328" lon="10.756828"><ele>534.2</ele></trkpt>
            <trkpt lat="51.70242" lon="10.758245"><ele>532.2</ele></trkpt>
            <trkpt lat="51.702464" lon="10.758669"><ele>531.7</ele></trkpt>
            <trkpt lat="51.702525" lon="10.759043"><ele>530.2</ele></trkpt>
            <trkpt lat="51.702627" lon="10.759468"><ele>529</ele></trkpt>
            <trkpt lat="51.702736" lon="10.759821"><ele>528.4</ele></trkpt>
            <trkpt lat="51.703102" lon="10.760651"><ele>525.9</ele></trkpt>
            <trkpt lat="51.703225" lon="10.761024"><ele>524.3</ele></trkpt>
            <trkpt lat="51.703305" lon="10.761336"><ele>523.5</ele></trkpt>
            <trkpt lat="51.703353" lon="10.761639"><ele>521.9</ele></trkpt>
            <trkpt lat="51.703515" lon="10.763254"><ele>515.3</ele></trkpt>
            <trkpt lat="51.703673" lon="10.764014"><ele>511.2</ele></trkpt>
            <trkpt lat="51.703725" lon="10.764644"><ele>509.4</ele></trkpt>
            <trkpt lat="51.703891" lon="10.76559"><ele>506.9</ele></trkpt>
            <trkpt lat="51.70399" lon="10.766431"><ele>503.6</ele></trkpt>
            <trkpt lat="51.704101" lon="10.766973"><ele>503.1</ele></trkpt>
            <trkpt lat="51.70433" lon="10.767822"><ele>500.4</ele></trkpt>
            <trkpt lat="51.70438" lon="10.768156"><ele>494</ele></trkpt>
            <trkpt lat="51.70442" lon="10.768326"><ele>490.6</ele></trkpt>
            <trkpt lat="51.704471" lon="10.768428"><ele>490.4</ele></trkpt>
            <trkpt lat="51.704628" lon="10.768595"><ele>490.1</ele></trkpt>
            <trkpt lat="51.704713" lon="10.768634"><ele>489.8</ele></trkpt>
            <trkpt lat="51.704857" lon="10.768647"><ele>489.8</ele></trkpt>
            <trkpt lat="51.705248" lon="10.768613"><ele>489.8</ele></trkpt>
            <trkpt lat="51.705431" lon="10.768673"><ele>489.8</ele></trkpt>
            <trkpt lat="51.705724" lon="10.76889"><ele>489.2</ele></trkpt>
            <trkpt lat="51.705871" lon="10.769072"><ele>489.1</ele></trkpt>
            <trkpt lat="51.705986" lon="10.769267"><ele>486</ele></trkpt>
            <trkpt lat="51.706628" lon="10.77036"><ele>484</ele></trkpt>
            <trkpt lat="51.7068" lon="10.770828"><ele>484.4</ele></trkpt>
            <trkpt lat="51.706907" lon="10.77139"><ele>483.7</ele></trkpt>
            <trkpt lat="51.706994" lon="10.772285"><ele>479.8</ele></trkpt>
            <trkpt lat="51.707042" lon="10.77381"><ele>472.1</ele></trkpt>
            <trkpt lat="51.707033" lon="10.77416"><ele>471.8</ele></trkpt>
            <trkpt lat="51.706912" lon="10.775017"><ele>469.7</ele></trkpt>
            <trkpt lat="51.706838" lon="10.775411"><ele>469.2</ele></trkpt>
            <trkpt lat="51.706715" lon="10.775797"><ele>468.8</ele></trkpt>
            <trkpt lat="51.706633" lon="10.77613"><ele>468.9</ele></trkpt>
            <trkpt lat="51.706538" lon="10.776933"><ele>468.6</ele></trkpt>
            <trkpt lat="51.706502" lon="10.777654"><ele>469.2</ele></trkpt>
            <trkpt lat="51.706498" lon="10.778075"><ele>469.5</ele></trkpt>
            <trkpt lat="51.706566" lon="10.778894"><ele>468.2</ele></trkpt>
            <trkpt lat="51.706593" lon="10.779736"><ele>467.3</ele></trkpt>
            <trkpt lat="51.706611" lon="10.779967"><ele>466.4</ele></trkpt>
            <trkpt lat="51.706714" lon="10.780677"><ele>464</ele></trkpt>
            <trkpt lat="51.706708" lon="10.781637"><ele>461.8</ele></trkpt>
            <trkpt lat="51.706683" lon="10.781942"><ele>461.1</ele></trkpt>
            <trkpt lat="51.706628" lon="10.782163"><ele>460.2</ele></trkpt>
            <trkpt lat="51.70654" lon="10.782382"><ele>460.1</ele></trkpt>
            <trkpt lat="51.706314" lon="10.782731"><ele>459.7</ele></trkpt>
            <trkpt lat="51.706237" lon="10.782911"><ele>459.3</ele></trkpt>
            <trkpt lat="51.706212" lon="10.783048"><ele>459</ele></trkpt>
            <trkpt lat="51.706232" lon="10.78312"><ele>459.7</ele></trkpt>
            <trkpt lat="51.706214" lon="10.783618"><ele>459.7</ele></trkpt>
            <trkpt lat="51.706317" lon="10.784258"><ele>459.8</ele></trkpt>
            <trkpt lat="51.70633" lon="10.78451"><ele>459.8</ele></trkpt>
            <trkpt lat="51.706323" lon="10.784637"><ele>459.8</ele></trkpt>
            <trkpt lat="51.706354" lon="10.784741"><ele>459.9</ele></trkpt>
            <trkpt lat="51.706375" lon="10.784912"><ele>459.9</ele></trkpt>
            <trkpt lat="51.706407" lon="10.785451"><ele>460.1</ele></trkpt>
            <trkpt lat="51.706429" lon="10.785659"><ele>460.3</ele></trkpt>
            <trkpt lat="51.706468" lon="10.785845"><ele>460.4</ele></trkpt>
            <trkpt lat="51.706459" lon="10.786124"><ele>461</ele></trkpt>
            <trkpt lat="51.706451" lon="10.786481"><ele>461</ele></trkpt>
            <trkpt lat="51.706447" lon="10.786797"><ele>459.4</ele></trkpt>
            <trkpt lat="51.706373" lon="10.787201"><ele>459.2</ele></trkpt>
            <trkpt lat="51.706328" lon="10.787328"><ele>459.2</ele></trkpt>
            <trkpt lat="51.706287" lon="10.787547"><ele>459.2</ele></trkpt>
            <trkpt lat="51.706218" lon="10.787798"><ele>459.2</ele></trkpt>
            <trkpt lat="51.706172" lon="10.788094"><ele>459</ele></trkpt>
            <trkpt lat="51.70615" lon="10.788161"><ele>458.9</ele></trkpt>
            <trkpt lat="51.706159" lon="10.788233"><ele>459</ele></trkpt>
            <trkpt lat="51.706138" lon="10.788566"><ele>458.6</ele></trkpt>
            <trkpt lat="51.70615" lon="10.788634"><ele>458.5</ele></trkpt>
            <trkpt lat="51.706096" lon="10.789062"><ele>457.9</ele></trkpt>
            <trkpt lat="51.706063" lon="10.789188"><ele>457.7</ele></trkpt>
            <trkpt lat="51.706015" lon="10.789273"><ele>457.7</ele></trkpt>
            <trkpt lat="51.705907" lon="10.789781"><ele>457</ele></trkpt>
            <trkpt lat="51.705854" lon="10.790357"><ele>455.8</ele></trkpt>
            <trkpt lat="51.705865" lon="10.79047"><ele>455.6</ele></trkpt>
            <trkpt lat="51.705853" lon="10.790619"><ele>455.4</ele></trkpt>
            <trkpt lat="51.705875" lon="10.790841"><ele>454.9</ele></trkpt>
            <trkpt lat="51.705894" lon="10.791561"><ele>453.7</ele></trkpt>
            <trkpt lat="51.705861" lon="10.791866"><ele>453.5</ele></trkpt>
            <trkpt lat="51.705903" lon="10.792261"><ele>453.1</ele></trkpt>
            <trkpt lat="51.705876" lon="10.792324"><ele>453.1</ele></trkpt>
            <trkpt lat="51.705872" lon="10.792652"><ele>452.7</ele></trkpt>
            <trkpt lat="51.705928" lon="10.792863"><ele>452.5</ele></trkpt>
            <trkpt lat="51.705966" lon="10.792937"><ele>452.3</ele></trkpt>
            <trkpt lat="51.706095" lon="10.792996"><ele>452.2</ele></trkpt>
            <trkpt lat="51.706184" lon="10.793087"><ele>452.1</ele></trkpt>
            <trkpt lat="51.706388" lon="10.793151"><ele>451.9</ele></trkpt>
            <trkpt lat="51.70644" lon="10.793248"><ele>451</ele></trkpt>
            <trkpt lat="51.706365" lon="10.79343"><ele>447.9</ele></trkpt>
            <trkpt lat="51.70633" lon="10.793596"><ele>447.9</ele></trkpt>
            <trkpt lat="51.706401" lon="10.794064"><ele>447.9</ele></trkpt>
            <trkpt lat="51.706481" lon="10.794323"><ele>447.7</ele></trkpt>
            <trkpt lat="51.706642" lon="10.794716"><ele>447.3</ele></trkpt>
            <trkpt lat="51.706809" lon="10.794933"><ele>447.8</ele></trkpt>
            <trkpt lat="51.706933" lon="10.795023"><ele>446</ele></trkpt>
            <trkpt lat="51.707159" lon="10.795159"><ele>451.6</ele></trkpt>
            <trkpt lat="51.708029" lon="10.795415"><ele>457.1</ele></trkpt>
            <trkpt lat="51.708688" lon="10.795836"><ele>460.9</ele></trkpt>
            <trkpt lat="51.708831" lon="10.795856"><ele>460.8</ele></trkpt>
            <trkpt lat="51.708989" lon="10.795835"><ele>460.6</ele></trkpt>
            <trkpt lat="51.709147" lon="10.795893"><ele>460.6</ele></trkpt>
            <trkpt lat="51.709189" lon="10.795945"><ele>460.8</ele></trkpt>
            <trkpt lat="51.709252" lon="10.796096"><ele>460.5</ele></trkpt>
            <trkpt lat="51.709289" lon="10.796238"><ele>460.8</ele></trkpt>
            <trkpt lat="51.709466" lon="10.797103"><ele>460.7</ele></trkpt>
            <trkpt lat="51.709847" lon="10.797889"><ele>450</ele></trkpt>
            <trkpt lat="51.709807" lon="10.797967"><ele>450</ele></trkpt>
            <trkpt lat="51.709612" lon="10.798383"><ele>444</ele></trkpt>
            <trkpt lat="51.709351" lon="10.798947"><ele>444</ele></trkpt>
            <trkpt lat="51.709169" lon="10.799319"><ele>454</ele></trkpt>
            <trkpt lat="51.709123" lon="10.799408"><ele>471</ele></trkpt>
            <trkpt lat="51.708867" lon="10.798966"><ele>462.6</ele></trkpt>
            <trkpt lat="51.708576" lon="10.798556"><ele>464.3</ele></trkpt>
            <trkpt lat="51.708503" lon="10.798476"><ele>464.7</ele></trkpt>
            <trkpt lat="51.708404" lon="10.798434"><ele>465.6</ele></trkpt>
            <trkpt lat="51.708334" lon="10.798429"><ele>466</ele></trkpt>
            <trkpt lat="51.708187" lon="10.798488"><ele>466.5</ele></trkpt>
            <trkpt lat="51.707736" lon="10.798864"><ele>466.1</ele></trkpt>
            <trkpt lat="51.707665" lon="10.798895"><ele>466</ele></trkpt>
            <trkpt lat="51.707448" lon="10.798915"><ele>466.4</ele></trkpt>
            <trkpt lat="51.707341" lon="10.79896"><ele>471</ele></trkpt>
            <trkpt lat="51.707244" lon="10.798739"><ele>471</ele></trkpt>
            <trkpt lat="51.707175" lon="10.798388"><ele>471</ele></trkpt>
            <trkpt lat="51.70715" lon="10.798365"><ele>471</ele></trkpt>
            <trkpt lat="51.707102" lon="10.798371"><ele>471</ele></trkpt>
            <trkpt lat="51.707047" lon="10.798444"><ele>471</ele></trkpt>
            <trkpt lat="51.706961" lon="10.798486"><ele>471</ele></trkpt>
            <trkpt lat="51.706838" lon="10.798492"><ele>473.9</ele></trkpt>
            <trkpt lat="51.706801" lon="10.798526"><ele>473.8</ele></trkpt>
            <trkpt lat="51.706775" lon="10.798631"><ele>474.1</ele></trkpt>
            <trkpt lat="51.706593" lon="10.798664"><ele>474.3</ele></trkpt>
            <trkpt lat="51.706555" lon="10.798689"><ele>474</ele></trkpt>
            <trkpt lat="51.706445" lon="10.79863"><ele>473.3</ele></trkpt>
            <trkpt lat="51.706363" lon="10.798551"><ele>472.3</ele></trkpt>
            <trkpt lat="51.706324" lon="10.798573"><ele>472</ele></trkpt>
            <trkpt lat="51.706257" lon="10.798561"><ele>471.4</ele></trkpt>
            <trkpt lat="51.706125" lon="10.798491"><ele>470.8</ele></trkpt>
            <trkpt lat="51.705963" lon="10.798278"><ele>469.4</ele></trkpt>
            <trkpt lat="51.705865" lon="10.798174"><ele>468.9</ele></trkpt>
            <trkpt lat="51.705814" lon="10.798152"><ele>468.8</ele></trkpt>
            <trkpt lat="51.705777" lon="10.798098"><ele>468.8</ele></trkpt>
            <trkpt lat="51.705767" lon="10.798042"><ele>468.8</ele></trkpt>
            <trkpt lat="51.705694" lon="10.797965"><ele>468.8</ele></trkpt>
            <trkpt lat="51.705633" lon="10.797849"><ele>468.8</ele></trkpt>
            <trkpt lat="51.705436" lon="10.797395"><ele>466.5</ele></trkpt>
            <trkpt lat="51.705401" lon="10.797241"><ele>466.5</ele></trkpt>
            <trkpt lat="51.705393" lon="10.79705"><ele>466.8</ele></trkpt>
            <trkpt lat="51.705364" lon="10.796888"><ele>466.1</ele></trkpt>
            <trkpt lat="51.705236" lon="10.796428"><ele>453</ele></trkpt>
            <trkpt lat="51.705195" lon="10.796446"><ele>466</ele></trkpt>
            <trkpt lat="51.704996" lon="10.79729"><ele>468.7</ele></trkpt>
            <trkpt lat="51.704889" lon="10.797498"><ele>468.4</ele></trkpt>
            <trkpt lat="51.704849" lon="10.797498"><ele>467.8</ele></trkpt>
            <trkpt lat="51.70481" lon="10.797448"><ele>467.6</ele></trkpt>
            <trkpt lat="51.704737" lon="10.797323"><ele>467.5</ele></trkpt>
            <trkpt lat="51.704574" lon="10.796959"><ele>470</ele></trkpt>
            <trkpt lat="51.704398" lon="10.796457"><ele>460</ele></trkpt>
            <trkpt lat="51.704303" lon="10.796171"><ele>463.1</ele></trkpt>
            <trkpt lat="51.703898" lon="10.795493"><ele>463.8</ele></trkpt>
            <trkpt lat="51.703804" lon="10.795276"><ele>463.7</ele></trkpt>
            <trkpt lat="51.703785" lon="10.795117"><ele>465</ele></trkpt>
            <trkpt lat="51.703841" lon="10.794768"><ele>467.6</ele></trkpt>
            <trkpt lat="51.704" lon="10.794083"><ele>468.3</ele></trkpt>
            <trkpt lat="51.70407" lon="10.793611"><ele>468.5</ele></trkpt>
            <trkpt lat="51.704068" lon="10.793345"><ele>468.8</ele></trkpt>
            <trkpt lat="51.703977" lon="10.792878"><ele>468.2</ele></trkpt>
            <trkpt lat="51.703903" lon="10.79259"><ele>468</ele></trkpt>
            <trkpt lat="51.703839" lon="10.792419"><ele>467.9</ele></trkpt>
            <trkpt lat="51.703688" lon="10.792156"><ele>467.7</ele></trkpt>
            <trkpt lat="51.70357" lon="10.791999"><ele>467.5</ele></trkpt>
            <trkpt lat="51.703151" lon="10.791593"><ele>466.3</ele></trkpt>
            <trkpt lat="51.703048" lon="10.791518"><ele>466.4</ele></trkpt>
            <trkpt lat="51.70292" lon="10.791508"><ele>463</ele></trkpt>
            <trkpt lat="51.702889" lon="10.791172"><ele>461.3</ele></trkpt>
        </trkseg>
    </trk>
</gpx>
