<?xml version="1.0" encoding="UTF-8"?>
<gpx version="1.1" creator="HWN Route Compare (OpenRouteService)" xmlns="http://www.topografix.com/GPX/1/1">
    <metadata>
        <name>OpenRouteService – Tour D2a</name>
    </metadata>
    <trk>
        <name>OpenRouteService – Tour D2a</name>
        <trkseg>
            <trkpt lat="51.826127" lon="10.84827"><ele>437</ele></trkpt>
            <trkpt lat="51.826061" lon="10.848215"><ele>437</ele></trkpt>
            <trkpt lat="51.825617" lon="10.847783"><ele>438.2</ele></trkpt>
            <trkpt lat="51.825494" lon="10.84761"><ele>437.9</ele></trkpt>
            <trkpt lat="51.825135" lon="10.846921"><ele>438.2</ele></trkpt>
            <trkpt lat="51.824976" lon="10.846666"><ele>447</ele></trkpt>
            <trkpt lat="51.824905" lon="10.846605"><ele>447</ele></trkpt>
            <trkpt lat="51.824641" lon="10.84652"><ele>447</ele></trkpt>
            <trkpt lat="51.824583" lon="10.84647"><ele>447</ele></trkpt>
            <trkpt lat="51.824324" lon="10.846142"><ele>447</ele></trkpt>
            <trkpt lat="51.824211" lon="10.845909"><ele>447</ele></trkpt>
            <trkpt lat="51.824186" lon="10.845659"><ele>451.1</ele></trkpt>
            <trkpt lat="51.82415" lon="10.845533"><ele>451.6</ele></trkpt>
            <trkpt lat="51.823966" lon="10.845084"><ele>453.1</ele></trkpt>
            <trkpt lat="51.823892" lon="10.844973"><ele>453.2</ele></trkpt>
            <trkpt lat="51.823453" lon="10.84445"><ele>453.5</ele></trkpt>
            <trkpt lat="51.823005" lon="10.844018"><ele>462</ele></trkpt>
            <trkpt lat="51.822927" lon="10.843925"><ele>464.2</ele></trkpt>
            <trkpt lat="51.822839" lon="10.84377"><ele>464.2</ele></trkpt>
            <trkpt lat="51.822528" lon="10.843153"><ele>464.4</ele></trkpt>
            <trkpt lat="51.822468" lon="10.842971"><ele>464.7</ele></trkpt>
            <trkpt lat="51.822345" lon="10.842475"><ele>465.4</ele></trkpt>
            <trkpt lat="51.822181" lon="10.842"><ele>466.3</ele></trkpt>
            <trkpt lat="51.822082" lon="10.84179"><ele>466.7</ele></trkpt>
            <trkpt lat="51.821908" lon="10.841519"><ele>467.4</ele></trkpt>
            <trkpt lat="51.8216" lon="10.840921"><ele>469</ele></trkpt>
            <trkpt lat="51.821462" lon="10.840458"><ele>471.5</ele></trkpt>
            <trkpt lat="51.821396" lon="10.840294"><ele>471.7</ele></trkpt>
            <trkpt lat="51.821099" lon="10.839793"><ele>469</ele></trkpt>
            <trkpt lat="51.821064" lon="10.839309"><ele>466.4</ele></trkpt>
            <trkpt lat="51.82108" lon="10.839157"><ele>466.3</ele></trkpt>
            <trkpt lat="51.821198" lon="10.838576"><ele>465</ele></trkpt>
            <trkpt lat="51.82121" lon="10.838056"><ele>464.8</ele></trkpt>
            <trkpt lat="51.821249" lon="10.837755"><ele>464.6</ele></trkpt>
            <trkpt lat="51.821527" lon="10.836528"><ele>460</ele></trkpt>
            <trkpt lat="51.821567" lon="10.836323"><ele>460</ele></trkpt>
            <trkpt lat="51.821572" lon="10.835814"><ele>460</ele></trkpt>
            <trkpt lat="51.821736" lon="10.835818"><ele>460.8</ele></trkpt>
            <trkpt lat="51.822191" lon="10.835676"><ele>460.8</ele></trkpt>
            <trkpt lat="51.822863" lon="10.835536"><ele>461</ele></trkpt>
            <trkpt lat="51.822956" lon="10.835496"><ele>462</ele></trkpt>
            <trkpt lat="51.82302" lon="10.835427"><ele>462</ele></trkpt>
            <trkpt lat="51.823057" lon="10.835346"><ele>462</ele></trkpt>
            <trkpt lat="51.823084" lon="10.835249"><ele>462</ele></trkpt>
            <trkpt lat="51.823106" lon="10.835051"><ele>462</ele></trkpt>
            <trkpt lat="51.823466" lon="10.834482"><ele>463.5</ele></trkpt>
            <trkpt lat="51.82359" lon="10.834161"><ele>463.8</ele></trkpt>
            <trkpt lat="51.823815" lon="10.833772"><ele>463.9</ele></trkpt>
            <trkpt lat="51.824143" lon="10.833401"><ele>463.7</ele></trkpt>
            <trkpt lat="51.824459" lon="10.833244"><ele>462.4</ele></trkpt>
            <trkpt lat="51.824622" lon="10.833041"><ele>461.5</ele></trkpt>
            <trkpt lat="51.824797" lon="10.832757"><ele>460.6</ele></trkpt>
            <trkpt lat="51.824864" lon="10.832316"><ele>459.8</ele></trkpt>
            <trkpt lat="51.824877" lon="10.831924"><ele>459.8</ele></trkpt>
            <trkpt lat="51.824852" lon="10.831366"><ele>459</ele></trkpt>
            <trkpt lat="51.824777" lon="10.830549"><ele>459.7</ele></trkpt>
            <trkpt lat="51.82471" lon="10.82862"><ele>461</ele></trkpt>
            <trkpt lat="51.825478" lon="10.827793"><ele>466</ele></trkpt>
            <trkpt lat="51.825828" lon="10.827317"><ele>464.1</ele></trkpt>
            <trkpt lat="51.826781" lon="10.826125"><ele>450.3</ele></trkpt>
            <trkpt lat="51.827166" lon="10.825673"><ele>447.8</ele></trkpt>
            <trkpt lat="51.827629" lon="10.825201"><ele>444.9</ele></trkpt>
            <trkpt lat="51.827743" lon="10.825156"><ele>444.5</ele></trkpt>
            <trkpt lat="51.82793" lon="10.825197"><ele>438</ele></trkpt>
            <trkpt lat="51.827857" lon="10.825055"><ele>436</ele></trkpt>
            <trkpt lat="51.827803" lon="10.824718"><ele>432</ele></trkpt>
            <trkpt lat="51.827767" lon="10.82436"><ele>432</ele></trkpt>
            <trkpt lat="51.827768" lon="10.824085"><ele>414.5</ele></trkpt>
            <trkpt lat="51.827843" lon="10.823602"><ele>414.2</ele></trkpt>
            <trkpt lat="51.827881" lon="10.823235"><ele>410.6</ele></trkpt>
            <trkpt lat="51.827883" lon="10.822607"><ele>410.7</ele></trkpt>
            <trkpt lat="51.82787" lon="10.82231"><ele>410</ele></trkpt>
            <trkpt lat="51.827837" lon="10.822075"><ele>408</ele></trkpt>
            <trkpt lat="51.827848" lon="10.821958"><ele>407.4</ele></trkpt>
            <trkpt lat="51.827942" lon="10.821715"><ele>405.2</ele></trkpt>
            <trkpt lat="51.828057" lon="10.821483"><ele>403</ele></trkpt>
            <trkpt lat="51.828089" lon="10.821319"><ele>400.6</ele></trkpt>
            <trkpt lat="51.828033" lon="10.821102"><ele>399.7</ele></trkpt>
            <trkpt lat="51.827941" lon="10.821069"><ele>394</ele></trkpt>
            <trkpt lat="51.827735" lon="10.820478"><ele>384.2</ele></trkpt>
            <trkpt lat="51.827658" lon="10.820193"><ele>378.5</ele></trkpt>
            <trkpt lat="51.827609" lon="10.819881"><ele>376.4</ele></trkpt>
            <trkpt lat="51.827545" lon="10.819102"><ele>376.3</ele></trkpt>
            <trkpt lat="51.827445" lon="10.818657"><ele>372.8</ele></trkpt>
            <trkpt lat="51.827434" lon="10.818473"><ele>373.2</ele></trkpt>
            <trkpt lat="51.827442" lon="10.818291"><ele>373.1</ele></trkpt>
            <trkpt lat="51.827469" lon="10.818144"><ele>374</ele></trkpt>
            <trkpt lat="51.827537" lon="10.817957"><ele>374.7</ele></trkpt>
            <trkpt lat="51.827625" lon="10.817801"><ele>376</ele></trkpt>
            <trkpt lat="51.827745" lon="10.81767"><ele>376.2</ele></trkpt>
            <trkpt lat="51.827838" lon="10.817632"><ele>376.5</ele></trkpt>
            <trkpt lat="51.828004" lon="10.817633"><ele>377.8</ele></trkpt>
            <trkpt lat="51.828247" lon="10.817784"><ele>380.1</ele></trkpt>
            <trkpt lat="51.828421" lon="10.81799"><ele>380.4</ele></trkpt>
            <trkpt lat="51.829067" lon="10.819112"><ele>382.6</ele></trkpt>
            <trkpt lat="51.829124" lon="10.819185"><ele>381.9</ele></trkpt>
            <trkpt lat="51.829229" lon="10.819211"><ele>380.5</ele></trkpt>
            <trkpt lat="51.82931" lon="10.819198"><ele>378</ele></trkpt>
            <trkpt lat="51.829243" lon="10.818917"><ele>364.9</ele></trkpt>
            <trkpt lat="51.829255" lon="10.818693"><ele>364.3</ele></trkpt>
            <trkpt lat="51.829363" lon="10.818388"><ele>363.8</ele></trkpt>
            <trkpt lat="51.829421" lon="10.818024"><ele>362.6</ele></trkpt>
            <trkpt lat="51.829399" lon="10.817374"><ele>358.9</ele></trkpt>
            <trkpt lat="51.829416" lon="10.817024"><ele>356.8</ele></trkpt>
            <trkpt lat="51.829392" lon="10.816851"><ele>353.5</ele></trkpt>
            <trkpt lat="51.829288" lon="10.816544"><ele>350.8</ele></trkpt>
            <trkpt lat="51.829209" lon="10.81637"><ele>349.5</ele></trkpt>
            <trkpt lat="51.829055" lon="10.816111"><ele>347.6</ele></trkpt>
            <trkpt lat="51.828959" lon="10.815957"><ele>346.2</ele></trkpt>
            <trkpt lat="51.828678" lon="10.815621"><ele>344</ele></trkpt>
            <trkpt lat="51.828543" lon="10.815513"><ele>341.1</ele></trkpt>
            <trkpt lat="51.828348" lon="10.815155"><ele>330</ele></trkpt>
            <trkpt lat="51.828099" lon="10.814842"><ele>331</ele></trkpt>
            <trkpt lat="51.828078" lon="10.814571"><ele>330.6</ele></trkpt>
            <trkpt lat="51.828101" lon="10.81434"><ele>329</ele></trkpt>
            <trkpt lat="51.828157" lon="10.814099"><ele>325.4</ele></trkpt>
            <trkpt lat="51.828178" lon="10.813791"><ele>325</ele></trkpt>
            <trkpt lat="51.828125" lon="10.813585"><ele>324</ele></trkpt>
            <trkpt lat="51.827991" lon="10.813324"><ele>316</ele></trkpt>
            <trkpt lat="51.827866" lon="10.81307"><ele>316</ele></trkpt>
            <trkpt lat="51.827817" lon="10.812887"><ele>316</ele></trkpt>
            <trkpt lat="51.827772" lon="10.812843"><ele>313.7</ele></trkpt>
            <trkpt lat="51.82763" lon="10.812487"><ele>309</ele></trkpt>
            <trkpt lat="51.827575" lon="10.812469"><ele>314</ele></trkpt>
            <trkpt lat="51.82763" lon="10.812487"><ele>309</ele></trkpt>
            <trkpt lat="51.827766" lon="10.812248"><ele>309</ele></trkpt>
            <trkpt lat="51.827777" lon="10.812001"><ele>309</ele></trkpt>
            <trkpt lat="51.827748" lon="10.811858"><ele>309</ele></trkpt>
            <trkpt lat="51.827753" lon="10.811742"><ele>309.8</ele></trkpt>
            <trkpt lat="51.827702" lon="10.811294"><ele>311</ele></trkpt>
            <trkpt lat="51.827699" lon="10.811227"><ele>311</ele></trkpt>
            <trkpt lat="51.827845" lon="10.811325"><ele>311</ele></trkpt>
            <trkpt lat="51.827847" lon="10.810921"><ele>315.3</ele></trkpt>
            <trkpt lat="51.827771" lon="10.810448"><ele>315.5</ele></trkpt>
            <trkpt lat="51.827763" lon="10.810068"><ele>315.5</ele></trkpt>
            <trkpt lat="51.827742" lon="10.809895"><ele>316.5</ele></trkpt>
            <trkpt lat="51.827769" lon="10.809676"><ele>317.5</ele></trkpt>
            <trkpt lat="51.827811" lon="10.809537"><ele>317.7</ele></trkpt>
            <trkpt lat="51.827843" lon="10.809259"><ele>319.4</ele></trkpt>
            <trkpt lat="51.827853" lon="10.809018"><ele>320.3</ele></trkpt>
            <trkpt lat="51.827788" lon="10.80785"><ele>330.8</ele></trkpt>
            <trkpt lat="51.827802" lon="10.807563"><ele>332.6</ele></trkpt>
            <trkpt lat="51.82776" lon="10.807256"><ele>353</ele></trkpt>
            <trkpt lat="51.827842" lon="10.807394"><ele>353</ele></trkpt>
            <trkpt lat="51.828001" lon="10.807482"><ele>353</ele></trkpt>
            <trkpt lat="51.828077" lon="10.807473"><ele>353</ele></trkpt>
            <trkpt lat="51.828099" lon="10.807558"><ele>341</ele></trkpt>
            <trkpt lat="51.828199" lon="10.807573"><ele>341</ele></trkpt>
            <trkpt lat="51.828194" lon="10.807248"><ele>354.6</ele></trkpt>
            <trkpt lat="51.828164" lon="10.806914"><ele>354.8</ele></trkpt>
            <trkpt lat="51.828178" lon="10.8066"><ele>355.9</ele></trkpt>
            <trkpt lat="51.82816" lon="10.806392"><ele>356.1</ele></trkpt>
            <trkpt lat="51.828066" lon="10.80618"><ele>356.4</ele></trkpt>
            <trkpt lat="51.828033" lon="10.806024"><ele>356.6</ele></trkpt>
            <trkpt lat="51.828043" lon="10.805962"><ele>356.8</ele></trkpt>
            <trkpt lat="51.827965" lon="10.805433"><ele>357.5</ele></trkpt>
            <trkpt lat="51.82784" lon="10.804941"><ele>360.8</ele></trkpt>
            <trkpt lat="51.827763" lon="10.804756"><ele>361.4</ele></trkpt>
            <trkpt lat="51.827728" lon="10.804612"><ele>360</ele></trkpt>
            <trkpt lat="51.827788" lon="10.804367"><ele>360</ele></trkpt>
            <trkpt lat="51.827843" lon="10.804141"><ele>353</ele></trkpt>
            <trkpt lat="51.827994" lon="10.803884"><ele>352.2</ele></trkpt>
            <trkpt lat="51.828127" lon="10.80354"><ele>352.2</ele></trkpt>
            <trkpt lat="51.828187" lon="10.803206"><ele>351.1</ele></trkpt>
            <trkpt lat="51.82833" lon="10.802815"><ele>349.2</ele></trkpt>
            <trkpt lat="51.828429" lon="10.802611"><ele>350.8</ele></trkpt>
            <trkpt lat="51.828507" lon="10.802391"><ele>357</ele></trkpt>
            <trkpt lat="51.828732" lon="10.802503"><ele>365</ele></trkpt>
            <trkpt lat="51.828932" lon="10.802379"><ele>359.7</ele></trkpt>
            <trkpt lat="51.829045" lon="10.802213"><ele>357</ele></trkpt>
            <trkpt lat="51.829069" lon="10.802178"><ele>357</ele></trkpt>
            <trkpt lat="51.829115" lon="10.801607"><ele>353</ele></trkpt>
            <trkpt lat="51.829108" lon="10.801322"><ele>350</ele></trkpt>
            <trkpt lat="51.829094" lon="10.800722"><ele>349.4</ele></trkpt>
            <trkpt lat="51.829056" lon="10.800292"><ele>351.5</ele></trkpt>
            <trkpt lat="51.829095" lon="10.80009"><ele>352.3</ele></trkpt>
            <trkpt lat="51.829158" lon="10.799876"><ele>351</ele></trkpt>
            <trkpt lat="51.829251" lon="10.799667"><ele>352.7</ele></trkpt>
            <trkpt lat="51.829646" lon="10.798895"><ele>350</ele></trkpt>
            <trkpt lat="51.829964" lon="10.798177"><ele>340</ele></trkpt>
            <trkpt lat="51.830036" lon="10.798016"><ele>367</ele></trkpt>
            <trkpt lat="51.83005" lon="10.797982"><ele>367</ele></trkpt>
            <trkpt lat="51.830064" lon="10.797948"><ele>367</ele></trkpt>
            <trkpt lat="51.830091" lon="10.797939"><ele>367</ele></trkpt>
            <trkpt lat="51.830152" lon="10.797984"><ele>367</ele></trkpt>
            <trkpt lat="51.830265" lon="10.798089"><ele>378.7</ele></trkpt>
            <trkpt lat="51.830468" lon="10.798412"><ele>380.9</ele></trkpt>
            <trkpt lat="51.830533" lon="10.798573"><ele>380.7</ele></trkpt>
            <trkpt lat="51.830666" lon="10.799148"><ele>380.3</ele></trkpt>
            <trkpt lat="51.83073" lon="10.799656"><ele>389</ele></trkpt>
            <trkpt lat="51.830766" lon="10.800007"><ele>383.6</ele></trkpt>
            <trkpt lat="51.830759" lon="10.800521"><ele>380.9</ele></trkpt>
            <trkpt lat="51.830825" lon="10.801049"><ele>377.6</ele></trkpt>
            <trkpt lat="51.83086" lon="10.801209"><ele>376.3</ele></trkpt>
            <trkpt lat="51.830888" lon="10.801726"><ele>360</ele></trkpt>
            <trkpt lat="51.83098" lon="10.802189"><ele>353.2</ele></trkpt>
            <trkpt lat="51.831204" lon="10.802928"><ele>352.7</ele></trkpt>
            <trkpt lat="51.831237" lon="10.803071"><ele>352.7</ele></trkpt>
            <trkpt lat="51.831264" lon="10.803337"><ele>344</ele></trkpt>
            <trkpt lat="51.831284" lon="10.803408"><ele>344</ele></trkpt>
            <trkpt lat="51.831389" lon="10.803959"><ele>338.9</ele></trkpt>
            <trkpt lat="51.831389" lon="10.804256"><ele>338.4</ele></trkpt>
            <trkpt lat="51.831421" lon="10.804541"><ele>338.4</ele></trkpt>
            <trkpt lat="51.831488" lon="10.804809"><ele>338.4</ele></trkpt>
            <trkpt lat="51.831664" lon="10.805217"><ele>331</ele></trkpt>
            <trkpt lat="51.83192" lon="10.805688"><ele>316</ele></trkpt>
            <trkpt lat="51.831998" lon="10.805842"><ele>311</ele></trkpt>
            <trkpt lat="51.832104" lon="10.806178"><ele>311</ele></trkpt>
            <trkpt lat="51.832153" lon="10.806303"><ele>309</ele></trkpt>
            <trkpt lat="51.83227" lon="10.806457"><ele>308.3</ele></trkpt>
            <trkpt lat="51.832434" lon="10.806845"><ele>305</ele></trkpt>
            <trkpt lat="51.832576" lon="10.807892"><ele>293</ele></trkpt>
            <trkpt lat="51.832678" lon="10.80797"><ele>293</ele></trkpt>
            <trkpt lat="51.832873" lon="10.807918"><ele>293</ele></trkpt>
            <trkpt lat="51.833121" lon="10.80784"><ele>293</ele></trkpt>
            <trkpt lat="51.833145" lon="10.808113"><ele>293</ele></trkpt>
            <trkpt lat="51.833199" lon="10.808306"><ele>293</ele></trkpt>
            <trkpt lat="51.833602" lon="10.809352"><ele>280</ele></trkpt>
            <trkpt lat="51.833937" lon="10.810158"><ele>284</ele></trkpt>
            <trkpt lat="51.834616" lon="10.81136"><ele>284</ele></trkpt>
            <trkpt lat="51.83487" lon="10.812068"><ele>295.7</ele></trkpt>
            <trkpt lat="51.835183" lon="10.812796"><ele>295.6</ele></trkpt>
            <trkpt lat="51.835341" lon="10.813215"><ele>297.3</ele></trkpt>
            <trkpt lat="51.835506" lon="10.813685"><ele>299.3</ele></trkpt>
            <trkpt lat="51.835664" lon="10.814345"><ele>303</ele></trkpt>
            <trkpt lat="51.835725" lon="10.814808"><ele>305.4</ele></trkpt>
            <trkpt lat="51.835761" lon="10.815466"><ele>309</ele></trkpt>
            <trkpt lat="51.835759" lon="10.815955"><ele>310.2</ele></trkpt>
            <trkpt lat="51.835659" lon="10.81727"><ele>310</ele></trkpt>
            <trkpt lat="51.835621" lon="10.817911"><ele>309</ele></trkpt>
            <trkpt lat="51.835636" lon="10.818008"><ele>309</ele></trkpt>
            <trkpt lat="51.835668" lon="10.818205"><ele>302</ele></trkpt>
            <trkpt lat="51.835927" lon="10.819033"><ele>299.4</ele></trkpt>
            <trkpt lat="51.835984" lon="10.819566"><ele>297.8</ele></trkpt>
            <trkpt lat="51.835999" lon="10.820197"><ele>295</ele></trkpt>
            <trkpt lat="51.835781" lon="10.822062"><ele>303</ele></trkpt>
            <trkpt lat="51.83573" lon="10.822718"><ele>313</ele></trkpt>
            <trkpt lat="51.835707" lon="10.823094"><ele>311.8</ele></trkpt>
            <trkpt lat="51.835669" lon="10.8234"><ele>308</ele></trkpt>
            <trkpt lat="51.835554" lon="10.823929"><ele>308</ele></trkpt>
            <trkpt lat="51.83521" lon="10.82612"><ele>291.8</ele></trkpt>
            <trkpt lat="51.835135" lon="10.826676"><ele>282</ele></trkpt>
            <trkpt lat="51.83506" lon="10.826982"><ele>286.5</ele></trkpt>
            <trkpt lat="51.835" lon="10.827123"><ele>300</ele></trkpt>
            <trkpt lat="51.834917" lon="10.827232"><ele>300</ele></trkpt>
            <trkpt lat="51.83478" lon="10.82733"><ele>300</ele></trkpt>
            <trkpt lat="51.834519" lon="10.827502"><ele>298</ele></trkpt>
            <trkpt lat="51.834392" lon="10.827663"><ele>296</ele></trkpt>
            <trkpt lat="51.834205" lon="10.828607"><ele>296.4</ele></trkpt>
            <trkpt lat="51.834153" lon="10.829023"><ele>298.5</ele></trkpt>
            <trkpt lat="51.834148" lon="10.829195"><ele>306</ele></trkpt>
            <trkpt lat="51.834207" lon="10.830324"><ele>292</ele></trkpt>
            <trkpt lat="51.83419" lon="10.830627"><ele>290.1</ele></trkpt>
            <trkpt lat="51.833874" lon="10.831613"><ele>298</ele></trkpt>
            <trkpt lat="51.833775" lon="10.831828"><ele>294</ele></trkpt>
            <trkpt lat="51.833729" lon="10.832054"><ele>294</ele></trkpt>
            <trkpt lat="51.833711" lon="10.832496"><ele>292.9</ele></trkpt>
            <trkpt lat="51.833711" lon="10.83309"><ele>292.8</ele></trkpt>
            <trkpt lat="51.833688" lon="10.833308"><ele>292.7</ele></trkpt>
            <trkpt lat="51.833641" lon="10.833485"><ele>290</ele></trkpt>
            <trkpt lat="51.833531" lon="10.833757"><ele>290</ele></trkpt>
            <trkpt lat="51.833516" lon="10.833912"><ele>290</ele></trkpt>
            <trkpt lat="51.833513" lon="10.834158"><ele>290</ele></trkpt>
            <trkpt lat="51.833432" lon="10.834664"><ele>296.9</ele></trkpt>
            <trkpt lat="51.833201" lon="10.835256"><ele>299.6</ele></trkpt>
            <trkpt lat="51.833058" lon="10.835842"><ele>310</ele></trkpt>
            <trkpt lat="51.832938" lon="10.836182"><ele>306.6</ele></trkpt>
            <trkpt lat="51.83287" lon="10.836511"><ele>306.6</ele></trkpt>
            <trkpt lat="51.832847" lon="10.837117"><ele>305.8</ele></trkpt>
            <trkpt lat="51.832697" lon="10.837663"><ele>304.9</ele></trkpt>
            <trkpt lat="51.832636" lon="10.838114"><ele>303.5</ele></trkpt>
            <trkpt lat="51.832501" lon="10.838662"><ele>301.2</ele></trkpt>
            <trkpt lat="51.832488" lon="10.838947"><ele>302</ele></trkpt>
            <trkpt lat="51.832509" lon="10.839264"><ele>300.8</ele></trkpt>
            <trkpt lat="51.832489" lon="10.839569"><ele>301</ele></trkpt>
            <trkpt lat="51.832428" lon="10.840048"><ele>300</ele></trkpt>
            <trkpt lat="51.832324" lon="10.840866"><ele>300</ele></trkpt>
            <trkpt lat="51.83225" lon="10.841202"><ele>300</ele></trkpt>
            <trkpt lat="51.832143" lon="10.841495"><ele>300</ele></trkpt>
            <trkpt lat="51.832041" lon="10.84169"><ele>300</ele></trkpt>
            <trkpt lat="51.831941" lon="10.841858"><ele>300</ele></trkpt>
            <trkpt lat="51.83189" lon="10.84198"><ele>302.4</ele></trkpt>
            <trkpt lat="51.831864" lon="10.842118"><ele>302.1</ele></trkpt>
            <trkpt lat="51.831837" lon="10.842631"><ele>302.4</ele></trkpt>
            <trkpt lat="51.831599" lon="10.84408"><ele>306.1</ele></trkpt>
            <trkpt lat="51.8315" lon="10.844532"><ele>310.3</ele></trkpt>
            <trkpt lat="51.831447" lon="10.845039"><ele>312.2</ele></trkpt>
            <trkpt lat="51.831372" lon="10.8455"><ele>314.6</ele></trkpt>
            <trkpt lat="51.831326" lon="10.846305"><ele>315</ele></trkpt>
            <trkpt lat="51.831347" lon="10.84666"><ele>314.9</ele></trkpt>
            <trkpt lat="51.831296" lon="10.846767"><ele>313.6</ele></trkpt>
            <trkpt lat="51.831116" lon="10.846835"><ele>311</ele></trkpt>
            <trkpt lat="51.830971" lon="10.846942"><ele>312.8</ele></trkpt>
            <trkpt lat="51.830878" lon="10.847151"><ele>312.6</ele></trkpt>
            <trkpt lat="51.830736" lon="10.847265"><ele>313.3</ele></trkpt>
            <trkpt lat="51.830655" lon="10.847271"><ele>313.5</ele></trkpt>
            <trkpt lat="51.830475" lon="10.847214"><ele>316</ele></trkpt>
            <trkpt lat="51.830373" lon="10.847238"><ele>316</ele></trkpt>
            <trkpt lat="51.830353" lon="10.847257"><ele>316</ele></trkpt>
            <trkpt lat="51.830229" lon="10.84741"><ele>318.2</ele></trkpt>
            <trkpt lat="51.830082" lon="10.847788"><ele>316.7</ele></trkpt>
            <trkpt lat="51.83" lon="10.848084"><ele>330</ele></trkpt>
            <trkpt lat="51.829978" lon="10.848202"><ele>330</ele></trkpt>
            <trkpt lat="51.830032" lon="10.848388"><ele>316.7</ele></trkpt>
            <trkpt lat="51.830167" lon="10.848751"><ele>310</ele></trkpt>
            <trkpt lat="51.830348" lon="10.848982"><ele>310</ele></trkpt>
            <trkpt lat="51.830653" lon="10.849297"><ele>310</ele></trkpt>
            <trkpt lat="51.830706" lon="10.849413"><ele>310</ele></trkpt>
            <trkpt lat="51.830748" lon="10.849766"><ele>310</ele></trkpt>
            <trkpt lat="51.830749" lon="10.849929"><ele>310</ele></trkpt>
            <trkpt lat="51.830724" lon="10.850382"><ele>310.2</ele></trkpt>
            <trkpt lat="51.830661" lon="10.850907"><ele>310.1</ele></trkpt>
            <trkpt lat="51.830605" lon="10.851208"><ele>310</ele></trkpt>
            <trkpt lat="51.830615" lon="10.851727"><ele>305.9</ele></trkpt>
            <trkpt lat="51.830593" lon="10.85213"><ele>306.4</ele></trkpt>
            <trkpt lat="51.830275" lon="10.854287"><ele>297.7</ele></trkpt>
            <trkpt lat="51.830096" lon="10.855023"><ele>296.7</ele></trkpt>
            <trkpt lat="51.829764" lon="10.856082"><ele>298</ele></trkpt>
            <trkpt lat="51.829725" lon="10.856352"><ele>299.3</ele></trkpt>
            <trkpt lat="51.829749" lon="10.857168"><ele>295</ele></trkpt>
            <trkpt lat="51.829441" lon="10.856874"><ele>295</ele></trkpt>
            <trkpt lat="51.829377" lon="10.856755"><ele>295</ele></trkpt>
            <trkpt lat="51.828803" lon="10.855533"><ele>321.4</ele></trkpt>
            <trkpt lat="51.828752" lon="10.855357"><ele>324.4</ele></trkpt>
            <trkpt lat="51.828335" lon="10.85429"><ele>346</ele></trkpt>
            <trkpt lat="51.828139" lon="10.853603"><ele>357.2</ele></trkpt>
            <trkpt lat="51.828005" lon="10.853188"><ele>363.8</ele></trkpt>
            <trkpt lat="51.827949" lon="10.853055"><ele>369.3</ele></trkpt>
            <trkpt lat="51.827756" lon="10.852398"><ele>373.3</ele></trkpt>
            <trkpt lat="51.827479" lon="10.851794"><ele>377</ele></trkpt>
            <trkpt lat="51.827429" lon="10.851664"><ele>378.3</ele></trkpt>
            <trkpt lat="51.827318" lon="10.851265"><ele>402</ele></trkpt>
            <trkpt lat="51.827229" lon="10.85112"><ele>416.2</ele></trkpt>
            <trkpt lat="51.827126" lon="10.850823"><ele>419.8</ele></trkpt>
            <trkpt lat="51.827086" lon="10.850682"><ele>421</ele></trkpt>
            <trkpt lat="51.826976" lon="10.850101"><ele>425.2</ele></trkpt>
            <trkpt lat="51.826812" lon="10.849512"><ele>426.2</ele></trkpt>
            <trkpt lat="51.826705" lon="10.849201"><ele>428.3</ele></trkpt>
            <trkpt lat="51.82652" lon="10.848869"><ele>430.1</ele></trkpt>
            <trkpt lat="51.826368" lon="10.848523"><ele>429.8</ele></trkpt>
            <trkpt lat="51.826305" lon="10.848419"><ele>429.8</ele></trkpt>
            <trkpt lat="51.82618" lon="10.848316"><ele>437</ele></trkpt>
            <trkpt lat="51.826127" lon="10.84827"><ele>437</ele></trkpt>
        </trkseg>
    </trk>
</gpx>
