<?xml version="1.0" encoding="UTF-8"?>
<gpx version="1.1" creator="HWN Route Compare (OpenRouteService)" xmlns="http://www.topografix.com/GPX/1/1">
    <metadata>
        <name>OpenRouteService – Tour D2b</name>
    </metadata>
    <trk>
        <name>OpenRouteService – Tour D2b</name>
        <trkseg>
            <trkpt lat="51.815431" lon="10.776615"><ele>444</ele></trkpt>
            <trkpt lat="51.815431" lon="10.776615"><ele>444</ele></trkpt>
            <trkpt lat="51.815402" lon="10.776642"><ele>444</ele></trkpt>
            <trkpt lat="51.81532" lon="10.776576"><ele>444</ele></trkpt>
            <trkpt lat="51.815331" lon="10.776352"><ele>444</ele></trkpt>
            <trkpt lat="51.815322" lon="10.775846"><ele>439.6</ele></trkpt>
            <trkpt lat="51.815293" lon="10.775638"><ele>439.4</ele></trkpt>
            <trkpt lat="51.815241" lon="10.775411"><ele>439.3</ele></trkpt>
            <trkpt lat="51.815027" lon="10.774849"><ele>428</ele></trkpt>
            <trkpt lat="51.814931" lon="10.774369"><ele>424</ele></trkpt>
            <trkpt lat="51.814888" lon="10.773826"><ele>419</ele></trkpt>
            <trkpt lat="51.814898" lon="10.773693"><ele>419</ele></trkpt>
            <trkpt lat="51.814927" lon="10.773463"><ele>419</ele></trkpt>
            <trkpt lat="51.814723" lon="10.773669"><ele>424.3</ele></trkpt>
            <trkpt lat="51.814624" lon="10.773739"><ele>424.9</ele></trkpt>
            <trkpt lat="51.814319" lon="10.773826"><ele>427.2</ele></trkpt>
            <trkpt lat="51.813785" lon="10.773857"><ele>427.7</ele></trkpt>
            <trkpt lat="51.813629" lon="10.773846"><ele>427.4</ele></trkpt>
            <trkpt lat="51.813257" lon="10.773764"><ele>434</ele></trkpt>
            <trkpt lat="51.813002" lon="10.773688"><ele>434</ele></trkpt>
            <trkpt lat="51.812849" lon="10.773677"><ele>434</ele></trkpt>
            <trkpt lat="51.812461" lon="10.773662"><ele>422.6</ele></trkpt>
            <trkpt lat="51.812345" lon="10.773619"><ele>423.1</ele></trkpt>
            <trkpt lat="51.812192" lon="10.773502"><ele>424.1</ele></trkpt>
            <trkpt lat="51.812074" lon="10.773332"><ele>428</ele></trkpt>
            <trkpt lat="51.812041" lon="10.773324"><ele>426.9</ele></trkpt>
            <trkpt lat="51.811988" lon="10.773238"><ele>426.7</ele></trkpt>
            <trkpt lat="51.811878" lon="10.772993"><ele>426.5</ele></trkpt>
            <trkpt lat="51.811644" lon="10.772572"><ele>427.3</ele></trkpt>
            <trkpt lat="51.811379" lon="10.772366"><ele>427.5</ele></trkpt>
            <trkpt lat="51.811257" lon="10.772014"><ele>427.6</ele></trkpt>
            <trkpt lat="51.811129" lon="10.771843"><ele>427.7</ele></trkpt>
            <trkpt lat="51.811029" lon="10.771757"><ele>427.8</ele></trkpt>
            <trkpt lat="51.810997" lon="10.771757"><ele>428.1</ele></trkpt>
            <trkpt lat="51.810763" lon="10.771619"><ele>428.4</ele></trkpt>
            <trkpt lat="51.810556" lon="10.771559"><ele>428.3</ele></trkpt>
            <trkpt lat="51.810468" lon="10.771633"><ele>430</ele></trkpt>
            <trkpt lat="51.81044" lon="10.771657"><ele>430</ele></trkpt>
            <trkpt lat="51.810353" lon="10.771748"><ele>429</ele></trkpt>
            <trkpt lat="51.810312" lon="10.77199"><ele>441</ele></trkpt>
            <trkpt lat="51.810376" lon="10.772255"><ele>441.9</ele></trkpt>
            <trkpt lat="51.810397" lon="10.772513"><ele>442.9</ele></trkpt>
            <trkpt lat="51.810369" lon="10.772722"><ele>443.4</ele></trkpt>
            <trkpt lat="51.810319" lon="10.772815"><ele>444</ele></trkpt>
            <trkpt lat="51.81017" lon="10.772934"><ele>445.3</ele></trkpt>
            <trkpt lat="51.810121" lon="10.773018"><ele>446</ele></trkpt>
            <trkpt lat="51.809966" lon="10.773323"><ele>446.8</ele></trkpt>
            <trkpt lat="51.809886" lon="10.773425"><ele>446.5</ele></trkpt>
            <trkpt lat="51.809771" lon="10.773748"><ele>460</ele></trkpt>
            <trkpt lat="51.809709" lon="10.77389"><ele>460</ele></trkpt>
            <trkpt lat="51.809561" lon="10.774097"><ele>460</ele></trkpt>
            <trkpt lat="51.809475" lon="10.774281"><ele>460</ele></trkpt>
            <trkpt lat="51.809392" lon="10.774589"><ele>460</ele></trkpt>
            <trkpt lat="51.80927" lon="10.774745"><ele>460</ele></trkpt>
            <trkpt lat="51.80918" lon="10.774917"><ele>460</ele></trkpt>
            <trkpt lat="51.809066" lon="10.775082"><ele>468</ele></trkpt>
            <trkpt lat="51.808906" lon="10.775212"><ele>472</ele></trkpt>
            <trkpt lat="51.808813" lon="10.775279"><ele>472</ele></trkpt>
            <trkpt lat="51.808628" lon="10.775352"><ele>472</ele></trkpt>
            <trkpt lat="51.808431" lon="10.775443"><ele>479.3</ele></trkpt>
            <trkpt lat="51.808001" lon="10.775539"><ele>481.2</ele></trkpt>
            <trkpt lat="51.807859" lon="10.775607"><ele>481.3</ele></trkpt>
            <trkpt lat="51.807748" lon="10.775686"><ele>482.2</ele></trkpt>
            <trkpt lat="51.807522" lon="10.775897"><ele>481.7</ele></trkpt>
            <trkpt lat="51.807378" lon="10.775997"><ele>483.3</ele></trkpt>
            <trkpt lat="51.806989" lon="10.776244"><ele>487.5</ele></trkpt>
            <trkpt lat="51.806789" lon="10.776332"><ele>488.1</ele></trkpt>
            <trkpt lat="51.806171" lon="10.776425"><ele>494.9</ele></trkpt>
            <trkpt lat="51.80602" lon="10.776401"><ele>496.3</ele></trkpt>
            <trkpt lat="51.805662" lon="10.776248"><ele>496.9</ele></trkpt>
            <trkpt lat="51.805285" lon="10.776039"><ele>498.6</ele></trkpt>
            <trkpt lat="51.805079" lon="10.775969"><ele>499.3</ele></trkpt>
            <trkpt lat="51.804824" lon="10.775935"><ele>499.9</ele></trkpt>
            <trkpt lat="51.804532" lon="10.77593"><ele>501.8</ele></trkpt>
            <trkpt lat="51.803752" lon="10.776052"><ele>505.8</ele></trkpt>
            <trkpt lat="51.802992" lon="10.775997"><ele>510.4</ele></trkpt>
            <trkpt lat="51.802463" lon="10.775877"><ele>511.1</ele></trkpt>
            <trkpt lat="51.802279" lon="10.775884"><ele>512.4</ele></trkpt>
            <trkpt lat="51.802114" lon="10.775986"><ele>515</ele></trkpt>
            <trkpt lat="51.801925" lon="10.776029"><ele>515.6</ele></trkpt>
            <trkpt lat="51.801603" lon="10.776003"><ele>515.7</ele></trkpt>
            <trkpt lat="51.801414" lon="10.776033"><ele>515.8</ele></trkpt>
            <trkpt lat="51.801279" lon="10.776082"><ele>515.9</ele></trkpt>
            <trkpt lat="51.801111" lon="10.776093"><ele>516.1</ele></trkpt>
            <trkpt lat="51.800702" lon="10.776041"><ele>515.5</ele></trkpt>
            <trkpt lat="51.800391" lon="10.776094"><ele>515</ele></trkpt>
            <trkpt lat="51.799547" lon="10.776286"><ele>511.1</ele></trkpt>
            <trkpt lat="51.799168" lon="10.776433"><ele>510.6</ele></trkpt>
            <trkpt lat="51.798646" lon="10.776691"><ele>509.8</ele></trkpt>
            <trkpt lat="51.798432" lon="10.776748"><ele>508</ele></trkpt>
            <trkpt lat="51.79836" lon="10.776563"><ele>510.5</ele></trkpt>
            <trkpt lat="51.798237" lon="10.77589"><ele>510.7</ele></trkpt>
            <trkpt lat="51.798086" lon="10.775439"><ele>510.7</ele></trkpt>
            <trkpt lat="51.797998" lon="10.775262"><ele>510.8</ele></trkpt>
            <trkpt lat="51.797716" lon="10.774937"><ele>511</ele></trkpt>
            <trkpt lat="51.797586" lon="10.774819"><ele>510.9</ele></trkpt>
            <trkpt lat="51.797457" lon="10.774781"><ele>510.8</ele></trkpt>
            <trkpt lat="51.797349" lon="10.774778"><ele>510.6</ele></trkpt>
            <trkpt lat="51.797098" lon="10.774863"><ele>510.2</ele></trkpt>
            <trkpt lat="51.797039" lon="10.774858"><ele>509.9</ele></trkpt>
            <trkpt lat="51.796363" lon="10.774598"><ele>507.9</ele></trkpt>
            <trkpt lat="51.796255" lon="10.774465"><ele>507.2</ele></trkpt>
            <trkpt lat="51.79606" lon="10.774066"><ele>506.5</ele></trkpt>
            <trkpt lat="51.796004" lon="10.774007"><ele>506.4</ele></trkpt>
            <trkpt lat="51.795923" lon="10.773972"><ele>506</ele></trkpt>
            <trkpt lat="51.795709" lon="10.773972"><ele>504.6</ele></trkpt>
            <trkpt lat="51.795468" lon="10.774024"><ele>501.8</ele></trkpt>
            <trkpt lat="51.794992" lon="10.774024"><ele>500.4</ele></trkpt>
            <trkpt lat="51.794762" lon="10.774069"><ele>505</ele></trkpt>
            <trkpt lat="51.794631" lon="10.774531"><ele>490.5</ele></trkpt>
            <trkpt lat="51.794326" lon="10.775215"><ele>490.4</ele></trkpt>
            <trkpt lat="51.794294" lon="10.775319"><ele>490.1</ele></trkpt>
            <trkpt lat="51.794292" lon="10.775439"><ele>489.7</ele></trkpt>
            <trkpt lat="51.794395" lon="10.77599"><ele>488.3</ele></trkpt>
            <trkpt lat="51.794394" lon="10.776087"><ele>487.9</ele></trkpt>
            <trkpt lat="51.794333" lon="10.776226"><ele>486.1</ele></trkpt>
            <trkpt lat="51.794235" lon="10.776311"><ele>485.8</ele></trkpt>
            <trkpt lat="51.79415" lon="10.776355"><ele>485</ele></trkpt>
            <trkpt lat="51.794152" lon="10.776265"><ele>489.3</ele></trkpt>
            <trkpt lat="51.794105" lon="10.776095"><ele>489.1</ele></trkpt>
            <trkpt lat="51.794039" lon="10.775992"><ele>488.9</ele></trkpt>
            <trkpt lat="51.793982" lon="10.775924"><ele>488.9</ele></trkpt>
            <trkpt lat="51.793897" lon="10.775898"><ele>488.9</ele></trkpt>
            <trkpt lat="51.793781" lon="10.775916"><ele>489.4</ele></trkpt>
            <trkpt lat="51.793524" lon="10.776133"><ele>489.4</ele></trkpt>
            <trkpt lat="51.793331" lon="10.776388"><ele>490.1</ele></trkpt>
            <trkpt lat="51.793115" lon="10.776802"><ele>491.2</ele></trkpt>
            <trkpt lat="51.792953" lon="10.777195"><ele>491.6</ele></trkpt>
            <trkpt lat="51.792857" lon="10.77733"><ele>494</ele></trkpt>
            <trkpt lat="51.792738" lon="10.777375"><ele>494.9</ele></trkpt>
            <trkpt lat="51.792145" lon="10.777359"><ele>497</ele></trkpt>
            <trkpt lat="51.792063" lon="10.777423"><ele>497</ele></trkpt>
            <trkpt lat="51.791862" lon="10.777489"><ele>497</ele></trkpt>
            <trkpt lat="51.791845" lon="10.77867"><ele>479</ele></trkpt>
            <trkpt lat="51.791791" lon="10.778668"><ele>479.9</ele></trkpt>
            <trkpt lat="51.791788" lon="10.778832"><ele>480.8</ele></trkpt>
            <trkpt lat="51.791842" lon="10.778834"><ele>482</ele></trkpt>
            <trkpt lat="51.791824" lon="10.780131"><ele>480.9</ele></trkpt>
            <trkpt lat="51.791792" lon="10.780129"><ele>482</ele></trkpt>
            <trkpt lat="51.791789" lon="10.78023"><ele>482</ele></trkpt>
            <trkpt lat="51.791768" lon="10.781114"><ele>490</ele></trkpt>
            <trkpt lat="51.791862" lon="10.781025"><ele>485.2</ele></trkpt>
            <trkpt lat="51.79209" lon="10.780732"><ele>483.6</ele></trkpt>
            <trkpt lat="51.792184" lon="10.780652"><ele>483.8</ele></trkpt>
            <trkpt lat="51.792251" lon="10.780542"><ele>484.4</ele></trkpt>
            <trkpt lat="51.792252" lon="10.780472"><ele>482</ele></trkpt>
            <trkpt lat="51.792251" lon="10.780542"><ele>484.4</ele></trkpt>
            <trkpt lat="51.792184" lon="10.780652"><ele>483.8</ele></trkpt>
            <trkpt lat="51.79209" lon="10.780732"><ele>483.6</ele></trkpt>
            <trkpt lat="51.791862" lon="10.781025"><ele>485.2</ele></trkpt>
            <trkpt lat="51.791768" lon="10.781114"><ele>490</ele></trkpt>
            <trkpt lat="51.791759" lon="10.781375"><ele>499.1</ele></trkpt>
            <trkpt lat="51.791723" lon="10.781563"><ele>501</ele></trkpt>
            <trkpt lat="51.791603" lon="10.781803"><ele>502.1</ele></trkpt>
            <trkpt lat="51.791549" lon="10.782082"><ele>501.3</ele></trkpt>
            <trkpt lat="51.791448" lon="10.782277"><ele>506</ele></trkpt>
            <trkpt lat="51.79156" lon="10.782339"><ele>504.1</ele></trkpt>
            <trkpt lat="51.791947" lon="10.782712"><ele>500</ele></trkpt>
            <trkpt lat="51.792555" lon="10.783185"><ele>498</ele></trkpt>
            <trkpt lat="51.793161" lon="10.783681"><ele>490.5</ele></trkpt>
            <trkpt lat="51.793493" lon="10.783803"><ele>489.1</ele></trkpt>
            <trkpt lat="51.794083" lon="10.78406"><ele>484</ele></trkpt>
            <trkpt lat="51.794606" lon="10.784443"><ele>472.3</ele></trkpt>
            <trkpt lat="51.794753" lon="10.784757"><ele>467</ele></trkpt>
            <trkpt lat="51.794817" lon="10.785049"><ele>461</ele></trkpt>
            <trkpt lat="51.794918" lon="10.78524"><ele>455</ele></trkpt>
            <trkpt lat="51.79506" lon="10.785704"><ele>453.3</ele></trkpt>
            <trkpt lat="51.795235" lon="10.785994"><ele>452</ele></trkpt>
            <trkpt lat="51.79567" lon="10.78664"><ele>451.1</ele></trkpt>
            <trkpt lat="51.795861" lon="10.786854"><ele>447.8</ele></trkpt>
            <trkpt lat="51.796367" lon="10.787104"><ele>444.9</ele></trkpt>
            <trkpt lat="51.796553" lon="10.787247"><ele>443.3</ele></trkpt>
            <trkpt lat="51.796686" lon="10.787383"><ele>440.8</ele></trkpt>
            <trkpt lat="51.796964" lon="10.787742"><ele>438</ele></trkpt>
            <trkpt lat="51.797132" lon="10.788004"><ele>437.2</ele></trkpt>
            <trkpt lat="51.797486" lon="10.788633"><ele>435.1</ele></trkpt>
            <trkpt lat="51.79786" lon="10.789154"><ele>432.1</ele></trkpt>
            <trkpt lat="51.798158" lon="10.789478"><ele>431</ele></trkpt>
            <trkpt lat="51.79821" lon="10.789833"><ele>426.8</ele></trkpt>
            <trkpt lat="51.79833" lon="10.790419"><ele>424.5</ele></trkpt>
            <trkpt lat="51.798397" lon="10.790578"><ele>422.6</ele></trkpt>
            <trkpt lat="51.79874" lon="10.791159"><ele>424.4</ele></trkpt>
            <trkpt lat="51.798861" lon="10.791408"><ele>420</ele></trkpt>
            <trkpt lat="51.798976" lon="10.791587"><ele>412.4</ele></trkpt>
            <trkpt lat="51.799129" lon="10.791736"><ele>410.9</ele></trkpt>
            <trkpt lat="51.799261" lon="10.791828"><ele>407.5</ele></trkpt>
            <trkpt lat="51.799444" lon="10.791857"><ele>397</ele></trkpt>
            <trkpt lat="51.799797" lon="10.791907"><ele>389.9</ele></trkpt>
            <trkpt lat="51.800048" lon="10.791865"><ele>388</ele></trkpt>
            <trkpt lat="51.800295" lon="10.791765"><ele>387.2</ele></trkpt>
            <trkpt lat="51.800697" lon="10.791424"><ele>387.1</ele></trkpt>
            <trkpt lat="51.800934" lon="10.791134"><ele>385.8</ele></trkpt>
            <trkpt lat="51.801129" lon="10.79093"><ele>385.4</ele></trkpt>
            <trkpt lat="51.801202" lon="10.790869"><ele>385.5</ele></trkpt>
            <trkpt lat="51.801314" lon="10.790823"><ele>378</ele></trkpt>
            <trkpt lat="51.801427" lon="10.790882"><ele>384</ele></trkpt>
            <trkpt lat="51.801542" lon="10.791018"><ele>385.9</ele></trkpt>
            <trkpt lat="51.801627" lon="10.79116"><ele>387.5</ele></trkpt>
            <trkpt lat="51.801932" lon="10.79193"><ele>387.1</ele></trkpt>
            <trkpt lat="51.802186" lon="10.792689"><ele>386.8</ele></trkpt>
            <trkpt lat="51.802318" lon="10.792961"><ele>384.4</ele></trkpt>
            <trkpt lat="51.802565" lon="10.793352"><ele>381.5</ele></trkpt>
            <trkpt lat="51.80288" lon="10.793722"><ele>381.4</ele></trkpt>
            <trkpt lat="51.803212" lon="10.793985"><ele>383</ele></trkpt>
            <trkpt lat="51.80346" lon="10.794109"><ele>382.6</ele></trkpt>
            <trkpt lat="51.804176" lon="10.794536"><ele>384.7</ele></trkpt>
            <trkpt lat="51.804292" lon="10.79466"><ele>383.9</ele></trkpt>
            <trkpt lat="51.804429" lon="10.794864"><ele>383.6</ele></trkpt>
            <trkpt lat="51.804809" lon="10.79574"><ele>383.8</ele></trkpt>
            <trkpt lat="51.805014" lon="10.796264"><ele>384.1</ele></trkpt>
            <trkpt lat="51.805346" lon="10.796832"><ele>382.5</ele></trkpt>
            <trkpt lat="51.805663" lon="10.797473"><ele>381.6</ele></trkpt>
            <trkpt lat="51.805931" lon="10.798109"><ele>378.4</ele></trkpt>
            <trkpt lat="51.806073" lon="10.798391"><ele>377.1</ele></trkpt>
            <trkpt lat="51.80625" lon="10.798625"><ele>374.9</ele></trkpt>
            <trkpt lat="51.806609" lon="10.799508"><ele>370.7</ele></trkpt>
            <trkpt lat="51.806671" lon="10.799703"><ele>368.9</ele></trkpt>
            <trkpt lat="51.806717" lon="10.799953"><ele>369.1</ele></trkpt>
            <trkpt lat="51.80676" lon="10.800462"><ele>369.4</ele></trkpt>
            <trkpt lat="51.806762" lon="10.800768"><ele>369.2</ele></trkpt>
            <trkpt lat="51.80672" lon="10.801563"><ele>369.4</ele></trkpt>
            <trkpt lat="51.806746" lon="10.802008"><ele>370.4</ele></trkpt>
            <trkpt lat="51.806785" lon="10.802191"><ele>370.7</ele></trkpt>
            <trkpt lat="51.806989" lon="10.80282"><ele>371.1</ele></trkpt>
            <trkpt lat="51.80735" lon="10.803606"><ele>375</ele></trkpt>
            <trkpt lat="51.807439" lon="10.803673"><ele>364</ele></trkpt>
            <trkpt lat="51.80758" lon="10.80361"><ele>342</ele></trkpt>
            <trkpt lat="51.807583" lon="10.803566"><ele>342</ele></trkpt>
            <trkpt lat="51.807587" lon="10.803463"><ele>342</ele></trkpt>
            <trkpt lat="51.807581" lon="10.803348"><ele>342</ele></trkpt>
            <trkpt lat="51.80757" lon="10.80313"><ele>346</ele></trkpt>
            <trkpt lat="51.807668" lon="10.803053"><ele>343.3</ele></trkpt>
            <trkpt lat="51.807757" lon="10.803069"><ele>343.1</ele></trkpt>
            <trkpt lat="51.807915" lon="10.803299"><ele>342.9</ele></trkpt>
            <trkpt lat="51.808036" lon="10.803613"><ele>342.6</ele></trkpt>
            <trkpt lat="51.808136" lon="10.803994"><ele>342.6</ele></trkpt>
            <trkpt lat="51.808231" lon="10.804267"><ele>342.6</ele></trkpt>
            <trkpt lat="51.808252" lon="10.804368"><ele>342.7</ele></trkpt>
            <trkpt lat="51.808246" lon="10.804468"><ele>342.7</ele></trkpt>
            <trkpt lat="51.808093" lon="10.80472"><ele>342.8</ele></trkpt>
            <trkpt lat="51.808057" lon="10.804973"><ele>342.9</ele></trkpt>
            <trkpt lat="51.808094" lon="10.805269"><ele>342.5</ele></trkpt>
            <trkpt lat="51.808176" lon="10.805587"><ele>342.6</ele></trkpt>
            <trkpt lat="51.80827" lon="10.805832"><ele>342</ele></trkpt>
            <trkpt lat="51.80826" lon="10.805923"><ele>349.3</ele></trkpt>
            <trkpt lat="51.808219" lon="10.806006"><ele>349.8</ele></trkpt>
            <trkpt lat="51.808124" lon="10.806102"><ele>350.4</ele></trkpt>
            <trkpt lat="51.808043" lon="10.806218"><ele>351</ele></trkpt>
            <trkpt lat="51.808015" lon="10.806385"><ele>351.6</ele></trkpt>
            <trkpt lat="51.808071" lon="10.806539"><ele>352.3</ele></trkpt>
            <trkpt lat="51.808292" lon="10.806776"><ele>353.9</ele></trkpt>
            <trkpt lat="51.808477" lon="10.806917"><ele>354.6</ele></trkpt>
            <trkpt lat="51.80869" lon="10.807269"><ele>357.8</ele></trkpt>
            <trkpt lat="51.809028" lon="10.808136"><ele>370.6</ele></trkpt>
            <trkpt lat="51.809167" lon="10.808808"><ele>377.1</ele></trkpt>
            <trkpt lat="51.809371" lon="10.809389"><ele>377.9</ele></trkpt>
            <trkpt lat="51.809471" lon="10.809535"><ele>378.9</ele></trkpt>
            <trkpt lat="51.809533" lon="10.809587"><ele>378</ele></trkpt>
            <trkpt lat="51.809593" lon="10.8096"><ele>377.1</ele></trkpt>
            <trkpt lat="51.809671" lon="10.809547"><ele>387</ele></trkpt>
            <trkpt lat="51.809873" lon="10.809283"><ele>387</ele></trkpt>
            <trkpt lat="51.809979" lon="10.809275"><ele>387</ele></trkpt>
            <trkpt lat="51.809957" lon="10.809217"><ele>387</ele></trkpt>
            <trkpt lat="51.809826" lon="10.809204"><ele>387</ele></trkpt>
            <trkpt lat="51.809727" lon="10.809237"><ele>398.3</ele></trkpt>
            <trkpt lat="51.80968" lon="10.80914"><ele>398.7</ele></trkpt>
            <trkpt lat="51.809684" lon="10.80892"><ele>399.4</ele></trkpt>
            <trkpt lat="51.80972" lon="10.808673"><ele>400.3</ele></trkpt>
            <trkpt lat="51.809697" lon="10.808126"><ele>401.3</ele></trkpt>
            <trkpt lat="51.809733" lon="10.807756"><ele>402.7</ele></trkpt>
            <trkpt lat="51.809753" lon="10.807322"><ele>402.6</ele></trkpt>
            <trkpt lat="51.809803" lon="10.807134"><ele>404.4</ele></trkpt>
            <trkpt lat="51.810201" lon="10.806984"><ele>413.1</ele></trkpt>
            <trkpt lat="51.81043" lon="10.806871"><ele>419.1</ele></trkpt>
            <trkpt lat="51.810546" lon="10.806769"><ele>425</ele></trkpt>
            <trkpt lat="51.810825" lon="10.806656"><ele>428.1</ele></trkpt>
            <trkpt lat="51.81104" lon="10.806485"><ele>433.9</ele></trkpt>
            <trkpt lat="51.811319" lon="10.806206"><ele>441.9</ele></trkpt>
            <trkpt lat="51.811435" lon="10.806029"><ele>443.4</ele></trkpt>
            <trkpt lat="51.811752" lon="10.805616"><ele>451</ele></trkpt>
            <trkpt lat="51.81182" lon="10.805117"><ele>442</ele></trkpt>
            <trkpt lat="51.811797" lon="10.804545"><ele>443</ele></trkpt>
            <trkpt lat="51.811656" lon="10.803754"><ele>423</ele></trkpt>
            <trkpt lat="51.811619" lon="10.803643"><ele>430.9</ele></trkpt>
            <trkpt lat="51.811579" lon="10.803419"><ele>433.4</ele></trkpt>
            <trkpt lat="51.811598" lon="10.803266"><ele>434.4</ele></trkpt>
            <trkpt lat="51.811634" lon="10.803169"><ele>436.1</ele></trkpt>
            <trkpt lat="51.81182" lon="10.802913"><ele>439.4</ele></trkpt>
            <trkpt lat="51.81188" lon="10.802744"><ele>439.2</ele></trkpt>
            <trkpt lat="51.811947" lon="10.802301"><ele>440.6</ele></trkpt>
            <trkpt lat="51.811973" lon="10.801733"><ele>442.1</ele></trkpt>
            <trkpt lat="51.811967" lon="10.801376"><ele>446.2</ele></trkpt>
            <trkpt lat="51.811902" lon="10.800803"><ele>454</ele></trkpt>
            <trkpt lat="51.811887" lon="10.800353"><ele>456.4</ele></trkpt>
            <trkpt lat="51.811893" lon="10.799964"><ele>457.7</ele></trkpt>
            <trkpt lat="51.811925" lon="10.799441"><ele>459</ele></trkpt>
            <trkpt lat="51.812073" lon="10.798945"><ele>459.6</ele></trkpt>
            <trkpt lat="51.812122" lon="10.798849"><ele>465</ele></trkpt>
            <trkpt lat="51.811952" lon="10.798771"><ele>465</ele></trkpt>
            <trkpt lat="51.811764" lon="10.798583"><ele>465</ele></trkpt>
            <trkpt lat="51.811639" lon="10.798419"><ele>453.9</ele></trkpt>
            <trkpt lat="51.811499" lon="10.798339"><ele>452.9</ele></trkpt>
            <trkpt lat="51.810825" lon="10.798343"><ele>456</ele></trkpt>
            <trkpt lat="51.810474" lon="10.798407"><ele>456</ele></trkpt>
            <trkpt lat="51.810193" lon="10.798395"><ele>456</ele></trkpt>
            <trkpt lat="51.810059" lon="10.798336"><ele>456</ele></trkpt>
            <trkpt lat="51.810003" lon="10.798383"><ele>456</ele></trkpt>
            <trkpt lat="51.810006" lon="10.798403"><ele>446</ele></trkpt>
            <trkpt lat="51.810003" lon="10.798383"><ele>456</ele></trkpt>
            <trkpt lat="51.810059" lon="10.798336"><ele>456</ele></trkpt>
            <trkpt lat="51.810193" lon="10.798395"><ele>456</ele></trkpt>
            <trkpt lat="51.810474" lon="10.798407"><ele>456</ele></trkpt>
            <trkpt lat="51.810825" lon="10.798343"><ele>456</ele></trkpt>
            <trkpt lat="51.811499" lon="10.798339"><ele>452.9</ele></trkpt>
            <trkpt lat="51.811639" lon="10.798419"><ele>453.9</ele></trkpt>
            <trkpt lat="51.811764" lon="10.798583"><ele>465</ele></trkpt>
            <trkpt lat="51.811952" lon="10.798771"><ele>465</ele></trkpt>
            <trkpt lat="51.812122" lon="10.798849"><ele>465</ele></trkpt>
            <trkpt lat="51.812185" lon="10.798781"><ele>465</ele></trkpt>
            <trkpt lat="51.812245" lon="10.798693"><ele>463.5</ele></trkpt>
            <trkpt lat="51.812688" lon="10.798231"><ele>462.8</ele></trkpt>
            <trkpt lat="51.81327" lon="10.797754"><ele>461.6</ele></trkpt>
            <trkpt lat="51.814143" lon="10.796958"><ele>456</ele></trkpt>
            <trkpt lat="51.814487" lon="10.796652"><ele>474</ele></trkpt>
            <trkpt lat="51.814325" lon="10.795519"><ele>473.3</ele></trkpt>
            <trkpt lat="51.814188" lon="10.794224"><ele>472.4</ele></trkpt>
            <trkpt lat="51.814158" lon="10.793803"><ele>468.1</ele></trkpt>
            <trkpt lat="51.814172" lon="10.793191"><ele>467.2</ele></trkpt>
            <trkpt lat="51.814158" lon="10.792626"><ele>463.3</ele></trkpt>
            <trkpt lat="51.814103" lon="10.791688"><ele>459</ele></trkpt>
            <trkpt lat="51.814065" lon="10.791369"><ele>459.4</ele></trkpt>
            <trkpt lat="51.81404" lon="10.79092"><ele>455.5</ele></trkpt>
            <trkpt lat="51.814038" lon="10.790375"><ele>455.1</ele></trkpt>
            <trkpt lat="51.814112" lon="10.789054"><ele>450.2</ele></trkpt>
            <trkpt lat="51.814112" lon="10.787995"><ele>447.7</ele></trkpt>
            <trkpt lat="51.814127" lon="10.787812"><ele>447.4</ele></trkpt>
            <trkpt lat="51.814156" lon="10.78767"><ele>446</ele></trkpt>
            <trkpt lat="51.814177" lon="10.787459"><ele>460</ele></trkpt>
            <trkpt lat="51.814149" lon="10.786793"><ele>459.8</ele></trkpt>
            <trkpt lat="51.814178" lon="10.786464"><ele>461.1</ele></trkpt>
            <trkpt lat="51.814213" lon="10.785628"><ele>462.9</ele></trkpt>
            <trkpt lat="51.814298" lon="10.784741"><ele>464</ele></trkpt>
            <trkpt lat="51.814351" lon="10.784447"><ele>465.4</ele></trkpt>
            <trkpt lat="51.814413" lon="10.784271"><ele>465.1</ele></trkpt>
            <trkpt lat="51.814525" lon="10.784124"><ele>464.9</ele></trkpt>
            <trkpt lat="51.81482" lon="10.783909"><ele>464.1</ele></trkpt>
            <trkpt lat="51.814893" lon="10.783834"><ele>463.9</ele></trkpt>
            <trkpt lat="51.815021" lon="10.783631"><ele>464.3</ele></trkpt>
            <trkpt lat="51.81518" lon="10.78325"><ele>464.1</ele></trkpt>
            <trkpt lat="51.815351" lon="10.782779"><ele>466</ele></trkpt>
            <trkpt lat="51.815623" lon="10.782536"><ele>466</ele></trkpt>
            <trkpt lat="51.815754" lon="10.782247"><ele>460.8</ele></trkpt>
            <trkpt lat="51.815811" lon="10.78205"><ele>459</ele></trkpt>
            <trkpt lat="51.815794" lon="10.781672"><ele>468.8</ele></trkpt>
            <trkpt lat="51.815849" lon="10.781318"><ele>470</ele></trkpt>
            <trkpt lat="51.816018" lon="10.780543"><ele>472</ele></trkpt>
            <trkpt lat="51.815812" lon="10.780052"><ele>461.7</ele></trkpt>
            <trkpt lat="51.815689" lon="10.779842"><ele>456</ele></trkpt>
            <trkpt lat="51.815556" lon="10.779606"><ele>455.4</ele></trkpt>
            <trkpt lat="51.815447" lon="10.779292"><ele>454.8</ele></trkpt>
            <trkpt lat="51.815415" lon="10.779081"><ele>454.3</ele></trkpt>
            <trkpt lat="51.815366" lon="10.778452"><ele>453.8</ele></trkpt>
            <trkpt lat="51.815262" lon="10.77776"><ele>453.4</ele></trkpt>
            <trkpt lat="51.815257" lon="10.777058"><ele>450</ele></trkpt>
            <trkpt lat="51.81526" lon="10.777"><ele>450</ele></trkpt>
            <trkpt lat="51.815431" lon="10.776843"><ele>450</ele></trkpt>
            <trkpt lat="51.815421" lon="10.776773"><ele>450</ele></trkpt>
            <trkpt lat="51.815402" lon="10.776642"><ele>444</ele></trkpt>
            <trkpt lat="51.815431" lon="10.776615"><ele>444</ele></trkpt>
            <trkpt lat="51.815431" lon="10.776615"><ele>444</ele></trkpt>
        </trkseg>
    </trk>
</gpx>
