<?xml version="1.0" encoding="UTF-8"?>
<gpx version="1.1" creator="HWN Route Compare (OpenRouteService)" xmlns="http://www.topografix.com/GPX/1/1">
    <metadata>
        <name>OpenRouteService – Tour D3</name>
    </metadata>
    <trk>
        <name>OpenRouteService – Tour D3</name>
        <trkseg>
            <trkpt lat="51.787307" lon="10.873293"><ele>432</ele></trkpt>
            <trkpt lat="51.787286" lon="10.873355"><ele>427</ele></trkpt>
            <trkpt lat="51.786892" lon="10.872928"><ele>438.8</ele></trkpt>
            <trkpt lat="51.786602" lon="10.872524"><ele>441.1</ele></trkpt>
            <trkpt lat="51.786241" lon="10.872091"><ele>442</ele></trkpt>
            <trkpt lat="51.786122" lon="10.871843"><ele>443.3</ele></trkpt>
            <trkpt lat="51.785938" lon="10.871365"><ele>446</ele></trkpt>
            <trkpt lat="51.785718" lon="10.870942"><ele>446.9</ele></trkpt>
            <trkpt lat="51.78566" lon="10.870797"><ele>447.4</ele></trkpt>
            <trkpt lat="51.785569" lon="10.870541"><ele>448.1</ele></trkpt>
            <trkpt lat="51.785443" lon="10.869934"><ele>451.8</ele></trkpt>
            <trkpt lat="51.785333" lon="10.869608"><ele>452.8</ele></trkpt>
            <trkpt lat="51.784768" lon="10.86826"><ele>460.1</ele></trkpt>
            <trkpt lat="51.784318" lon="10.86707"><ele>464.3</ele></trkpt>
            <trkpt lat="51.784197" lon="10.86679"><ele>464.8</ele></trkpt>
            <trkpt lat="51.783841" lon="10.866214"><ele>468.3</ele></trkpt>
            <trkpt lat="51.783167" lon="10.864928"><ele>473</ele></trkpt>
            <trkpt lat="51.782372" lon="10.863296"><ele>469</ele></trkpt>
            <trkpt lat="51.782233" lon="10.862865"><ele>469</ele></trkpt>
            <trkpt lat="51.782178" lon="10.86279"><ele>469</ele></trkpt>
            <trkpt lat="51.781887" lon="10.862615"><ele>469</ele></trkpt>
            <trkpt lat="51.781812" lon="10.862542"><ele>468</ele></trkpt>
            <trkpt lat="51.78171" lon="10.862332"><ele>467</ele></trkpt>
            <trkpt lat="51.78164" lon="10.862163"><ele>468</ele></trkpt>
            <trkpt lat="51.781682" lon="10.862048"><ele>467.5</ele></trkpt>
            <trkpt lat="51.781705" lon="10.861931"><ele>467</ele></trkpt>
            <trkpt lat="51.781715" lon="10.861515"><ele>469.1</ele></trkpt>
            <trkpt lat="51.78174" lon="10.861182"><ele>469.3</ele></trkpt>
            <trkpt lat="51.781855" lon="10.86043"><ele>469.7</ele></trkpt>
            <trkpt lat="51.781906" lon="10.859988"><ele>470.1</ele></trkpt>
            <trkpt lat="51.782011" lon="10.859599"><ele>471.1</ele></trkpt>
            <trkpt lat="51.782436" lon="10.858789"><ele>473.2</ele></trkpt>
            <trkpt lat="51.782704" lon="10.85834"><ele>470</ele></trkpt>
            <trkpt lat="51.782998" lon="10.857978"><ele>471.4</ele></trkpt>
            <trkpt lat="51.783073" lon="10.85791"><ele>472</ele></trkpt>
            <trkpt lat="51.783032" lon="10.857785"><ele>472</ele></trkpt>
            <trkpt lat="51.783017" lon="10.857684"><ele>472</ele></trkpt>
            <trkpt lat="51.782859" lon="10.85762"><ele>473.8</ele></trkpt>
            <trkpt lat="51.781681" lon="10.856313"><ele>478.3</ele></trkpt>
            <trkpt lat="51.781556" lon="10.856217"><ele>478.8</ele></trkpt>
            <trkpt lat="51.781415" lon="10.856167"><ele>478.7</ele></trkpt>
            <trkpt lat="51.780433" lon="10.856212"><ele>480.6</ele></trkpt>
            <trkpt lat="51.778551" lon="10.856157"><ele>490.2</ele></trkpt>
            <trkpt lat="51.777599" lon="10.856197"><ele>490.2</ele></trkpt>
            <trkpt lat="51.775792" lon="10.857051"><ele>514</ele></trkpt>
            <trkpt lat="51.774591" lon="10.857157"><ele>515.6</ele></trkpt>
            <trkpt lat="51.774348" lon="10.857132"><ele>516</ele></trkpt>
            <trkpt lat="51.774006" lon="10.856977"><ele>517</ele></trkpt>
            <trkpt lat="51.773774" lon="10.856796"><ele>516.4</ele></trkpt>
            <trkpt lat="51.772912" lon="10.856212"><ele>516.3</ele></trkpt>
            <trkpt lat="51.772775" lon="10.8561"><ele>516.3</ele></trkpt>
            <trkpt lat="51.772674" lon="10.855985"><ele>516</ele></trkpt>
            <trkpt lat="51.772393" lon="10.855889"><ele>514.8</ele></trkpt>
            <trkpt lat="51.772119" lon="10.855724"><ele>515</ele></trkpt>
            <trkpt lat="51.771629" lon="10.855402"><ele>514.8</ele></trkpt>
            <trkpt lat="51.771319" lon="10.855157"><ele>514</ele></trkpt>
            <trkpt lat="51.769485" lon="10.853934"><ele>502</ele></trkpt>
            <trkpt lat="51.767678" lon="10.852608"><ele>490</ele></trkpt>
            <trkpt lat="51.767277" lon="10.852356"><ele>491</ele></trkpt>
            <trkpt lat="51.766776" lon="10.851796"><ele>491.4</ele></trkpt>
            <trkpt lat="51.766078" lon="10.851344"><ele>490.1</ele></trkpt>
            <trkpt lat="51.765864" lon="10.851253"><ele>488.8</ele></trkpt>
            <trkpt lat="51.765647" lon="10.85119"><ele>488</ele></trkpt>
            <trkpt lat="51.765126" lon="10.850963"><ele>486</ele></trkpt>
            <trkpt lat="51.764591" lon="10.850664"><ele>482.5</ele></trkpt>
            <trkpt lat="51.764297" lon="10.850463"><ele>480.6</ele></trkpt>
            <trkpt lat="51.763795" lon="10.850075"><ele>476</ele></trkpt>
            <trkpt lat="51.763487" lon="10.849785"><ele>474</ele></trkpt>
            <trkpt lat="51.76269" lon="10.849223"><ele>471.4</ele></trkpt>
            <trkpt lat="51.762519" lon="10.849083"><ele>468</ele></trkpt>
            <trkpt lat="51.762227" lon="10.848822"><ele>463.8</ele></trkpt>
            <trkpt lat="51.761803" lon="10.848514"><ele>464.1</ele></trkpt>
            <trkpt lat="51.761713" lon="10.848417"><ele>463</ele></trkpt>
            <trkpt lat="51.761657" lon="10.848494"><ele>464</ele></trkpt>
            <trkpt lat="51.761667" lon="10.848585"><ele>464.3</ele></trkpt>
            <trkpt lat="51.76158" lon="10.848953"><ele>464.2</ele></trkpt>
            <trkpt lat="51.761498" lon="10.849127"><ele>464.2</ele></trkpt>
            <trkpt lat="51.761275" lon="10.849462"><ele>466</ele></trkpt>
            <trkpt lat="51.761187" lon="10.849545"><ele>454.5</ele></trkpt>
            <trkpt lat="51.761072" lon="10.849548"><ele>454.5</ele></trkpt>
            <trkpt lat="51.760691" lon="10.849673"><ele>451.9</ele></trkpt>
            <trkpt lat="51.760597" lon="10.849677"><ele>451.9</ele></trkpt>
            <trkpt lat="51.76045" lon="10.849722"><ele>451.8</ele></trkpt>
            <trkpt lat="51.76013" lon="10.849718"><ele>451.8</ele></trkpt>
            <trkpt lat="51.760065" lon="10.849737"><ele>451.7</ele></trkpt>
            <trkpt lat="51.760006" lon="10.849792"><ele>451.7</ele></trkpt>
            <trkpt lat="51.759896" lon="10.849982"><ele>446.3</ele></trkpt>
            <trkpt lat="51.759736" lon="10.850412"><ele>414</ele></trkpt>
            <trkpt lat="51.759737" lon="10.850466"><ele>416.7</ele></trkpt>
            <trkpt lat="51.759736" lon="10.850412"><ele>414</ele></trkpt>
            <trkpt lat="51.759896" lon="10.849982"><ele>446.3</ele></trkpt>
            <trkpt lat="51.760006" lon="10.849792"><ele>451.7</ele></trkpt>
            <trkpt lat="51.760065" lon="10.849737"><ele>451.7</ele></trkpt>
            <trkpt lat="51.76013" lon="10.849718"><ele>451.8</ele></trkpt>
            <trkpt lat="51.76045" lon="10.849722"><ele>451.8</ele></trkpt>
            <trkpt lat="51.760597" lon="10.849677"><ele>451.9</ele></trkpt>
            <trkpt lat="51.760691" lon="10.849673"><ele>451.9</ele></trkpt>
            <trkpt lat="51.761072" lon="10.849548"><ele>454.5</ele></trkpt>
            <trkpt lat="51.761187" lon="10.849545"><ele>454.5</ele></trkpt>
            <trkpt lat="51.761275" lon="10.849462"><ele>466</ele></trkpt>
            <trkpt lat="51.761498" lon="10.849127"><ele>464.2</ele></trkpt>
            <trkpt lat="51.76158" lon="10.848953"><ele>464.2</ele></trkpt>
            <trkpt lat="51.761667" lon="10.848585"><ele>464.3</ele></trkpt>
            <trkpt lat="51.761657" lon="10.848494"><ele>464</ele></trkpt>
            <trkpt lat="51.761552" lon="10.848246"><ele>464.6</ele></trkpt>
            <trkpt lat="51.761338" lon="10.847997"><ele>464.3</ele></trkpt>
            <trkpt lat="51.761064" lon="10.847836"><ele>463.5</ele></trkpt>
            <trkpt lat="51.760461" lon="10.847339"><ele>461.7</ele></trkpt>
            <trkpt lat="51.759491" lon="10.846615"><ele>456</ele></trkpt>
            <trkpt lat="51.759368" lon="10.846445"><ele>447.5</ele></trkpt>
            <trkpt lat="51.759028" lon="10.846262"><ele>446.1</ele></trkpt>
            <trkpt lat="51.758747" lon="10.846151"><ele>445.9</ele></trkpt>
            <trkpt lat="51.758674" lon="10.84615"><ele>445.8</ele></trkpt>
            <trkpt lat="51.758223" lon="10.845928"><ele>432</ele></trkpt>
            <trkpt lat="51.757649" lon="10.845286"><ele>444</ele></trkpt>
            <trkpt lat="51.757547" lon="10.845221"><ele>435.4</ele></trkpt>
            <trkpt lat="51.757421" lon="10.845188"><ele>433.4</ele></trkpt>
            <trkpt lat="51.75723" lon="10.845174"><ele>433</ele></trkpt>
            <trkpt lat="51.757141" lon="10.845199"><ele>432.5</ele></trkpt>
            <trkpt lat="51.756645" lon="10.845166"><ele>431.9</ele></trkpt>
            <trkpt lat="51.756435" lon="10.844974"><ele>433.3</ele></trkpt>
            <trkpt lat="51.75622" lon="10.844814"><ele>428</ele></trkpt>
            <trkpt lat="51.755917" lon="10.844537"><ele>418.9</ele></trkpt>
            <trkpt lat="51.755818" lon="10.84451"><ele>399</ele></trkpt>
            <trkpt lat="51.755622" lon="10.844372"><ele>401.2</ele></trkpt>
            <trkpt lat="51.755531" lon="10.844162"><ele>401.5</ele></trkpt>
            <trkpt lat="51.755439" lon="10.84384"><ele>401.3</ele></trkpt>
            <trkpt lat="51.755379" lon="10.843804"><ele>401.2</ele></trkpt>
            <trkpt lat="51.755327" lon="10.843672"><ele>402</ele></trkpt>
            <trkpt lat="51.755282" lon="10.843701"><ele>399.5</ele></trkpt>
            <trkpt lat="51.755271" lon="10.843806"><ele>399.7</ele></trkpt>
            <trkpt lat="51.755255" lon="10.844236"><ele>399.6</ele></trkpt>
            <trkpt lat="51.755148" lon="10.845522"><ele>395</ele></trkpt>
            <trkpt lat="51.755002" lon="10.845696"><ele>397</ele></trkpt>
            <trkpt lat="51.754984" lon="10.845746"><ele>401</ele></trkpt>
            <trkpt lat="51.75495" lon="10.845746"><ele>401</ele></trkpt>
            <trkpt lat="51.754921" lon="10.845775"><ele>401</ele></trkpt>
            <trkpt lat="51.754958" lon="10.845864"><ele>421</ele></trkpt>
            <trkpt lat="51.754892" lon="10.845926"><ele>421</ele></trkpt>
            <trkpt lat="51.754782" lon="10.846014"><ele>421</ele></trkpt>
            <trkpt lat="51.754735" lon="10.846059"><ele>421</ele></trkpt>
            <trkpt lat="51.754662" lon="10.84615"><ele>421</ele></trkpt>
            <trkpt lat="51.754646" lon="10.846208"><ele>421</ele></trkpt>
            <trkpt lat="51.754594" lon="10.846199"><ele>418.5</ele></trkpt>
            <trkpt lat="51.754477" lon="10.84611"><ele>417.8</ele></trkpt>
            <trkpt lat="51.75421" lon="10.845449"><ele>401</ele></trkpt>
            <trkpt lat="51.754123" lon="10.84519"><ele>443</ele></trkpt>
            <trkpt lat="51.753826" lon="10.844624"><ele>437.1</ele></trkpt>
            <trkpt lat="51.753862" lon="10.845064"><ele>437.3</ele></trkpt>
            <trkpt lat="51.753931" lon="10.845403"><ele>438.7</ele></trkpt>
            <trkpt lat="51.75384" lon="10.845304"><ele>439</ele></trkpt>
            <trkpt lat="51.753648" lon="10.84499"><ele>437.9</ele></trkpt>
            <trkpt lat="51.753459" lon="10.844503"><ele>437.7</ele></trkpt>
            <trkpt lat="51.753409" lon="10.844333"><ele>437.6</ele></trkpt>
            <trkpt lat="51.753208" lon="10.843333"><ele>434.9</ele></trkpt>
            <trkpt lat="51.753199" lon="10.843318"><ele>435.1</ele></trkpt>
            <trkpt lat="51.75316" lon="10.843444"><ele>435.5</ele></trkpt>
            <trkpt lat="51.75312" lon="10.843405"><ele>434</ele></trkpt>
            <trkpt lat="51.753108" lon="10.843606"><ele>434.9</ele></trkpt>
            <trkpt lat="51.753136" lon="10.843701"><ele>434.8</ele></trkpt>
            <trkpt lat="51.753083" lon="10.843988"><ele>434.6</ele></trkpt>
            <trkpt lat="51.753048" lon="10.844407"><ele>438</ele></trkpt>
            <trkpt lat="51.753099" lon="10.844576"><ele>438</ele></trkpt>
            <trkpt lat="51.753095" lon="10.844648"><ele>438</ele></trkpt>
            <trkpt lat="51.752981" lon="10.844931"><ele>440</ele></trkpt>
            <trkpt lat="51.752969" lon="10.845041"><ele>440.3</ele></trkpt>
            <trkpt lat="51.752974" lon="10.845151"><ele>440.6</ele></trkpt>
            <trkpt lat="51.753041" lon="10.845455"><ele>441.1</ele></trkpt>
            <trkpt lat="51.753065" lon="10.84564"><ele>443</ele></trkpt>
            <trkpt lat="51.753086" lon="10.845776"><ele>446.1</ele></trkpt>
            <trkpt lat="51.75312" lon="10.845873"><ele>446.1</ele></trkpt>
            <trkpt lat="51.753219" lon="10.846051"><ele>446.1</ele></trkpt>
            <trkpt lat="51.753323" lon="10.846194"><ele>446.1</ele></trkpt>
            <trkpt lat="51.753436" lon="10.846273"><ele>446.6</ele></trkpt>
            <trkpt lat="51.753549" lon="10.846296"><ele>447</ele></trkpt>
            <trkpt lat="51.753654" lon="10.846273"><ele>451</ele></trkpt>
            <trkpt lat="51.753694" lon="10.846207"><ele>451</ele></trkpt>
            <trkpt lat="51.753654" lon="10.846273"><ele>451</ele></trkpt>
            <trkpt lat="51.753549" lon="10.846296"><ele>447</ele></trkpt>
            <trkpt lat="51.753436" lon="10.846273"><ele>446.6</ele></trkpt>
            <trkpt lat="51.753323" lon="10.846194"><ele>446.1</ele></trkpt>
            <trkpt lat="51.753219" lon="10.846051"><ele>446.1</ele></trkpt>
            <trkpt lat="51.75312" lon="10.845873"><ele>446.1</ele></trkpt>
            <trkpt lat="51.753086" lon="10.845776"><ele>446.1</ele></trkpt>
            <trkpt lat="51.753065" lon="10.84564"><ele>443</ele></trkpt>
            <trkpt lat="51.753041" lon="10.845455"><ele>441.1</ele></trkpt>
            <trkpt lat="51.752974" lon="10.845151"><ele>440.6</ele></trkpt>
            <trkpt lat="51.752969" lon="10.845041"><ele>440.3</ele></trkpt>
            <trkpt lat="51.752981" lon="10.844931"><ele>440</ele></trkpt>
            <trkpt lat="51.753095" lon="10.844648"><ele>438</ele></trkpt>
            <trkpt lat="51.753099" lon="10.844576"><ele>438</ele></trkpt>
            <trkpt lat="51.753048" lon="10.844407"><ele>438</ele></trkpt>
            <trkpt lat="51.75287" lon="10.844484"><ele>438</ele></trkpt>
            <trkpt lat="51.752736" lon="10.844572"><ele>438</ele></trkpt>
            <trkpt lat="51.752612" lon="10.845143"><ele>443</ele></trkpt>
            <trkpt lat="51.752553" lon="10.845161"><ele>445.4</ele></trkpt>
            <trkpt lat="51.752478" lon="10.845094"><ele>445.8</ele></trkpt>
            <trkpt lat="51.752454" lon="10.845018"><ele>446.4</ele></trkpt>
            <trkpt lat="51.752465" lon="10.844807"><ele>446.5</ele></trkpt>
            <trkpt lat="51.752449" lon="10.844739"><ele>447</ele></trkpt>
            <trkpt lat="51.752414" lon="10.844686"><ele>447</ele></trkpt>
            <trkpt lat="51.752436" lon="10.844523"><ele>442.9</ele></trkpt>
            <trkpt lat="51.752497" lon="10.843072"><ele>442</ele></trkpt>
            <trkpt lat="51.752558" lon="10.842799"><ele>437</ele></trkpt>
            <trkpt lat="51.752606" lon="10.842671"><ele>438.5</ele></trkpt>
            <trkpt lat="51.752775" lon="10.8424"><ele>438.7</ele></trkpt>
            <trkpt lat="51.753108" lon="10.841948"><ele>438.6</ele></trkpt>
            <trkpt lat="51.753195" lon="10.841866"><ele>438.6</ele></trkpt>
            <trkpt lat="51.753315" lon="10.841823"><ele>439</ele></trkpt>
            <trkpt lat="51.753448" lon="10.841795"><ele>425.7</ele></trkpt>
            <trkpt lat="51.753573" lon="10.841848"><ele>419</ele></trkpt>
            <trkpt lat="51.753718" lon="10.841704"><ele>421.2</ele></trkpt>
            <trkpt lat="51.754296" lon="10.840943"><ele>421.3</ele></trkpt>
            <trkpt lat="51.75441" lon="10.840766"><ele>421.6</ele></trkpt>
            <trkpt lat="51.754895" lon="10.839872"><ele>423.3</ele></trkpt>
            <trkpt lat="51.755008" lon="10.839773"><ele>407</ele></trkpt>
            <trkpt lat="51.755088" lon="10.839631"><ele>411.2</ele></trkpt>
            <trkpt lat="51.755191" lon="10.839313"><ele>412.7</ele></trkpt>
            <trkpt lat="51.7553" lon="10.838793"><ele>413.6</ele></trkpt>
            <trkpt lat="51.755394" lon="10.838143"><ele>419</ele></trkpt>
            <trkpt lat="51.755445" lon="10.837541"><ele>414.3</ele></trkpt>
            <trkpt lat="51.755442" lon="10.837303"><ele>415.4</ele></trkpt>
            <trkpt lat="51.755404" lon="10.836841"><ele>417.3</ele></trkpt>
            <trkpt lat="51.755352" lon="10.836607"><ele>417.2</ele></trkpt>
            <trkpt lat="51.75501" lon="10.835649"><ele>418.1</ele></trkpt>
            <trkpt lat="51.754724" lon="10.835074"><ele>429</ele></trkpt>
            <trkpt lat="51.754542" lon="10.834758"><ele>412</ele></trkpt>
            <trkpt lat="51.754191" lon="10.834036"><ele>395</ele></trkpt>
            <trkpt lat="51.753798" lon="10.833198"><ele>406</ele></trkpt>
            <trkpt lat="51.753551" lon="10.832773"><ele>406</ele></trkpt>
            <trkpt lat="51.753086" lon="10.831993"><ele>399</ele></trkpt>
            <trkpt lat="51.752825" lon="10.831584"><ele>396</ele></trkpt>
            <trkpt lat="51.75248" lon="10.831012"><ele>401</ele></trkpt>
            <trkpt lat="51.752399" lon="10.830947"><ele>397.5</ele></trkpt>
            <trkpt lat="51.752209" lon="10.830849"><ele>396.9</ele></trkpt>
            <trkpt lat="51.751837" lon="10.830728"><ele>396.2</ele></trkpt>
            <trkpt lat="51.751585" lon="10.830597"><ele>394</ele></trkpt>
            <trkpt lat="51.751298" lon="10.830438"><ele>394</ele></trkpt>
            <trkpt lat="51.751148" lon="10.830445"><ele>394</ele></trkpt>
            <trkpt lat="51.751069" lon="10.830483"><ele>394</ele></trkpt>
            <trkpt lat="51.750952" lon="10.830615"><ele>394</ele></trkpt>
            <trkpt lat="51.750893" lon="10.830723"><ele>394</ele></trkpt>
            <trkpt lat="51.750707" lon="10.831168"><ele>396.5</ele></trkpt>
            <trkpt lat="51.750494" lon="10.831793"><ele>397</ele></trkpt>
            <trkpt lat="51.750504" lon="10.831837"><ele>399.3</ele></trkpt>
            <trkpt lat="51.750495" lon="10.831909"><ele>399</ele></trkpt>
            <trkpt lat="51.750334" lon="10.832533"><ele>400.1</ele></trkpt>
            <trkpt lat="51.750263" lon="10.832788"><ele>400.4</ele></trkpt>
            <trkpt lat="51.750147" lon="10.833084"><ele>400.9</ele></trkpt>
            <trkpt lat="51.749954" lon="10.833414"><ele>400.6</ele></trkpt>
            <trkpt lat="51.749725" lon="10.833728"><ele>402</ele></trkpt>
            <trkpt lat="51.749408" lon="10.83404"><ele>401.5</ele></trkpt>
            <trkpt lat="51.748752" lon="10.834353"><ele>402</ele></trkpt>
            <trkpt lat="51.748563" lon="10.834387"><ele>407</ele></trkpt>
            <trkpt lat="51.748367" lon="10.834351"><ele>409.2</ele></trkpt>
            <trkpt lat="51.747742" lon="10.834163"><ele>410.1</ele></trkpt>
            <trkpt lat="51.747333" lon="10.834151"><ele>410.3</ele></trkpt>
            <trkpt lat="51.747049" lon="10.834087"><ele>410.2</ele></trkpt>
            <trkpt lat="51.746868" lon="10.833994"><ele>410</ele></trkpt>
            <trkpt lat="51.746704" lon="10.833809"><ele>410.6</ele></trkpt>
            <trkpt lat="51.746547" lon="10.833526"><ele>413.3</ele></trkpt>
            <trkpt lat="51.746315" lon="10.832896"><ele>415.5</ele></trkpt>
            <trkpt lat="51.746012" lon="10.832229"><ele>419.2</ele></trkpt>
            <trkpt lat="51.745829" lon="10.831713"><ele>424</ele></trkpt>
            <trkpt lat="51.745725" lon="10.83014"><ele>432</ele></trkpt>
            <trkpt lat="51.745658" lon="10.829293"><ele>446.4</ele></trkpt>
            <trkpt lat="51.745672" lon="10.828082"><ele>448.5</ele></trkpt>
            <trkpt lat="51.745701" lon="10.827238"><ele>464</ele></trkpt>
            <trkpt lat="51.745805" lon="10.826071"><ele>445.9</ele></trkpt>
            <trkpt lat="51.745865" lon="10.825651"><ele>444</ele></trkpt>
            <trkpt lat="51.746165" lon="10.824078"><ele>427.5</ele></trkpt>
            <trkpt lat="51.746461" lon="10.823325"><ele>422.6</ele></trkpt>
            <trkpt lat="51.746742" lon="10.822876"><ele>420.2</ele></trkpt>
            <trkpt lat="51.746937" lon="10.822626"><ele>417.5</ele></trkpt>
            <trkpt lat="51.74703" lon="10.822565"><ele>411</ele></trkpt>
            <trkpt lat="51.747297" lon="10.821906"><ele>412.3</ele></trkpt>
            <trkpt lat="51.747417" lon="10.82168"><ele>412.2</ele></trkpt>
            <trkpt lat="51.747465" lon="10.821621"><ele>412</ele></trkpt>
            <trkpt lat="51.747608" lon="10.821431"><ele>416.2</ele></trkpt>
            <trkpt lat="51.748099" lon="10.820217"><ele>417</ele></trkpt>
            <trkpt lat="51.748214" lon="10.819874"><ele>416.3</ele></trkpt>
            <trkpt lat="51.748495" lon="10.818851"><ele>415.3</ele></trkpt>
            <trkpt lat="51.748564" lon="10.818412"><ele>414.8</ele></trkpt>
            <trkpt lat="51.748595" lon="10.818112"><ele>415.3</ele></trkpt>
            <trkpt lat="51.748606" lon="10.817874"><ele>415.3</ele></trkpt>
            <trkpt lat="51.748587" lon="10.817635"><ele>415.5</ele></trkpt>
            <trkpt lat="51.748551" lon="10.817435"><ele>415.5</ele></trkpt>
            <trkpt lat="51.748251" lon="10.816216"><ele>417.3</ele></trkpt>
            <trkpt lat="51.747936" lon="10.815307"><ele>417.1</ele></trkpt>
            <trkpt lat="51.747833" lon="10.81513"><ele>418</ele></trkpt>
            <trkpt lat="51.747951" lon="10.814935"><ele>409</ele></trkpt>
            <trkpt lat="51.748091" lon="10.814776"><ele>409</ele></trkpt>
            <trkpt lat="51.748229" lon="10.81463"><ele>405</ele></trkpt>
            <trkpt lat="51.748052" lon="10.814048"><ele>404</ele></trkpt>
            <trkpt lat="51.748007" lon="10.813783"><ele>401</ele></trkpt>
            <trkpt lat="51.748163" lon="10.813688"><ele>408.1</ele></trkpt>
            <trkpt lat="51.748171" lon="10.813616"><ele>407.8</ele></trkpt>
            <trkpt lat="51.748151" lon="10.813512"><ele>407.5</ele></trkpt>
            <trkpt lat="51.747899" lon="10.813055"><ele>406.4</ele></trkpt>
            <trkpt lat="51.747882" lon="10.81298"><ele>406.3</ele></trkpt>
            <trkpt lat="51.74789" lon="10.812923"><ele>406.3</ele></trkpt>
            <trkpt lat="51.747911" lon="10.812891"><ele>406.2</ele></trkpt>
            <trkpt lat="51.747947" lon="10.812885"><ele>406.1</ele></trkpt>
            <trkpt lat="51.748081" lon="10.813026"><ele>406.8</ele></trkpt>
            <trkpt lat="51.748213" lon="10.813092"><ele>407.8</ele></trkpt>
            <trkpt lat="51.748333" lon="10.813092"><ele>407.7</ele></trkpt>
            <trkpt lat="51.748844" lon="10.81321"><ele>410.9</ele></trkpt>
            <trkpt lat="51.748982" lon="10.813209"><ele>411.3</ele></trkpt>
            <trkpt lat="51.749052" lon="10.813169"><ele>413.2</ele></trkpt>
            <trkpt lat="51.74912" lon="10.81308"><ele>413.5</ele></trkpt>
            <trkpt lat="51.749319" lon="10.812699"><ele>425.6</ele></trkpt>
            <trkpt lat="51.749896" lon="10.811535"><ele>456.6</ele></trkpt>
            <trkpt lat="51.750159" lon="10.810875"><ele>468.9</ele></trkpt>
            <trkpt lat="51.75063" lon="10.809789"><ele>478.6</ele></trkpt>
            <trkpt lat="51.750952" lon="10.809414"><ele>484.7</ele></trkpt>
            <trkpt lat="51.751129" lon="10.809178"><ele>487.4</ele></trkpt>
            <trkpt lat="51.751261" lon="10.809051"><ele>489</ele></trkpt>
            <trkpt lat="51.752257" lon="10.808468"><ele>496</ele></trkpt>
            <trkpt lat="51.752674" lon="10.808255"><ele>497.5</ele></trkpt>
            <trkpt lat="51.752717" lon="10.808165"><ele>499</ele></trkpt>
            <trkpt lat="51.752799" lon="10.80818"><ele>499.3</ele></trkpt>
            <trkpt lat="51.752877" lon="10.808154"><ele>499.2</ele></trkpt>
            <trkpt lat="51.753038" lon="10.808025"><ele>499.2</ele></trkpt>
            <trkpt lat="51.753406" lon="10.807841"><ele>500</ele></trkpt>
            <trkpt lat="51.753626" lon="10.807681"><ele>499.4</ele></trkpt>
            <trkpt lat="51.754145" lon="10.807159"><ele>499.6</ele></trkpt>
            <trkpt lat="51.754217" lon="10.807052"><ele>499.3</ele></trkpt>
            <trkpt lat="51.754292" lon="10.806881"><ele>499</ele></trkpt>
            <trkpt lat="51.754398" lon="10.806558"><ele>499</ele></trkpt>
            <trkpt lat="51.754524" lon="10.806255"><ele>498.9</ele></trkpt>
            <trkpt lat="51.754624" lon="10.806104"><ele>498.8</ele></trkpt>
            <trkpt lat="51.754813" lon="10.80599"><ele>498.4</ele></trkpt>
            <trkpt lat="51.756685" lon="10.805698"><ele>493.7</ele></trkpt>
            <trkpt lat="51.756865" lon="10.805601"><ele>493.5</ele></trkpt>
            <trkpt lat="51.757462" lon="10.805083"><ele>494</ele></trkpt>
            <trkpt lat="51.757904" lon="10.80506"><ele>494.8</ele></trkpt>
            <trkpt lat="51.758256" lon="10.804881"><ele>495.6</ele></trkpt>
            <trkpt lat="51.758639" lon="10.804641"><ele>496.4</ele></trkpt>
            <trkpt lat="51.758875" lon="10.804462"><ele>497.4</ele></trkpt>
            <trkpt lat="51.759273" lon="10.80403"><ele>497.9</ele></trkpt>
            <trkpt lat="51.759687" lon="10.803635"><ele>499</ele></trkpt>
            <trkpt lat="51.759737" lon="10.803118"><ele>489.9</ele></trkpt>
            <trkpt lat="51.759781" lon="10.80287"><ele>489.6</ele></trkpt>
            <trkpt lat="51.75992" lon="10.802282"><ele>489.2</ele></trkpt>
            <trkpt lat="51.759942" lon="10.802031"><ele>485</ele></trkpt>
            <trkpt lat="51.760228" lon="10.802311"><ele>485.1</ele></trkpt>
            <trkpt lat="51.76044" lon="10.802441"><ele>484.9</ele></trkpt>
            <trkpt lat="51.760636" lon="10.80251"><ele>485.5</ele></trkpt>
            <trkpt lat="51.761165" lon="10.802594"><ele>486</ele></trkpt>
            <trkpt lat="51.76128" lon="10.802672"><ele>488</ele></trkpt>
            <trkpt lat="51.761362" lon="10.802656"><ele>486.8</ele></trkpt>
            <trkpt lat="51.76165" lon="10.802695"><ele>486.3</ele></trkpt>
            <trkpt lat="51.762499" lon="10.802906"><ele>485.7</ele></trkpt>
            <trkpt lat="51.762732" lon="10.802911"><ele>482</ele></trkpt>
            <trkpt lat="51.763292" lon="10.803033"><ele>482</ele></trkpt>
            <trkpt lat="51.763647" lon="10.803088"><ele>482</ele></trkpt>
            <trkpt lat="51.763821" lon="10.803124"><ele>482</ele></trkpt>
            <trkpt lat="51.765354" lon="10.803361"><ele>475</ele></trkpt>
            <trkpt lat="51.766437" lon="10.803339"><ele>473</ele></trkpt>
            <trkpt lat="51.766869" lon="10.803276"><ele>476</ele></trkpt>
            <trkpt lat="51.767113" lon="10.803177"><ele>476</ele></trkpt>
            <trkpt lat="51.767159" lon="10.803157"><ele>476</ele></trkpt>
            <trkpt lat="51.767262" lon="10.803114"><ele>476</ele></trkpt>
            <trkpt lat="51.768666" lon="10.802534"><ele>470</ele></trkpt>
            <trkpt lat="51.768735" lon="10.803038"><ele>470</ele></trkpt>
            <trkpt lat="51.768761" lon="10.803197"><ele>468.3</ele></trkpt>
            <trkpt lat="51.769168" lon="10.803598"><ele>465</ele></trkpt>
            <trkpt lat="51.769293" lon="10.803543"><ele>465</ele></trkpt>
            <trkpt lat="51.769506" lon="10.803449"><ele>465</ele></trkpt>
            <trkpt lat="51.769562" lon="10.803424"><ele>465</ele></trkpt>
            <trkpt lat="51.769645" lon="10.803377"><ele>465</ele></trkpt>
            <trkpt lat="51.769685" lon="10.803356"><ele>465</ele></trkpt>
            <trkpt lat="51.769723" lon="10.803338"><ele>465</ele></trkpt>
            <trkpt lat="51.769967" lon="10.803238"><ele>466</ele></trkpt>
            <trkpt lat="51.770184" lon="10.803147"><ele>465</ele></trkpt>
            <trkpt lat="51.770502" lon="10.803011"><ele>465</ele></trkpt>
            <trkpt lat="51.770565" lon="10.803417"><ele>463</ele></trkpt>
            <trkpt lat="51.770609" lon="10.803716"><ele>463</ele></trkpt>
            <trkpt lat="51.770686" lon="10.804251"><ele>462</ele></trkpt>
            <trkpt lat="51.770747" lon="10.80466"><ele>462</ele></trkpt>
            <trkpt lat="51.770789" lon="10.804929"><ele>461.7</ele></trkpt>
            <trkpt lat="51.770785" lon="10.805027"><ele>461</ele></trkpt>
            <trkpt lat="51.770779" lon="10.805074"><ele>461</ele></trkpt>
            <trkpt lat="51.77056" lon="10.805923"><ele>463</ele></trkpt>
            <trkpt lat="51.770427" lon="10.806506"><ele>463</ele></trkpt>
            <trkpt lat="51.770423" lon="10.807089"><ele>464.8</ele></trkpt>
            <trkpt lat="51.770488" lon="10.807636"><ele>466</ele></trkpt>
            <trkpt lat="51.771477" lon="10.809868"><ele>477</ele></trkpt>
            <trkpt lat="51.771637" lon="10.81023"><ele>479</ele></trkpt>
            <trkpt lat="51.771733" lon="10.810565"><ele>479.3</ele></trkpt>
            <trkpt lat="51.771786" lon="10.81085"><ele>481</ele></trkpt>
            <trkpt lat="51.772392" lon="10.811595"><ele>481</ele></trkpt>
            <trkpt lat="51.772499" lon="10.812013"><ele>483</ele></trkpt>
            <trkpt lat="51.772678" lon="10.812844"><ele>486</ele></trkpt>
            <trkpt lat="51.772982" lon="10.814106"><ele>485.4</ele></trkpt>
            <trkpt lat="51.773256" lon="10.814991"><ele>484</ele></trkpt>
            <trkpt lat="51.773276" lon="10.815069"><ele>482</ele></trkpt>
            <trkpt lat="51.773645" lon="10.815943"><ele>487</ele></trkpt>
            <trkpt lat="51.773735" lon="10.816194"><ele>487.5</ele></trkpt>
            <trkpt lat="51.773772" lon="10.816342"><ele>487.4</ele></trkpt>
            <trkpt lat="51.773831" lon="10.816754"><ele>488.2</ele></trkpt>
            <trkpt lat="51.773843" lon="10.816838"><ele>489</ele></trkpt>
            <trkpt lat="51.774323" lon="10.81622"><ele>489.1</ele></trkpt>
            <trkpt lat="51.774526" lon="10.815988"><ele>488.9</ele></trkpt>
            <trkpt lat="51.775202" lon="10.81533"><ele>491</ele></trkpt>
            <trkpt lat="51.776099" lon="10.814391"><ele>499.1</ele></trkpt>
            <trkpt lat="51.77677" lon="10.81372"><ele>503.1</ele></trkpt>
            <trkpt lat="51.778209" lon="10.812064"><ele>510</ele></trkpt>
            <trkpt lat="51.778288" lon="10.812141"><ele>510.7</ele></trkpt>
            <trkpt lat="51.77945" lon="10.812972"><ele>512</ele></trkpt>
            <trkpt lat="51.781476" lon="10.814501"><ele>515</ele></trkpt>
            <trkpt lat="51.782126" lon="10.815036"><ele>519</ele></trkpt>
            <trkpt lat="51.78225" lon="10.815161"><ele>519</ele></trkpt>
            <trkpt lat="51.782869" lon="10.81533"><ele>523.3</ele></trkpt>
            <trkpt lat="51.783913" lon="10.815575"><ele>527</ele></trkpt>
            <trkpt lat="51.783999" lon="10.815664"><ele>527</ele></trkpt>
            <trkpt lat="51.78408" lon="10.815705"><ele>527</ele></trkpt>
            <trkpt lat="51.785152" lon="10.815933"><ele>533</ele></trkpt>
            <trkpt lat="51.785157" lon="10.815832"><ele>535</ele></trkpt>
            <trkpt lat="51.78575" lon="10.816116"><ele>532.7</ele></trkpt>
            <trkpt lat="51.78698" lon="10.816762"><ele>530.2</ele></trkpt>
            <trkpt lat="51.787471" lon="10.81707"><ele>529</ele></trkpt>
            <trkpt lat="51.788436" lon="10.817674"><ele>523</ele></trkpt>
            <trkpt lat="51.788499" lon="10.817711"><ele>523</ele></trkpt>
            <trkpt lat="51.788493" lon="10.817762"><ele>523</ele></trkpt>
            <trkpt lat="51.788522" lon="10.817911"><ele>523</ele></trkpt>
            <trkpt lat="51.788598" lon="10.81803"><ele>521</ele></trkpt>
            <trkpt lat="51.788842" lon="10.81813"><ele>520.6</ele></trkpt>
            <trkpt lat="51.788904" lon="10.818166"><ele>520.5</ele></trkpt>
            <trkpt lat="51.788954" lon="10.818229"><ele>520.1</ele></trkpt>
            <trkpt lat="51.788989" lon="10.818346"><ele>519.7</ele></trkpt>
            <trkpt lat="51.789071" lon="10.818954"><ele>519.9</ele></trkpt>
            <trkpt lat="51.789195" lon="10.819483"><ele>513</ele></trkpt>
            <trkpt lat="51.789424" lon="10.819377"><ele>513</ele></trkpt>
            <trkpt lat="51.78962" lon="10.819379"><ele>513</ele></trkpt>
            <trkpt lat="51.789737" lon="10.819336"><ele>513</ele></trkpt>
            <trkpt lat="51.789838" lon="10.819278"><ele>511.3</ele></trkpt>
            <trkpt lat="51.790089" lon="10.819025"><ele>506</ele></trkpt>
            <trkpt lat="51.790232" lon="10.818871"><ele>503.6</ele></trkpt>
            <trkpt lat="51.790372" lon="10.818656"><ele>503.1</ele></trkpt>
            <trkpt lat="51.790479" lon="10.818546"><ele>502.5</ele></trkpt>
            <trkpt lat="51.791051" lon="10.818286"><ele>494</ele></trkpt>
            <trkpt lat="51.791062" lon="10.818414"><ele>493</ele></trkpt>
            <trkpt lat="51.791068" lon="10.818474"><ele>492</ele></trkpt>
            <trkpt lat="51.79108" lon="10.818538"><ele>492</ele></trkpt>
            <trkpt lat="51.791118" lon="10.818578"><ele>492</ele></trkpt>
            <trkpt lat="51.791471" lon="10.818925"><ele>490.1</ele></trkpt>
            <trkpt lat="51.791609" lon="10.818931"><ele>490.4</ele></trkpt>
            <trkpt lat="51.791741" lon="10.818862"><ele>489.7</ele></trkpt>
            <trkpt lat="51.791883" lon="10.81885"><ele>488.5</ele></trkpt>
            <trkpt lat="51.791926" lon="10.818867"><ele>488</ele></trkpt>
            <trkpt lat="51.791959" lon="10.818915"><ele>480</ele></trkpt>
            <trkpt lat="51.792005" lon="10.818969"><ele>480</ele></trkpt>
            <trkpt lat="51.791946" lon="10.819286"><ele>483.8</ele></trkpt>
            <trkpt lat="51.791884" lon="10.820542"><ele>485</ele></trkpt>
            <trkpt lat="51.791862" lon="10.820762"><ele>485.2</ele></trkpt>
            <trkpt lat="51.791786" lon="10.821171"><ele>486.4</ele></trkpt>
            <trkpt lat="51.791658" lon="10.82156"><ele>496</ele></trkpt>
            <trkpt lat="51.791384" lon="10.822176"><ele>500.6</ele></trkpt>
            <trkpt lat="51.791243" lon="10.8226"><ele>502.4</ele></trkpt>
            <trkpt lat="51.791114" lon="10.82308"><ele>502.2</ele></trkpt>
            <trkpt lat="51.791055" lon="10.823344"><ele>502.4</ele></trkpt>
            <trkpt lat="51.790998" lon="10.824022"><ele>503.2</ele></trkpt>
            <trkpt lat="51.790952" lon="10.824408"><ele>505.7</ele></trkpt>
            <trkpt lat="51.790957" lon="10.824459"><ele>510</ele></trkpt>
            <trkpt lat="51.790525" lon="10.824846"><ele>513</ele></trkpt>
            <trkpt lat="51.790333" lon="10.824975"><ele>514</ele></trkpt>
            <trkpt lat="51.790082" lon="10.825234"><ele>515</ele></trkpt>
            <trkpt lat="51.789945" lon="10.825424"><ele>514</ele></trkpt>
            <trkpt lat="51.789643" lon="10.826043"><ele>514</ele></trkpt>
            <trkpt lat="51.789548" lon="10.82624"><ele>514</ele></trkpt>
            <trkpt lat="51.789306" lon="10.826775"><ele>512.8</ele></trkpt>
            <trkpt lat="51.788947" lon="10.827373"><ele>511</ele></trkpt>
            <trkpt lat="51.788722" lon="10.827765"><ele>511</ele></trkpt>
            <trkpt lat="51.788543" lon="10.828099"><ele>510.8</ele></trkpt>
            <trkpt lat="51.788401" lon="10.828416"><ele>510.1</ele></trkpt>
            <trkpt lat="51.788159" lon="10.828693"><ele>509.7</ele></trkpt>
            <trkpt lat="51.787678" lon="10.829404"><ele>508.9</ele></trkpt>
            <trkpt lat="51.787396" lon="10.82974"><ele>508.6</ele></trkpt>
            <trkpt lat="51.78724" lon="10.830091"><ele>508.5</ele></trkpt>
            <trkpt lat="51.787149" lon="10.830233"><ele>508.5</ele></trkpt>
            <trkpt lat="51.787098" lon="10.830349"><ele>507</ele></trkpt>
            <trkpt lat="51.786987" lon="10.830568"><ele>507</ele></trkpt>
            <trkpt lat="51.786797" lon="10.830822"><ele>507</ele></trkpt>
            <trkpt lat="51.786579" lon="10.830843"><ele>505.2</ele></trkpt>
            <trkpt lat="51.786395" lon="10.830916"><ele>505.2</ele></trkpt>
            <trkpt lat="51.785746" lon="10.831349"><ele>504.9</ele></trkpt>
            <trkpt lat="51.785591" lon="10.831469"><ele>505</ele></trkpt>
            <trkpt lat="51.785495" lon="10.831589"><ele>504</ele></trkpt>
            <trkpt lat="51.785478" lon="10.831741"><ele>507.7</ele></trkpt>
            <trkpt lat="51.785494" lon="10.831872"><ele>507.7</ele></trkpt>
            <trkpt lat="51.785521" lon="10.832027"><ele>507.8</ele></trkpt>
            <trkpt lat="51.785644" lon="10.832423"><ele>507.9</ele></trkpt>
            <trkpt lat="51.785673" lon="10.832598"><ele>507.9</ele></trkpt>
            <trkpt lat="51.785663" lon="10.832769"><ele>507.6</ele></trkpt>
            <trkpt lat="51.785595" lon="10.833055"><ele>509</ele></trkpt>
            <trkpt lat="51.784034" lon="10.836989"><ele>518.9</ele></trkpt>
            <trkpt lat="51.783866" lon="10.837318"><ele>519</ele></trkpt>
            <trkpt lat="51.783533" lon="10.837878"><ele>518.9</ele></trkpt>
            <trkpt lat="51.783431" lon="10.838082"><ele>519</ele></trkpt>
            <trkpt lat="51.783335" lon="10.838337"><ele>516.5</ele></trkpt>
            <trkpt lat="51.782836" lon="10.840123"><ele>515</ele></trkpt>
            <trkpt lat="51.782703" lon="10.840851"><ele>514.7</ele></trkpt>
            <trkpt lat="51.782364" lon="10.843069"><ele>514</ele></trkpt>
            <trkpt lat="51.782327" lon="10.843435"><ele>514</ele></trkpt>
            <trkpt lat="51.782333" lon="10.843604"><ele>514</ele></trkpt>
            <trkpt lat="51.782632" lon="10.845785"><ele>512.5</ele></trkpt>
            <trkpt lat="51.782667" lon="10.846214"><ele>511.7</ele></trkpt>
            <trkpt lat="51.782743" lon="10.849393"><ele>503</ele></trkpt>
            <trkpt lat="51.782819" lon="10.851593"><ele>491.1</ele></trkpt>
            <trkpt lat="51.782872" lon="10.853671"><ele>491.1</ele></trkpt>
            <trkpt lat="51.782984" lon="10.856239"><ele>473.3</ele></trkpt>
            <trkpt lat="51.783017" lon="10.857684"><ele>472</ele></trkpt>
            <trkpt lat="51.783032" lon="10.857785"><ele>472</ele></trkpt>
            <trkpt lat="51.783073" lon="10.85791"><ele>472</ele></trkpt>
            <trkpt lat="51.782998" lon="10.857978"><ele>471.4</ele></trkpt>
            <trkpt lat="51.782704" lon="10.85834"><ele>470</ele></trkpt>
            <trkpt lat="51.782436" lon="10.858789"><ele>473.2</ele></trkpt>
            <trkpt lat="51.782011" lon="10.859599"><ele>471.1</ele></trkpt>
            <trkpt lat="51.781906" lon="10.859988"><ele>470.1</ele></trkpt>
            <trkpt lat="51.781855" lon="10.86043"><ele>469.7</ele></trkpt>
            <trkpt lat="51.78174" lon="10.861182"><ele>469.3</ele></trkpt>
            <trkpt lat="51.781715" lon="10.861515"><ele>469.1</ele></trkpt>
            <trkpt lat="51.781705" lon="10.861931"><ele>467</ele></trkpt>
            <trkpt lat="51.781682" lon="10.862048"><ele>467.5</ele></trkpt>
            <trkpt lat="51.78164" lon="10.862163"><ele>468</ele></trkpt>
            <trkpt lat="51.78171" lon="10.862332"><ele>467</ele></trkpt>
            <trkpt lat="51.781812" lon="10.862542"><ele>468</ele></trkpt>
            <trkpt lat="51.781887" lon="10.862615"><ele>469</ele></trkpt>
            <trkpt lat="51.782178" lon="10.86279"><ele>469</ele></trkpt>
            <trkpt lat="51.782233" lon="10.862865"><ele>469</ele></trkpt>
            <trkpt lat="51.782372" lon="10.863296"><ele>469</ele></trkpt>
            <trkpt lat="51.783167" lon="10.864928"><ele>473</ele></trkpt>
            <trkpt lat="51.783841" lon="10.866214"><ele>468.3</ele></trkpt>
            <trkpt lat="51.784197" lon="10.86679"><ele>464.8</ele></trkpt>
            <trkpt lat="51.784318" lon="10.86707"><ele>464.3</ele></trkpt>
            <trkpt lat="51.784768" lon="10.86826"><ele>460.1</ele></trkpt>
            <trkpt lat="51.785333" lon="10.869608"><ele>452.8</ele></trkpt>
            <trkpt lat="51.785443" lon="10.869934"><ele>451.8</ele></trkpt>
            <trkpt lat="51.785569" lon="10.870541"><ele>448.1</ele></trkpt>
            <trkpt lat="51.78566" lon="10.870797"><ele>447.4</ele></trkpt>
            <trkpt lat="51.785718" lon="10.870942"><ele>446.9</ele></trkpt>
            <trkpt lat="51.785938" lon="10.871365"><ele>446</ele></trkpt>
            <trkpt lat="51.786122" lon="10.871843"><ele>443.3</ele></trkpt>
            <trkpt lat="51.786241" lon="10.872091"><ele>442</ele></trkpt>
            <trkpt lat="51.786602" lon="10.872524"><ele>441.1</ele></trkpt>
            <trkpt lat="51.786892" lon="10.872928"><ele>438.8</ele></trkpt>
            <trkpt lat="51.787286" lon="10.873355"><ele>427</ele></trkpt>
            <trkpt lat="51.787307" lon="10.873293"><ele>432</ele></trkpt>
        </trkseg>
    </trk>
</gpx>
