<?xml version="1.0" encoding="UTF-8"?>
<gpx version="1.1" creator="HWN Route Compare (OpenRouteService)" xmlns="http://www.topografix.com/GPX/1/1">
    <metadata>
        <name>OpenRouteService – Tour D4</name>
    </metadata>
    <trk>
        <name>OpenRouteService – Tour D4</name>
        <trkseg>
            <trkpt lat="51.721957" lon="10.896179"><ele>481</ele></trkpt>
            <trkpt lat="51.721952" lon="10.896127"><ele>481</ele></trkpt>
            <trkpt lat="51.721839" lon="10.896016"><ele>481</ele></trkpt>
            <trkpt lat="51.721808" lon="10.895505"><ele>481</ele></trkpt>
            <trkpt lat="51.72179" lon="10.895157"><ele>481</ele></trkpt>
            <trkpt lat="51.72177" lon="10.894833"><ele>481.8</ele></trkpt>
            <trkpt lat="51.721743" lon="10.89469"><ele>481.7</ele></trkpt>
            <trkpt lat="51.721709" lon="10.894606"><ele>482</ele></trkpt>
            <trkpt lat="51.721679" lon="10.894517"><ele>476.2</ele></trkpt>
            <trkpt lat="51.721688" lon="10.894398"><ele>476.1</ele></trkpt>
            <trkpt lat="51.721912" lon="10.893464"><ele>474.2</ele></trkpt>
            <trkpt lat="51.721949" lon="10.893145"><ele>473.8</ele></trkpt>
            <trkpt lat="51.72195" lon="10.89298"><ele>473.4</ele></trkpt>
            <trkpt lat="51.722061" lon="10.892309"><ele>470</ele></trkpt>
            <trkpt lat="51.722074" lon="10.892056"><ele>467.5</ele></trkpt>
            <trkpt lat="51.722131" lon="10.891554"><ele>449</ele></trkpt>
            <trkpt lat="51.722418" lon="10.89156"><ele>448.6</ele></trkpt>
            <trkpt lat="51.722649" lon="10.891486"><ele>448.5</ele></trkpt>
            <trkpt lat="51.722792" lon="10.891375"><ele>448.4</ele></trkpt>
            <trkpt lat="51.723325" lon="10.890808"><ele>448.1</ele></trkpt>
            <trkpt lat="51.723548" lon="10.890601"><ele>448.2</ele></trkpt>
            <trkpt lat="51.72365" lon="10.890539"><ele>448.4</ele></trkpt>
            <trkpt lat="51.724097" lon="10.890402"><ele>451</ele></trkpt>
            <trkpt lat="51.724701" lon="10.890262"><ele>468.5</ele></trkpt>
            <trkpt lat="51.725172" lon="10.890115"><ele>469.4</ele></trkpt>
            <trkpt lat="51.725356" lon="10.890129"><ele>470.8</ele></trkpt>
            <trkpt lat="51.725458" lon="10.890172"><ele>473.9</ele></trkpt>
            <trkpt lat="51.725694" lon="10.890372"><ele>476</ele></trkpt>
            <trkpt lat="51.726097" lon="10.890586"><ele>484</ele></trkpt>
            <trkpt lat="51.726355" lon="10.889833"><ele>484.4</ele></trkpt>
            <trkpt lat="51.726493" lon="10.889547"><ele>484</ele></trkpt>
            <trkpt lat="51.727474" lon="10.888102"><ele>484.3</ele></trkpt>
            <trkpt lat="51.727727" lon="10.887636"><ele>489</ele></trkpt>
            <trkpt lat="51.72835" lon="10.886636"><ele>491.1</ele></trkpt>
            <trkpt lat="51.728505" lon="10.886444"><ele>493</ele></trkpt>
            <trkpt lat="51.728637" lon="10.885886"><ele>493.7</ele></trkpt>
            <trkpt lat="51.728811" lon="10.884516"><ele>496</ele></trkpt>
            <trkpt lat="51.728822" lon="10.884405"><ele>493.4</ele></trkpt>
            <trkpt lat="51.728813" lon="10.884264"><ele>493.1</ele></trkpt>
            <trkpt lat="51.728632" lon="10.883676"><ele>492.9</ele></trkpt>
            <trkpt lat="51.728603" lon="10.883461"><ele>492.3</ele></trkpt>
            <trkpt lat="51.728603" lon="10.883273"><ele>491.8</ele></trkpt>
            <trkpt lat="51.728623" lon="10.883106"><ele>492</ele></trkpt>
            <trkpt lat="51.728681" lon="10.88282"><ele>490</ele></trkpt>
            <trkpt lat="51.72877" lon="10.882667"><ele>476.5</ele></trkpt>
            <trkpt lat="51.72888" lon="10.882342"><ele>474.7</ele></trkpt>
            <trkpt lat="51.728977" lon="10.882138"><ele>474.1</ele></trkpt>
            <trkpt lat="51.72902" lon="10.881991"><ele>473.3</ele></trkpt>
            <trkpt lat="51.729041" lon="10.881711"><ele>472.5</ele></trkpt>
            <trkpt lat="51.729151" lon="10.881191"><ele>473.3</ele></trkpt>
            <trkpt lat="51.729161" lon="10.881086"><ele>463</ele></trkpt>
            <trkpt lat="51.729154" lon="10.880908"><ele>461.3</ele></trkpt>
            <trkpt lat="51.729161" lon="10.881086"><ele>463</ele></trkpt>
            <trkpt lat="51.729151" lon="10.881191"><ele>473.3</ele></trkpt>
            <trkpt lat="51.729041" lon="10.881711"><ele>472.5</ele></trkpt>
            <trkpt lat="51.72902" lon="10.881991"><ele>473.3</ele></trkpt>
            <trkpt lat="51.728977" lon="10.882138"><ele>474.1</ele></trkpt>
            <trkpt lat="51.72888" lon="10.882342"><ele>474.7</ele></trkpt>
            <trkpt lat="51.72877" lon="10.882667"><ele>476.5</ele></trkpt>
            <trkpt lat="51.728681" lon="10.88282"><ele>490</ele></trkpt>
            <trkpt lat="51.728623" lon="10.883106"><ele>492</ele></trkpt>
            <trkpt lat="51.728603" lon="10.883273"><ele>491.8</ele></trkpt>
            <trkpt lat="51.728603" lon="10.883461"><ele>492.3</ele></trkpt>
            <trkpt lat="51.728632" lon="10.883676"><ele>492.9</ele></trkpt>
            <trkpt lat="51.728813" lon="10.884264"><ele>493.1</ele></trkpt>
            <trkpt lat="51.728822" lon="10.884405"><ele>493.4</ele></trkpt>
            <trkpt lat="51.728811" lon="10.884516"><ele>496</ele></trkpt>
            <trkpt lat="51.728637" lon="10.885886"><ele>493.7</ele></trkpt>
            <trkpt lat="51.728505" lon="10.886444"><ele>493</ele></trkpt>
            <trkpt lat="51.72835" lon="10.886636"><ele>491.1</ele></trkpt>
            <trkpt lat="51.727727" lon="10.887636"><ele>489</ele></trkpt>
            <trkpt lat="51.727474" lon="10.888102"><ele>484.3</ele></trkpt>
            <trkpt lat="51.726493" lon="10.889547"><ele>484</ele></trkpt>
            <trkpt lat="51.726355" lon="10.889833"><ele>484.4</ele></trkpt>
            <trkpt lat="51.726097" lon="10.890586"><ele>484</ele></trkpt>
            <trkpt lat="51.725694" lon="10.890372"><ele>476</ele></trkpt>
            <trkpt lat="51.725458" lon="10.890172"><ele>473.9</ele></trkpt>
            <trkpt lat="51.725356" lon="10.890129"><ele>470.8</ele></trkpt>
            <trkpt lat="51.725172" lon="10.890115"><ele>469.4</ele></trkpt>
            <trkpt lat="51.724701" lon="10.890262"><ele>468.5</ele></trkpt>
            <trkpt lat="51.724097" lon="10.890402"><ele>451</ele></trkpt>
            <trkpt lat="51.72365" lon="10.890539"><ele>448.4</ele></trkpt>
            <trkpt lat="51.723548" lon="10.890601"><ele>448.2</ele></trkpt>
            <trkpt lat="51.723325" lon="10.890808"><ele>448.1</ele></trkpt>
            <trkpt lat="51.722792" lon="10.891375"><ele>448.4</ele></trkpt>
            <trkpt lat="51.722649" lon="10.891486"><ele>448.5</ele></trkpt>
            <trkpt lat="51.722418" lon="10.89156"><ele>448.6</ele></trkpt>
            <trkpt lat="51.722131" lon="10.891554"><ele>449</ele></trkpt>
            <trkpt lat="51.721942" lon="10.891507"><ele>453.3</ele></trkpt>
            <trkpt lat="51.721779" lon="10.89143"><ele>454.3</ele></trkpt>
            <trkpt lat="51.721427" lon="10.89122"><ele>466</ele></trkpt>
            <trkpt lat="51.721288" lon="10.891019"><ele>465.1</ele></trkpt>
            <trkpt lat="51.721205" lon="10.890772"><ele>464.8</ele></trkpt>
            <trkpt lat="51.721173" lon="10.890557"><ele>464.7</ele></trkpt>
            <trkpt lat="51.721183" lon="10.890339"><ele>464.7</ele></trkpt>
            <trkpt lat="51.721236" lon="10.890048"><ele>464.7</ele></trkpt>
            <trkpt lat="51.721511" lon="10.889186"><ele>462.1</ele></trkpt>
            <trkpt lat="51.721583" lon="10.888775"><ele>459.2</ele></trkpt>
            <trkpt lat="51.721661" lon="10.887588"><ele>453.5</ele></trkpt>
            <trkpt lat="51.721635" lon="10.88723"><ele>452.5</ele></trkpt>
            <trkpt lat="51.721548" lon="10.886913"><ele>451.1</ele></trkpt>
            <trkpt lat="51.72144" lon="10.886616"><ele>449.5</ele></trkpt>
            <trkpt lat="51.721414" lon="10.886386"><ele>448.7</ele></trkpt>
            <trkpt lat="51.721385" lon="10.885565"><ele>447.1</ele></trkpt>
            <trkpt lat="51.721352" lon="10.885329"><ele>445.7</ele></trkpt>
            <trkpt lat="51.721254" lon="10.885027"><ele>443.6</ele></trkpt>
            <trkpt lat="51.721135" lon="10.884773"><ele>441.5</ele></trkpt>
            <trkpt lat="51.721072" lon="10.884527"><ele>442.8</ele></trkpt>
            <trkpt lat="51.721037" lon="10.883731"><ele>441.7</ele></trkpt>
            <trkpt lat="51.720996" lon="10.883373"><ele>441.5</ele></trkpt>
            <trkpt lat="51.720931" lon="10.883007"><ele>441.4</ele></trkpt>
            <trkpt lat="51.72086" lon="10.882736"><ele>442.6</ele></trkpt>
            <trkpt lat="51.72078" lon="10.882513"><ele>458</ele></trkpt>
            <trkpt lat="51.720546" lon="10.882102"><ele>451.5</ele></trkpt>
            <trkpt lat="51.720327" lon="10.881778"><ele>448.9</ele></trkpt>
            <trkpt lat="51.719735" lon="10.881054"><ele>447.1</ele></trkpt>
            <trkpt lat="51.718456" lon="10.879389"><ele>440.4</ele></trkpt>
            <trkpt lat="51.718311" lon="10.879335"><ele>441.1</ele></trkpt>
            <trkpt lat="51.718132" lon="10.879314"><ele>441.3</ele></trkpt>
            <trkpt lat="51.717454" lon="10.879316"><ele>441.6</ele></trkpt>
            <trkpt lat="51.717296" lon="10.879372"><ele>441.4</ele></trkpt>
            <trkpt lat="51.717134" lon="10.87947"><ele>443</ele></trkpt>
            <trkpt lat="51.716978" lon="10.879648"><ele>445</ele></trkpt>
            <trkpt lat="51.71685" lon="10.879837"><ele>445.8</ele></trkpt>
            <trkpt lat="51.716647" lon="10.880237"><ele>446.3</ele></trkpt>
            <trkpt lat="51.716465" lon="10.880773"><ele>447.5</ele></trkpt>
            <trkpt lat="51.716157" lon="10.88238"><ele>449.4</ele></trkpt>
            <trkpt lat="51.716052" lon="10.882732"><ele>451</ele></trkpt>
            <trkpt lat="51.715991" lon="10.882694"><ele>458.1</ele></trkpt>
            <trkpt lat="51.715908" lon="10.882576"><ele>459.8</ele></trkpt>
            <trkpt lat="51.715864" lon="10.882482"><ele>462</ele></trkpt>
            <trkpt lat="51.715817" lon="10.882247"><ele>466.1</ele></trkpt>
            <trkpt lat="51.715637" lon="10.880424"><ele>467.6</ele></trkpt>
            <trkpt lat="51.715618" lon="10.88021"><ele>468.1</ele></trkpt>
            <trkpt lat="51.715625" lon="10.880115"><ele>467.6</ele></trkpt>
            <trkpt lat="51.715646" lon="10.880016"><ele>467.3</ele></trkpt>
            <trkpt lat="51.715957" lon="10.87921"><ele>466.4</ele></trkpt>
            <trkpt lat="51.716283" lon="10.878467"><ele>466.6</ele></trkpt>
            <trkpt lat="51.716486" lon="10.878086"><ele>464.9</ele></trkpt>
            <trkpt lat="51.716808" lon="10.877763"><ele>463.8</ele></trkpt>
            <trkpt lat="51.716996" lon="10.877479"><ele>464.4</ele></trkpt>
            <trkpt lat="51.717137" lon="10.877184"><ele>464</ele></trkpt>
            <trkpt lat="51.717244" lon="10.876857"><ele>463.3</ele></trkpt>
            <trkpt lat="51.717313" lon="10.876505"><ele>458</ele></trkpt>
            <trkpt lat="51.717434" lon="10.87554"><ele>455.6</ele></trkpt>
            <trkpt lat="51.71739" lon="10.875345"><ele>456.8</ele></trkpt>
            <trkpt lat="51.717318" lon="10.875196"><ele>457.2</ele></trkpt>
            <trkpt lat="51.717217" lon="10.87513"><ele>457.7</ele></trkpt>
            <trkpt lat="51.717111" lon="10.875117"><ele>458.2</ele></trkpt>
            <trkpt lat="51.716543" lon="10.875255"><ele>459.4</ele></trkpt>
            <trkpt lat="51.716382" lon="10.875233"><ele>459.2</ele></trkpt>
            <trkpt lat="51.716223" lon="10.875057"><ele>459.2</ele></trkpt>
            <trkpt lat="51.716116" lon="10.874707"><ele>466</ele></trkpt>
            <trkpt lat="51.716099" lon="10.874568"><ele>466</ele></trkpt>
            <trkpt lat="51.716126" lon="10.874435"><ele>469.5</ele></trkpt>
            <trkpt lat="51.716201" lon="10.874287"><ele>469.9</ele></trkpt>
            <trkpt lat="51.716492" lon="10.873949"><ele>470.4</ele></trkpt>
            <trkpt lat="51.716574" lon="10.873777"><ele>470.4</ele></trkpt>
            <trkpt lat="51.716605" lon="10.873633"><ele>470.3</ele></trkpt>
            <trkpt lat="51.716616" lon="10.873381"><ele>470.2</ele></trkpt>
            <trkpt lat="51.716613" lon="10.872749"><ele>474</ele></trkpt>
            <trkpt lat="51.716607" lon="10.872178"><ele>476.7</ele></trkpt>
            <trkpt lat="51.716554" lon="10.871636"><ele>479</ele></trkpt>
            <trkpt lat="51.716492" lon="10.871135"><ele>479</ele></trkpt>
            <trkpt lat="51.716504" lon="10.870757"><ele>474.9</ele></trkpt>
            <trkpt lat="51.716551" lon="10.870594"><ele>475.6</ele></trkpt>
            <trkpt lat="51.716613" lon="10.870503"><ele>476.3</ele></trkpt>
            <trkpt lat="51.716681" lon="10.870499"><ele>474.5</ele></trkpt>
            <trkpt lat="51.716734" lon="10.870534"><ele>464</ele></trkpt>
            <trkpt lat="51.716684" lon="10.870141"><ele>465.3</ele></trkpt>
            <trkpt lat="51.71667" lon="10.869235"><ele>468</ele></trkpt>
            <trkpt lat="51.716672" lon="10.868574"><ele>473.1</ele></trkpt>
            <trkpt lat="51.716695" lon="10.868233"><ele>474.4</ele></trkpt>
            <trkpt lat="51.716646" lon="10.867459"><ele>476</ele></trkpt>
            <trkpt lat="51.716429" lon="10.866397"><ele>479.9</ele></trkpt>
            <trkpt lat="51.71623" lon="10.866043"><ele>481.9</ele></trkpt>
            <trkpt lat="51.716249" lon="10.864611"><ele>485.5</ele></trkpt>
            <trkpt lat="51.716231" lon="10.863975"><ele>486.9</ele></trkpt>
            <trkpt lat="51.716149" lon="10.8637"><ele>487.9</ele></trkpt>
            <trkpt lat="51.715964" lon="10.863209"><ele>488.2</ele></trkpt>
            <trkpt lat="51.715695" lon="10.862152"><ele>489.2</ele></trkpt>
            <trkpt lat="51.715557" lon="10.861419"><ele>489.9</ele></trkpt>
            <trkpt lat="51.715393" lon="10.860955"><ele>490.3</ele></trkpt>
            <trkpt lat="51.715092" lon="10.860468"><ele>490.4</ele></trkpt>
            <trkpt lat="51.714835" lon="10.859895"><ele>489.9</ele></trkpt>
            <trkpt lat="51.714264" lon="10.858491"><ele>488</ele></trkpt>
            <trkpt lat="51.714011" lon="10.858324"><ele>491.2</ele></trkpt>
            <trkpt lat="51.713893" lon="10.858154"><ele>491.3</ele></trkpt>
            <trkpt lat="51.71358" lon="10.858219"><ele>491.5</ele></trkpt>
            <trkpt lat="51.712881" lon="10.857827"><ele>492.1</ele></trkpt>
            <trkpt lat="51.712284" lon="10.857537"><ele>493</ele></trkpt>
            <trkpt lat="51.712266" lon="10.857373"><ele>492.7</ele></trkpt>
            <trkpt lat="51.711866" lon="10.855636"><ele>492.2</ele></trkpt>
            <trkpt lat="51.711514" lon="10.85421"><ele>490.8</ele></trkpt>
            <trkpt lat="51.710925" lon="10.851471"><ele>493</ele></trkpt>
            <trkpt lat="51.710581" lon="10.848163"><ele>492</ele></trkpt>
            <trkpt lat="51.710538" lon="10.84776"><ele>492</ele></trkpt>
            <trkpt lat="51.710424" lon="10.847008"><ele>492</ele></trkpt>
            <trkpt lat="51.710276" lon="10.846118"><ele>489</ele></trkpt>
            <trkpt lat="51.710175" lon="10.845622"><ele>487.7</ele></trkpt>
            <trkpt lat="51.710036" lon="10.84514"><ele>487</ele></trkpt>
            <trkpt lat="51.709953" lon="10.844979"><ele>482.9</ele></trkpt>
            <trkpt lat="51.709306" lon="10.844088"><ele>482.3</ele></trkpt>
            <trkpt lat="51.709223" lon="10.843913"><ele>482.3</ele></trkpt>
            <trkpt lat="51.709118" lon="10.843592"><ele>482.1</ele></trkpt>
            <trkpt lat="51.709009" lon="10.843329"><ele>479</ele></trkpt>
            <trkpt lat="51.708802" lon="10.842541"><ele>476.7</ele></trkpt>
            <trkpt lat="51.708594" lon="10.842029"><ele>476.3</ele></trkpt>
            <trkpt lat="51.708172" lon="10.84134"><ele>474.1</ele></trkpt>
            <trkpt lat="51.708113" lon="10.841175"><ele>473.9</ele></trkpt>
            <trkpt lat="51.707862" lon="10.839885"><ele>470</ele></trkpt>
            <trkpt lat="51.707784" lon="10.839295"><ele>466</ele></trkpt>
            <trkpt lat="51.707867" lon="10.83918"><ele>465.1</ele></trkpt>
            <trkpt lat="51.707954" lon="10.839011"><ele>465.1</ele></trkpt>
            <trkpt lat="51.708072" lon="10.838646"><ele>465.1</ele></trkpt>
            <trkpt lat="51.708115" lon="10.838433"><ele>465</ele></trkpt>
            <trkpt lat="51.70811" lon="10.838185"><ele>464.9</ele></trkpt>
            <trkpt lat="51.708128" lon="10.837789"><ele>464.8</ele></trkpt>
            <trkpt lat="51.708296" lon="10.837574"><ele>464.7</ele></trkpt>
            <trkpt lat="51.709063" lon="10.837153"><ele>464</ele></trkpt>
            <trkpt lat="51.70918" lon="10.837252"><ele>448.5</ele></trkpt>
            <trkpt lat="51.709307" lon="10.837293"><ele>449</ele></trkpt>
            <trkpt lat="51.709485" lon="10.837248"><ele>445</ele></trkpt>
            <trkpt lat="51.709558" lon="10.8372"><ele>444.4</ele></trkpt>
            <trkpt lat="51.709615" lon="10.837119"><ele>444.3</ele></trkpt>
            <trkpt lat="51.709707" lon="10.836917"><ele>444.1</ele></trkpt>
            <trkpt lat="51.709761" lon="10.836713"><ele>444.5</ele></trkpt>
            <trkpt lat="51.709762" lon="10.836465"><ele>445.3</ele></trkpt>
            <trkpt lat="51.709724" lon="10.836239"><ele>445.3</ele></trkpt>
            <trkpt lat="51.709566" lon="10.835687"><ele>445.9</ele></trkpt>
            <trkpt lat="51.709551" lon="10.83548"><ele>446</ele></trkpt>
            <trkpt lat="51.709584" lon="10.835276"><ele>446.2</ele></trkpt>
            <trkpt lat="51.709671" lon="10.835147"><ele>446.4</ele></trkpt>
            <trkpt lat="51.70999" lon="10.83492"><ele>447</ele></trkpt>
            <trkpt lat="51.710138" lon="10.834762"><ele>447.4</ele></trkpt>
            <trkpt lat="51.710219" lon="10.834638"><ele>447.4</ele></trkpt>
            <trkpt lat="51.710286" lon="10.834502"><ele>447.1</ele></trkpt>
            <trkpt lat="51.710342" lon="10.834236"><ele>447.1</ele></trkpt>
            <trkpt lat="51.71038" lon="10.833977"><ele>446.9</ele></trkpt>
            <trkpt lat="51.710401" lon="10.833689"><ele>446.5</ele></trkpt>
            <trkpt lat="51.710385" lon="10.833405"><ele>446.4</ele></trkpt>
            <trkpt lat="51.710295" lon="10.832926"><ele>445.1</ele></trkpt>
            <trkpt lat="51.710179" lon="10.832431"><ele>442.5</ele></trkpt>
            <trkpt lat="51.710095" lon="10.832111"><ele>441.6</ele></trkpt>
            <trkpt lat="51.709703" lon="10.831142"><ele>437.5</ele></trkpt>
            <trkpt lat="51.7097" lon="10.831125"><ele>430.8</ele></trkpt>
            <trkpt lat="51.709703" lon="10.831142"><ele>437.5</ele></trkpt>
            <trkpt lat="51.710095" lon="10.832111"><ele>441.6</ele></trkpt>
            <trkpt lat="51.710179" lon="10.832431"><ele>442.5</ele></trkpt>
            <trkpt lat="51.710295" lon="10.832926"><ele>445.1</ele></trkpt>
            <trkpt lat="51.710385" lon="10.833405"><ele>446.4</ele></trkpt>
            <trkpt lat="51.710401" lon="10.833689"><ele>446.5</ele></trkpt>
            <trkpt lat="51.71038" lon="10.833977"><ele>446.9</ele></trkpt>
            <trkpt lat="51.710342" lon="10.834236"><ele>447.1</ele></trkpt>
            <trkpt lat="51.710286" lon="10.834502"><ele>447.1</ele></trkpt>
            <trkpt lat="51.710219" lon="10.834638"><ele>447.4</ele></trkpt>
            <trkpt lat="51.710138" lon="10.834762"><ele>447.4</ele></trkpt>
            <trkpt lat="51.70999" lon="10.83492"><ele>447</ele></trkpt>
            <trkpt lat="51.709671" lon="10.835147"><ele>446.4</ele></trkpt>
            <trkpt lat="51.709584" lon="10.835276"><ele>446.2</ele></trkpt>
            <trkpt lat="51.709551" lon="10.83548"><ele>446</ele></trkpt>
            <trkpt lat="51.709566" lon="10.835687"><ele>445.9</ele></trkpt>
            <trkpt lat="51.709724" lon="10.836239"><ele>445.3</ele></trkpt>
            <trkpt lat="51.709762" lon="10.836465"><ele>445.3</ele></trkpt>
            <trkpt lat="51.709761" lon="10.836713"><ele>444.5</ele></trkpt>
            <trkpt lat="51.709707" lon="10.836917"><ele>444.1</ele></trkpt>
            <trkpt lat="51.709615" lon="10.837119"><ele>444.3</ele></trkpt>
            <trkpt lat="51.709558" lon="10.8372"><ele>444.4</ele></trkpt>
            <trkpt lat="51.709485" lon="10.837248"><ele>445</ele></trkpt>
            <trkpt lat="51.709307" lon="10.837293"><ele>449</ele></trkpt>
            <trkpt lat="51.70918" lon="10.837252"><ele>448.5</ele></trkpt>
            <trkpt lat="51.709063" lon="10.837153"><ele>464</ele></trkpt>
            <trkpt lat="51.708296" lon="10.837574"><ele>464.7</ele></trkpt>
            <trkpt lat="51.708128" lon="10.837789"><ele>464.8</ele></trkpt>
            <trkpt lat="51.70811" lon="10.838185"><ele>464.9</ele></trkpt>
            <trkpt lat="51.708115" lon="10.838433"><ele>465</ele></trkpt>
            <trkpt lat="51.708072" lon="10.838646"><ele>465.1</ele></trkpt>
            <trkpt lat="51.707954" lon="10.839011"><ele>465.1</ele></trkpt>
            <trkpt lat="51.707867" lon="10.83918"><ele>465.1</ele></trkpt>
            <trkpt lat="51.707784" lon="10.839295"><ele>466</ele></trkpt>
            <trkpt lat="51.707862" lon="10.839885"><ele>470</ele></trkpt>
            <trkpt lat="51.708113" lon="10.841175"><ele>473.9</ele></trkpt>
            <trkpt lat="51.708172" lon="10.84134"><ele>474.1</ele></trkpt>
            <trkpt lat="51.708594" lon="10.842029"><ele>476.3</ele></trkpt>
            <trkpt lat="51.708802" lon="10.842541"><ele>476.7</ele></trkpt>
            <trkpt lat="51.709009" lon="10.843329"><ele>479</ele></trkpt>
            <trkpt lat="51.709118" lon="10.843592"><ele>482.1</ele></trkpt>
            <trkpt lat="51.709223" lon="10.843913"><ele>482.3</ele></trkpt>
            <trkpt lat="51.709306" lon="10.844088"><ele>482.3</ele></trkpt>
            <trkpt lat="51.709953" lon="10.844979"><ele>482.9</ele></trkpt>
            <trkpt lat="51.710036" lon="10.84514"><ele>487</ele></trkpt>
            <trkpt lat="51.710175" lon="10.845622"><ele>487.7</ele></trkpt>
            <trkpt lat="51.710276" lon="10.846118"><ele>489</ele></trkpt>
            <trkpt lat="51.710424" lon="10.847008"><ele>492</ele></trkpt>
            <trkpt lat="51.710538" lon="10.84776"><ele>492</ele></trkpt>
            <trkpt lat="51.710581" lon="10.848163"><ele>492</ele></trkpt>
            <trkpt lat="51.710925" lon="10.851471"><ele>493</ele></trkpt>
            <trkpt lat="51.711514" lon="10.85421"><ele>490.8</ele></trkpt>
            <trkpt lat="51.711866" lon="10.855636"><ele>492.2</ele></trkpt>
            <trkpt lat="51.712266" lon="10.857373"><ele>492.7</ele></trkpt>
            <trkpt lat="51.712284" lon="10.857537"><ele>493</ele></trkpt>
            <trkpt lat="51.712881" lon="10.857827"><ele>492.1</ele></trkpt>
            <trkpt lat="51.71358" lon="10.858219"><ele>491.5</ele></trkpt>
            <trkpt lat="51.713893" lon="10.858154"><ele>491.3</ele></trkpt>
            <trkpt lat="51.714011" lon="10.858324"><ele>491.2</ele></trkpt>
            <trkpt lat="51.714264" lon="10.858491"><ele>488</ele></trkpt>
            <trkpt lat="51.714835" lon="10.859895"><ele>489.9</ele></trkpt>
            <trkpt lat="51.715092" lon="10.860468"><ele>490.4</ele></trkpt>
            <trkpt lat="51.715393" lon="10.860955"><ele>490.3</ele></trkpt>
            <trkpt lat="51.715557" lon="10.861419"><ele>489.9</ele></trkpt>
            <trkpt lat="51.715695" lon="10.862152"><ele>489.2</ele></trkpt>
            <trkpt lat="51.715964" lon="10.863209"><ele>488.2</ele></trkpt>
            <trkpt lat="51.716149" lon="10.8637"><ele>487.9</ele></trkpt>
            <trkpt lat="51.716231" lon="10.863975"><ele>486.9</ele></trkpt>
            <trkpt lat="51.716249" lon="10.864611"><ele>485.5</ele></trkpt>
            <trkpt lat="51.71623" lon="10.866043"><ele>481.9</ele></trkpt>
            <trkpt lat="51.716429" lon="10.866397"><ele>479.9</ele></trkpt>
            <trkpt lat="51.716646" lon="10.867459"><ele>476</ele></trkpt>
            <trkpt lat="51.716695" lon="10.868233"><ele>474.4</ele></trkpt>
            <trkpt lat="51.716672" lon="10.868574"><ele>473.1</ele></trkpt>
            <trkpt lat="51.71667" lon="10.869235"><ele>468</ele></trkpt>
            <trkpt lat="51.716684" lon="10.870141"><ele>465.3</ele></trkpt>
            <trkpt lat="51.716734" lon="10.870534"><ele>464</ele></trkpt>
            <trkpt lat="51.716681" lon="10.870499"><ele>474.5</ele></trkpt>
            <trkpt lat="51.716613" lon="10.870503"><ele>476.3</ele></trkpt>
            <trkpt lat="51.716551" lon="10.870594"><ele>475.6</ele></trkpt>
            <trkpt lat="51.716504" lon="10.870757"><ele>474.9</ele></trkpt>
            <trkpt lat="51.716492" lon="10.871135"><ele>479</ele></trkpt>
            <trkpt lat="51.716554" lon="10.871636"><ele>479</ele></trkpt>
            <trkpt lat="51.716607" lon="10.872178"><ele>476.7</ele></trkpt>
            <trkpt lat="51.716613" lon="10.872749"><ele>474</ele></trkpt>
            <trkpt lat="51.716616" lon="10.873381"><ele>470.2</ele></trkpt>
            <trkpt lat="51.716605" lon="10.873633"><ele>470.3</ele></trkpt>
            <trkpt lat="51.716574" lon="10.873777"><ele>470.4</ele></trkpt>
            <trkpt lat="51.716492" lon="10.873949"><ele>470.4</ele></trkpt>
            <trkpt lat="51.716201" lon="10.874287"><ele>469.9</ele></trkpt>
            <trkpt lat="51.716126" lon="10.874435"><ele>469.5</ele></trkpt>
            <trkpt lat="51.716099" lon="10.874568"><ele>466</ele></trkpt>
            <trkpt lat="51.716116" lon="10.874707"><ele>466</ele></trkpt>
            <trkpt lat="51.716223" lon="10.875057"><ele>459.2</ele></trkpt>
            <trkpt lat="51.716382" lon="10.875233"><ele>459.2</ele></trkpt>
            <trkpt lat="51.716543" lon="10.875255"><ele>459.4</ele></trkpt>
            <trkpt lat="51.717111" lon="10.875117"><ele>458.2</ele></trkpt>
            <trkpt lat="51.717217" lon="10.87513"><ele>457.7</ele></trkpt>
            <trkpt lat="51.717318" lon="10.875196"><ele>457.2</ele></trkpt>
            <trkpt lat="51.71739" lon="10.875345"><ele>456.8</ele></trkpt>
            <trkpt lat="51.717434" lon="10.87554"><ele>455.6</ele></trkpt>
            <trkpt lat="51.717313" lon="10.876505"><ele>458</ele></trkpt>
            <trkpt lat="51.717244" lon="10.876857"><ele>463.3</ele></trkpt>
            <trkpt lat="51.717137" lon="10.877184"><ele>464</ele></trkpt>
            <trkpt lat="51.716996" lon="10.877479"><ele>464.4</ele></trkpt>
            <trkpt lat="51.716808" lon="10.877763"><ele>463.8</ele></trkpt>
            <trkpt lat="51.716486" lon="10.878086"><ele>464.9</ele></trkpt>
            <trkpt lat="51.716283" lon="10.878467"><ele>466.6</ele></trkpt>
            <trkpt lat="51.715957" lon="10.87921"><ele>466.4</ele></trkpt>
            <trkpt lat="51.715646" lon="10.880016"><ele>467.3</ele></trkpt>
            <trkpt lat="51.715625" lon="10.880115"><ele>467.6</ele></trkpt>
            <trkpt lat="51.715618" lon="10.88021"><ele>468.1</ele></trkpt>
            <trkpt lat="51.715637" lon="10.880424"><ele>467.6</ele></trkpt>
            <trkpt lat="51.715817" lon="10.882247"><ele>466.1</ele></trkpt>
            <trkpt lat="51.715864" lon="10.882482"><ele>462</ele></trkpt>
            <trkpt lat="51.715908" lon="10.882576"><ele>459.8</ele></trkpt>
            <trkpt lat="51.715991" lon="10.882694"><ele>458.1</ele></trkpt>
            <trkpt lat="51.716052" lon="10.882732"><ele>451</ele></trkpt>
            <trkpt lat="51.716157" lon="10.88238"><ele>449.4</ele></trkpt>
            <trkpt lat="51.716465" lon="10.880773"><ele>447.5</ele></trkpt>
            <trkpt lat="51.716647" lon="10.880237"><ele>446.3</ele></trkpt>
            <trkpt lat="51.71685" lon="10.879837"><ele>445.8</ele></trkpt>
            <trkpt lat="51.716978" lon="10.879648"><ele>445</ele></trkpt>
            <trkpt lat="51.717134" lon="10.87947"><ele>443</ele></trkpt>
            <trkpt lat="51.717296" lon="10.879372"><ele>441.4</ele></trkpt>
            <trkpt lat="51.717454" lon="10.879316"><ele>441.6</ele></trkpt>
            <trkpt lat="51.718132" lon="10.879314"><ele>441.3</ele></trkpt>
            <trkpt lat="51.718311" lon="10.879335"><ele>441.1</ele></trkpt>
            <trkpt lat="51.718456" lon="10.879389"><ele>440.4</ele></trkpt>
            <trkpt lat="51.719735" lon="10.881054"><ele>447.1</ele></trkpt>
            <trkpt lat="51.720327" lon="10.881778"><ele>448.9</ele></trkpt>
            <trkpt lat="51.720546" lon="10.882102"><ele>451.5</ele></trkpt>
            <trkpt lat="51.72078" lon="10.882513"><ele>458</ele></trkpt>
            <trkpt lat="51.72086" lon="10.882736"><ele>442.6</ele></trkpt>
            <trkpt lat="51.720931" lon="10.883007"><ele>441.4</ele></trkpt>
            <trkpt lat="51.720996" lon="10.883373"><ele>441.5</ele></trkpt>
            <trkpt lat="51.721037" lon="10.883731"><ele>441.7</ele></trkpt>
            <trkpt lat="51.721072" lon="10.884527"><ele>442.8</ele></trkpt>
            <trkpt lat="51.721135" lon="10.884773"><ele>441.5</ele></trkpt>
            <trkpt lat="51.721254" lon="10.885027"><ele>443.6</ele></trkpt>
            <trkpt lat="51.721352" lon="10.885329"><ele>445.7</ele></trkpt>
            <trkpt lat="51.721385" lon="10.885565"><ele>447.1</ele></trkpt>
            <trkpt lat="51.721414" lon="10.886386"><ele>448.7</ele></trkpt>
            <trkpt lat="51.72144" lon="10.886616"><ele>449.5</ele></trkpt>
            <trkpt lat="51.721548" lon="10.886913"><ele>451.1</ele></trkpt>
            <trkpt lat="51.721635" lon="10.88723"><ele>452.5</ele></trkpt>
            <trkpt lat="51.721661" lon="10.887588"><ele>453.5</ele></trkpt>
            <trkpt lat="51.721583" lon="10.888775"><ele>459.2</ele></trkpt>
            <trkpt lat="51.721511" lon="10.889186"><ele>462.1</ele></trkpt>
            <trkpt lat="51.721236" lon="10.890048"><ele>464.7</ele></trkpt>
            <trkpt lat="51.721183" lon="10.890339"><ele>464.7</ele></trkpt>
            <trkpt lat="51.721173" lon="10.890557"><ele>464.7</ele></trkpt>
            <trkpt lat="51.721205" lon="10.890772"><ele>464.8</ele></trkpt>
            <trkpt lat="51.721288" lon="10.891019"><ele>465.1</ele></trkpt>
            <trkpt lat="51.721427" lon="10.89122"><ele>466</ele></trkpt>
            <trkpt lat="51.721779" lon="10.89143"><ele>454.3</ele></trkpt>
            <trkpt lat="51.721942" lon="10.891507"><ele>453.3</ele></trkpt>
            <trkpt lat="51.722131" lon="10.891554"><ele>449</ele></trkpt>
            <trkpt lat="51.722074" lon="10.892056"><ele>467.5</ele></trkpt>
            <trkpt lat="51.722061" lon="10.892309"><ele>470</ele></trkpt>
            <trkpt lat="51.72195" lon="10.89298"><ele>473.4</ele></trkpt>
            <trkpt lat="51.721949" lon="10.893145"><ele>473.8</ele></trkpt>
            <trkpt lat="51.721912" lon="10.893464"><ele>474.2</ele></trkpt>
            <trkpt lat="51.721688" lon="10.894398"><ele>476.1</ele></trkpt>
            <trkpt lat="51.721679" lon="10.894517"><ele>476.2</ele></trkpt>
            <trkpt lat="51.721709" lon="10.894606"><ele>482</ele></trkpt>
            <trkpt lat="51.721743" lon="10.89469"><ele>481.7</ele></trkpt>
            <trkpt lat="51.72177" lon="10.894833"><ele>481.8</ele></trkpt>
            <trkpt lat="51.72179" lon="10.895157"><ele>481</ele></trkpt>
            <trkpt lat="51.721808" lon="10.895505"><ele>481</ele></trkpt>
            <trkpt lat="51.721839" lon="10.896016"><ele>481</ele></trkpt>
            <trkpt lat="51.721952" lon="10.896127"><ele>481</ele></trkpt>
            <trkpt lat="51.721957" lon="10.896179"><ele>481</ele></trkpt>
        </trkseg>
    </trk>
</gpx>
