<?xml version="1.0" encoding="UTF-8"?>
<gpx version="1.1" creator="HWN Route Compare (OpenRouteService)" xmlns="http://www.topografix.com/GPX/1/1">
    <metadata>
        <name>OpenRouteService – Tour D5</name>
    </metadata>
    <trk>
        <name>OpenRouteService – Tour D5</name>
        <trkseg>
            <trkpt lat="51.81719" lon="10.965846"><ele>180.5</ele></trkpt>
            <trkpt lat="51.817164" lon="10.965737"><ele>183</ele></trkpt>
            <trkpt lat="51.816933" lon="10.965586"><ele>183</ele></trkpt>
            <trkpt lat="51.816651" lon="10.965028"><ele>185</ele></trkpt>
            <trkpt lat="51.816611" lon="10.964964"><ele>186</ele></trkpt>
            <trkpt lat="51.816449" lon="10.964706"><ele>186</ele></trkpt>
            <trkpt lat="51.816182" lon="10.964475"><ele>186</ele></trkpt>
            <trkpt lat="51.816113" lon="10.964291"><ele>186</ele></trkpt>
            <trkpt lat="51.81608" lon="10.963699"><ele>186</ele></trkpt>
            <trkpt lat="51.816143" lon="10.963253"><ele>191.2</ele></trkpt>
            <trkpt lat="51.816146" lon="10.962798"><ele>191.4</ele></trkpt>
            <trkpt lat="51.816017" lon="10.962073"><ele>192.1</ele></trkpt>
            <trkpt lat="51.815982" lon="10.961823"><ele>192.6</ele></trkpt>
            <trkpt lat="51.815984" lon="10.961742"><ele>198</ele></trkpt>
            <trkpt lat="51.816896" lon="10.960152"><ele>192</ele></trkpt>
            <trkpt lat="51.816805" lon="10.95955"><ele>196</ele></trkpt>
            <trkpt lat="51.81682" lon="10.959415"><ele>197</ele></trkpt>
            <trkpt lat="51.816838" lon="10.959284"><ele>198.3</ele></trkpt>
            <trkpt lat="51.816835" lon="10.959094"><ele>201</ele></trkpt>
            <trkpt lat="51.816778" lon="10.958858"><ele>206.5</ele></trkpt>
            <trkpt lat="51.816471" lon="10.958312"><ele>221</ele></trkpt>
            <trkpt lat="51.816339" lon="10.958271"><ele>221</ele></trkpt>
            <trkpt lat="51.816146" lon="10.958218"><ele>221</ele></trkpt>
            <trkpt lat="51.816083" lon="10.958091"><ele>221</ele></trkpt>
            <trkpt lat="51.81606" lon="10.957928"><ele>221</ele></trkpt>
            <trkpt lat="51.816122" lon="10.957848"><ele>221</ele></trkpt>
            <trkpt lat="51.81627" lon="10.957602"><ele>221</ele></trkpt>
            <trkpt lat="51.816293" lon="10.957541"><ele>221</ele></trkpt>
            <trkpt lat="51.816319" lon="10.957417"><ele>225</ele></trkpt>
            <trkpt lat="51.816219" lon="10.957364"><ele>225</ele></trkpt>
            <trkpt lat="51.816195" lon="10.957278"><ele>225</ele></trkpt>
            <trkpt lat="51.816191" lon="10.957251"><ele>225</ele></trkpt>
            <trkpt lat="51.816168" lon="10.957121"><ele>225</ele></trkpt>
            <trkpt lat="51.8161" lon="10.956931"><ele>225</ele></trkpt>
            <trkpt lat="51.816032" lon="10.956668"><ele>226.4</ele></trkpt>
            <trkpt lat="51.815983" lon="10.956578"><ele>227</ele></trkpt>
            <trkpt lat="51.815934" lon="10.956406"><ele>230</ele></trkpt>
            <trkpt lat="51.815856" lon="10.956002"><ele>235.3</ele></trkpt>
            <trkpt lat="51.815853" lon="10.955762"><ele>235.3</ele></trkpt>
            <trkpt lat="51.815833" lon="10.955558"><ele>236.4</ele></trkpt>
            <trkpt lat="51.815706" lon="10.955164"><ele>237.3</ele></trkpt>
            <trkpt lat="51.815627" lon="10.955076"><ele>243</ele></trkpt>
            <trkpt lat="51.815467" lon="10.954901"><ele>239.6</ele></trkpt>
            <trkpt lat="51.815396" lon="10.954788"><ele>239.3</ele></trkpt>
            <trkpt lat="51.8153" lon="10.954568"><ele>238</ele></trkpt>
            <trkpt lat="51.8152" lon="10.954371"><ele>238</ele></trkpt>
            <trkpt lat="51.814892" lon="10.954216"><ele>244</ele></trkpt>
            <trkpt lat="51.814647" lon="10.954046"><ele>234.5</ele></trkpt>
            <trkpt lat="51.814444" lon="10.953836"><ele>233.5</ele></trkpt>
            <trkpt lat="51.814347" lon="10.953765"><ele>233.6</ele></trkpt>
            <trkpt lat="51.814174" lon="10.953705"><ele>233.7</ele></trkpt>
            <trkpt lat="51.814045" lon="10.953703"><ele>233.6</ele></trkpt>
            <trkpt lat="51.813985" lon="10.953677"><ele>233.5</ele></trkpt>
            <trkpt lat="51.81341" lon="10.953324"><ele>231.9</ele></trkpt>
            <trkpt lat="51.813316" lon="10.953308"><ele>230.9</ele></trkpt>
            <trkpt lat="51.813184" lon="10.953334"><ele>226</ele></trkpt>
            <trkpt lat="51.813037" lon="10.95349"><ele>226</ele></trkpt>
            <trkpt lat="51.812967" lon="10.953571"><ele>226</ele></trkpt>
            <trkpt lat="51.812852" lon="10.953819"><ele>226</ele></trkpt>
            <trkpt lat="51.81284" lon="10.953883"><ele>226</ele></trkpt>
            <trkpt lat="51.812856" lon="10.954317"><ele>234</ele></trkpt>
            <trkpt lat="51.812885" lon="10.954467"><ele>235.5</ele></trkpt>
            <trkpt lat="51.812906" lon="10.954911"><ele>236</ele></trkpt>
            <trkpt lat="51.812927" lon="10.954998"><ele>236.4</ele></trkpt>
            <trkpt lat="51.812967" lon="10.955075"><ele>243</ele></trkpt>
            <trkpt lat="51.813072" lon="10.955181"><ele>251.6</ele></trkpt>
            <trkpt lat="51.813144" lon="10.955292"><ele>253</ele></trkpt>
            <trkpt lat="51.813213" lon="10.955547"><ele>254.5</ele></trkpt>
            <trkpt lat="51.813274" lon="10.955708"><ele>255.1</ele></trkpt>
            <trkpt lat="51.81339" lon="10.956193"><ele>255.8</ele></trkpt>
            <trkpt lat="51.813464" lon="10.956426"><ele>255.9</ele></trkpt>
            <trkpt lat="51.813518" lon="10.95687"><ele>255.9</ele></trkpt>
            <trkpt lat="51.813508" lon="10.956971"><ele>255.8</ele></trkpt>
            <trkpt lat="51.81346" lon="10.957109"><ele>256.2</ele></trkpt>
            <trkpt lat="51.813467" lon="10.957268"><ele>256</ele></trkpt>
            <trkpt lat="51.813483" lon="10.957363"><ele>256.4</ele></trkpt>
            <trkpt lat="51.813523" lon="10.957463"><ele>256.5</ele></trkpt>
            <trkpt lat="51.813592" lon="10.957556"><ele>265</ele></trkpt>
            <trkpt lat="51.813764" lon="10.957822"><ele>265</ele></trkpt>
            <trkpt lat="51.813789" lon="10.957903"><ele>265</ele></trkpt>
            <trkpt lat="51.81386" lon="10.958349"><ele>273</ele></trkpt>
            <trkpt lat="51.813861" lon="10.958356"><ele>273</ele></trkpt>
            <trkpt lat="51.81386" lon="10.958349"><ele>273</ele></trkpt>
            <trkpt lat="51.813789" lon="10.957903"><ele>265</ele></trkpt>
            <trkpt lat="51.813764" lon="10.957822"><ele>265</ele></trkpt>
            <trkpt lat="51.813592" lon="10.957556"><ele>265</ele></trkpt>
            <trkpt lat="51.813523" lon="10.957463"><ele>256.5</ele></trkpt>
            <trkpt lat="51.813483" lon="10.957363"><ele>256.4</ele></trkpt>
            <trkpt lat="51.813467" lon="10.957268"><ele>256</ele></trkpt>
            <trkpt lat="51.81346" lon="10.957109"><ele>256.2</ele></trkpt>
            <trkpt lat="51.813508" lon="10.956971"><ele>255.8</ele></trkpt>
            <trkpt lat="51.813518" lon="10.95687"><ele>255.9</ele></trkpt>
            <trkpt lat="51.813464" lon="10.956426"><ele>255.9</ele></trkpt>
            <trkpt lat="51.81339" lon="10.956193"><ele>255.8</ele></trkpt>
            <trkpt lat="51.813274" lon="10.955708"><ele>255.1</ele></trkpt>
            <trkpt lat="51.813213" lon="10.955547"><ele>254.5</ele></trkpt>
            <trkpt lat="51.813144" lon="10.955292"><ele>253</ele></trkpt>
            <trkpt lat="51.813072" lon="10.955181"><ele>251.6</ele></trkpt>
            <trkpt lat="51.812967" lon="10.955075"><ele>243</ele></trkpt>
            <trkpt lat="51.812927" lon="10.954998"><ele>236.4</ele></trkpt>
            <trkpt lat="51.812906" lon="10.954911"><ele>236</ele></trkpt>
            <trkpt lat="51.812885" lon="10.954467"><ele>235.5</ele></trkpt>
            <trkpt lat="51.812856" lon="10.954317"><ele>234</ele></trkpt>
            <trkpt lat="51.81284" lon="10.953883"><ele>226</ele></trkpt>
            <trkpt lat="51.812852" lon="10.953819"><ele>226</ele></trkpt>
            <trkpt lat="51.812967" lon="10.953571"><ele>226</ele></trkpt>
            <trkpt lat="51.813037" lon="10.95349"><ele>226</ele></trkpt>
            <trkpt lat="51.813184" lon="10.953334"><ele>226</ele></trkpt>
            <trkpt lat="51.813316" lon="10.953308"><ele>230.9</ele></trkpt>
            <trkpt lat="51.81341" lon="10.953324"><ele>231.9</ele></trkpt>
            <trkpt lat="51.813985" lon="10.953677"><ele>233.5</ele></trkpt>
            <trkpt lat="51.814045" lon="10.953703"><ele>233.6</ele></trkpt>
            <trkpt lat="51.814174" lon="10.953705"><ele>233.7</ele></trkpt>
            <trkpt lat="51.814347" lon="10.953765"><ele>233.6</ele></trkpt>
            <trkpt lat="51.814444" lon="10.953836"><ele>233.5</ele></trkpt>
            <trkpt lat="51.814647" lon="10.954046"><ele>234.5</ele></trkpt>
            <trkpt lat="51.814892" lon="10.954216"><ele>244</ele></trkpt>
            <trkpt lat="51.815037" lon="10.954133"><ele>237.8</ele></trkpt>
            <trkpt lat="51.81511" lon="10.95399"><ele>234</ele></trkpt>
            <trkpt lat="51.81514" lon="10.953559"><ele>227.3</ele></trkpt>
            <trkpt lat="51.81516" lon="10.953456"><ele>227</ele></trkpt>
            <trkpt lat="51.815303" lon="10.95307"><ele>226.1</ele></trkpt>
            <trkpt lat="51.815215" lon="10.952103"><ele>225.6</ele></trkpt>
            <trkpt lat="51.815154" lon="10.951879"><ele>225.8</ele></trkpt>
            <trkpt lat="51.815083" lon="10.951718"><ele>225.6</ele></trkpt>
            <trkpt lat="51.815086" lon="10.951652"><ele>225.5</ele></trkpt>
            <trkpt lat="51.815125" lon="10.951587"><ele>225.6</ele></trkpt>
            <trkpt lat="51.815174" lon="10.951548"><ele>225.7</ele></trkpt>
            <trkpt lat="51.815344" lon="10.951539"><ele>224</ele></trkpt>
            <trkpt lat="51.815511" lon="10.951521"><ele>224</ele></trkpt>
            <trkpt lat="51.81563" lon="10.951482"><ele>224</ele></trkpt>
            <trkpt lat="51.815692" lon="10.951438"><ele>224</ele></trkpt>
            <trkpt lat="51.815759" lon="10.951344"><ele>224</ele></trkpt>
            <trkpt lat="51.816165" lon="10.950867"><ele>229.8</ele></trkpt>
            <trkpt lat="51.816314" lon="10.950627"><ele>229.6</ele></trkpt>
            <trkpt lat="51.816339" lon="10.950545"><ele>232</ele></trkpt>
            <trkpt lat="51.816303" lon="10.950308"><ele>231.6</ele></trkpt>
            <trkpt lat="51.816234" lon="10.950026"><ele>231.5</ele></trkpt>
            <trkpt lat="51.816071" lon="10.949464"><ele>231</ele></trkpt>
            <trkpt lat="51.816086" lon="10.94919"><ele>231</ele></trkpt>
            <trkpt lat="51.816167" lon="10.948874"><ele>231</ele></trkpt>
            <trkpt lat="51.816199" lon="10.948673"><ele>231</ele></trkpt>
            <trkpt lat="51.816247" lon="10.948538"><ele>231</ele></trkpt>
            <trkpt lat="51.816309" lon="10.948433"><ele>231</ele></trkpt>
            <trkpt lat="51.816411" lon="10.94832"><ele>224</ele></trkpt>
            <trkpt lat="51.816521" lon="10.948127"><ele>224</ele></trkpt>
            <trkpt lat="51.816604" lon="10.948091"><ele>224</ele></trkpt>
            <trkpt lat="51.81673" lon="10.948072"><ele>213.9</ele></trkpt>
            <trkpt lat="51.816854" lon="10.948256"><ele>214.6</ele></trkpt>
            <trkpt lat="51.816862" lon="10.948313"><ele>214.9</ele></trkpt>
            <trkpt lat="51.816846" lon="10.948365"><ele>214</ele></trkpt>
            <trkpt lat="51.81674" lon="10.948489"><ele>223.6</ele></trkpt>
            <trkpt lat="51.816685" lon="10.948634"><ele>224.8</ele></trkpt>
            <trkpt lat="51.816654" lon="10.948674"><ele>226.1</ele></trkpt>
            <trkpt lat="51.816577" lon="10.948656"><ele>224.8</ele></trkpt>
            <trkpt lat="51.816545" lon="10.948674"><ele>231</ele></trkpt>
            <trkpt lat="51.816515" lon="10.948712"><ele>231</ele></trkpt>
            <trkpt lat="51.816489" lon="10.948779"><ele>231</ele></trkpt>
            <trkpt lat="51.816495" lon="10.948843"><ele>231</ele></trkpt>
            <trkpt lat="51.816489" lon="10.948779"><ele>231</ele></trkpt>
            <trkpt lat="51.816515" lon="10.948712"><ele>231</ele></trkpt>
            <trkpt lat="51.816545" lon="10.948674"><ele>231</ele></trkpt>
            <trkpt lat="51.816577" lon="10.948656"><ele>224.8</ele></trkpt>
            <trkpt lat="51.816654" lon="10.948674"><ele>226.1</ele></trkpt>
            <trkpt lat="51.816685" lon="10.948634"><ele>224.8</ele></trkpt>
            <trkpt lat="51.81674" lon="10.948489"><ele>223.6</ele></trkpt>
            <trkpt lat="51.816846" lon="10.948365"><ele>214</ele></trkpt>
            <trkpt lat="51.816862" lon="10.948313"><ele>214.9</ele></trkpt>
            <trkpt lat="51.816854" lon="10.948256"><ele>214.6</ele></trkpt>
            <trkpt lat="51.81673" lon="10.948072"><ele>213.9</ele></trkpt>
            <trkpt lat="51.816604" lon="10.948091"><ele>224</ele></trkpt>
            <trkpt lat="51.816521" lon="10.948127"><ele>224</ele></trkpt>
            <trkpt lat="51.816282" lon="10.947838"><ele>224</ele></trkpt>
            <trkpt lat="51.816216" lon="10.947552"><ele>224</ele></trkpt>
            <trkpt lat="51.816187" lon="10.947576"><ele>224</ele></trkpt>
            <trkpt lat="51.816095" lon="10.94736"><ele>218</ele></trkpt>
            <trkpt lat="51.815979" lon="10.947223"><ele>221.9</ele></trkpt>
            <trkpt lat="51.815883" lon="10.94706"><ele>221.5</ele></trkpt>
            <trkpt lat="51.81562" lon="10.946803"><ele>222.2</ele></trkpt>
            <trkpt lat="51.815583" lon="10.946728"><ele>222.8</ele></trkpt>
            <trkpt lat="51.815572" lon="10.946513"><ele>223</ele></trkpt>
            <trkpt lat="51.815495" lon="10.946347"><ele>223.1</ele></trkpt>
            <trkpt lat="51.815425" lon="10.946135"><ele>223.2</ele></trkpt>
            <trkpt lat="51.815363" lon="10.946041"><ele>224</ele></trkpt>
            <trkpt lat="51.815276" lon="10.945965"><ele>224</ele></trkpt>
            <trkpt lat="51.815205" lon="10.94582"><ele>221.1</ele></trkpt>
            <trkpt lat="51.81518" lon="10.945642"><ele>220.9</ele></trkpt>
            <trkpt lat="51.815139" lon="10.945483"><ele>220.8</ele></trkpt>
            <trkpt lat="51.815087" lon="10.945292"><ele>220.7</ele></trkpt>
            <trkpt lat="51.815034" lon="10.945183"><ele>220</ele></trkpt>
            <trkpt lat="51.814769" lon="10.944703"><ele>224</ele></trkpt>
            <trkpt lat="51.814749" lon="10.944616"><ele>224.1</ele></trkpt>
            <trkpt lat="51.814645" lon="10.944438"><ele>224.4</ele></trkpt>
            <trkpt lat="51.814582" lon="10.944276"><ele>224.5</ele></trkpt>
            <trkpt lat="51.814453" lon="10.944058"><ele>224.3</ele></trkpt>
            <trkpt lat="51.814341" lon="10.943801"><ele>224</ele></trkpt>
            <trkpt lat="51.814195" lon="10.94362"><ele>222</ele></trkpt>
            <trkpt lat="51.814175" lon="10.943471"><ele>220.4</ele></trkpt>
            <trkpt lat="51.81418" lon="10.943373"><ele>220.6</ele></trkpt>
            <trkpt lat="51.814212" lon="10.943294"><ele>220.3</ele></trkpt>
            <trkpt lat="51.814272" lon="10.943215"><ele>220.1</ele></trkpt>
            <trkpt lat="51.814293" lon="10.943143"><ele>219.9</ele></trkpt>
            <trkpt lat="51.814248" lon="10.942955"><ele>219.6</ele></trkpt>
            <trkpt lat="51.814231" lon="10.942769"><ele>218</ele></trkpt>
            <trkpt lat="51.814185" lon="10.942602"><ele>218</ele></trkpt>
            <trkpt lat="51.814232" lon="10.942162"><ele>215</ele></trkpt>
            <trkpt lat="51.814209" lon="10.941999"><ele>214.3</ele></trkpt>
            <trkpt lat="51.814232" lon="10.941746"><ele>214.3</ele></trkpt>
            <trkpt lat="51.814283" lon="10.941526"><ele>214.2</ele></trkpt>
            <trkpt lat="51.814504" lon="10.941199"><ele>214.2</ele></trkpt>
            <trkpt lat="51.814552" lon="10.940947"><ele>214.2</ele></trkpt>
            <trkpt lat="51.814546" lon="10.94064"><ele>214.3</ele></trkpt>
            <trkpt lat="51.814589" lon="10.940477"><ele>214</ele></trkpt>
            <trkpt lat="51.814585" lon="10.940409"><ele>214</ele></trkpt>
            <trkpt lat="51.814609" lon="10.940352"><ele>214</ele></trkpt>
            <trkpt lat="51.814768" lon="10.940278"><ele>214</ele></trkpt>
            <trkpt lat="51.814821" lon="10.94033"><ele>214</ele></trkpt>
            <trkpt lat="51.814748" lon="10.940125"><ele>214</ele></trkpt>
            <trkpt lat="51.814735" lon="10.940058"><ele>213.1</ele></trkpt>
            <trkpt lat="51.814764" lon="10.939995"><ele>213.5</ele></trkpt>
            <trkpt lat="51.81517" lon="10.939778"><ele>211</ele></trkpt>
            <trkpt lat="51.815347" lon="10.93967"><ele>209.4</ele></trkpt>
            <trkpt lat="51.815511" lon="10.93945"><ele>209.6</ele></trkpt>
            <trkpt lat="51.815827" lon="10.938778"><ele>209.6</ele></trkpt>
            <trkpt lat="51.815998" lon="10.938458"><ele>209.2</ele></trkpt>
            <trkpt lat="51.816026" lon="10.938334"><ele>208.8</ele></trkpt>
            <trkpt lat="51.816028" lon="10.938177"><ele>208.4</ele></trkpt>
            <trkpt lat="51.815895" lon="10.937844"><ele>207.7</ele></trkpt>
            <trkpt lat="51.81553" lon="10.937149"><ele>207</ele></trkpt>
            <trkpt lat="51.815558" lon="10.9371"><ele>207</ele></trkpt>
            <trkpt lat="51.815574" lon="10.936748"><ele>207</ele></trkpt>
            <trkpt lat="51.815527" lon="10.936719"><ele>207</ele></trkpt>
            <trkpt lat="51.8155" lon="10.936681"><ele>207</ele></trkpt>
            <trkpt lat="51.815404" lon="10.936474"><ele>209</ele></trkpt>
            <trkpt lat="51.815388" lon="10.936369"><ele>209</ele></trkpt>
            <trkpt lat="51.815335" lon="10.93609"><ele>210.4</ele></trkpt>
            <trkpt lat="51.8153" lon="10.936014"><ele>210.2</ele></trkpt>
            <trkpt lat="51.814979" lon="10.935541"><ele>215</ele></trkpt>
            <trkpt lat="51.814791" lon="10.935281"><ele>214.7</ele></trkpt>
            <trkpt lat="51.814359" lon="10.934275"><ele>214</ele></trkpt>
            <trkpt lat="51.814278" lon="10.934067"><ele>214</ele></trkpt>
            <trkpt lat="51.81426" lon="10.933948"><ele>214</ele></trkpt>
            <trkpt lat="51.814204" lon="10.932997"><ele>216</ele></trkpt>
            <trkpt lat="51.814187" lon="10.932708"><ele>218.7</ele></trkpt>
            <trkpt lat="51.81402" lon="10.931863"><ele>220</ele></trkpt>
            <trkpt lat="51.813991" lon="10.931426"><ele>222</ele></trkpt>
            <trkpt lat="51.813929" lon="10.931023"><ele>222.1</ele></trkpt>
            <trkpt lat="51.813869" lon="10.930303"><ele>221.8</ele></trkpt>
            <trkpt lat="51.813758" lon="10.930051"><ele>221.6</ele></trkpt>
            <trkpt lat="51.81368" lon="10.929966"><ele>224</ele></trkpt>
            <trkpt lat="51.813489" lon="10.929904"><ele>224.3</ele></trkpt>
            <trkpt lat="51.813251" lon="10.929948"><ele>225</ele></trkpt>
            <trkpt lat="51.813041" lon="10.929932"><ele>225</ele></trkpt>
            <trkpt lat="51.81287" lon="10.929981"><ele>225</ele></trkpt>
            <trkpt lat="51.812707" lon="10.929951"><ele>225.7</ele></trkpt>
            <trkpt lat="51.812466" lon="10.929814"><ele>225.8</ele></trkpt>
            <trkpt lat="51.812309" lon="10.929639"><ele>226</ele></trkpt>
            <trkpt lat="51.812243" lon="10.929461"><ele>226</ele></trkpt>
            <trkpt lat="51.812212" lon="10.929116"><ele>226</ele></trkpt>
            <trkpt lat="51.812173" lon="10.92832"><ele>225.9</ele></trkpt>
            <trkpt lat="51.812203" lon="10.927919"><ele>226</ele></trkpt>
            <trkpt lat="51.812196" lon="10.92761"><ele>225.9</ele></trkpt>
            <trkpt lat="51.812151" lon="10.927317"><ele>225.5</ele></trkpt>
            <trkpt lat="51.811888" lon="10.926709"><ele>224</ele></trkpt>
            <trkpt lat="51.811869" lon="10.926522"><ele>229.3</ele></trkpt>
            <trkpt lat="51.811826" lon="10.926331"><ele>229.4</ele></trkpt>
            <trkpt lat="51.811729" lon="10.926131"><ele>229.5</ele></trkpt>
            <trkpt lat="51.811581" lon="10.925957"><ele>230</ele></trkpt>
            <trkpt lat="51.811422" lon="10.925847"><ele>233</ele></trkpt>
            <trkpt lat="51.811314" lon="10.925759"><ele>241</ele></trkpt>
            <trkpt lat="51.811432" lon="10.925471"><ele>241</ele></trkpt>
            <trkpt lat="51.811542" lon="10.925036"><ele>240.4</ele></trkpt>
            <trkpt lat="51.811968" lon="10.923802"><ele>240</ele></trkpt>
            <trkpt lat="51.812455" lon="10.922421"><ele>242</ele></trkpt>
            <trkpt lat="51.812766" lon="10.921299"><ele>244.2</ele></trkpt>
            <trkpt lat="51.812796" lon="10.921122"><ele>244.2</ele></trkpt>
            <trkpt lat="51.812803" lon="10.920807"><ele>244.3</ele></trkpt>
            <trkpt lat="51.812829" lon="10.9205"><ele>244.3</ele></trkpt>
            <trkpt lat="51.813022" lon="10.919264"><ele>246</ele></trkpt>
            <trkpt lat="51.813009" lon="10.918493"><ele>247</ele></trkpt>
            <trkpt lat="51.813034" lon="10.918319"><ele>252</ele></trkpt>
            <trkpt lat="51.813011" lon="10.917684"><ele>255.7</ele></trkpt>
            <trkpt lat="51.813031" lon="10.917277"><ele>256.1</ele></trkpt>
            <trkpt lat="51.813016" lon="10.916713"><ele>256.2</ele></trkpt>
            <trkpt lat="51.812998" lon="10.916525"><ele>262</ele></trkpt>
            <trkpt lat="51.81297" lon="10.916199"><ele>264.4</ele></trkpt>
            <trkpt lat="51.812983" lon="10.915744"><ele>265.3</ele></trkpt>
            <trkpt lat="51.813061" lon="10.915432"><ele>265.1</ele></trkpt>
            <trkpt lat="51.813192" lon="10.915009"><ele>265</ele></trkpt>
            <trkpt lat="51.813347" lon="10.914673"><ele>264.7</ele></trkpt>
            <trkpt lat="51.814009" lon="10.913515"><ele>264</ele></trkpt>
            <trkpt lat="51.814529" lon="10.912697"><ele>262</ele></trkpt>
            <trkpt lat="51.814687" lon="10.912428"><ele>262</ele></trkpt>
            <trkpt lat="51.815343" lon="10.91141"><ele>265.6</ele></trkpt>
            <trkpt lat="51.815702" lon="10.910925"><ele>268</ele></trkpt>
            <trkpt lat="51.816226" lon="10.910287"><ele>268.6</ele></trkpt>
            <trkpt lat="51.816351" lon="10.910108"><ele>268.6</ele></trkpt>
            <trkpt lat="51.816552" lon="10.909639"><ele>267.5</ele></trkpt>
            <trkpt lat="51.816801" lon="10.908768"><ele>266.1</ele></trkpt>
            <trkpt lat="51.817044" lon="10.908055"><ele>260</ele></trkpt>
            <trkpt lat="51.817218" lon="10.907661"><ele>260</ele></trkpt>
            <trkpt lat="51.817254" lon="10.907591"><ele>260</ele></trkpt>
            <trkpt lat="51.817466" lon="10.906987"><ele>260.8</ele></trkpt>
            <trkpt lat="51.817593" lon="10.906687"><ele>261.4</ele></trkpt>
            <trkpt lat="51.817732" lon="10.906546"><ele>261.7</ele></trkpt>
            <trkpt lat="51.818693" lon="10.905711"><ele>262.8</ele></trkpt>
            <trkpt lat="51.818883" lon="10.905519"><ele>263</ele></trkpt>
            <trkpt lat="51.819383" lon="10.904945"><ele>264.2</ele></trkpt>
            <trkpt lat="51.819448" lon="10.904841"><ele>264.2</ele></trkpt>
            <trkpt lat="51.820092" lon="10.90347"><ele>269</ele></trkpt>
            <trkpt lat="51.820244" lon="10.903189"><ele>270</ele></trkpt>
            <trkpt lat="51.820333" lon="10.903025"><ele>270</ele></trkpt>
            <trkpt lat="51.8204" lon="10.902925"><ele>270</ele></trkpt>
            <trkpt lat="51.820525" lon="10.902618"><ele>270</ele></trkpt>
            <trkpt lat="51.821162" lon="10.901257"><ele>273.3</ele></trkpt>
            <trkpt lat="51.82173" lon="10.900173"><ele>275.4</ele></trkpt>
            <trkpt lat="51.822495" lon="10.898528"><ele>277.8</ele></trkpt>
            <trkpt lat="51.822756" lon="10.898005"><ele>281</ele></trkpt>
            <trkpt lat="51.823371" lon="10.89677"><ele>281</ele></trkpt>
            <trkpt lat="51.824767" lon="10.894946"><ele>275.7</ele></trkpt>
            <trkpt lat="51.825616" lon="10.893787"><ele>274</ele></trkpt>
            <trkpt lat="51.825734" lon="10.89354"><ele>274</ele></trkpt>
            <trkpt lat="51.825835" lon="10.893037"><ele>275.2</ele></trkpt>
            <trkpt lat="51.825883" lon="10.892504"><ele>273.6</ele></trkpt>
            <trkpt lat="51.826239" lon="10.890566"><ele>270.2</ele></trkpt>
            <trkpt lat="51.826591" lon="10.88943"><ele>266.3</ele></trkpt>
            <trkpt lat="51.826993" lon="10.888286"><ele>263.8</ele></trkpt>
            <trkpt lat="51.827185" lon="10.887802"><ele>264</ele></trkpt>
            <trkpt lat="51.827315" lon="10.887575"><ele>263</ele></trkpt>
            <trkpt lat="51.827428" lon="10.887455"><ele>263</ele></trkpt>
            <trkpt lat="51.827486" lon="10.887446"><ele>262.3</ele></trkpt>
            <trkpt lat="51.827653" lon="10.88733"><ele>262.2</ele></trkpt>
            <trkpt lat="51.828085" lon="10.886955"><ele>262.2</ele></trkpt>
            <trkpt lat="51.828235" lon="10.886744"><ele>262.2</ele></trkpt>
            <trkpt lat="51.8284" lon="10.886461"><ele>262</ele></trkpt>
            <trkpt lat="51.828535" lon="10.886158"><ele>261.2</ele></trkpt>
            <trkpt lat="51.82922" lon="10.88432"><ele>257.3</ele></trkpt>
            <trkpt lat="51.829555" lon="10.883212"><ele>255.1</ele></trkpt>
            <trkpt lat="51.829675" lon="10.8826"><ele>254.3</ele></trkpt>
            <trkpt lat="51.830016" lon="10.881136"><ele>254</ele></trkpt>
            <trkpt lat="51.830616" lon="10.878679"><ele>244</ele></trkpt>
            <trkpt lat="51.831141" lon="10.876821"><ele>244</ele></trkpt>
            <trkpt lat="51.831235" lon="10.876502"><ele>242.7</ele></trkpt>
            <trkpt lat="51.831675" lon="10.875211"><ele>242.8</ele></trkpt>
            <trkpt lat="51.831854" lon="10.874767"><ele>241</ele></trkpt>
            <trkpt lat="51.831999" lon="10.874387"><ele>240.3</ele></trkpt>
            <trkpt lat="51.832254" lon="10.873613"><ele>239</ele></trkpt>
            <trkpt lat="51.832568" lon="10.872689"><ele>238.5</ele></trkpt>
            <trkpt lat="51.833174" lon="10.871128"><ele>234.9</ele></trkpt>
            <trkpt lat="51.833358" lon="10.870694"><ele>233.3</ele></trkpt>
            <trkpt lat="51.833512" lon="10.870395"><ele>233</ele></trkpt>
            <trkpt lat="51.83381" lon="10.86988"><ele>232</ele></trkpt>
            <trkpt lat="51.833892" lon="10.86973"><ele>232</ele></trkpt>
            <trkpt lat="51.834108" lon="10.869347"><ele>232</ele></trkpt>
            <trkpt lat="51.834194" lon="10.869142"><ele>228</ele></trkpt>
            <trkpt lat="51.83429" lon="10.868881"><ele>228</ele></trkpt>
            <trkpt lat="51.834319" lon="10.868749"><ele>228</ele></trkpt>
            <trkpt lat="51.834349" lon="10.868464"><ele>228.5</ele></trkpt>
            <trkpt lat="51.83436" lon="10.868091"><ele>230</ele></trkpt>
            <trkpt lat="51.834373" lon="10.867652"><ele>230</ele></trkpt>
            <trkpt lat="51.834385" lon="10.867279"><ele>231</ele></trkpt>
            <trkpt lat="51.834387" lon="10.867142"><ele>231</ele></trkpt>
            <trkpt lat="51.834391" lon="10.867052"><ele>231</ele></trkpt>
            <trkpt lat="51.834411" lon="10.866958"><ele>231</ele></trkpt>
            <trkpt lat="51.834509" lon="10.866815"><ele>231</ele></trkpt>
            <trkpt lat="51.83444" lon="10.866636"><ele>234</ele></trkpt>
            <trkpt lat="51.834197" lon="10.865816"><ele>236</ele></trkpt>
            <trkpt lat="51.834321" lon="10.865728"><ele>236</ele></trkpt>
            <trkpt lat="51.834363" lon="10.865667"><ele>236</ele></trkpt>
            <trkpt lat="51.834458" lon="10.86567"><ele>236</ele></trkpt>
            <trkpt lat="51.834542" lon="10.865599"><ele>236</ele></trkpt>
            <trkpt lat="51.835085" lon="10.865748"><ele>238</ele></trkpt>
            <trkpt lat="51.835249" lon="10.865786"><ele>238</ele></trkpt>
            <trkpt lat="51.835455" lon="10.86562"><ele>241.5</ele></trkpt>
            <trkpt lat="51.835476" lon="10.865528"><ele>241.8</ele></trkpt>
            <trkpt lat="51.835811" lon="10.863258"><ele>249</ele></trkpt>
            <trkpt lat="51.835946" lon="10.86235"><ele>256</ele></trkpt>
            <trkpt lat="51.836044" lon="10.861568"><ele>255.3</ele></trkpt>
            <trkpt lat="51.836218" lon="10.860493"><ele>255.4</ele></trkpt>
            <trkpt lat="51.836242" lon="10.860232"><ele>255</ele></trkpt>
            <trkpt lat="51.836409" lon="10.859083"><ele>254.1</ele></trkpt>
            <trkpt lat="51.836451" lon="10.858984"><ele>254.4</ele></trkpt>
            <trkpt lat="51.836483" lon="10.858968"><ele>254.6</ele></trkpt>
            <trkpt lat="51.836914" lon="10.859117"><ele>259</ele></trkpt>
            <trkpt lat="51.836955" lon="10.8591"><ele>259</ele></trkpt>
            <trkpt lat="51.837031" lon="10.859117"><ele>259</ele></trkpt>
            <trkpt lat="51.83716" lon="10.858957"><ele>259</ele></trkpt>
            <trkpt lat="51.837241" lon="10.858908"><ele>259</ele></trkpt>
            <trkpt lat="51.837255" lon="10.858824"><ele>259</ele></trkpt>
            <trkpt lat="51.837306" lon="10.858888"><ele>265</ele></trkpt>
            <trkpt lat="51.837317" lon="10.858934"><ele>265.4</ele></trkpt>
            <trkpt lat="51.83739" lon="10.858984"><ele>266.2</ele></trkpt>
            <trkpt lat="51.837413" lon="10.859046"><ele>267.2</ele></trkpt>
            <trkpt lat="51.837459" lon="10.859085"><ele>268.4</ele></trkpt>
            <trkpt lat="51.83755" lon="10.859256"><ele>269</ele></trkpt>
            <trkpt lat="51.837665" lon="10.859369"><ele>280</ele></trkpt>
            <trkpt lat="51.83768" lon="10.859277"><ele>279</ele></trkpt>
            <trkpt lat="51.837665" lon="10.859369"><ele>280</ele></trkpt>
            <trkpt lat="51.83755" lon="10.859256"><ele>269</ele></trkpt>
            <trkpt lat="51.837459" lon="10.859085"><ele>268.4</ele></trkpt>
            <trkpt lat="51.837413" lon="10.859046"><ele>267.2</ele></trkpt>
            <trkpt lat="51.83739" lon="10.858984"><ele>266.2</ele></trkpt>
            <trkpt lat="51.837317" lon="10.858934"><ele>265.4</ele></trkpt>
            <trkpt lat="51.837306" lon="10.858888"><ele>265</ele></trkpt>
            <trkpt lat="51.837255" lon="10.858824"><ele>259</ele></trkpt>
            <trkpt lat="51.837241" lon="10.858908"><ele>259</ele></trkpt>
            <trkpt lat="51.83716" lon="10.858957"><ele>259</ele></trkpt>
            <trkpt lat="51.837031" lon="10.859117"><ele>259</ele></trkpt>
            <trkpt lat="51.836955" lon="10.8591"><ele>259</ele></trkpt>
            <trkpt lat="51.836914" lon="10.859117"><ele>259</ele></trkpt>
            <trkpt lat="51.836483" lon="10.858968"><ele>254.6</ele></trkpt>
            <trkpt lat="51.836451" lon="10.858984"><ele>254.4</ele></trkpt>
            <trkpt lat="51.836409" lon="10.859083"><ele>254.1</ele></trkpt>
            <trkpt lat="51.836242" lon="10.860232"><ele>255</ele></trkpt>
            <trkpt lat="51.836218" lon="10.860493"><ele>255.4</ele></trkpt>
            <trkpt lat="51.836044" lon="10.861568"><ele>255.3</ele></trkpt>
            <trkpt lat="51.835946" lon="10.86235"><ele>256</ele></trkpt>
            <trkpt lat="51.835811" lon="10.863258"><ele>249</ele></trkpt>
            <trkpt lat="51.835476" lon="10.865528"><ele>241.8</ele></trkpt>
            <trkpt lat="51.835455" lon="10.86562"><ele>241.5</ele></trkpt>
            <trkpt lat="51.835249" lon="10.865786"><ele>238</ele></trkpt>
            <trkpt lat="51.835085" lon="10.865748"><ele>238</ele></trkpt>
            <trkpt lat="51.834542" lon="10.865599"><ele>236</ele></trkpt>
            <trkpt lat="51.834458" lon="10.86567"><ele>236</ele></trkpt>
            <trkpt lat="51.834363" lon="10.865667"><ele>236</ele></trkpt>
            <trkpt lat="51.834321" lon="10.865728"><ele>236</ele></trkpt>
            <trkpt lat="51.834197" lon="10.865816"><ele>236</ele></trkpt>
            <trkpt lat="51.83444" lon="10.866636"><ele>234</ele></trkpt>
            <trkpt lat="51.834509" lon="10.866815"><ele>231</ele></trkpt>
            <trkpt lat="51.834411" lon="10.866958"><ele>231</ele></trkpt>
            <trkpt lat="51.834391" lon="10.867052"><ele>231</ele></trkpt>
            <trkpt lat="51.834387" lon="10.867142"><ele>231</ele></trkpt>
            <trkpt lat="51.834385" lon="10.867279"><ele>231</ele></trkpt>
            <trkpt lat="51.834373" lon="10.867652"><ele>230</ele></trkpt>
            <trkpt lat="51.83436" lon="10.868091"><ele>230</ele></trkpt>
            <trkpt lat="51.834349" lon="10.868464"><ele>228.5</ele></trkpt>
            <trkpt lat="51.834319" lon="10.868749"><ele>228</ele></trkpt>
            <trkpt lat="51.83429" lon="10.868881"><ele>228</ele></trkpt>
            <trkpt lat="51.834194" lon="10.869142"><ele>228</ele></trkpt>
            <trkpt lat="51.834108" lon="10.869347"><ele>232</ele></trkpt>
            <trkpt lat="51.833892" lon="10.86973"><ele>232</ele></trkpt>
            <trkpt lat="51.83381" lon="10.86988"><ele>232</ele></trkpt>
            <trkpt lat="51.833512" lon="10.870395"><ele>233</ele></trkpt>
            <trkpt lat="51.833358" lon="10.870694"><ele>233.3</ele></trkpt>
            <trkpt lat="51.833174" lon="10.871128"><ele>234.9</ele></trkpt>
            <trkpt lat="51.832568" lon="10.872689"><ele>238.5</ele></trkpt>
            <trkpt lat="51.832254" lon="10.873613"><ele>239</ele></trkpt>
            <trkpt lat="51.831999" lon="10.874387"><ele>240.3</ele></trkpt>
            <trkpt lat="51.831854" lon="10.874767"><ele>241</ele></trkpt>
            <trkpt lat="51.831675" lon="10.875211"><ele>242.8</ele></trkpt>
            <trkpt lat="51.831235" lon="10.876502"><ele>242.7</ele></trkpt>
            <trkpt lat="51.831141" lon="10.876821"><ele>244</ele></trkpt>
            <trkpt lat="51.830616" lon="10.878679"><ele>244</ele></trkpt>
            <trkpt lat="51.830016" lon="10.881136"><ele>254</ele></trkpt>
            <trkpt lat="51.829675" lon="10.8826"><ele>254.3</ele></trkpt>
            <trkpt lat="51.829555" lon="10.883212"><ele>255.1</ele></trkpt>
            <trkpt lat="51.82922" lon="10.88432"><ele>257.3</ele></trkpt>
            <trkpt lat="51.828535" lon="10.886158"><ele>261.2</ele></trkpt>
            <trkpt lat="51.8284" lon="10.886461"><ele>262</ele></trkpt>
            <trkpt lat="51.828235" lon="10.886744"><ele>262.2</ele></trkpt>
            <trkpt lat="51.828085" lon="10.886955"><ele>262.2</ele></trkpt>
            <trkpt lat="51.827653" lon="10.88733"><ele>262.2</ele></trkpt>
            <trkpt lat="51.827486" lon="10.887446"><ele>262.3</ele></trkpt>
            <trkpt lat="51.827428" lon="10.887455"><ele>263</ele></trkpt>
            <trkpt lat="51.827315" lon="10.887575"><ele>263</ele></trkpt>
            <trkpt lat="51.827185" lon="10.887802"><ele>264</ele></trkpt>
            <trkpt lat="51.826993" lon="10.888286"><ele>263.8</ele></trkpt>
            <trkpt lat="51.826591" lon="10.88943"><ele>266.3</ele></trkpt>
            <trkpt lat="51.826239" lon="10.890566"><ele>270.2</ele></trkpt>
            <trkpt lat="51.825883" lon="10.892504"><ele>273.6</ele></trkpt>
            <trkpt lat="51.825835" lon="10.893037"><ele>275.2</ele></trkpt>
            <trkpt lat="51.825734" lon="10.89354"><ele>274</ele></trkpt>
            <trkpt lat="51.825616" lon="10.893787"><ele>274</ele></trkpt>
            <trkpt lat="51.824767" lon="10.894946"><ele>275.7</ele></trkpt>
            <trkpt lat="51.823371" lon="10.89677"><ele>281</ele></trkpt>
            <trkpt lat="51.822756" lon="10.898005"><ele>281</ele></trkpt>
            <trkpt lat="51.822495" lon="10.898528"><ele>277.8</ele></trkpt>
            <trkpt lat="51.82173" lon="10.900173"><ele>275.4</ele></trkpt>
            <trkpt lat="51.821162" lon="10.901257"><ele>273.3</ele></trkpt>
            <trkpt lat="51.820525" lon="10.902618"><ele>270</ele></trkpt>
            <trkpt lat="51.8204" lon="10.902925"><ele>270</ele></trkpt>
            <trkpt lat="51.820424" lon="10.903013"><ele>269.7</ele></trkpt>
            <trkpt lat="51.820447" lon="10.90347"><ele>269</ele></trkpt>
            <trkpt lat="51.820503" lon="10.904277"><ele>271</ele></trkpt>
            <trkpt lat="51.820503" lon="10.905238"><ele>272.2</ele></trkpt>
            <trkpt lat="51.82048" lon="10.905653"><ele>274</ele></trkpt>
            <trkpt lat="51.820523" lon="10.905873"><ele>276.2</ele></trkpt>
            <trkpt lat="51.820584" lon="10.906025"><ele>276.1</ele></trkpt>
            <trkpt lat="51.820692" lon="10.906205"><ele>275.6</ele></trkpt>
            <trkpt lat="51.820762" lon="10.906274"><ele>275.8</ele></trkpt>
            <trkpt lat="51.821049" lon="10.906417"><ele>276.3</ele></trkpt>
            <trkpt lat="51.821425" lon="10.906661"><ele>276.8</ele></trkpt>
            <trkpt lat="51.821726" lon="10.906761"><ele>276.2</ele></trkpt>
            <trkpt lat="51.821805" lon="10.906827"><ele>275.3</ele></trkpt>
            <trkpt lat="51.821842" lon="10.906908"><ele>266</ele></trkpt>
            <trkpt lat="51.821887" lon="10.906897"><ele>266</ele></trkpt>
            <trkpt lat="51.822011" lon="10.906902"><ele>266</ele></trkpt>
            <trkpt lat="51.822127" lon="10.906961"><ele>266</ele></trkpt>
            <trkpt lat="51.822253" lon="10.907086"><ele>266</ele></trkpt>
            <trkpt lat="51.822481" lon="10.907378"><ele>266</ele></trkpt>
            <trkpt lat="51.822744" lon="10.90776"><ele>252</ele></trkpt>
            <trkpt lat="51.823196" lon="10.908477"><ele>245.9</ele></trkpt>
            <trkpt lat="51.823314" lon="10.908711"><ele>246</ele></trkpt>
            <trkpt lat="51.823422" lon="10.908969"><ele>245.6</ele></trkpt>
            <trkpt lat="51.823599" lon="10.909536"><ele>243.5</ele></trkpt>
            <trkpt lat="51.82374" lon="10.909849"><ele>239</ele></trkpt>
            <trkpt lat="51.823864" lon="10.910024"><ele>237.7</ele></trkpt>
            <trkpt lat="51.823972" lon="10.910088"><ele>237.3</ele></trkpt>
            <trkpt lat="51.824048" lon="10.910088"><ele>236</ele></trkpt>
            <trkpt lat="51.824074" lon="10.910375"><ele>236</ele></trkpt>
            <trkpt lat="51.824126" lon="10.910902"><ele>234</ele></trkpt>
            <trkpt lat="51.824155" lon="10.911157"><ele>232.3</ele></trkpt>
            <trkpt lat="51.824196" lon="10.911353"><ele>228</ele></trkpt>
            <trkpt lat="51.824295" lon="10.911625"><ele>228</ele></trkpt>
            <trkpt lat="51.824429" lon="10.911844"><ele>228</ele></trkpt>
            <trkpt lat="51.824966" lon="10.912362"><ele>228</ele></trkpt>
            <trkpt lat="51.825037" lon="10.912442"><ele>228.6</ele></trkpt>
            <trkpt lat="51.825173" lon="10.912663"><ele>228.7</ele></trkpt>
            <trkpt lat="51.825502" lon="10.913438"><ele>230</ele></trkpt>
            <trkpt lat="51.825604" lon="10.91382"><ele>230</ele></trkpt>
            <trkpt lat="51.825654" lon="10.913957"><ele>230</ele></trkpt>
            <trkpt lat="51.825783" lon="10.914212"><ele>234</ele></trkpt>
            <trkpt lat="51.825842" lon="10.914131"><ele>234.8</ele></trkpt>
            <trkpt lat="51.825887" lon="10.914181"><ele>234.7</ele></trkpt>
            <trkpt lat="51.826052" lon="10.914246"><ele>235</ele></trkpt>
            <trkpt lat="51.826128" lon="10.914131"><ele>235</ele></trkpt>
            <trkpt lat="51.826389" lon="10.913846"><ele>235</ele></trkpt>
            <trkpt lat="51.826499" lon="10.913692"><ele>235</ele></trkpt>
            <trkpt lat="51.826541" lon="10.913598"><ele>235</ele></trkpt>
            <trkpt lat="51.826568" lon="10.913488"><ele>235</ele></trkpt>
            <trkpt lat="51.826571" lon="10.91334"><ele>235</ele></trkpt>
            <trkpt lat="51.826561" lon="10.913224"><ele>237</ele></trkpt>
            <trkpt lat="51.826438" lon="10.912845"><ele>237</ele></trkpt>
            <trkpt lat="51.826291" lon="10.912212"><ele>239</ele></trkpt>
            <trkpt lat="51.826353" lon="10.912152"><ele>239</ele></trkpt>
            <trkpt lat="51.826399" lon="10.912211"><ele>246.7</ele></trkpt>
            <trkpt lat="51.826475" lon="10.912262"><ele>246</ele></trkpt>
            <trkpt lat="51.826671" lon="10.91228"><ele>246.5</ele></trkpt>
            <trkpt lat="51.826895" lon="10.912174"><ele>248.3</ele></trkpt>
            <trkpt lat="51.826968" lon="10.912084"><ele>249.8</ele></trkpt>
            <trkpt lat="51.826976" lon="10.91204"><ele>257</ele></trkpt>
            <trkpt lat="51.826966" lon="10.911999"><ele>255.5</ele></trkpt>
            <trkpt lat="51.826931" lon="10.911967"><ele>255.6</ele></trkpt>
            <trkpt lat="51.82683" lon="10.911951"><ele>255.8</ele></trkpt>
            <trkpt lat="51.826784" lon="10.911888"><ele>256</ele></trkpt>
            <trkpt lat="51.826773" lon="10.911815"><ele>256.1</ele></trkpt>
            <trkpt lat="51.826786" lon="10.911526"><ele>255.3</ele></trkpt>
            <trkpt lat="51.826816" lon="10.911321"><ele>251</ele></trkpt>
            <trkpt lat="51.826896" lon="10.91123"><ele>251</ele></trkpt>
            <trkpt lat="51.826816" lon="10.911321"><ele>251</ele></trkpt>
            <trkpt lat="51.826786" lon="10.911526"><ele>255.3</ele></trkpt>
            <trkpt lat="51.826773" lon="10.911815"><ele>256.1</ele></trkpt>
            <trkpt lat="51.826784" lon="10.911888"><ele>256</ele></trkpt>
            <trkpt lat="51.82683" lon="10.911951"><ele>255.8</ele></trkpt>
            <trkpt lat="51.826931" lon="10.911967"><ele>255.6</ele></trkpt>
            <trkpt lat="51.826966" lon="10.911999"><ele>255.5</ele></trkpt>
            <trkpt lat="51.826976" lon="10.91204"><ele>257</ele></trkpt>
            <trkpt lat="51.826968" lon="10.912084"><ele>249.8</ele></trkpt>
            <trkpt lat="51.826895" lon="10.912174"><ele>248.3</ele></trkpt>
            <trkpt lat="51.826671" lon="10.91228"><ele>246.5</ele></trkpt>
            <trkpt lat="51.826475" lon="10.912262"><ele>246</ele></trkpt>
            <trkpt lat="51.826399" lon="10.912211"><ele>246.7</ele></trkpt>
            <trkpt lat="51.826353" lon="10.912152"><ele>239</ele></trkpt>
            <trkpt lat="51.826291" lon="10.912212"><ele>239</ele></trkpt>
            <trkpt lat="51.826438" lon="10.912845"><ele>237</ele></trkpt>
            <trkpt lat="51.826561" lon="10.913224"><ele>237</ele></trkpt>
            <trkpt lat="51.826571" lon="10.91334"><ele>235</ele></trkpt>
            <trkpt lat="51.826568" lon="10.913488"><ele>235</ele></trkpt>
            <trkpt lat="51.826541" lon="10.913598"><ele>235</ele></trkpt>
            <trkpt lat="51.826499" lon="10.913692"><ele>235</ele></trkpt>
            <trkpt lat="51.826389" lon="10.913846"><ele>235</ele></trkpt>
            <trkpt lat="51.826128" lon="10.914131"><ele>235</ele></trkpt>
            <trkpt lat="51.826052" lon="10.914246"><ele>235</ele></trkpt>
            <trkpt lat="51.825887" lon="10.914181"><ele>234.7</ele></trkpt>
            <trkpt lat="51.825842" lon="10.914131"><ele>234.8</ele></trkpt>
            <trkpt lat="51.825783" lon="10.914212"><ele>234</ele></trkpt>
            <trkpt lat="51.825854" lon="10.914397"><ele>235</ele></trkpt>
            <trkpt lat="51.825904" lon="10.914618"><ele>235</ele></trkpt>
            <trkpt lat="51.825971" lon="10.9151"><ele>235</ele></trkpt>
            <trkpt lat="51.826045" lon="10.915688"><ele>235</ele></trkpt>
            <trkpt lat="51.826065" lon="10.915917"><ele>234</ele></trkpt>
            <trkpt lat="51.82609" lon="10.916289"><ele>232.1</ele></trkpt>
            <trkpt lat="51.826103" lon="10.916838"><ele>232.3</ele></trkpt>
            <trkpt lat="51.826081" lon="10.917574"><ele>226</ele></trkpt>
            <trkpt lat="51.825996" lon="10.918448"><ele>220.2</ele></trkpt>
            <trkpt lat="51.825888" lon="10.919081"><ele>219.3</ele></trkpt>
            <trkpt lat="51.825821" lon="10.919392"><ele>219</ele></trkpt>
            <trkpt lat="51.825678" lon="10.919937"><ele>217.8</ele></trkpt>
            <trkpt lat="51.825457" lon="10.92061"><ele>208</ele></trkpt>
            <trkpt lat="51.825251" lon="10.921156"><ele>205</ele></trkpt>
            <trkpt lat="51.825182" lon="10.921331"><ele>205</ele></trkpt>
            <trkpt lat="51.824924" lon="10.92198"><ele>199</ele></trkpt>
            <trkpt lat="51.824774" lon="10.922346"><ele>199</ele></trkpt>
            <trkpt lat="51.82485" lon="10.922417"><ele>199</ele></trkpt>
            <trkpt lat="51.824905" lon="10.922489"><ele>199</ele></trkpt>
            <trkpt lat="51.824929" lon="10.92252"><ele>197</ele></trkpt>
            <trkpt lat="51.825283" lon="10.922884"><ele>198.6</ele></trkpt>
            <trkpt lat="51.825504" lon="10.923039"><ele>199</ele></trkpt>
            <trkpt lat="51.826114" lon="10.923379"><ele>196</ele></trkpt>
            <trkpt lat="51.826197" lon="10.923409"><ele>196</ele></trkpt>
            <trkpt lat="51.826406" lon="10.923443"><ele>196.3</ele></trkpt>
            <trkpt lat="51.82656" lon="10.923426"><ele>196.2</ele></trkpt>
            <trkpt lat="51.826731" lon="10.923363"><ele>196.1</ele></trkpt>
            <trkpt lat="51.826892" lon="10.923262"><ele>198</ele></trkpt>
            <trkpt lat="51.826927" lon="10.92345"><ele>195.7</ele></trkpt>
            <trkpt lat="51.826937" lon="10.923699"><ele>195</ele></trkpt>
            <trkpt lat="51.826806" lon="10.92399"><ele>195</ele></trkpt>
            <trkpt lat="51.826692" lon="10.924199"><ele>196.8</ele></trkpt>
            <trkpt lat="51.826648" lon="10.924348"><ele>196.7</ele></trkpt>
            <trkpt lat="51.826525" lon="10.924613"><ele>196.6</ele></trkpt>
            <trkpt lat="51.826538" lon="10.924751"><ele>197</ele></trkpt>
            <trkpt lat="51.826465" lon="10.924774"><ele>197</ele></trkpt>
            <trkpt lat="51.826348" lon="10.924925"><ele>196.3</ele></trkpt>
            <trkpt lat="51.826278" lon="10.925123"><ele>196.3</ele></trkpt>
            <trkpt lat="51.826233" lon="10.925338"><ele>195.9</ele></trkpt>
            <trkpt lat="51.825963" lon="10.925567"><ele>194.9</ele></trkpt>
            <trkpt lat="51.825575" lon="10.925983"><ele>193.4</ele></trkpt>
            <trkpt lat="51.825445" lon="10.926224"><ele>191.7</ele></trkpt>
            <trkpt lat="51.825392" lon="10.926372"><ele>191.2</ele></trkpt>
            <trkpt lat="51.825233" lon="10.926541"><ele>189.5</ele></trkpt>
            <trkpt lat="51.824972" lon="10.926895"><ele>188.3</ele></trkpt>
            <trkpt lat="51.824789" lon="10.927036"><ele>187.9</ele></trkpt>
            <trkpt lat="51.824638" lon="10.927188"><ele>188</ele></trkpt>
            <trkpt lat="51.824533" lon="10.927374"><ele>187.3</ele></trkpt>
            <trkpt lat="51.82442" lon="10.927524"><ele>187.3</ele></trkpt>
            <trkpt lat="51.82432" lon="10.927612"><ele>187.1</ele></trkpt>
            <trkpt lat="51.824182" lon="10.927603"><ele>186.9</ele></trkpt>
            <trkpt lat="51.824125" lon="10.927643"><ele>187</ele></trkpt>
            <trkpt lat="51.82407" lon="10.928231"><ele>186.9</ele></trkpt>
            <trkpt lat="51.82408" lon="10.929337"><ele>186.6</ele></trkpt>
            <trkpt lat="51.823989" lon="10.929354"><ele>185</ele></trkpt>
            <trkpt lat="51.823999" lon="10.929533"><ele>185</ele></trkpt>
            <trkpt lat="51.82394" lon="10.929683"><ele>185.3</ele></trkpt>
            <trkpt lat="51.823865" lon="10.93054"><ele>186</ele></trkpt>
            <trkpt lat="51.823764" lon="10.931447"><ele>186.2</ele></trkpt>
            <trkpt lat="51.823697" lon="10.931895"><ele>186.6</ele></trkpt>
            <trkpt lat="51.82362" lon="10.9322"><ele>187</ele></trkpt>
            <trkpt lat="51.823515" lon="10.932407"><ele>187.7</ele></trkpt>
            <trkpt lat="51.823361" lon="10.932605"><ele>187.8</ele></trkpt>
            <trkpt lat="51.823156" lon="10.932791"><ele>188.1</ele></trkpt>
            <trkpt lat="51.823174" lon="10.932873"><ele>189</ele></trkpt>
            <trkpt lat="51.823219" lon="10.93301"><ele>189</ele></trkpt>
            <trkpt lat="51.823274" lon="10.933049"><ele>189</ele></trkpt>
            <trkpt lat="51.823217" lon="10.933099"><ele>187.9</ele></trkpt>
            <trkpt lat="51.823063" lon="10.933172"><ele>188.1</ele></trkpt>
            <trkpt lat="51.822755" lon="10.933287"><ele>188.3</ele></trkpt>
            <trkpt lat="51.822661" lon="10.933414"><ele>185</ele></trkpt>
            <trkpt lat="51.822434" lon="10.933558"><ele>187.2</ele></trkpt>
            <trkpt lat="51.822214" lon="10.933791"><ele>188</ele></trkpt>
            <trkpt lat="51.822151" lon="10.933853"><ele>188</ele></trkpt>
            <trkpt lat="51.82208" lon="10.933904"><ele>188</ele></trkpt>
            <trkpt lat="51.822289" lon="10.934376"><ele>191.8</ele></trkpt>
            <trkpt lat="51.822358" lon="10.934916"><ele>194</ele></trkpt>
            <trkpt lat="51.822336" lon="10.935108"><ele>198.5</ele></trkpt>
            <trkpt lat="51.822296" lon="10.935236"><ele>198.1</ele></trkpt>
            <trkpt lat="51.821922" lon="10.936085"><ele>195</ele></trkpt>
            <trkpt lat="51.821733" lon="10.936512"><ele>195</ele></trkpt>
            <trkpt lat="51.821449" lon="10.937197"><ele>204</ele></trkpt>
            <trkpt lat="51.820996" lon="10.938299"><ele>197</ele></trkpt>
            <trkpt lat="51.821035" lon="10.938453"><ele>187.8</ele></trkpt>
            <trkpt lat="51.821064" lon="10.939069"><ele>187.2</ele></trkpt>
            <trkpt lat="51.821046" lon="10.939212"><ele>187.4</ele></trkpt>
            <trkpt lat="51.820979" lon="10.939422"><ele>187.5</ele></trkpt>
            <trkpt lat="51.820947" lon="10.939584"><ele>187.6</ele></trkpt>
            <trkpt lat="51.8209" lon="10.940111"><ele>187.8</ele></trkpt>
            <trkpt lat="51.820884" lon="10.940572"><ele>187.5</ele></trkpt>
            <trkpt lat="51.820787" lon="10.94125"><ele>193</ele></trkpt>
            <trkpt lat="51.82076" lon="10.94142"><ele>190.7</ele></trkpt>
            <trkpt lat="51.820392" lon="10.94301"><ele>189.2</ele></trkpt>
            <trkpt lat="51.819977" lon="10.944539"><ele>187</ele></trkpt>
            <trkpt lat="51.819904" lon="10.94493"><ele>184.6</ele></trkpt>
            <trkpt lat="51.819697" lon="10.946295"><ele>183.7</ele></trkpt>
            <trkpt lat="51.819607" lon="10.946789"><ele>182.9</ele></trkpt>
            <trkpt lat="51.819488" lon="10.947306"><ele>182.7</ele></trkpt>
            <trkpt lat="51.819391" lon="10.94788"><ele>182.7</ele></trkpt>
            <trkpt lat="51.819186" lon="10.949393"><ele>182.8</ele></trkpt>
            <trkpt lat="51.819187" lon="10.949487"><ele>182.8</ele></trkpt>
            <trkpt lat="51.81922" lon="10.949596"><ele>183</ele></trkpt>
            <trkpt lat="51.819282" lon="10.949683"><ele>183.4</ele></trkpt>
            <trkpt lat="51.819918" lon="10.95016"><ele>182.9</ele></trkpt>
            <trkpt lat="51.819961" lon="10.950228"><ele>182.6</ele></trkpt>
            <trkpt lat="51.820508" lon="10.951483"><ele>180</ele></trkpt>
            <trkpt lat="51.81979" lon="10.953334"><ele>190</ele></trkpt>
            <trkpt lat="51.82" lon="10.954138"><ele>184</ele></trkpt>
            <trkpt lat="51.81997" lon="10.954474"><ele>185.9</ele></trkpt>
            <trkpt lat="51.820005" lon="10.95466"><ele>185.8</ele></trkpt>
            <trkpt lat="51.820026" lon="10.954945"><ele>185</ele></trkpt>
            <trkpt lat="51.819865" lon="10.955368"><ele>187</ele></trkpt>
            <trkpt lat="51.819656" lon="10.955832"><ele>187</ele></trkpt>
            <trkpt lat="51.819614" lon="10.95598"><ele>188.1</ele></trkpt>
            <trkpt lat="51.819554" lon="10.956391"><ele>188.2</ele></trkpt>
            <trkpt lat="51.819456" lon="10.956871"><ele>188.2</ele></trkpt>
            <trkpt lat="51.819441" lon="10.957025"><ele>189</ele></trkpt>
            <trkpt lat="51.819312" lon="10.957523"><ele>190.5</ele></trkpt>
            <trkpt lat="51.819224" lon="10.957798"><ele>190.6</ele></trkpt>
            <trkpt lat="51.819219" lon="10.957974"><ele>190.6</ele></trkpt>
            <trkpt lat="51.81923" lon="10.95809"><ele>190.7</ele></trkpt>
            <trkpt lat="51.819276" lon="10.958174"><ele>191</ele></trkpt>
            <trkpt lat="51.819183" lon="10.958407"><ele>191.9</ele></trkpt>
            <trkpt lat="51.819179" lon="10.95849"><ele>192</ele></trkpt>
            <trkpt lat="51.819204" lon="10.95859"><ele>192.1</ele></trkpt>
            <trkpt lat="51.819215" lon="10.958739"><ele>192.2</ele></trkpt>
            <trkpt lat="51.819154" lon="10.959116"><ele>191.8</ele></trkpt>
            <trkpt lat="51.819169" lon="10.959378"><ele>192</ele></trkpt>
            <trkpt lat="51.819147" lon="10.959849"><ele>191.9</ele></trkpt>
            <trkpt lat="51.819042" lon="10.960402"><ele>192.1</ele></trkpt>
            <trkpt lat="51.818899" lon="10.960863"><ele>190</ele></trkpt>
            <trkpt lat="51.81832" lon="10.964352"><ele>184</ele></trkpt>
            <trkpt lat="51.818033" lon="10.965734"><ele>181</ele></trkpt>
            <trkpt lat="51.817641" lon="10.965694"><ele>181.8</ele></trkpt>
            <trkpt lat="51.817164" lon="10.965737"><ele>183</ele></trkpt>
            <trkpt lat="51.81719" lon="10.965846"><ele>180.5</ele></trkpt>
        </trkseg>
    </trk>
</gpx>
