<?xml version="1.0" encoding="UTF-8"?>
<gpx version="1.1" creator="HWN Route Compare (OpenRouteService)" xmlns="http://www.topografix.com/GPX/1/1">
    <metadata>
        <name>OpenRouteService – Tour D6</name>
    </metadata>
    <trk>
        <name>OpenRouteService – Tour D6</name>
        <trkseg>
            <trkpt lat="51.776921" lon="11.001172"><ele>240</ele></trkpt>
            <trkpt lat="51.776992" lon="11.001076"><ele>240</ele></trkpt>
            <trkpt lat="51.777053" lon="11.000746"><ele>239</ele></trkpt>
            <trkpt lat="51.777086" lon="11.000507"><ele>237.5</ele></trkpt>
            <trkpt lat="51.777105" lon="11.000145"><ele>236.6</ele></trkpt>
            <trkpt lat="51.777095" lon="10.999326"><ele>235.7</ele></trkpt>
            <trkpt lat="51.777124" lon="10.999025"><ele>235.3</ele></trkpt>
            <trkpt lat="51.777265" lon="10.9982"><ele>234.3</ele></trkpt>
            <trkpt lat="51.777254" lon="10.99801"><ele>234.4</ele></trkpt>
            <trkpt lat="51.777347" lon="10.997566"><ele>234.1</ele></trkpt>
            <trkpt lat="51.777412" lon="10.997349"><ele>234</ele></trkpt>
            <trkpt lat="51.777445" lon="10.997062"><ele>231</ele></trkpt>
            <trkpt lat="51.777485" lon="10.996708"><ele>231</ele></trkpt>
            <trkpt lat="51.777593" lon="10.996602"><ele>241</ele></trkpt>
            <trkpt lat="51.777705" lon="10.996337"><ele>241</ele></trkpt>
            <trkpt lat="51.777761" lon="10.996277"><ele>241</ele></trkpt>
            <trkpt lat="51.77794" lon="10.996192"><ele>241</ele></trkpt>
            <trkpt lat="51.778" lon="10.996051"><ele>237.7</ele></trkpt>
            <trkpt lat="51.778104" lon="10.995252"><ele>236.5</ele></trkpt>
            <trkpt lat="51.778177" lon="10.994926"><ele>236.4</ele></trkpt>
            <trkpt lat="51.778315" lon="10.994497"><ele>236.5</ele></trkpt>
            <trkpt lat="51.778404" lon="10.994165"><ele>236.9</ele></trkpt>
            <trkpt lat="51.778455" lon="10.993789"><ele>235</ele></trkpt>
            <trkpt lat="51.778436" lon="10.993337"><ele>236.3</ele></trkpt>
            <trkpt lat="51.778352" lon="10.993006"><ele>239</ele></trkpt>
            <trkpt lat="51.778324" lon="10.992905"><ele>232</ele></trkpt>
            <trkpt lat="51.778273" lon="10.992369"><ele>232.1</ele></trkpt>
            <trkpt lat="51.778275" lon="10.992036"><ele>231.9</ele></trkpt>
            <trkpt lat="51.778235" lon="10.991726"><ele>231.8</ele></trkpt>
            <trkpt lat="51.778202" lon="10.99159"><ele>231.9</ele></trkpt>
            <trkpt lat="51.778197" lon="10.991467"><ele>232.1</ele></trkpt>
            <trkpt lat="51.778126" lon="10.991175"><ele>234</ele></trkpt>
            <trkpt lat="51.778249" lon="10.990947"><ele>234</ele></trkpt>
            <trkpt lat="51.778407" lon="10.990668"><ele>243.6</ele></trkpt>
            <trkpt lat="51.77852" lon="10.990289"><ele>244.5</ele></trkpt>
            <trkpt lat="51.778588" lon="10.989988"><ele>245</ele></trkpt>
            <trkpt lat="51.778708" lon="10.989254"><ele>245.6</ele></trkpt>
            <trkpt lat="51.778857" lon="10.988567"><ele>247.7</ele></trkpt>
            <trkpt lat="51.778911" lon="10.988229"><ele>247.5</ele></trkpt>
            <trkpt lat="51.77898" lon="10.98742"><ele>246.2</ele></trkpt>
            <trkpt lat="51.779016" lon="10.987145"><ele>240</ele></trkpt>
            <trkpt lat="51.779035" lon="10.986748"><ele>242.2</ele></trkpt>
            <trkpt lat="51.779083" lon="10.9865"><ele>241.4</ele></trkpt>
            <trkpt lat="51.779262" lon="10.985968"><ele>249</ele></trkpt>
            <trkpt lat="51.7793" lon="10.985805"><ele>245.7</ele></trkpt>
            <trkpt lat="51.7795" lon="10.985379"><ele>244</ele></trkpt>
            <trkpt lat="51.779701" lon="10.984958"><ele>245.4</ele></trkpt>
            <trkpt lat="51.779961" lon="10.984598"><ele>244.8</ele></trkpt>
            <trkpt lat="51.780312" lon="10.983838"><ele>246.2</ele></trkpt>
            <trkpt lat="51.780315" lon="10.983704"><ele>246.5</ele></trkpt>
            <trkpt lat="51.780417" lon="10.983603"><ele>250</ele></trkpt>
            <trkpt lat="51.780431" lon="10.983516"><ele>251.7</ele></trkpt>
            <trkpt lat="51.780477" lon="10.983428"><ele>251.5</ele></trkpt>
            <trkpt lat="51.780569" lon="10.983139"><ele>250.9</ele></trkpt>
            <trkpt lat="51.780765" lon="10.982681"><ele>251.7</ele></trkpt>
            <trkpt lat="51.780941" lon="10.982371"><ele>253.4</ele></trkpt>
            <trkpt lat="51.781167" lon="10.982133"><ele>254.3</ele></trkpt>
            <trkpt lat="51.781538" lon="10.981485"><ele>257.3</ele></trkpt>
            <trkpt lat="51.781649" lon="10.981223"><ele>257.9</ele></trkpt>
            <trkpt lat="51.781669" lon="10.980979"><ele>259.9</ele></trkpt>
            <trkpt lat="51.781737" lon="10.980708"><ele>260.3</ele></trkpt>
            <trkpt lat="51.781853" lon="10.980579"><ele>260.9</ele></trkpt>
            <trkpt lat="51.782056" lon="10.980434"><ele>261.4</ele></trkpt>
            <trkpt lat="51.78214" lon="10.980186"><ele>261.8</ele></trkpt>
            <trkpt lat="51.782256" lon="10.980101"><ele>262.2</ele></trkpt>
            <trkpt lat="51.782382" lon="10.979773"><ele>259</ele></trkpt>
            <trkpt lat="51.78243" lon="10.979565"><ele>269.8</ele></trkpt>
            <trkpt lat="51.782621" lon="10.979046"><ele>271.4</ele></trkpt>
            <trkpt lat="51.782644" lon="10.978877"><ele>271.8</ele></trkpt>
            <trkpt lat="51.782713" lon="10.978643"><ele>272.4</ele></trkpt>
            <trkpt lat="51.782757" lon="10.978259"><ele>272.5</ele></trkpt>
            <trkpt lat="51.782916" lon="10.977696"><ele>273.2</ele></trkpt>
            <trkpt lat="51.783053" lon="10.977346"><ele>274.5</ele></trkpt>
            <trkpt lat="51.783117" lon="10.977221"><ele>273.6</ele></trkpt>
            <trkpt lat="51.783357" lon="10.976404"><ele>271.9</ele></trkpt>
            <trkpt lat="51.783365" lon="10.976219"><ele>273.4</ele></trkpt>
            <trkpt lat="51.783614" lon="10.975568"><ele>279</ele></trkpt>
            <trkpt lat="51.783786" lon="10.97525"><ele>282.1</ele></trkpt>
            <trkpt lat="51.783916" lon="10.975055"><ele>282.2</ele></trkpt>
            <trkpt lat="51.78403" lon="10.974694"><ele>282</ele></trkpt>
            <trkpt lat="51.784174" lon="10.974368"><ele>283.4</ele></trkpt>
            <trkpt lat="51.784458" lon="10.973589"><ele>285.4</ele></trkpt>
            <trkpt lat="51.784535" lon="10.973213"><ele>286.6</ele></trkpt>
            <trkpt lat="51.784711" lon="10.972639"><ele>288.5</ele></trkpt>
            <trkpt lat="51.784786" lon="10.972441"><ele>282</ele></trkpt>
            <trkpt lat="51.784884" lon="10.97213"><ele>287.5</ele></trkpt>
            <trkpt lat="51.784925" lon="10.971835"><ele>287</ele></trkpt>
            <trkpt lat="51.78512" lon="10.971111"><ele>289.1</ele></trkpt>
            <trkpt lat="51.785217" lon="10.970852"><ele>290</ele></trkpt>
            <trkpt lat="51.785228" lon="10.970747"><ele>290.4</ele></trkpt>
            <trkpt lat="51.785274" lon="10.970664"><ele>290.7</ele></trkpt>
            <trkpt lat="51.785321" lon="10.970492"><ele>294</ele></trkpt>
            <trkpt lat="51.785339" lon="10.970426"><ele>290.5</ele></trkpt>
            <trkpt lat="51.78535" lon="10.970225"><ele>290.9</ele></trkpt>
            <trkpt lat="51.785326" lon="10.970018"><ele>291.2</ele></trkpt>
            <trkpt lat="51.785342" lon="10.969704"><ele>290.8</ele></trkpt>
            <trkpt lat="51.785391" lon="10.969212"><ele>290.3</ele></trkpt>
            <trkpt lat="51.785396" lon="10.968778"><ele>282</ele></trkpt>
            <trkpt lat="51.785457" lon="10.968556"><ele>282</ele></trkpt>
            <trkpt lat="51.785537" lon="10.968328"><ele>277.3</ele></trkpt>
            <trkpt lat="51.785632" lon="10.967978"><ele>275</ele></trkpt>
            <trkpt lat="51.785754" lon="10.967566"><ele>277.8</ele></trkpt>
            <trkpt lat="51.785872" lon="10.96729"><ele>286</ele></trkpt>
            <trkpt lat="51.785947" lon="10.967179"><ele>286</ele></trkpt>
            <trkpt lat="51.785971" lon="10.967197"><ele>286</ele></trkpt>
            <trkpt lat="51.785947" lon="10.967179"><ele>286</ele></trkpt>
            <trkpt lat="51.786018" lon="10.966994"><ele>286</ele></trkpt>
            <trkpt lat="51.78615" lon="10.966788"><ele>286</ele></trkpt>
            <trkpt lat="51.786237" lon="10.966647"><ele>277</ele></trkpt>
            <trkpt lat="51.786347" lon="10.966449"><ele>277</ele></trkpt>
            <trkpt lat="51.78637" lon="10.966408"><ele>277</ele></trkpt>
            <trkpt lat="51.78648" lon="10.965969"><ele>277</ele></trkpt>
            <trkpt lat="51.786558" lon="10.965576"><ele>275.7</ele></trkpt>
            <trkpt lat="51.786732" lon="10.965031"><ele>282</ele></trkpt>
            <trkpt lat="51.786993" lon="10.964462"><ele>270.9</ele></trkpt>
            <trkpt lat="51.787164" lon="10.964129"><ele>269.5</ele></trkpt>
            <trkpt lat="51.787212" lon="10.963965"><ele>261</ele></trkpt>
            <trkpt lat="51.787095" lon="10.963906"><ele>261</ele></trkpt>
            <trkpt lat="51.786972" lon="10.963739"><ele>261</ele></trkpt>
            <trkpt lat="51.787057" lon="10.963281"><ele>256.6</ele></trkpt>
            <trkpt lat="51.787058" lon="10.963213"><ele>254</ele></trkpt>
            <trkpt lat="51.786983" lon="10.96295"><ele>250.3</ele></trkpt>
            <trkpt lat="51.786986" lon="10.9629"><ele>250</ele></trkpt>
            <trkpt lat="51.787192" lon="10.962543"><ele>249.3</ele></trkpt>
            <trkpt lat="51.7872" lon="10.962453"><ele>249.1</ele></trkpt>
            <trkpt lat="51.787147" lon="10.962414"><ele>249.4</ele></trkpt>
            <trkpt lat="51.786769" lon="10.962479"><ele>249.6</ele></trkpt>
            <trkpt lat="51.786737" lon="10.962443"><ele>247</ele></trkpt>
            <trkpt lat="51.78683" lon="10.962174"><ele>247</ele></trkpt>
            <trkpt lat="51.786819" lon="10.962077"><ele>247</ele></trkpt>
            <trkpt lat="51.786792" lon="10.962006"><ele>247</ele></trkpt>
            <trkpt lat="51.786767" lon="10.961941"><ele>247</ele></trkpt>
            <trkpt lat="51.786905" lon="10.961783"><ele>247</ele></trkpt>
            <trkpt lat="51.786986" lon="10.961701"><ele>247</ele></trkpt>
            <trkpt lat="51.787013" lon="10.961668"><ele>247</ele></trkpt>
            <trkpt lat="51.787081" lon="10.96161"><ele>249</ele></trkpt>
            <trkpt lat="51.78715" lon="10.961567"><ele>249</ele></trkpt>
            <trkpt lat="51.787286" lon="10.961534"><ele>249</ele></trkpt>
            <trkpt lat="51.787293" lon="10.961413"><ele>247.2</ele></trkpt>
            <trkpt lat="51.78736" lon="10.961291"><ele>247.6</ele></trkpt>
            <trkpt lat="51.788256" lon="10.960455"><ele>242</ele></trkpt>
            <trkpt lat="51.788378" lon="10.960349"><ele>238</ele></trkpt>
            <trkpt lat="51.788437" lon="10.960284"><ele>238</ele></trkpt>
            <trkpt lat="51.788959" lon="10.959436"><ele>237</ele></trkpt>
            <trkpt lat="51.789032" lon="10.959316"><ele>237</ele></trkpt>
            <trkpt lat="51.789052" lon="10.959283"><ele>237</ele></trkpt>
            <trkpt lat="51.789013" lon="10.959225"><ele>237</ele></trkpt>
            <trkpt lat="51.788955" lon="10.958969"><ele>237</ele></trkpt>
            <trkpt lat="51.788945" lon="10.958847"><ele>237</ele></trkpt>
            <trkpt lat="51.788903" lon="10.958283"><ele>238.3</ele></trkpt>
            <trkpt lat="51.788902" lon="10.958029"><ele>239</ele></trkpt>
            <trkpt lat="51.788833" lon="10.958051"><ele>243.4</ele></trkpt>
            <trkpt lat="51.788733" lon="10.958037"><ele>242.8</ele></trkpt>
            <trkpt lat="51.788303" lon="10.957914"><ele>257</ele></trkpt>
            <trkpt lat="51.788257" lon="10.957998"><ele>257</ele></trkpt>
            <trkpt lat="51.787971" lon="10.958234"><ele>257</ele></trkpt>
            <trkpt lat="51.787837" lon="10.958325"><ele>257</ele></trkpt>
            <trkpt lat="51.787775" lon="10.958291"><ele>257</ele></trkpt>
            <trkpt lat="51.787693" lon="10.958009"><ele>259.4</ele></trkpt>
            <trkpt lat="51.787675" lon="10.957605"><ele>258.9</ele></trkpt>
            <trkpt lat="51.787775" lon="10.956595"><ele>267</ele></trkpt>
            <trkpt lat="51.787736" lon="10.956248"><ele>267</ele></trkpt>
            <trkpt lat="51.787701" lon="10.956135"><ele>267</ele></trkpt>
            <trkpt lat="51.78755" lon="10.955839"><ele>274.9</ele></trkpt>
            <trkpt lat="51.78748" lon="10.955372"><ele>307</ele></trkpt>
            <trkpt lat="51.787472" lon="10.955438"><ele>307</ele></trkpt>
            <trkpt lat="51.787457" lon="10.955647"><ele>298.8</ele></trkpt>
            <trkpt lat="51.787477" lon="10.956119"><ele>294</ele></trkpt>
            <trkpt lat="51.787474" lon="10.956176"><ele>294</ele></trkpt>
            <trkpt lat="51.787455" lon="10.956227"><ele>294</ele></trkpt>
            <trkpt lat="51.787426" lon="10.956261"><ele>294</ele></trkpt>
            <trkpt lat="51.787455" lon="10.956227"><ele>294</ele></trkpt>
            <trkpt lat="51.787474" lon="10.956176"><ele>294</ele></trkpt>
            <trkpt lat="51.787477" lon="10.956119"><ele>294</ele></trkpt>
            <trkpt lat="51.787457" lon="10.955647"><ele>298.8</ele></trkpt>
            <trkpt lat="51.787472" lon="10.955438"><ele>307</ele></trkpt>
            <trkpt lat="51.78748" lon="10.955372"><ele>307</ele></trkpt>
            <trkpt lat="51.787456" lon="10.954654"><ele>300</ele></trkpt>
            <trkpt lat="51.787475" lon="10.954396"><ele>300</ele></trkpt>
            <trkpt lat="51.787572" lon="10.952959"><ele>258</ele></trkpt>
            <trkpt lat="51.787509" lon="10.952667"><ele>258</ele></trkpt>
            <trkpt lat="51.787441" lon="10.952493"><ele>274</ele></trkpt>
            <trkpt lat="51.787422" lon="10.952347"><ele>274</ele></trkpt>
            <trkpt lat="51.787391" lon="10.952179"><ele>274</ele></trkpt>
            <trkpt lat="51.787401" lon="10.952106"><ele>266.6</ele></trkpt>
            <trkpt lat="51.78751" lon="10.951897"><ele>265.4</ele></trkpt>
            <trkpt lat="51.787741" lon="10.951603"><ele>255</ele></trkpt>
            <trkpt lat="51.787533" lon="10.951062"><ele>259</ele></trkpt>
            <trkpt lat="51.787488" lon="10.950853"><ele>271</ele></trkpt>
            <trkpt lat="51.787573" lon="10.950728"><ele>259</ele></trkpt>
            <trkpt lat="51.78764" lon="10.95067"><ele>259.3</ele></trkpt>
            <trkpt lat="51.787998" lon="10.950436"><ele>257</ele></trkpt>
            <trkpt lat="51.788497" lon="10.949828"><ele>266.7</ele></trkpt>
            <trkpt lat="51.788604" lon="10.94972"><ele>267.6</ele></trkpt>
            <trkpt lat="51.788718" lon="10.949618"><ele>267.6</ele></trkpt>
            <trkpt lat="51.789108" lon="10.949367"><ele>267.5</ele></trkpt>
            <trkpt lat="51.789201" lon="10.949274"><ele>268.5</ele></trkpt>
            <trkpt lat="51.789279" lon="10.949161"><ele>269.2</ele></trkpt>
            <trkpt lat="51.789417" lon="10.948891"><ele>269.2</ele></trkpt>
            <trkpt lat="51.789496" lon="10.948692"><ele>269.2</ele></trkpt>
            <trkpt lat="51.789609" lon="10.948328"><ele>278</ele></trkpt>
            <trkpt lat="51.789718" lon="10.947919"><ele>278</ele></trkpt>
            <trkpt lat="51.789992" lon="10.946702"><ele>270</ele></trkpt>
            <trkpt lat="51.790098" lon="10.946351"><ele>266.8</ele></trkpt>
            <trkpt lat="51.790237" lon="10.946043"><ele>267.8</ele></trkpt>
            <trkpt lat="51.790357" lon="10.945835"><ele>262</ele></trkpt>
            <trkpt lat="51.791236" lon="10.944761"><ele>263</ele></trkpt>
            <trkpt lat="51.79136" lon="10.94452"><ele>263</ele></trkpt>
            <trkpt lat="51.791442" lon="10.94446"><ele>263</ele></trkpt>
            <trkpt lat="51.79152" lon="10.944429"><ele>263</ele></trkpt>
            <trkpt lat="51.791527" lon="10.943963"><ele>267.7</ele></trkpt>
            <trkpt lat="51.791646" lon="10.942594"><ele>274</ele></trkpt>
            <trkpt lat="51.791746" lon="10.941629"><ele>270.5</ele></trkpt>
            <trkpt lat="51.791809" lon="10.94127"><ele>270</ele></trkpt>
            <trkpt lat="51.791942" lon="10.940807"><ele>273.6</ele></trkpt>
            <trkpt lat="51.792318" lon="10.939923"><ele>274.4</ele></trkpt>
            <trkpt lat="51.792437" lon="10.939606"><ele>277</ele></trkpt>
            <trkpt lat="51.792491" lon="10.939376"><ele>277</ele></trkpt>
            <trkpt lat="51.792566" lon="10.939402"><ele>279</ele></trkpt>
            <trkpt lat="51.792976" lon="10.939409"><ele>279</ele></trkpt>
            <trkpt lat="51.793142" lon="10.939333"><ele>279</ele></trkpt>
            <trkpt lat="51.793211" lon="10.939256"><ele>279</ele></trkpt>
            <trkpt lat="51.793264" lon="10.939153"><ele>284</ele></trkpt>
            <trkpt lat="51.79341" lon="10.938907"><ele>288.7</ele></trkpt>
            <trkpt lat="51.793485" lon="10.938704"><ele>288.6</ele></trkpt>
            <trkpt lat="51.793625" lon="10.938209"><ele>295</ele></trkpt>
            <trkpt lat="51.793714" lon="10.937814"><ele>295</ele></trkpt>
            <trkpt lat="51.793736" lon="10.937685"><ele>295</ele></trkpt>
            <trkpt lat="51.793949" lon="10.93639"><ele>307.8</ele></trkpt>
            <trkpt lat="51.794163" lon="10.935592"><ele>322</ele></trkpt>
            <trkpt lat="51.794337" lon="10.934955"><ele>316.9</ele></trkpt>
            <trkpt lat="51.794658" lon="10.934161"><ele>317.5</ele></trkpt>
            <trkpt lat="51.795122" lon="10.933512"><ele>316.7</ele></trkpt>
            <trkpt lat="51.795263" lon="10.933084"><ele>317</ele></trkpt>
            <trkpt lat="51.795337" lon="10.932959"><ele>319</ele></trkpt>
            <trkpt lat="51.795672" lon="10.93258"><ele>321.8</ele></trkpt>
            <trkpt lat="51.795739" lon="10.932566"><ele>321.3</ele></trkpt>
            <trkpt lat="51.7958" lon="10.932473"><ele>328</ele></trkpt>
            <trkpt lat="51.795993" lon="10.931411"><ele>312</ele></trkpt>
            <trkpt lat="51.796085" lon="10.930841"><ele>312</ele></trkpt>
            <trkpt lat="51.796126" lon="10.930587"><ele>314</ele></trkpt>
            <trkpt lat="51.796207" lon="10.930064"><ele>314</ele></trkpt>
            <trkpt lat="51.796131" lon="10.929512"><ele>314</ele></trkpt>
            <trkpt lat="51.796063" lon="10.929038"><ele>314</ele></trkpt>
            <trkpt lat="51.79613" lon="10.928618"><ele>315.1</ele></trkpt>
            <trkpt lat="51.796239" lon="10.928338"><ele>314.9</ele></trkpt>
            <trkpt lat="51.796369" lon="10.928093"><ele>316.2</ele></trkpt>
            <trkpt lat="51.79674" lon="10.927531"><ele>315</ele></trkpt>
            <trkpt lat="51.796798" lon="10.927537"><ele>315</ele></trkpt>
            <trkpt lat="51.796898" lon="10.927541"><ele>315</ele></trkpt>
            <trkpt lat="51.79694" lon="10.927558"><ele>315</ele></trkpt>
            <trkpt lat="51.797335" lon="10.927696"><ele>315</ele></trkpt>
            <trkpt lat="51.797407" lon="10.927752"><ele>312</ele></trkpt>
            <trkpt lat="51.797562" lon="10.927809"><ele>306</ele></trkpt>
            <trkpt lat="51.797845" lon="10.927885"><ele>304</ele></trkpt>
            <trkpt lat="51.79808" lon="10.927853"><ele>303.8</ele></trkpt>
            <trkpt lat="51.798211" lon="10.92781"><ele>302.3</ele></trkpt>
            <trkpt lat="51.798375" lon="10.927718"><ele>301.3</ele></trkpt>
            <trkpt lat="51.798493" lon="10.927605"><ele>301.5</ele></trkpt>
            <trkpt lat="51.798942" lon="10.927039"><ele>299</ele></trkpt>
            <trkpt lat="51.799452" lon="10.926466"><ele>297.7</ele></trkpt>
            <trkpt lat="51.799622" lon="10.92616"><ele>297.3</ele></trkpt>
            <trkpt lat="51.799819" lon="10.925905"><ele>297.7</ele></trkpt>
            <trkpt lat="51.799957" lon="10.925778"><ele>298</ele></trkpt>
            <trkpt lat="51.800068" lon="10.925723"><ele>286</ele></trkpt>
            <trkpt lat="51.800116" lon="10.925539"><ele>286</ele></trkpt>
            <trkpt lat="51.800306" lon="10.925318"><ele>286</ele></trkpt>
            <trkpt lat="51.80041" lon="10.925279"><ele>286</ele></trkpt>
            <trkpt lat="51.800646" lon="10.925228"><ele>282.8</ele></trkpt>
            <trkpt lat="51.800901" lon="10.925033"><ele>276</ele></trkpt>
            <trkpt lat="51.800969" lon="10.924955"><ele>281</ele></trkpt>
            <trkpt lat="51.801073" lon="10.924808"><ele>282.7</ele></trkpt>
            <trkpt lat="51.801345" lon="10.924296"><ele>283.3</ele></trkpt>
            <trkpt lat="51.801585" lon="10.923722"><ele>286</ele></trkpt>
            <trkpt lat="51.801681" lon="10.923399"><ele>272.4</ele></trkpt>
            <trkpt lat="51.801803" lon="10.923209"><ele>274</ele></trkpt>
            <trkpt lat="51.80188" lon="10.923144"><ele>269</ele></trkpt>
            <trkpt lat="51.80197" lon="10.923046"><ele>269</ele></trkpt>
            <trkpt lat="51.802094" lon="10.922836"><ele>269</ele></trkpt>
            <trkpt lat="51.802204" lon="10.922589"><ele>270.3</ele></trkpt>
            <trkpt lat="51.802314" lon="10.922163"><ele>270.3</ele></trkpt>
            <trkpt lat="51.802388" lon="10.921967"><ele>271</ele></trkpt>
            <trkpt lat="51.802352" lon="10.921738"><ele>271</ele></trkpt>
            <trkpt lat="51.802319" lon="10.921549"><ele>266</ele></trkpt>
            <trkpt lat="51.802277" lon="10.92134"><ele>266</ele></trkpt>
            <trkpt lat="51.802267" lon="10.921256"><ele>266</ele></trkpt>
            <trkpt lat="51.802261" lon="10.921216"><ele>266</ele></trkpt>
            <trkpt lat="51.802284" lon="10.920717"><ele>262.8</ele></trkpt>
            <trkpt lat="51.802288" lon="10.92017"><ele>262</ele></trkpt>
            <trkpt lat="51.802596" lon="10.919571"><ele>263.6</ele></trkpt>
            <trkpt lat="51.802883" lon="10.918681"><ele>265</ele></trkpt>
            <trkpt lat="51.803001" lon="10.918244"><ele>269.6</ele></trkpt>
            <trkpt lat="51.803075" lon="10.917894"><ele>269.8</ele></trkpt>
            <trkpt lat="51.803108" lon="10.917312"><ele>270.3</ele></trkpt>
            <trkpt lat="51.803103" lon="10.916941"><ele>270.2</ele></trkpt>
            <trkpt lat="51.803117" lon="10.916782"><ele>270.1</ele></trkpt>
            <trkpt lat="51.803165" lon="10.916588"><ele>275</ele></trkpt>
            <trkpt lat="51.803363" lon="10.91601"><ele>272</ele></trkpt>
            <trkpt lat="51.803474" lon="10.915517"><ele>272.6</ele></trkpt>
            <trkpt lat="51.803543" lon="10.915281"><ele>272.7</ele></trkpt>
            <trkpt lat="51.803576" lon="10.915235"><ele>272</ele></trkpt>
            <trkpt lat="51.803665" lon="10.915177"><ele>272</ele></trkpt>
            <trkpt lat="51.803996" lon="10.915059"><ele>272</ele></trkpt>
            <trkpt lat="51.804207" lon="10.914844"><ele>276.7</ele></trkpt>
            <trkpt lat="51.804369" lon="10.914615"><ele>276.4</ele></trkpt>
            <trkpt lat="51.804528" lon="10.914248"><ele>278</ele></trkpt>
            <trkpt lat="51.804645" lon="10.913971"><ele>284.8</ele></trkpt>
            <trkpt lat="51.804671" lon="10.91368"><ele>285.2</ele></trkpt>
            <trkpt lat="51.804653" lon="10.913386"><ele>285.4</ele></trkpt>
            <trkpt lat="51.804573" lon="10.912818"><ele>285.2</ele></trkpt>
            <trkpt lat="51.804558" lon="10.912436"><ele>284.2</ele></trkpt>
            <trkpt lat="51.804398" lon="10.911226"><ele>282.6</ele></trkpt>
            <trkpt lat="51.804255" lon="10.910642"><ele>275</ele></trkpt>
            <trkpt lat="51.804301" lon="10.910595"><ele>275</ele></trkpt>
            <trkpt lat="51.804368" lon="10.910575"><ele>275</ele></trkpt>
            <trkpt lat="51.804467" lon="10.910548"><ele>275</ele></trkpt>
            <trkpt lat="51.804923" lon="10.910083"><ele>275</ele></trkpt>
            <trkpt lat="51.804974" lon="10.909912"><ele>277</ele></trkpt>
            <trkpt lat="51.804997" lon="10.90988"><ele>277</ele></trkpt>
            <trkpt lat="51.805056" lon="10.909821"><ele>279</ele></trkpt>
            <trkpt lat="51.80502" lon="10.909729"><ele>279</ele></trkpt>
            <trkpt lat="51.805056" lon="10.909821"><ele>279</ele></trkpt>
            <trkpt lat="51.804997" lon="10.90988"><ele>277</ele></trkpt>
            <trkpt lat="51.804974" lon="10.909912"><ele>277</ele></trkpt>
            <trkpt lat="51.804923" lon="10.910083"><ele>275</ele></trkpt>
            <trkpt lat="51.804467" lon="10.910548"><ele>275</ele></trkpt>
            <trkpt lat="51.804368" lon="10.910575"><ele>275</ele></trkpt>
            <trkpt lat="51.804301" lon="10.910595"><ele>275</ele></trkpt>
            <trkpt lat="51.804255" lon="10.910642"><ele>275</ele></trkpt>
            <trkpt lat="51.804398" lon="10.911226"><ele>282.6</ele></trkpt>
            <trkpt lat="51.804558" lon="10.912436"><ele>284.2</ele></trkpt>
            <trkpt lat="51.804573" lon="10.912818"><ele>285.2</ele></trkpt>
            <trkpt lat="51.804653" lon="10.913386"><ele>285.4</ele></trkpt>
            <trkpt lat="51.804671" lon="10.91368"><ele>285.2</ele></trkpt>
            <trkpt lat="51.804645" lon="10.913971"><ele>284.8</ele></trkpt>
            <trkpt lat="51.804528" lon="10.914248"><ele>278</ele></trkpt>
            <trkpt lat="51.804369" lon="10.914615"><ele>276.4</ele></trkpt>
            <trkpt lat="51.804207" lon="10.914844"><ele>276.7</ele></trkpt>
            <trkpt lat="51.803996" lon="10.915059"><ele>272</ele></trkpt>
            <trkpt lat="51.803665" lon="10.915177"><ele>272</ele></trkpt>
            <trkpt lat="51.803576" lon="10.915235"><ele>272</ele></trkpt>
            <trkpt lat="51.803543" lon="10.915281"><ele>272.7</ele></trkpt>
            <trkpt lat="51.803474" lon="10.915517"><ele>272.6</ele></trkpt>
            <trkpt lat="51.803363" lon="10.91601"><ele>272</ele></trkpt>
            <trkpt lat="51.803165" lon="10.916588"><ele>275</ele></trkpt>
            <trkpt lat="51.803117" lon="10.916782"><ele>270.1</ele></trkpt>
            <trkpt lat="51.803103" lon="10.916941"><ele>270.2</ele></trkpt>
            <trkpt lat="51.803108" lon="10.917312"><ele>270.3</ele></trkpt>
            <trkpt lat="51.803075" lon="10.917894"><ele>269.8</ele></trkpt>
            <trkpt lat="51.803001" lon="10.918244"><ele>269.6</ele></trkpt>
            <trkpt lat="51.802883" lon="10.918681"><ele>265</ele></trkpt>
            <trkpt lat="51.802596" lon="10.919571"><ele>263.6</ele></trkpt>
            <trkpt lat="51.802288" lon="10.92017"><ele>262</ele></trkpt>
            <trkpt lat="51.802284" lon="10.920717"><ele>262.8</ele></trkpt>
            <trkpt lat="51.802261" lon="10.921216"><ele>266</ele></trkpt>
            <trkpt lat="51.802267" lon="10.921256"><ele>266</ele></trkpt>
            <trkpt lat="51.802277" lon="10.92134"><ele>266</ele></trkpt>
            <trkpt lat="51.802319" lon="10.921549"><ele>266</ele></trkpt>
            <trkpt lat="51.802352" lon="10.921738"><ele>271</ele></trkpt>
            <trkpt lat="51.802388" lon="10.921967"><ele>271</ele></trkpt>
            <trkpt lat="51.802314" lon="10.922163"><ele>270.3</ele></trkpt>
            <trkpt lat="51.802204" lon="10.922589"><ele>270.3</ele></trkpt>
            <trkpt lat="51.802094" lon="10.922836"><ele>269</ele></trkpt>
            <trkpt lat="51.80197" lon="10.923046"><ele>269</ele></trkpt>
            <trkpt lat="51.80188" lon="10.923144"><ele>269</ele></trkpt>
            <trkpt lat="51.801803" lon="10.923209"><ele>274</ele></trkpt>
            <trkpt lat="51.801681" lon="10.923399"><ele>272.4</ele></trkpt>
            <trkpt lat="51.801585" lon="10.923722"><ele>286</ele></trkpt>
            <trkpt lat="51.801345" lon="10.924296"><ele>283.3</ele></trkpt>
            <trkpt lat="51.801073" lon="10.924808"><ele>282.7</ele></trkpt>
            <trkpt lat="51.800969" lon="10.924955"><ele>281</ele></trkpt>
            <trkpt lat="51.800901" lon="10.925033"><ele>276</ele></trkpt>
            <trkpt lat="51.800646" lon="10.925228"><ele>282.8</ele></trkpt>
            <trkpt lat="51.80041" lon="10.925279"><ele>286</ele></trkpt>
            <trkpt lat="51.800306" lon="10.925318"><ele>286</ele></trkpt>
            <trkpt lat="51.800116" lon="10.925539"><ele>286</ele></trkpt>
            <trkpt lat="51.800068" lon="10.925723"><ele>286</ele></trkpt>
            <trkpt lat="51.799957" lon="10.925778"><ele>298</ele></trkpt>
            <trkpt lat="51.799819" lon="10.925905"><ele>297.7</ele></trkpt>
            <trkpt lat="51.799622" lon="10.92616"><ele>297.3</ele></trkpt>
            <trkpt lat="51.799452" lon="10.926466"><ele>297.7</ele></trkpt>
            <trkpt lat="51.798942" lon="10.927039"><ele>299</ele></trkpt>
            <trkpt lat="51.798493" lon="10.927605"><ele>301.5</ele></trkpt>
            <trkpt lat="51.798375" lon="10.927718"><ele>301.3</ele></trkpt>
            <trkpt lat="51.798211" lon="10.92781"><ele>302.3</ele></trkpt>
            <trkpt lat="51.79808" lon="10.927853"><ele>303.8</ele></trkpt>
            <trkpt lat="51.797845" lon="10.927885"><ele>304</ele></trkpt>
            <trkpt lat="51.797562" lon="10.927809"><ele>306</ele></trkpt>
            <trkpt lat="51.797407" lon="10.927752"><ele>312</ele></trkpt>
            <trkpt lat="51.797335" lon="10.927696"><ele>315</ele></trkpt>
            <trkpt lat="51.79694" lon="10.927558"><ele>315</ele></trkpt>
            <trkpt lat="51.796898" lon="10.927541"><ele>315</ele></trkpt>
            <trkpt lat="51.796798" lon="10.927537"><ele>315</ele></trkpt>
            <trkpt lat="51.79674" lon="10.927531"><ele>315</ele></trkpt>
            <trkpt lat="51.796369" lon="10.928093"><ele>316.2</ele></trkpt>
            <trkpt lat="51.796239" lon="10.928338"><ele>314.9</ele></trkpt>
            <trkpt lat="51.79613" lon="10.928618"><ele>315.1</ele></trkpt>
            <trkpt lat="51.796063" lon="10.929038"><ele>314</ele></trkpt>
            <trkpt lat="51.796131" lon="10.929512"><ele>314</ele></trkpt>
            <trkpt lat="51.796207" lon="10.930064"><ele>314</ele></trkpt>
            <trkpt lat="51.796126" lon="10.930587"><ele>314</ele></trkpt>
            <trkpt lat="51.796085" lon="10.930841"><ele>312</ele></trkpt>
            <trkpt lat="51.795803" lon="10.930756"><ele>329.6</ele></trkpt>
            <trkpt lat="51.795725" lon="10.930765"><ele>330.8</ele></trkpt>
            <trkpt lat="51.795672" lon="10.930802"><ele>331.8</ele></trkpt>
            <trkpt lat="51.795632" lon="10.930911"><ele>332</ele></trkpt>
            <trkpt lat="51.795608" lon="10.931105"><ele>333</ele></trkpt>
            <trkpt lat="51.795286" lon="10.930951"><ele>333</ele></trkpt>
            <trkpt lat="51.795241" lon="10.930934"><ele>333</ele></trkpt>
            <trkpt lat="51.795068" lon="10.931325"><ele>340.5</ele></trkpt>
            <trkpt lat="51.794965" lon="10.931467"><ele>343</ele></trkpt>
            <trkpt lat="51.794809" lon="10.931608"><ele>353</ele></trkpt>
            <trkpt lat="51.794783" lon="10.931633"><ele>353</ele></trkpt>
            <trkpt lat="51.794703" lon="10.931721"><ele>349.1</ele></trkpt>
            <trkpt lat="51.794583" lon="10.931939"><ele>348.1</ele></trkpt>
            <trkpt lat="51.794462" lon="10.932074"><ele>347.6</ele></trkpt>
            <trkpt lat="51.794114" lon="10.932348"><ele>349.3</ele></trkpt>
            <trkpt lat="51.793961" lon="10.932537"><ele>350.8</ele></trkpt>
            <trkpt lat="51.793915" lon="10.932686"><ele>350.9</ele></trkpt>
            <trkpt lat="51.793795" lon="10.933269"><ele>350.6</ele></trkpt>
            <trkpt lat="51.793711" lon="10.933496"><ele>350.8</ele></trkpt>
            <trkpt lat="51.79358" lon="10.93374"><ele>350.9</ele></trkpt>
            <trkpt lat="51.793397" lon="10.934208"><ele>348.8</ele></trkpt>
            <trkpt lat="51.793201" lon="10.934421"><ele>347.3</ele></trkpt>
            <trkpt lat="51.793127" lon="10.934544"><ele>346.9</ele></trkpt>
            <trkpt lat="51.792967" lon="10.935048"><ele>346</ele></trkpt>
            <trkpt lat="51.792816" lon="10.935277"><ele>337</ele></trkpt>
            <trkpt lat="51.792775" lon="10.935305"><ele>334.1</ele></trkpt>
            <trkpt lat="51.792633" lon="10.935308"><ele>334.4</ele></trkpt>
            <trkpt lat="51.792473" lon="10.935262"><ele>332.8</ele></trkpt>
            <trkpt lat="51.792231" lon="10.935186"><ele>331.3</ele></trkpt>
            <trkpt lat="51.791995" lon="10.935075"><ele>330</ele></trkpt>
            <trkpt lat="51.79187" lon="10.934991"><ele>336</ele></trkpt>
            <trkpt lat="51.791835" lon="10.934887"><ele>334.4</ele></trkpt>
            <trkpt lat="51.79164" lon="10.934587"><ele>334</ele></trkpt>
            <trkpt lat="51.791216" lon="10.93402"><ele>333.3</ele></trkpt>
            <trkpt lat="51.791001" lon="10.933687"><ele>333.9</ele></trkpt>
            <trkpt lat="51.790929" lon="10.933521"><ele>334.3</ele></trkpt>
            <trkpt lat="51.790812" lon="10.933161"><ele>334.8</ele></trkpt>
            <trkpt lat="51.790512" lon="10.931864"><ele>337.2</ele></trkpt>
            <trkpt lat="51.790461" lon="10.931697"><ele>337</ele></trkpt>
            <trkpt lat="51.790395" lon="10.931607"><ele>340</ele></trkpt>
            <trkpt lat="51.790312" lon="10.931051"><ele>344.6</ele></trkpt>
            <trkpt lat="51.790332" lon="10.930671"><ele>347</ele></trkpt>
            <trkpt lat="51.790311" lon="10.930408"><ele>348.3</ele></trkpt>
            <trkpt lat="51.790177" lon="10.929326"><ele>351</ele></trkpt>
            <trkpt lat="51.790115" lon="10.929092"><ele>351.1</ele></trkpt>
            <trkpt lat="51.790041" lon="10.928576"><ele>352.9</ele></trkpt>
            <trkpt lat="51.790051" lon="10.928179"><ele>361</ele></trkpt>
            <trkpt lat="51.79005" lon="10.928112"><ele>365.6</ele></trkpt>
            <trkpt lat="51.790006" lon="10.927997"><ele>366.2</ele></trkpt>
            <trkpt lat="51.789746" lon="10.927584"><ele>366</ele></trkpt>
            <trkpt lat="51.789647" lon="10.927297"><ele>365.5</ele></trkpt>
            <trkpt lat="51.789455" lon="10.926964"><ele>366</ele></trkpt>
            <trkpt lat="51.789132" lon="10.926049"><ele>379.8</ele></trkpt>
            <trkpt lat="51.789074" lon="10.925803"><ele>379</ele></trkpt>
            <trkpt lat="51.788957" lon="10.925532"><ele>378.9</ele></trkpt>
            <trkpt lat="51.788906" lon="10.925452"><ele>378.8</ele></trkpt>
            <trkpt lat="51.788719" lon="10.925262"><ele>378.6</ele></trkpt>
            <trkpt lat="51.788614" lon="10.925036"><ele>379.8</ele></trkpt>
            <trkpt lat="51.788537" lon="10.924965"><ele>387</ele></trkpt>
            <trkpt lat="51.788111" lon="10.924694"><ele>404.6</ele></trkpt>
            <trkpt lat="51.787813" lon="10.924604"><ele>405.4</ele></trkpt>
            <trkpt lat="51.787703" lon="10.924522"><ele>405.8</ele></trkpt>
            <trkpt lat="51.787328" lon="10.924398"><ele>406.2</ele></trkpt>
            <trkpt lat="51.787172" lon="10.924257"><ele>407.2</ele></trkpt>
            <trkpt lat="51.786942" lon="10.924143"><ele>407</ele></trkpt>
            <trkpt lat="51.786776" lon="10.924161"><ele>411</ele></trkpt>
            <trkpt lat="51.786682" lon="10.924181"><ele>414.3</ele></trkpt>
            <trkpt lat="51.786427" lon="10.924319"><ele>414.5</ele></trkpt>
            <trkpt lat="51.786236" lon="10.924282"><ele>414.4</ele></trkpt>
            <trkpt lat="51.786151" lon="10.924289"><ele>414.4</ele></trkpt>
            <trkpt lat="51.786046" lon="10.924348"><ele>414.3</ele></trkpt>
            <trkpt lat="51.786039" lon="10.924422"><ele>414.2</ele></trkpt>
            <trkpt lat="51.786013" lon="10.924451"><ele>415</ele></trkpt>
            <trkpt lat="51.786006" lon="10.924485"><ele>415</ele></trkpt>
            <trkpt lat="51.785883" lon="10.924603"><ele>416</ele></trkpt>
            <trkpt lat="51.785787" lon="10.924758"><ele>418</ele></trkpt>
            <trkpt lat="51.785691" lon="10.924729"><ele>418</ele></trkpt>
            <trkpt lat="51.785592" lon="10.924624"><ele>418</ele></trkpt>
            <trkpt lat="51.785381" lon="10.924295"><ele>418</ele></trkpt>
            <trkpt lat="51.785353" lon="10.924284"><ele>418</ele></trkpt>
            <trkpt lat="51.785295" lon="10.924307"><ele>418</ele></trkpt>
            <trkpt lat="51.785247" lon="10.924252"><ele>418</ele></trkpt>
            <trkpt lat="51.7852" lon="10.9243"><ele>418</ele></trkpt>
            <trkpt lat="51.785083" lon="10.924295"><ele>418</ele></trkpt>
            <trkpt lat="51.785037" lon="10.923889"><ele>416</ele></trkpt>
            <trkpt lat="51.785034" lon="10.923858"><ele>416</ele></trkpt>
            <trkpt lat="51.784999" lon="10.923029"><ele>419</ele></trkpt>
            <trkpt lat="51.784997" lon="10.923009"><ele>423.5</ele></trkpt>
            <trkpt lat="51.784999" lon="10.923029"><ele>419</ele></trkpt>
            <trkpt lat="51.785034" lon="10.923858"><ele>416</ele></trkpt>
            <trkpt lat="51.785037" lon="10.923889"><ele>416</ele></trkpt>
            <trkpt lat="51.785083" lon="10.924295"><ele>418</ele></trkpt>
            <trkpt lat="51.785151" lon="10.925039"><ele>420.3</ele></trkpt>
            <trkpt lat="51.785211" lon="10.925952"><ele>423</ele></trkpt>
            <trkpt lat="51.785239" lon="10.926498"><ele>423.9</ele></trkpt>
            <trkpt lat="51.785266" lon="10.926684"><ele>424.5</ele></trkpt>
            <trkpt lat="51.786023" lon="10.929237"><ele>412</ele></trkpt>
            <trkpt lat="51.786101" lon="10.929494"><ele>412.6</ele></trkpt>
            <trkpt lat="51.786136" lon="10.929691"><ele>412.7</ele></trkpt>
            <trkpt lat="51.786577" lon="10.931127"><ele>412.5</ele></trkpt>
            <trkpt lat="51.786727" lon="10.931901"><ele>410</ele></trkpt>
            <trkpt lat="51.786717" lon="10.932612"><ele>408</ele></trkpt>
            <trkpt lat="51.786692" lon="10.932994"><ele>406.9</ele></trkpt>
            <trkpt lat="51.786577" lon="10.933756"><ele>406.4</ele></trkpt>
            <trkpt lat="51.786544" lon="10.934062"><ele>407</ele></trkpt>
            <trkpt lat="51.786535" lon="10.934327"><ele>406.8</ele></trkpt>
            <trkpt lat="51.786591" lon="10.934695"><ele>406.6</ele></trkpt>
            <trkpt lat="51.786705" lon="10.935178"><ele>404.8</ele></trkpt>
            <trkpt lat="51.786726" lon="10.935555"><ele>393</ele></trkpt>
            <trkpt lat="51.786706" lon="10.935741"><ele>387.3</ele></trkpt>
            <trkpt lat="51.786604" lon="10.936084"><ele>387.4</ele></trkpt>
            <trkpt lat="51.786299" lon="10.936711"><ele>386.7</ele></trkpt>
            <trkpt lat="51.786232" lon="10.936899"><ele>386</ele></trkpt>
            <trkpt lat="51.78619" lon="10.937292"><ele>379</ele></trkpt>
            <trkpt lat="51.786244" lon="10.937592"><ele>381.1</ele></trkpt>
            <trkpt lat="51.7863" lon="10.93772"><ele>381.4</ele></trkpt>
            <trkpt lat="51.786792" lon="10.93853"><ele>381.9</ele></trkpt>
            <trkpt lat="51.786946" lon="10.938895"><ele>381.7</ele></trkpt>
            <trkpt lat="51.787027" lon="10.939137"><ele>382</ele></trkpt>
            <trkpt lat="51.78712" lon="10.939545"><ele>382.2</ele></trkpt>
            <trkpt lat="51.787196" lon="10.939952"><ele>382.2</ele></trkpt>
            <trkpt lat="51.787204" lon="10.940198"><ele>382.4</ele></trkpt>
            <trkpt lat="51.787177" lon="10.940394"><ele>382.5</ele></trkpt>
            <trkpt lat="51.787086" lon="10.940619"><ele>382.7</ele></trkpt>
            <trkpt lat="51.786901" lon="10.940877"><ele>377</ele></trkpt>
            <trkpt lat="51.786714" lon="10.941079"><ele>375.1</ele></trkpt>
            <trkpt lat="51.786031" lon="10.941685"><ele>374.5</ele></trkpt>
            <trkpt lat="51.785746" lon="10.941786"><ele>373.8</ele></trkpt>
            <trkpt lat="51.785338" lon="10.941847"><ele>371.7</ele></trkpt>
            <trkpt lat="51.785214" lon="10.941933"><ele>368</ele></trkpt>
            <trkpt lat="51.784972" lon="10.942149"><ele>365.2</ele></trkpt>
            <trkpt lat="51.784882" lon="10.942276"><ele>364.4</ele></trkpt>
            <trkpt lat="51.784805" lon="10.942454"><ele>363.6</ele></trkpt>
            <trkpt lat="51.784777" lon="10.942612"><ele>362.6</ele></trkpt>
            <trkpt lat="51.784744" lon="10.943002"><ele>362.3</ele></trkpt>
            <trkpt lat="51.784692" lon="10.943229"><ele>362.2</ele></trkpt>
            <trkpt lat="51.784452" lon="10.943758"><ele>353</ele></trkpt>
            <trkpt lat="51.784279" lon="10.943635"><ele>352.8</ele></trkpt>
            <trkpt lat="51.784186" lon="10.943651"><ele>352.8</ele></trkpt>
            <trkpt lat="51.784146" lon="10.943719"><ele>352.3</ele></trkpt>
            <trkpt lat="51.784094" lon="10.943906"><ele>351.5</ele></trkpt>
            <trkpt lat="51.784074" lon="10.944247"><ele>351.1</ele></trkpt>
            <trkpt lat="51.784031" lon="10.944528"><ele>350.9</ele></trkpt>
            <trkpt lat="51.78398" lon="10.944733"><ele>350.7</ele></trkpt>
            <trkpt lat="51.783878" lon="10.944929"><ele>350.4</ele></trkpt>
            <trkpt lat="51.783735" lon="10.945042"><ele>350.2</ele></trkpt>
            <trkpt lat="51.783566" lon="10.945086"><ele>350.2</ele></trkpt>
            <trkpt lat="51.783237" lon="10.945015"><ele>350</ele></trkpt>
            <trkpt lat="51.782942" lon="10.944906"><ele>346</ele></trkpt>
            <trkpt lat="51.783051" lon="10.94504"><ele>347.1</ele></trkpt>
            <trkpt lat="51.783205" lon="10.945296"><ele>346.9</ele></trkpt>
            <trkpt lat="51.783357" lon="10.945628"><ele>347.2</ele></trkpt>
            <trkpt lat="51.783782" lon="10.946661"><ele>349</ele></trkpt>
            <trkpt lat="51.783829" lon="10.946977"><ele>347.5</ele></trkpt>
            <trkpt lat="51.783819" lon="10.947114"><ele>347.4</ele></trkpt>
            <trkpt lat="51.783727" lon="10.947411"><ele>347</ele></trkpt>
            <trkpt lat="51.783649" lon="10.947673"><ele>344</ele></trkpt>
            <trkpt lat="51.783587" lon="10.947911"><ele>343.1</ele></trkpt>
            <trkpt lat="51.783524" lon="10.948256"><ele>343.3</ele></trkpt>
            <trkpt lat="51.783445" lon="10.948447"><ele>341</ele></trkpt>
            <trkpt lat="51.783271" lon="10.948955"><ele>336.2</ele></trkpt>
            <trkpt lat="51.783279" lon="10.949597"><ele>336.7</ele></trkpt>
            <trkpt lat="51.7833" lon="10.949777"><ele>335</ele></trkpt>
            <trkpt lat="51.78334" lon="10.950027"><ele>350</ele></trkpt>
            <trkpt lat="51.783576" lon="10.950252"><ele>350</ele></trkpt>
            <trkpt lat="51.78367" lon="10.95039"><ele>344.7</ele></trkpt>
            <trkpt lat="51.783702" lon="10.950523"><ele>344.2</ele></trkpt>
            <trkpt lat="51.783673" lon="10.950994"><ele>343.2</ele></trkpt>
            <trkpt lat="51.783688" lon="10.951414"><ele>342.9</ele></trkpt>
            <trkpt lat="51.783708" lon="10.951586"><ele>342.7</ele></trkpt>
            <trkpt lat="51.783587" lon="10.952047"><ele>343.2</ele></trkpt>
            <trkpt lat="51.783496" lon="10.952229"><ele>339</ele></trkpt>
            <trkpt lat="51.783453" lon="10.952248"><ele>335.4</ele></trkpt>
            <trkpt lat="51.783205" lon="10.952532"><ele>334.3</ele></trkpt>
            <trkpt lat="51.783146" lon="10.952701"><ele>331</ele></trkpt>
            <trkpt lat="51.783157" lon="10.952948"><ele>331</ele></trkpt>
            <trkpt lat="51.783138" lon="10.953074"><ele>331</ele></trkpt>
            <trkpt lat="51.783118" lon="10.953114"><ele>332.5</ele></trkpt>
            <trkpt lat="51.782972" lon="10.953213"><ele>333</ele></trkpt>
            <trkpt lat="51.782935" lon="10.953261"><ele>333.2</ele></trkpt>
            <trkpt lat="51.782904" lon="10.953404"><ele>333.7</ele></trkpt>
            <trkpt lat="51.782934" lon="10.953578"><ele>336</ele></trkpt>
            <trkpt lat="51.782921" lon="10.953672"><ele>336</ele></trkpt>
            <trkpt lat="51.782873" lon="10.953762"><ele>336</ele></trkpt>
            <trkpt lat="51.782747" lon="10.95397"><ele>336</ele></trkpt>
            <trkpt lat="51.782624" lon="10.954096"><ele>336</ele></trkpt>
            <trkpt lat="51.782614" lon="10.954149"><ele>336</ele></trkpt>
            <trkpt lat="51.782641" lon="10.95415"><ele>336</ele></trkpt>
            <trkpt lat="51.782694" lon="10.954161"><ele>336</ele></trkpt>
            <trkpt lat="51.782641" lon="10.95415"><ele>336</ele></trkpt>
            <trkpt lat="51.782614" lon="10.954149"><ele>336</ele></trkpt>
            <trkpt lat="51.782624" lon="10.954096"><ele>336</ele></trkpt>
            <trkpt lat="51.782747" lon="10.95397"><ele>336</ele></trkpt>
            <trkpt lat="51.782873" lon="10.953762"><ele>336</ele></trkpt>
            <trkpt lat="51.782921" lon="10.953672"><ele>336</ele></trkpt>
            <trkpt lat="51.782934" lon="10.953578"><ele>336</ele></trkpt>
            <trkpt lat="51.782904" lon="10.953404"><ele>333.7</ele></trkpt>
            <trkpt lat="51.782935" lon="10.953261"><ele>333.2</ele></trkpt>
            <trkpt lat="51.782972" lon="10.953213"><ele>333</ele></trkpt>
            <trkpt lat="51.783118" lon="10.953114"><ele>332.5</ele></trkpt>
            <trkpt lat="51.783138" lon="10.953074"><ele>331</ele></trkpt>
            <trkpt lat="51.783157" lon="10.952948"><ele>331</ele></trkpt>
            <trkpt lat="51.783146" lon="10.952701"><ele>331</ele></trkpt>
            <trkpt lat="51.783205" lon="10.952532"><ele>334.3</ele></trkpt>
            <trkpt lat="51.783453" lon="10.952248"><ele>335.4</ele></trkpt>
            <trkpt lat="51.783496" lon="10.952229"><ele>339</ele></trkpt>
            <trkpt lat="51.783575" lon="10.95226"><ele>336.9</ele></trkpt>
            <trkpt lat="51.783775" lon="10.952461"><ele>336.4</ele></trkpt>
            <trkpt lat="51.784113" lon="10.952604"><ele>335.7</ele></trkpt>
            <trkpt lat="51.784227" lon="10.952719"><ele>335.2</ele></trkpt>
            <trkpt lat="51.784311" lon="10.952863"><ele>335.5</ele></trkpt>
            <trkpt lat="51.784389" lon="10.953048"><ele>332</ele></trkpt>
            <trkpt lat="51.784446" lon="10.953323"><ele>332</ele></trkpt>
            <trkpt lat="51.784479" lon="10.95349"><ele>324</ele></trkpt>
            <trkpt lat="51.784465" lon="10.953599"><ele>323.6</ele></trkpt>
            <trkpt lat="51.784466" lon="10.953777"><ele>323.6</ele></trkpt>
            <trkpt lat="51.7845" lon="10.954043"><ele>323.6</ele></trkpt>
            <trkpt lat="51.784544" lon="10.95428"><ele>323.5</ele></trkpt>
            <trkpt lat="51.78466" lon="10.954705"><ele>323.1</ele></trkpt>
            <trkpt lat="51.784721" lon="10.955167"><ele>323.3</ele></trkpt>
            <trkpt lat="51.784691" lon="10.955667"><ele>323.4</ele></trkpt>
            <trkpt lat="51.784574" lon="10.956029"><ele>322.8</ele></trkpt>
            <trkpt lat="51.784355" lon="10.956523"><ele>319</ele></trkpt>
            <trkpt lat="51.784272" lon="10.956966"><ele>313.1</ele></trkpt>
            <trkpt lat="51.784196" lon="10.957286"><ele>313.1</ele></trkpt>
            <trkpt lat="51.784118" lon="10.957523"><ele>312.5</ele></trkpt>
            <trkpt lat="51.7841" lon="10.957689"><ele>312</ele></trkpt>
            <trkpt lat="51.784122" lon="10.957751"><ele>309</ele></trkpt>
            <trkpt lat="51.784355" lon="10.958103"><ele>306.6</ele></trkpt>
            <trkpt lat="51.78452" lon="10.958177"><ele>306</ele></trkpt>
            <trkpt lat="51.784612" lon="10.9584"><ele>298</ele></trkpt>
            <trkpt lat="51.784805" lon="10.958477"><ele>296.5</ele></trkpt>
            <trkpt lat="51.784903" lon="10.958544"><ele>296.7</ele></trkpt>
            <trkpt lat="51.785016" lon="10.958767"><ele>296.3</ele></trkpt>
            <trkpt lat="51.785038" lon="10.958873"><ele>293</ele></trkpt>
            <trkpt lat="51.785087" lon="10.958977"><ele>293</ele></trkpt>
            <trkpt lat="51.785101" lon="10.959436"><ele>296.5</ele></trkpt>
            <trkpt lat="51.785075" lon="10.960001"><ele>297.1</ele></trkpt>
            <trkpt lat="51.784971" lon="10.960586"><ele>297.9</ele></trkpt>
            <trkpt lat="51.784668" lon="10.96147"><ele>300</ele></trkpt>
            <trkpt lat="51.784575" lon="10.961862"><ele>294.5</ele></trkpt>
            <trkpt lat="51.784503" lon="10.962834"><ele>289.8</ele></trkpt>
            <trkpt lat="51.784487" lon="10.963219"><ele>289.5</ele></trkpt>
            <trkpt lat="51.784503" lon="10.964078"><ele>282.9</ele></trkpt>
            <trkpt lat="51.784436" lon="10.964852"><ele>281.2</ele></trkpt>
            <trkpt lat="51.784183" lon="10.965723"><ele>276</ele></trkpt>
            <trkpt lat="51.784077" lon="10.966139"><ele>271</ele></trkpt>
            <trkpt lat="51.784174" lon="10.966413"><ele>268</ele></trkpt>
            <trkpt lat="51.78428" lon="10.96668"><ele>266.5</ele></trkpt>
            <trkpt lat="51.784336" lon="10.966782"><ele>266</ele></trkpt>
            <trkpt lat="51.784381" lon="10.96685"><ele>266</ele></trkpt>
            <trkpt lat="51.784522" lon="10.96657"><ele>268</ele></trkpt>
            <trkpt lat="51.784564" lon="10.966611"><ele>268</ele></trkpt>
            <trkpt lat="51.784613" lon="10.966666"><ele>268</ele></trkpt>
            <trkpt lat="51.784437" lon="10.967069"><ele>266.5</ele></trkpt>
            <trkpt lat="51.784339" lon="10.967441"><ele>266</ele></trkpt>
            <trkpt lat="51.784468" lon="10.967542"><ele>266.1</ele></trkpt>
            <trkpt lat="51.7845" lon="10.96754"><ele>266.3</ele></trkpt>
            <trkpt lat="51.784689" lon="10.967148"><ele>266.2</ele></trkpt>
            <trkpt lat="51.784821" lon="10.966963"><ele>266.2</ele></trkpt>
            <trkpt lat="51.78508" lon="10.966371"><ele>266</ele></trkpt>
            <trkpt lat="51.785111" lon="10.966345"><ele>265.8</ele></trkpt>
            <trkpt lat="51.785136" lon="10.966353"><ele>264</ele></trkpt>
            <trkpt lat="51.785398" lon="10.96665"><ele>264</ele></trkpt>
            <trkpt lat="51.785461" lon="10.966742"><ele>268.4</ele></trkpt>
            <trkpt lat="51.785658" lon="10.96693"><ele>268.2</ele></trkpt>
            <trkpt lat="51.785693" lon="10.967028"><ele>268</ele></trkpt>
            <trkpt lat="51.785685" lon="10.967082"><ele>269</ele></trkpt>
            <trkpt lat="51.785872" lon="10.96729"><ele>286</ele></trkpt>
            <trkpt lat="51.785754" lon="10.967566"><ele>277.8</ele></trkpt>
            <trkpt lat="51.785632" lon="10.967978"><ele>275</ele></trkpt>
            <trkpt lat="51.785537" lon="10.968328"><ele>277.3</ele></trkpt>
            <trkpt lat="51.785457" lon="10.968556"><ele>282</ele></trkpt>
            <trkpt lat="51.785396" lon="10.968778"><ele>282</ele></trkpt>
            <trkpt lat="51.785391" lon="10.969212"><ele>290.3</ele></trkpt>
            <trkpt lat="51.785342" lon="10.969704"><ele>290.8</ele></trkpt>
            <trkpt lat="51.785326" lon="10.970018"><ele>291.2</ele></trkpt>
            <trkpt lat="51.78535" lon="10.970225"><ele>290.9</ele></trkpt>
            <trkpt lat="51.785339" lon="10.970426"><ele>290.5</ele></trkpt>
            <trkpt lat="51.785321" lon="10.970492"><ele>294</ele></trkpt>
            <trkpt lat="51.785274" lon="10.970664"><ele>290.7</ele></trkpt>
            <trkpt lat="51.785228" lon="10.970747"><ele>290.4</ele></trkpt>
            <trkpt lat="51.785217" lon="10.970852"><ele>290</ele></trkpt>
            <trkpt lat="51.78512" lon="10.971111"><ele>289.1</ele></trkpt>
            <trkpt lat="51.784925" lon="10.971835"><ele>287</ele></trkpt>
            <trkpt lat="51.784884" lon="10.97213"><ele>287.5</ele></trkpt>
            <trkpt lat="51.784786" lon="10.972441"><ele>282</ele></trkpt>
            <trkpt lat="51.784711" lon="10.972639"><ele>288.5</ele></trkpt>
            <trkpt lat="51.784535" lon="10.973213"><ele>286.6</ele></trkpt>
            <trkpt lat="51.784458" lon="10.973589"><ele>285.4</ele></trkpt>
            <trkpt lat="51.784174" lon="10.974368"><ele>283.4</ele></trkpt>
            <trkpt lat="51.78403" lon="10.974694"><ele>282</ele></trkpt>
            <trkpt lat="51.783916" lon="10.975055"><ele>282.2</ele></trkpt>
            <trkpt lat="51.783786" lon="10.97525"><ele>282.1</ele></trkpt>
            <trkpt lat="51.783614" lon="10.975568"><ele>279</ele></trkpt>
            <trkpt lat="51.783365" lon="10.976219"><ele>273.4</ele></trkpt>
            <trkpt lat="51.783357" lon="10.976404"><ele>271.9</ele></trkpt>
            <trkpt lat="51.783117" lon="10.977221"><ele>273.6</ele></trkpt>
            <trkpt lat="51.783053" lon="10.977346"><ele>274.5</ele></trkpt>
            <trkpt lat="51.782916" lon="10.977696"><ele>273.2</ele></trkpt>
            <trkpt lat="51.782757" lon="10.978259"><ele>272.5</ele></trkpt>
            <trkpt lat="51.782713" lon="10.978643"><ele>272.4</ele></trkpt>
            <trkpt lat="51.782644" lon="10.978877"><ele>271.8</ele></trkpt>
            <trkpt lat="51.782621" lon="10.979046"><ele>271.4</ele></trkpt>
            <trkpt lat="51.78243" lon="10.979565"><ele>269.8</ele></trkpt>
            <trkpt lat="51.782382" lon="10.979773"><ele>259</ele></trkpt>
            <trkpt lat="51.782256" lon="10.980101"><ele>262.2</ele></trkpt>
            <trkpt lat="51.78214" lon="10.980186"><ele>261.8</ele></trkpt>
            <trkpt lat="51.782056" lon="10.980434"><ele>261.4</ele></trkpt>
            <trkpt lat="51.781853" lon="10.980579"><ele>260.9</ele></trkpt>
            <trkpt lat="51.781737" lon="10.980708"><ele>260.3</ele></trkpt>
            <trkpt lat="51.781669" lon="10.980979"><ele>259.9</ele></trkpt>
            <trkpt lat="51.781649" lon="10.981223"><ele>257.9</ele></trkpt>
            <trkpt lat="51.781538" lon="10.981485"><ele>257.3</ele></trkpt>
            <trkpt lat="51.781167" lon="10.982133"><ele>254.3</ele></trkpt>
            <trkpt lat="51.780941" lon="10.982371"><ele>253.4</ele></trkpt>
            <trkpt lat="51.780765" lon="10.982681"><ele>251.7</ele></trkpt>
            <trkpt lat="51.780569" lon="10.983139"><ele>250.9</ele></trkpt>
            <trkpt lat="51.780477" lon="10.983428"><ele>251.5</ele></trkpt>
            <trkpt lat="51.780431" lon="10.983516"><ele>251.7</ele></trkpt>
            <trkpt lat="51.780417" lon="10.983603"><ele>250</ele></trkpt>
            <trkpt lat="51.780315" lon="10.983704"><ele>246.5</ele></trkpt>
            <trkpt lat="51.780312" lon="10.983838"><ele>246.2</ele></trkpt>
            <trkpt lat="51.779961" lon="10.984598"><ele>244.8</ele></trkpt>
            <trkpt lat="51.779701" lon="10.984958"><ele>245.4</ele></trkpt>
            <trkpt lat="51.7795" lon="10.985379"><ele>244</ele></trkpt>
            <trkpt lat="51.7793" lon="10.985805"><ele>245.7</ele></trkpt>
            <trkpt lat="51.779262" lon="10.985968"><ele>249</ele></trkpt>
            <trkpt lat="51.779083" lon="10.9865"><ele>241.4</ele></trkpt>
            <trkpt lat="51.779035" lon="10.986748"><ele>242.2</ele></trkpt>
            <trkpt lat="51.779016" lon="10.987145"><ele>240</ele></trkpt>
            <trkpt lat="51.77898" lon="10.98742"><ele>246.2</ele></trkpt>
            <trkpt lat="51.778911" lon="10.988229"><ele>247.5</ele></trkpt>
            <trkpt lat="51.778857" lon="10.988567"><ele>247.7</ele></trkpt>
            <trkpt lat="51.778708" lon="10.989254"><ele>245.6</ele></trkpt>
            <trkpt lat="51.778588" lon="10.989988"><ele>245</ele></trkpt>
            <trkpt lat="51.77852" lon="10.990289"><ele>244.5</ele></trkpt>
            <trkpt lat="51.778407" lon="10.990668"><ele>243.6</ele></trkpt>
            <trkpt lat="51.778249" lon="10.990947"><ele>234</ele></trkpt>
            <trkpt lat="51.778126" lon="10.991175"><ele>234</ele></trkpt>
            <trkpt lat="51.778197" lon="10.991467"><ele>232.1</ele></trkpt>
            <trkpt lat="51.778202" lon="10.99159"><ele>231.9</ele></trkpt>
            <trkpt lat="51.778235" lon="10.991726"><ele>231.8</ele></trkpt>
            <trkpt lat="51.778275" lon="10.992036"><ele>231.9</ele></trkpt>
            <trkpt lat="51.778273" lon="10.992369"><ele>232.1</ele></trkpt>
            <trkpt lat="51.778324" lon="10.992905"><ele>232</ele></trkpt>
            <trkpt lat="51.778352" lon="10.993006"><ele>239</ele></trkpt>
            <trkpt lat="51.778436" lon="10.993337"><ele>236.3</ele></trkpt>
            <trkpt lat="51.778455" lon="10.993789"><ele>235</ele></trkpt>
            <trkpt lat="51.778404" lon="10.994165"><ele>236.9</ele></trkpt>
            <trkpt lat="51.778315" lon="10.994497"><ele>236.5</ele></trkpt>
            <trkpt lat="51.778177" lon="10.994926"><ele>236.4</ele></trkpt>
            <trkpt lat="51.778104" lon="10.995252"><ele>236.5</ele></trkpt>
            <trkpt lat="51.778" lon="10.996051"><ele>237.7</ele></trkpt>
            <trkpt lat="51.77794" lon="10.996192"><ele>241</ele></trkpt>
            <trkpt lat="51.777761" lon="10.996277"><ele>241</ele></trkpt>
            <trkpt lat="51.777705" lon="10.996337"><ele>241</ele></trkpt>
            <trkpt lat="51.777593" lon="10.996602"><ele>241</ele></trkpt>
            <trkpt lat="51.777485" lon="10.996708"><ele>231</ele></trkpt>
            <trkpt lat="51.777445" lon="10.997062"><ele>231</ele></trkpt>
            <trkpt lat="51.777412" lon="10.997349"><ele>234</ele></trkpt>
            <trkpt lat="51.777347" lon="10.997566"><ele>234.1</ele></trkpt>
            <trkpt lat="51.777254" lon="10.99801"><ele>234.4</ele></trkpt>
            <trkpt lat="51.777265" lon="10.9982"><ele>234.3</ele></trkpt>
            <trkpt lat="51.777124" lon="10.999025"><ele>235.3</ele></trkpt>
            <trkpt lat="51.777095" lon="10.999326"><ele>235.7</ele></trkpt>
            <trkpt lat="51.777105" lon="11.000145"><ele>236.6</ele></trkpt>
            <trkpt lat="51.777086" lon="11.000507"><ele>237.5</ele></trkpt>
            <trkpt lat="51.777053" lon="11.000746"><ele>239</ele></trkpt>
            <trkpt lat="51.776992" lon="11.001076"><ele>240</ele></trkpt>
            <trkpt lat="51.776921" lon="11.001172"><ele>240</ele></trkpt>
        </trkseg>
    </trk>
</gpx>
