<?xml version="1.0" encoding="UTF-8"?>
<gpx version="1.1" creator="HWN Route Compare (OpenRouteService)" xmlns="http://www.topografix.com/GPX/1/1">
    <metadata>
        <name>OpenRouteService – Tour D7</name>
    </metadata>
    <trk>
        <name>OpenRouteService – Tour D7</name>
        <trkseg>
            <trkpt lat="51.717233" lon="11.002205"><ele>473</ele></trkpt>
            <trkpt lat="51.717183" lon="11.0022"><ele>473</ele></trkpt>
            <trkpt lat="51.717096" lon="11.002245"><ele>473</ele></trkpt>
            <trkpt lat="51.717047" lon="11.002421"><ele>473</ele></trkpt>
            <trkpt lat="51.716584" lon="11.001935"><ele>472</ele></trkpt>
            <trkpt lat="51.71582" lon="11.001216"><ele>467</ele></trkpt>
            <trkpt lat="51.71558" lon="11.000935"><ele>461.4</ele></trkpt>
            <trkpt lat="51.715143" lon="11.000311"><ele>458.4</ele></trkpt>
            <trkpt lat="51.714865" lon="11.000048"><ele>457.1</ele></trkpt>
            <trkpt lat="51.714267" lon="10.999617"><ele>449.5</ele></trkpt>
            <trkpt lat="51.714102" lon="10.999472"><ele>447.5</ele></trkpt>
            <trkpt lat="51.714002" lon="10.999335"><ele>446.2</ele></trkpt>
            <trkpt lat="51.713896" lon="10.999074"><ele>444</ele></trkpt>
            <trkpt lat="51.713705" lon="10.998492"><ele>441.5</ele></trkpt>
            <trkpt lat="51.713593" lon="10.998264"><ele>439.6</ele></trkpt>
            <trkpt lat="51.713496" lon="10.997944"><ele>438.9</ele></trkpt>
            <trkpt lat="51.713286" lon="10.996876"><ele>437.1</ele></trkpt>
            <trkpt lat="51.713217" lon="10.996371"><ele>436.2</ele></trkpt>
            <trkpt lat="51.713208" lon="10.996136"><ele>436.4</ele></trkpt>
            <trkpt lat="51.713219" lon="10.995902"><ele>436.7</ele></trkpt>
            <trkpt lat="51.713316" lon="10.994853"><ele>435.1</ele></trkpt>
            <trkpt lat="51.713304" lon="10.994655"><ele>426</ele></trkpt>
            <trkpt lat="51.713105" lon="10.994199"><ele>427.1</ele></trkpt>
            <trkpt lat="51.712949" lon="10.99392"><ele>426.5</ele></trkpt>
            <trkpt lat="51.712733" lon="10.993698"><ele>426.2</ele></trkpt>
            <trkpt lat="51.712325" lon="10.993329"><ele>427.6</ele></trkpt>
            <trkpt lat="51.712217" lon="10.993155"><ele>428.5</ele></trkpt>
            <trkpt lat="51.712084" lon="10.992834"><ele>429.1</ele></trkpt>
            <trkpt lat="51.712012" lon="10.992466"><ele>429.6</ele></trkpt>
            <trkpt lat="51.711989" lon="10.992108"><ele>430.7</ele></trkpt>
            <trkpt lat="51.711995" lon="10.991709"><ele>431.9</ele></trkpt>
            <trkpt lat="51.711957" lon="10.991372"><ele>432.1</ele></trkpt>
            <trkpt lat="51.711879" lon="10.991108"><ele>432.3</ele></trkpt>
            <trkpt lat="51.711785" lon="10.99087"><ele>432.5</ele></trkpt>
            <trkpt lat="51.711542" lon="10.990442"><ele>430</ele></trkpt>
            <trkpt lat="51.711822" lon="10.988965"><ele>441</ele></trkpt>
            <trkpt lat="51.71253" lon="10.985068"><ele>441</ele></trkpt>
            <trkpt lat="51.71264" lon="10.984958"><ele>441</ele></trkpt>
            <trkpt lat="51.712892" lon="10.984784"><ele>439</ele></trkpt>
            <trkpt lat="51.714251" lon="10.98371"><ele>431</ele></trkpt>
            <trkpt lat="51.715209" lon="10.982932"><ele>427</ele></trkpt>
            <trkpt lat="51.715305" lon="10.982858"><ele>427</ele></trkpt>
            <trkpt lat="51.715333" lon="10.982715"><ele>424.4</ele></trkpt>
            <trkpt lat="51.715653" lon="10.981811"><ele>423.5</ele></trkpt>
            <trkpt lat="51.716486" lon="10.979627"><ele>400</ele></trkpt>
            <trkpt lat="51.716605" lon="10.979255"><ele>394.7</ele></trkpt>
            <trkpt lat="51.716655" lon="10.979179"><ele>395.2</ele></trkpt>
            <trkpt lat="51.716755" lon="10.978945"><ele>395.6</ele></trkpt>
            <trkpt lat="51.716797" lon="10.978793"><ele>396.4</ele></trkpt>
            <trkpt lat="51.716874" lon="10.97867"><ele>396.7</ele></trkpt>
            <trkpt lat="51.716898" lon="10.978528"><ele>397</ele></trkpt>
            <trkpt lat="51.71697" lon="10.978316"><ele>370</ele></trkpt>
            <trkpt lat="51.717003" lon="10.978085"><ele>370</ele></trkpt>
            <trkpt lat="51.716967" lon="10.978019"><ele>370</ele></trkpt>
            <trkpt lat="51.716935" lon="10.97804"><ele>369</ele></trkpt>
            <trkpt lat="51.71692" lon="10.97806"><ele>369</ele></trkpt>
            <trkpt lat="51.716935" lon="10.97804"><ele>369</ele></trkpt>
            <trkpt lat="51.716967" lon="10.978019"><ele>370</ele></trkpt>
            <trkpt lat="51.717003" lon="10.978085"><ele>370</ele></trkpt>
            <trkpt lat="51.71697" lon="10.978316"><ele>370</ele></trkpt>
            <trkpt lat="51.716898" lon="10.978528"><ele>397</ele></trkpt>
            <trkpt lat="51.716874" lon="10.97867"><ele>396.7</ele></trkpt>
            <trkpt lat="51.716797" lon="10.978793"><ele>396.4</ele></trkpt>
            <trkpt lat="51.716755" lon="10.978945"><ele>395.6</ele></trkpt>
            <trkpt lat="51.716655" lon="10.979179"><ele>395.2</ele></trkpt>
            <trkpt lat="51.716605" lon="10.979255"><ele>394.7</ele></trkpt>
            <trkpt lat="51.716486" lon="10.979627"><ele>400</ele></trkpt>
            <trkpt lat="51.715653" lon="10.981811"><ele>423.5</ele></trkpt>
            <trkpt lat="51.715333" lon="10.982715"><ele>424.4</ele></trkpt>
            <trkpt lat="51.715305" lon="10.982858"><ele>427</ele></trkpt>
            <trkpt lat="51.716054" lon="10.982323"><ele>428.4</ele></trkpt>
            <trkpt lat="51.716259" lon="10.982214"><ele>428.3</ele></trkpt>
            <trkpt lat="51.71652" lon="10.982109"><ele>429</ele></trkpt>
            <trkpt lat="51.717099" lon="10.981938"><ele>429</ele></trkpt>
            <trkpt lat="51.717785" lon="10.981625"><ele>430</ele></trkpt>
            <trkpt lat="51.71838" lon="10.981484"><ele>420.3</ele></trkpt>
            <trkpt lat="51.718777" lon="10.981576"><ele>419</ele></trkpt>
            <trkpt lat="51.719256" lon="10.981802"><ele>416.7</ele></trkpt>
            <trkpt lat="51.719424" lon="10.981805"><ele>417.1</ele></trkpt>
            <trkpt lat="51.719528" lon="10.981657"><ele>417.6</ele></trkpt>
            <trkpt lat="51.719724" lon="10.981114"><ele>417.5</ele></trkpt>
            <trkpt lat="51.719987" lon="10.980185"><ele>418</ele></trkpt>
            <trkpt lat="51.720283" lon="10.979104"><ele>408.7</ele></trkpt>
            <trkpt lat="51.720406" lon="10.978909"><ele>404</ele></trkpt>
            <trkpt lat="51.720694" lon="10.978621"><ele>404</ele></trkpt>
            <trkpt lat="51.720883" lon="10.978446"><ele>397</ele></trkpt>
            <trkpt lat="51.721163" lon="10.977883"><ele>396.6</ele></trkpt>
            <trkpt lat="51.721543" lon="10.977179"><ele>396.7</ele></trkpt>
            <trkpt lat="51.721639" lon="10.977083"><ele>393</ele></trkpt>
            <trkpt lat="51.721998" lon="10.976418"><ele>393.9</ele></trkpt>
            <trkpt lat="51.722183" lon="10.976032"><ele>393.8</ele></trkpt>
            <trkpt lat="51.722444" lon="10.97583"><ele>392.8</ele></trkpt>
            <trkpt lat="51.722509" lon="10.975672"><ele>392.8</ele></trkpt>
            <trkpt lat="51.722576" lon="10.975308"><ele>391.7</ele></trkpt>
            <trkpt lat="51.722583" lon="10.975009"><ele>393</ele></trkpt>
            <trkpt lat="51.72259" lon="10.974659"><ele>377.3</ele></trkpt>
            <trkpt lat="51.72268" lon="10.974167"><ele>375.8</ele></trkpt>
            <trkpt lat="51.722874" lon="10.973876"><ele>373.5</ele></trkpt>
            <trkpt lat="51.723121" lon="10.973554"><ele>367</ele></trkpt>
            <trkpt lat="51.723182" lon="10.973426"><ele>346</ele></trkpt>
            <trkpt lat="51.723193" lon="10.973358"><ele>347.3</ele></trkpt>
            <trkpt lat="51.723171" lon="10.973269"><ele>347.4</ele></trkpt>
            <trkpt lat="51.723024" lon="10.972988"><ele>346</ele></trkpt>
            <trkpt lat="51.722911" lon="10.972885"><ele>346.2</ele></trkpt>
            <trkpt lat="51.722627" lon="10.972772"><ele>346.5</ele></trkpt>
            <trkpt lat="51.722573" lon="10.972684"><ele>346.7</ele></trkpt>
            <trkpt lat="51.722538" lon="10.972531"><ele>344.5</ele></trkpt>
            <trkpt lat="51.722458" lon="10.972389"><ele>339.8</ele></trkpt>
            <trkpt lat="51.722406" lon="10.972232"><ele>335.8</ele></trkpt>
            <trkpt lat="51.722413" lon="10.972074"><ele>332.3</ele></trkpt>
            <trkpt lat="51.722562" lon="10.971604"><ele>330</ele></trkpt>
            <trkpt lat="51.722701" lon="10.971011"><ele>320.3</ele></trkpt>
            <trkpt lat="51.722985" lon="10.970577"><ele>306.1</ele></trkpt>
            <trkpt lat="51.723113" lon="10.970456"><ele>300.7</ele></trkpt>
            <trkpt lat="51.723266" lon="10.970402"><ele>300.3</ele></trkpt>
            <trkpt lat="51.723393" lon="10.97044"><ele>302</ele></trkpt>
            <trkpt lat="51.723372" lon="10.970299"><ele>295.3</ele></trkpt>
            <trkpt lat="51.723217" lon="10.969849"><ele>293.8</ele></trkpt>
            <trkpt lat="51.723215" lon="10.969673"><ele>292.7</ele></trkpt>
            <trkpt lat="51.72324" lon="10.969526"><ele>286</ele></trkpt>
            <trkpt lat="51.722962" lon="10.969525"><ele>284</ele></trkpt>
            <trkpt lat="51.722668" lon="10.969621"><ele>284.1</ele></trkpt>
            <trkpt lat="51.722258" lon="10.969844"><ele>284.4</ele></trkpt>
            <trkpt lat="51.722177" lon="10.96992"><ele>284.5</ele></trkpt>
            <trkpt lat="51.722079" lon="10.970086"><ele>284.1</ele></trkpt>
            <trkpt lat="51.722" lon="10.970131"><ele>283.7</ele></trkpt>
            <trkpt lat="51.72191" lon="10.970182"><ele>283.2</ele></trkpt>
            <trkpt lat="51.721882" lon="10.970221"><ele>282.9</ele></trkpt>
            <trkpt lat="51.721652" lon="10.971246"><ele>282.3</ele></trkpt>
            <trkpt lat="51.721575" lon="10.971493"><ele>282.6</ele></trkpt>
            <trkpt lat="51.72148" lon="10.971654"><ele>282.3</ele></trkpt>
            <trkpt lat="51.721298" lon="10.971869"><ele>282</ele></trkpt>
            <trkpt lat="51.720828" lon="10.97252"><ele>284.6</ele></trkpt>
            <trkpt lat="51.720507" lon="10.972861"><ele>289</ele></trkpt>
            <trkpt lat="51.72032" lon="10.973212"><ele>287.4</ele></trkpt>
            <trkpt lat="51.720196" lon="10.973397"><ele>287.1</ele></trkpt>
            <trkpt lat="51.719964" lon="10.973625"><ele>286.7</ele></trkpt>
            <trkpt lat="51.719765" lon="10.973725"><ele>286.4</ele></trkpt>
            <trkpt lat="51.719345" lon="10.973887"><ele>286.2</ele></trkpt>
            <trkpt lat="51.718894" lon="10.974015"><ele>285.9</ele></trkpt>
            <trkpt lat="51.718075" lon="10.974119"><ele>286</ele></trkpt>
            <trkpt lat="51.717856" lon="10.97429"><ele>286.1</ele></trkpt>
            <trkpt lat="51.717144" lon="10.974654"><ele>283.7</ele></trkpt>
            <trkpt lat="51.716924" lon="10.974743"><ele>281.8</ele></trkpt>
            <trkpt lat="51.716599" lon="10.975181"><ele>279.4</ele></trkpt>
            <trkpt lat="51.71627" lon="10.975535"><ele>276.5</ele></trkpt>
            <trkpt lat="51.71608" lon="10.975592"><ele>276</ele></trkpt>
            <trkpt lat="51.715941" lon="10.975723"><ele>274.8</ele></trkpt>
            <trkpt lat="51.715914" lon="10.975723"><ele>271</ele></trkpt>
            <trkpt lat="51.71578" lon="10.975714"><ele>280</ele></trkpt>
            <trkpt lat="51.715707" lon="10.975704"><ele>280</ele></trkpt>
            <trkpt lat="51.715624" lon="10.975648"><ele>280</ele></trkpt>
            <trkpt lat="51.715411" lon="10.975401"><ele>280</ele></trkpt>
            <trkpt lat="51.715438" lon="10.975351"><ele>280</ele></trkpt>
            <trkpt lat="51.715767" lon="10.974688"><ele>277</ele></trkpt>
            <trkpt lat="51.715807" lon="10.974606"><ele>277</ele></trkpt>
            <trkpt lat="51.715881" lon="10.97446"><ele>274</ele></trkpt>
            <trkpt lat="51.71598" lon="10.97426"><ele>274</ele></trkpt>
            <trkpt lat="51.716022" lon="10.974289"><ele>274</ele></trkpt>
            <trkpt lat="51.716087" lon="10.974262"><ele>274</ele></trkpt>
            <trkpt lat="51.716123" lon="10.974155"><ele>276</ele></trkpt>
            <trkpt lat="51.71619" lon="10.974159"><ele>276</ele></trkpt>
            <trkpt lat="51.716367" lon="10.97412"><ele>276</ele></trkpt>
            <trkpt lat="51.716509" lon="10.974051"><ele>278.3</ele></trkpt>
            <trkpt lat="51.716742" lon="10.97389"><ele>285</ele></trkpt>
            <trkpt lat="51.716906" lon="10.973741"><ele>292.2</ele></trkpt>
            <trkpt lat="51.717148" lon="10.973454"><ele>293.2</ele></trkpt>
            <trkpt lat="51.717534" lon="10.973125"><ele>294.6</ele></trkpt>
            <trkpt lat="51.71773" lon="10.973047"><ele>294.1</ele></trkpt>
            <trkpt lat="51.71798" lon="10.97309"><ele>297</ele></trkpt>
            <trkpt lat="51.718356" lon="10.973014"><ele>302</ele></trkpt>
            <trkpt lat="51.718605" lon="10.973034"><ele>302</ele></trkpt>
            <trkpt lat="51.718785" lon="10.973004"><ele>302</ele></trkpt>
            <trkpt lat="51.719117" lon="10.972759"><ele>302</ele></trkpt>
            <trkpt lat="51.7193" lon="10.97259"><ele>302.7</ele></trkpt>
            <trkpt lat="51.719447" lon="10.972323"><ele>310</ele></trkpt>
            <trkpt lat="51.719896" lon="10.971879"><ele>307.9</ele></trkpt>
            <trkpt lat="51.720314" lon="10.971035"><ele>306.6</ele></trkpt>
            <trkpt lat="51.720599" lon="10.97086"><ele>305.7</ele></trkpt>
            <trkpt lat="51.720772" lon="10.970712"><ele>307.2</ele></trkpt>
            <trkpt lat="51.720989" lon="10.970432"><ele>304.6</ele></trkpt>
            <trkpt lat="51.72148" lon="10.969599"><ele>308.7</ele></trkpt>
            <trkpt lat="51.721626" lon="10.969121"><ele>312.8</ele></trkpt>
            <trkpt lat="51.721954" lon="10.967936"><ele>316.9</ele></trkpt>
            <trkpt lat="51.722522" lon="10.967033"><ele>314.3</ele></trkpt>
            <trkpt lat="51.723077" lon="10.966686"><ele>313.5</ele></trkpt>
            <trkpt lat="51.723626" lon="10.96664"><ele>311</ele></trkpt>
            <trkpt lat="51.723872" lon="10.9667"><ele>303</ele></trkpt>
            <trkpt lat="51.723651" lon="10.966379"><ele>301</ele></trkpt>
            <trkpt lat="51.723563" lon="10.966257"><ele>301</ele></trkpt>
            <trkpt lat="51.723556" lon="10.966203"><ele>301</ele></trkpt>
            <trkpt lat="51.723531" lon="10.96615"><ele>301</ele></trkpt>
            <trkpt lat="51.723507" lon="10.965918"><ele>301</ele></trkpt>
            <trkpt lat="51.723487" lon="10.965765"><ele>299</ele></trkpt>
            <trkpt lat="51.723437" lon="10.9658"><ele>299</ele></trkpt>
            <trkpt lat="51.723206" lon="10.965973"><ele>305.8</ele></trkpt>
            <trkpt lat="51.723115" lon="10.965942"><ele>308</ele></trkpt>
            <trkpt lat="51.723009" lon="10.965916"><ele>308</ele></trkpt>
            <trkpt lat="51.722974" lon="10.965932"><ele>308</ele></trkpt>
            <trkpt lat="51.72295" lon="10.965979"><ele>308</ele></trkpt>
            <trkpt lat="51.723004" lon="10.966007"><ele>308</ele></trkpt>
            <trkpt lat="51.723013" lon="10.966028"><ele>308</ele></trkpt>
            <trkpt lat="51.722993" lon="10.966051"><ele>308</ele></trkpt>
            <trkpt lat="51.723105" lon="10.96611"><ele>308</ele></trkpt>
            <trkpt lat="51.722993" lon="10.966051"><ele>308</ele></trkpt>
            <trkpt lat="51.723013" lon="10.966028"><ele>308</ele></trkpt>
            <trkpt lat="51.723004" lon="10.966007"><ele>308</ele></trkpt>
            <trkpt lat="51.72295" lon="10.965979"><ele>308</ele></trkpt>
            <trkpt lat="51.722974" lon="10.965932"><ele>308</ele></trkpt>
            <trkpt lat="51.723009" lon="10.965916"><ele>308</ele></trkpt>
            <trkpt lat="51.723115" lon="10.965942"><ele>308</ele></trkpt>
            <trkpt lat="51.723206" lon="10.965973"><ele>305.8</ele></trkpt>
            <trkpt lat="51.723437" lon="10.9658"><ele>299</ele></trkpt>
            <trkpt lat="51.723487" lon="10.965765"><ele>299</ele></trkpt>
            <trkpt lat="51.723507" lon="10.965918"><ele>301</ele></trkpt>
            <trkpt lat="51.723531" lon="10.96615"><ele>301</ele></trkpt>
            <trkpt lat="51.723556" lon="10.966203"><ele>301</ele></trkpt>
            <trkpt lat="51.723723" lon="10.966229"><ele>309.9</ele></trkpt>
            <trkpt lat="51.724057" lon="10.96635"><ele>315.9</ele></trkpt>
            <trkpt lat="51.724175" lon="10.966436"><ele>319</ele></trkpt>
            <trkpt lat="51.724279" lon="10.966552"><ele>321</ele></trkpt>
            <trkpt lat="51.724442" lon="10.966626"><ele>321.7</ele></trkpt>
            <trkpt lat="51.724687" lon="10.966592"><ele>322.6</ele></trkpt>
            <trkpt lat="51.724759" lon="10.966603"><ele>323</ele></trkpt>
            <trkpt lat="51.724899" lon="10.966681"><ele>326</ele></trkpt>
            <trkpt lat="51.725217" lon="10.967004"><ele>329.9</ele></trkpt>
            <trkpt lat="51.725372" lon="10.967268"><ele>330.6</ele></trkpt>
            <trkpt lat="51.725428" lon="10.967329"><ele>331.1</ele></trkpt>
            <trkpt lat="51.725864" lon="10.96758"><ele>333</ele></trkpt>
            <trkpt lat="51.726244" lon="10.967865"><ele>334.4</ele></trkpt>
            <trkpt lat="51.726498" lon="10.968104"><ele>334.1</ele></trkpt>
            <trkpt lat="51.726622" lon="10.96817"><ele>340</ele></trkpt>
            <trkpt lat="51.727276" lon="10.968062"><ele>368.9</ele></trkpt>
            <trkpt lat="51.727857" lon="10.967871"><ele>373</ele></trkpt>
            <trkpt lat="51.727913" lon="10.967738"><ele>374.7</ele></trkpt>
            <trkpt lat="51.727954" lon="10.967347"><ele>378.9</ele></trkpt>
            <trkpt lat="51.728024" lon="10.967092"><ele>379.2</ele></trkpt>
            <trkpt lat="51.728173" lon="10.966821"><ele>380.9</ele></trkpt>
            <trkpt lat="51.72828" lon="10.966675"><ele>380.8</ele></trkpt>
            <trkpt lat="51.728477" lon="10.9666"><ele>382.9</ele></trkpt>
            <trkpt lat="51.728632" lon="10.96641"><ele>383.2</ele></trkpt>
            <trkpt lat="51.72879" lon="10.966107"><ele>384.5</ele></trkpt>
            <trkpt lat="51.72894" lon="10.965887"><ele>386</ele></trkpt>
            <trkpt lat="51.729048" lon="10.96588"><ele>386.5</ele></trkpt>
            <trkpt lat="51.72931" lon="10.965967"><ele>387.8</ele></trkpt>
            <trkpt lat="51.7296" lon="10.965938"><ele>389.4</ele></trkpt>
            <trkpt lat="51.729728" lon="10.96597"><ele>389.3</ele></trkpt>
            <trkpt lat="51.729905" lon="10.966194"><ele>389.7</ele></trkpt>
            <trkpt lat="51.730133" lon="10.966645"><ele>390.8</ele></trkpt>
            <trkpt lat="51.730333" lon="10.967152"><ele>391.3</ele></trkpt>
            <trkpt lat="51.730648" lon="10.967272"><ele>396</ele></trkpt>
            <trkpt lat="51.730448" lon="10.966964"><ele>396.7</ele></trkpt>
            <trkpt lat="51.730269" lon="10.966515"><ele>396.3</ele></trkpt>
            <trkpt lat="51.730097" lon="10.965985"><ele>396.3</ele></trkpt>
            <trkpt lat="51.729876" lon="10.965655"><ele>396.2</ele></trkpt>
            <trkpt lat="51.729422" lon="10.965402"><ele>395.8</ele></trkpt>
            <trkpt lat="51.729163" lon="10.965381"><ele>393</ele></trkpt>
            <trkpt lat="51.729261" lon="10.965197"><ele>397.1</ele></trkpt>
            <trkpt lat="51.729542" lon="10.964348"><ele>397.5</ele></trkpt>
            <trkpt lat="51.729777" lon="10.963507"><ele>401</ele></trkpt>
            <trkpt lat="51.730514" lon="10.961221"><ele>421.1</ele></trkpt>
            <trkpt lat="51.730612" lon="10.96113"><ele>421.9</ele></trkpt>
            <trkpt lat="51.731408" lon="10.960912"><ele>425.7</ele></trkpt>
            <trkpt lat="51.731958" lon="10.960607"><ele>437</ele></trkpt>
            <trkpt lat="51.731873" lon="10.960209"><ele>429.8</ele></trkpt>
            <trkpt lat="51.731781" lon="10.959406"><ele>428.1</ele></trkpt>
            <trkpt lat="51.731746" lon="10.958926"><ele>426.6</ele></trkpt>
            <trkpt lat="51.731816" lon="10.957823"><ele>423.6</ele></trkpt>
            <trkpt lat="51.73187" lon="10.957505"><ele>422.6</ele></trkpt>
            <trkpt lat="51.731878" lon="10.957188"><ele>420.7</ele></trkpt>
            <trkpt lat="51.731923" lon="10.956864"><ele>420.2</ele></trkpt>
            <trkpt lat="51.73202" lon="10.956511"><ele>415</ele></trkpt>
            <trkpt lat="51.731971" lon="10.956323"><ele>415</ele></trkpt>
            <trkpt lat="51.731929" lon="10.955431"><ele>416.9</ele></trkpt>
            <trkpt lat="51.731973" lon="10.95473"><ele>417.8</ele></trkpt>
            <trkpt lat="51.731977" lon="10.954226"><ele>426</ele></trkpt>
            <trkpt lat="51.731409" lon="10.953085"><ele>425.4</ele></trkpt>
            <trkpt lat="51.73138" lon="10.952981"><ele>425.7</ele></trkpt>
            <trkpt lat="51.731337" lon="10.952663"><ele>426</ele></trkpt>
            <trkpt lat="51.731275" lon="10.952353"><ele>426.4</ele></trkpt>
            <trkpt lat="51.731187" lon="10.952106"><ele>429</ele></trkpt>
            <trkpt lat="51.731151" lon="10.952055"><ele>429</ele></trkpt>
            <trkpt lat="51.731086" lon="10.952014"><ele>429</ele></trkpt>
            <trkpt lat="51.730875" lon="10.951961"><ele>429</ele></trkpt>
            <trkpt lat="51.730858" lon="10.951902"><ele>413.2</ele></trkpt>
            <trkpt lat="51.730782" lon="10.951803"><ele>412.8</ele></trkpt>
            <trkpt lat="51.730707" lon="10.951801"><ele>412.5</ele></trkpt>
            <trkpt lat="51.730666" lon="10.95177"><ele>412.3</ele></trkpt>
            <trkpt lat="51.730675" lon="10.951582"><ele>411.7</ele></trkpt>
            <trkpt lat="51.730623" lon="10.951508"><ele>410.8</ele></trkpt>
            <trkpt lat="51.730584" lon="10.951207"><ele>410.8</ele></trkpt>
            <trkpt lat="51.730433" lon="10.950995"><ele>410.8</ele></trkpt>
            <trkpt lat="51.730389" lon="10.95081"><ele>410.9</ele></trkpt>
            <trkpt lat="51.730312" lon="10.950677"><ele>411</ele></trkpt>
            <trkpt lat="51.730293" lon="10.950541"><ele>411.3</ele></trkpt>
            <trkpt lat="51.730249" lon="10.950446"><ele>411.4</ele></trkpt>
            <trkpt lat="51.730184" lon="10.950222"><ele>411.4</ele></trkpt>
            <trkpt lat="51.730195" lon="10.95011"><ele>411.5</ele></trkpt>
            <trkpt lat="51.730178" lon="10.950022"><ele>411</ele></trkpt>
            <trkpt lat="51.73013" lon="10.949899"><ele>409.7</ele></trkpt>
            <trkpt lat="51.730089" lon="10.949687"><ele>408.8</ele></trkpt>
            <trkpt lat="51.730036" lon="10.949586"><ele>407</ele></trkpt>
            <trkpt lat="51.730038" lon="10.949546"><ele>396</ele></trkpt>
            <trkpt lat="51.730037" lon="10.94957"><ele>401.5</ele></trkpt>
            <trkpt lat="51.730038" lon="10.949546"><ele>396</ele></trkpt>
            <trkpt lat="51.730099" lon="10.949557"><ele>394.9</ele></trkpt>
            <trkpt lat="51.73036" lon="10.949353"><ele>395.1</ele></trkpt>
            <trkpt lat="51.730693" lon="10.949048"><ele>394.4</ele></trkpt>
            <trkpt lat="51.730909" lon="10.949053"><ele>393.9</ele></trkpt>
            <trkpt lat="51.731089" lon="10.949014"><ele>394.3</ele></trkpt>
            <trkpt lat="51.73127" lon="10.949018"><ele>394.7</ele></trkpt>
            <trkpt lat="51.731683" lon="10.949138"><ele>396.4</ele></trkpt>
            <trkpt lat="51.731907" lon="10.949155"><ele>411</ele></trkpt>
            <trkpt lat="51.732016" lon="10.949005"><ele>411</ele></trkpt>
            <trkpt lat="51.731983" lon="10.948945"><ele>411</ele></trkpt>
            <trkpt lat="51.732024" lon="10.948894"><ele>411</ele></trkpt>
            <trkpt lat="51.732005" lon="10.94882"><ele>411</ele></trkpt>
            <trkpt lat="51.732029" lon="10.948735"><ele>411</ele></trkpt>
            <trkpt lat="51.732086" lon="10.948636"><ele>411</ele></trkpt>
            <trkpt lat="51.731791" lon="10.948262"><ele>395.1</ele></trkpt>
            <trkpt lat="51.731634" lon="10.948006"><ele>390.3</ele></trkpt>
            <trkpt lat="51.731444" lon="10.947886"><ele>387.2</ele></trkpt>
            <trkpt lat="51.731131" lon="10.947744"><ele>379.6</ele></trkpt>
            <trkpt lat="51.730972" lon="10.947633"><ele>374.9</ele></trkpt>
            <trkpt lat="51.730826" lon="10.947475"><ele>367.6</ele></trkpt>
            <trkpt lat="51.730615" lon="10.947336"><ele>367.4</ele></trkpt>
            <trkpt lat="51.73043" lon="10.947137"><ele>365</ele></trkpt>
            <trkpt lat="51.730246" lon="10.947082"><ele>362.3</ele></trkpt>
            <trkpt lat="51.730115" lon="10.946872"><ele>359.2</ele></trkpt>
            <trkpt lat="51.729999" lon="10.946738"><ele>358.2</ele></trkpt>
            <trkpt lat="51.72979" lon="10.94665"><ele>359.4</ele></trkpt>
            <trkpt lat="51.729638" lon="10.946491"><ele>340</ele></trkpt>
            <trkpt lat="51.729329" lon="10.946033"><ele>333.2</ele></trkpt>
            <trkpt lat="51.729174" lon="10.945623"><ele>329.7</ele></trkpt>
            <trkpt lat="51.729189" lon="10.945319"><ele>328.1</ele></trkpt>
            <trkpt lat="51.729125" lon="10.945236"><ele>325.3</ele></trkpt>
            <trkpt lat="51.728661" lon="10.94537"><ele>323</ele></trkpt>
            <trkpt lat="51.728514" lon="10.945376"><ele>322.5</ele></trkpt>
            <trkpt lat="51.728338" lon="10.945273"><ele>320.1</ele></trkpt>
            <trkpt lat="51.728259" lon="10.945257"><ele>319.4</ele></trkpt>
            <trkpt lat="51.728071" lon="10.945387"><ele>320</ele></trkpt>
            <trkpt lat="51.727787" lon="10.945383"><ele>319.9</ele></trkpt>
            <trkpt lat="51.727759" lon="10.945439"><ele>310</ele></trkpt>
            <trkpt lat="51.727598" lon="10.945367"><ele>307.4</ele></trkpt>
            <trkpt lat="51.72746" lon="10.945352"><ele>299</ele></trkpt>
            <trkpt lat="51.727388" lon="10.94536"><ele>299</ele></trkpt>
            <trkpt lat="51.727164" lon="10.945366"><ele>299</ele></trkpt>
            <trkpt lat="51.72698" lon="10.945306"><ele>299</ele></trkpt>
            <trkpt lat="51.726659" lon="10.945062"><ele>299</ele></trkpt>
            <trkpt lat="51.726468" lon="10.944844"><ele>299</ele></trkpt>
            <trkpt lat="51.726175" lon="10.944465"><ele>299</ele></trkpt>
            <trkpt lat="51.726128" lon="10.944322"><ele>299</ele></trkpt>
            <trkpt lat="51.726096" lon="10.944099"><ele>299</ele></trkpt>
            <trkpt lat="51.726103" lon="10.943946"><ele>299</ele></trkpt>
            <trkpt lat="51.725809" lon="10.943834"><ele>311</ele></trkpt>
            <trkpt lat="51.725663" lon="10.943769"><ele>311</ele></trkpt>
            <trkpt lat="51.725361" lon="10.943633"><ele>311</ele></trkpt>
            <trkpt lat="51.725199" lon="10.943581"><ele>311</ele></trkpt>
            <trkpt lat="51.725175" lon="10.943508"><ele>311</ele></trkpt>
            <trkpt lat="51.725124" lon="10.943362"><ele>311</ele></trkpt>
            <trkpt lat="51.725104" lon="10.943028"><ele>322</ele></trkpt>
            <trkpt lat="51.725082" lon="10.942845"><ele>329.1</ele></trkpt>
            <trkpt lat="51.725127" lon="10.942425"><ele>330.8</ele></trkpt>
            <trkpt lat="51.725268" lon="10.941843"><ele>334.2</ele></trkpt>
            <trkpt lat="51.725561" lon="10.940752"><ele>339</ele></trkpt>
            <trkpt lat="51.725774" lon="10.940096"><ele>341.8</ele></trkpt>
            <trkpt lat="51.725799" lon="10.939919"><ele>349</ele></trkpt>
            <trkpt lat="51.72583" lon="10.939694"><ele>347.4</ele></trkpt>
            <trkpt lat="51.725914" lon="10.938454"><ele>344.3</ele></trkpt>
            <trkpt lat="51.726043" lon="10.937303"><ele>341.7</ele></trkpt>
            <trkpt lat="51.726073" lon="10.936911"><ele>343</ele></trkpt>
            <trkpt lat="51.72609" lon="10.936071"><ele>343.2</ele></trkpt>
            <trkpt lat="51.726025" lon="10.934401"><ele>343.6</ele></trkpt>
            <trkpt lat="51.726022" lon="10.933863"><ele>344.1</ele></trkpt>
            <trkpt lat="51.726087" lon="10.933332"><ele>342.3</ele></trkpt>
            <trkpt lat="51.726153" lon="10.932968"><ele>343.3</ele></trkpt>
            <trkpt lat="51.726314" lon="10.932628"><ele>344.2</ele></trkpt>
            <trkpt lat="51.726539" lon="10.932252"><ele>346.1</ele></trkpt>
            <trkpt lat="51.726839" lon="10.931673"><ele>320</ele></trkpt>
            <trkpt lat="51.727187" lon="10.931067"><ele>336</ele></trkpt>
            <trkpt lat="51.727338" lon="10.930712"><ele>337</ele></trkpt>
            <trkpt lat="51.727433" lon="10.930308"><ele>336.9</ele></trkpt>
            <trkpt lat="51.727503" lon="10.929824"><ele>335</ele></trkpt>
            <trkpt lat="51.727666" lon="10.929135"><ele>353.2</ele></trkpt>
            <trkpt lat="51.727706" lon="10.928849"><ele>356.1</ele></trkpt>
            <trkpt lat="51.727776" lon="10.928001"><ele>357.2</ele></trkpt>
            <trkpt lat="51.727968" lon="10.927439"><ele>357.5</ele></trkpt>
            <trkpt lat="51.728322" lon="10.926566"><ele>353.4</ele></trkpt>
            <trkpt lat="51.728438" lon="10.926079"><ele>334</ele></trkpt>
            <trkpt lat="51.728482" lon="10.926026"><ele>334</ele></trkpt>
            <trkpt lat="51.728606" lon="10.925938"><ele>334</ele></trkpt>
            <trkpt lat="51.728846" lon="10.925862"><ele>334</ele></trkpt>
            <trkpt lat="51.728956" lon="10.925859"><ele>334</ele></trkpt>
            <trkpt lat="51.729166" lon="10.925863"><ele>350.7</ele></trkpt>
            <trkpt lat="51.729389" lon="10.925801"><ele>352.5</ele></trkpt>
            <trkpt lat="51.729497" lon="10.9258"><ele>359</ele></trkpt>
            <trkpt lat="51.729611" lon="10.925859"><ele>334</ele></trkpt>
            <trkpt lat="51.729778" lon="10.925983"><ele>337.4</ele></trkpt>
            <trkpt lat="51.73005" lon="10.926293"><ele>348</ele></trkpt>
            <trkpt lat="51.73017" lon="10.926327"><ele>342.1</ele></trkpt>
            <trkpt lat="51.730356" lon="10.926495"><ele>341</ele></trkpt>
            <trkpt lat="51.730632" lon="10.926977"><ele>336.5</ele></trkpt>
            <trkpt lat="51.730846" lon="10.927455"><ele>337</ele></trkpt>
            <trkpt lat="51.731" lon="10.928066"><ele>334.6</ele></trkpt>
            <trkpt lat="51.731007" lon="10.928159"><ele>334.9</ele></trkpt>
            <trkpt lat="51.731115" lon="10.928473"><ele>332.2</ele></trkpt>
            <trkpt lat="51.731335" lon="10.929337"><ele>333</ele></trkpt>
            <trkpt lat="51.731398" lon="10.929655"><ele>331.1</ele></trkpt>
            <trkpt lat="51.731464" lon="10.930287"><ele>328</ele></trkpt>
            <trkpt lat="51.731447" lon="10.930453"><ele>336.3</ele></trkpt>
            <trkpt lat="51.731332" lon="10.930685"><ele>340.7</ele></trkpt>
            <trkpt lat="51.731293" lon="10.930809"><ele>340</ele></trkpt>
            <trkpt lat="51.731294" lon="10.930996"><ele>339.6</ele></trkpt>
            <trkpt lat="51.73138" lon="10.932074"><ele>339.5</ele></trkpt>
            <trkpt lat="51.731428" lon="10.932303"><ele>339.4</ele></trkpt>
            <trkpt lat="51.731503" lon="10.932477"><ele>339.9</ele></trkpt>
            <trkpt lat="51.731616" lon="10.932627"><ele>340.9</ele></trkpt>
            <trkpt lat="51.731718" lon="10.932607"><ele>343.5</ele></trkpt>
            <trkpt lat="51.732044" lon="10.931946"><ele>346.4</ele></trkpt>
            <trkpt lat="51.732159" lon="10.931604"><ele>369</ele></trkpt>
            <trkpt lat="51.732061" lon="10.931482"><ele>369</ele></trkpt>
            <trkpt lat="51.73204" lon="10.931396"><ele>369</ele></trkpt>
            <trkpt lat="51.732041" lon="10.931326"><ele>369</ele></trkpt>
            <trkpt lat="51.732327" lon="10.930356"><ele>369</ele></trkpt>
            <trkpt lat="51.732343" lon="10.930241"><ele>369.2</ele></trkpt>
            <trkpt lat="51.732346" lon="10.929896"><ele>370.6</ele></trkpt>
            <trkpt lat="51.73233" lon="10.929667"><ele>372.6</ele></trkpt>
            <trkpt lat="51.732291" lon="10.929492"><ele>374</ele></trkpt>
            <trkpt lat="51.732279" lon="10.929343"><ele>375.2</ele></trkpt>
            <trkpt lat="51.732282" lon="10.92897"><ele>376.5</ele></trkpt>
            <trkpt lat="51.73223" lon="10.928362"><ele>379.1</ele></trkpt>
            <trkpt lat="51.732106" lon="10.927843"><ele>382.5</ele></trkpt>
            <trkpt lat="51.732097" lon="10.927735"><ele>383.2</ele></trkpt>
            <trkpt lat="51.732037" lon="10.927615"><ele>383.7</ele></trkpt>
            <trkpt lat="51.732054" lon="10.927472"><ele>384.5</ele></trkpt>
            <trkpt lat="51.732045" lon="10.927377"><ele>384.4</ele></trkpt>
            <trkpt lat="51.732059" lon="10.927221"><ele>384.7</ele></trkpt>
            <trkpt lat="51.732056" lon="10.92694"><ele>385</ele></trkpt>
            <trkpt lat="51.732025" lon="10.926628"><ele>385.3</ele></trkpt>
            <trkpt lat="51.73192" lon="10.926342"><ele>385.6</ele></trkpt>
            <trkpt lat="51.731837" lon="10.926166"><ele>385.5</ele></trkpt>
            <trkpt lat="51.731794" lon="10.925869"><ele>394</ele></trkpt>
            <trkpt lat="51.731715" lon="10.925588"><ele>397.1</ele></trkpt>
            <trkpt lat="51.731697" lon="10.925604"><ele>396.6</ele></trkpt>
            <trkpt lat="51.731686" lon="10.925697"><ele>396.1</ele></trkpt>
            <trkpt lat="51.731666" lon="10.925696"><ele>395.5</ele></trkpt>
            <trkpt lat="51.731623" lon="10.925467"><ele>395.6</ele></trkpt>
            <trkpt lat="51.731576" lon="10.925327"><ele>395</ele></trkpt>
            <trkpt lat="51.731339" lon="10.924767"><ele>408.9</ele></trkpt>
            <trkpt lat="51.73114" lon="10.924609"><ele>412.1</ele></trkpt>
            <trkpt lat="51.730955" lon="10.924284"><ele>414.4</ele></trkpt>
            <trkpt lat="51.73063" lon="10.923876"><ele>415.5</ele></trkpt>
            <trkpt lat="51.730525" lon="10.923833"><ele>416.2</ele></trkpt>
            <trkpt lat="51.730464" lon="10.923769"><ele>415.5</ele></trkpt>
            <trkpt lat="51.730419" lon="10.923667"><ele>414.7</ele></trkpt>
            <trkpt lat="51.730274" lon="10.923205"><ele>415.3</ele></trkpt>
            <trkpt lat="51.730076" lon="10.922852"><ele>420</ele></trkpt>
            <trkpt lat="51.729917" lon="10.922465"><ele>408.5</ele></trkpt>
            <trkpt lat="51.729841" lon="10.922336"><ele>408.1</ele></trkpt>
            <trkpt lat="51.729928" lon="10.923022"><ele>408</ele></trkpt>
            <trkpt lat="51.729917" lon="10.923083"><ele>408.3</ele></trkpt>
            <trkpt lat="51.729792" lon="10.923072"><ele>405</ele></trkpt>
            <trkpt lat="51.729774" lon="10.923077"><ele>405</ele></trkpt>
            <trkpt lat="51.729751" lon="10.923084"><ele>405</ele></trkpt>
            <trkpt lat="51.729682" lon="10.922891"><ele>409.1</ele></trkpt>
            <trkpt lat="51.729546" lon="10.922787"><ele>409.6</ele></trkpt>
            <trkpt lat="51.729495" lon="10.9227"><ele>410.1</ele></trkpt>
            <trkpt lat="51.729485" lon="10.92256"><ele>410.9</ele></trkpt>
            <trkpt lat="51.729503" lon="10.922437"><ele>411.2</ele></trkpt>
            <trkpt lat="51.729541" lon="10.922329"><ele>411.2</ele></trkpt>
            <trkpt lat="51.729577" lon="10.921657"><ele>411.8</ele></trkpt>
            <trkpt lat="51.729554" lon="10.921189"><ele>413.1</ele></trkpt>
            <trkpt lat="51.729558" lon="10.921013"><ele>413.1</ele></trkpt>
            <trkpt lat="51.729424" lon="10.920441"><ele>417.2</ele></trkpt>
            <trkpt lat="51.729372" lon="10.919992"><ele>421.4</ele></trkpt>
            <trkpt lat="51.729212" lon="10.919534"><ele>423</ele></trkpt>
            <trkpt lat="51.729103" lon="10.919152"><ele>424.1</ele></trkpt>
            <trkpt lat="51.728937" lon="10.918522"><ele>427.2</ele></trkpt>
            <trkpt lat="51.72891" lon="10.918312"><ele>443</ele></trkpt>
            <trkpt lat="51.728843" lon="10.918173"><ele>443</ele></trkpt>
            <trkpt lat="51.728637" lon="10.917622"><ele>443</ele></trkpt>
            <trkpt lat="51.728764" lon="10.917499"><ele>449.3</ele></trkpt>
            <trkpt lat="51.728967" lon="10.917387"><ele>449.5</ele></trkpt>
            <trkpt lat="51.729078" lon="10.917274"><ele>449.8</ele></trkpt>
            <trkpt lat="51.729079" lon="10.917186"><ele>449.9</ele></trkpt>
            <trkpt lat="51.729015" lon="10.91694"><ele>450.3</ele></trkpt>
            <trkpt lat="51.729014" lon="10.916751"><ele>450.3</ele></trkpt>
            <trkpt lat="51.729127" lon="10.916245"><ele>451</ele></trkpt>
            <trkpt lat="51.729114" lon="10.916024"><ele>451.1</ele></trkpt>
            <trkpt lat="51.72918" lon="10.915636"><ele>451.4</ele></trkpt>
            <trkpt lat="51.729307" lon="10.915208"><ele>452.7</ele></trkpt>
            <trkpt lat="51.729412" lon="10.914925"><ele>454.2</ele></trkpt>
            <trkpt lat="51.72947" lon="10.914643"><ele>455.1</ele></trkpt>
            <trkpt lat="51.729811" lon="10.914007"><ele>456.6</ele></trkpt>
            <trkpt lat="51.730055" lon="10.913619"><ele>457.1</ele></trkpt>
            <trkpt lat="51.73016" lon="10.913342"><ele>457.6</ele></trkpt>
            <trkpt lat="51.730188" lon="10.913167"><ele>457.8</ele></trkpt>
            <trkpt lat="51.730194" lon="10.912942"><ele>458.4</ele></trkpt>
            <trkpt lat="51.730258" lon="10.912655"><ele>458.7</ele></trkpt>
            <trkpt lat="51.730409" lon="10.912352"><ele>459.5</ele></trkpt>
            <trkpt lat="51.730547" lon="10.912001"><ele>460.1</ele></trkpt>
            <trkpt lat="51.73075" lon="10.911574"><ele>461.6</ele></trkpt>
            <trkpt lat="51.730881" lon="10.911165"><ele>462.4</ele></trkpt>
            <trkpt lat="51.730992" lon="10.910333"><ele>463</ele></trkpt>
            <trkpt lat="51.731092" lon="10.909891"><ele>463.4</ele></trkpt>
            <trkpt lat="51.731189" lon="10.909317"><ele>463.9</ele></trkpt>
            <trkpt lat="51.731194" lon="10.909113"><ele>464.7</ele></trkpt>
            <trkpt lat="51.731069" lon="10.908272"><ele>465.8</ele></trkpt>
            <trkpt lat="51.731001" lon="10.908081"><ele>466.1</ele></trkpt>
            <trkpt lat="51.730887" lon="10.907899"><ele>466.2</ele></trkpt>
            <trkpt lat="51.730763" lon="10.90761"><ele>466.7</ele></trkpt>
            <trkpt lat="51.730742" lon="10.907462"><ele>466.9</ele></trkpt>
            <trkpt lat="51.730762" lon="10.907285"><ele>467.2</ele></trkpt>
            <trkpt lat="51.730823" lon="10.907176"><ele>467.7</ele></trkpt>
            <trkpt lat="51.730971" lon="10.907076"><ele>467.5</ele></trkpt>
            <trkpt lat="51.731139" lon="10.907038"><ele>467.2</ele></trkpt>
            <trkpt lat="51.731654" lon="10.907286"><ele>466.3</ele></trkpt>
            <trkpt lat="51.731876" lon="10.907309"><ele>466.2</ele></trkpt>
            <trkpt lat="51.732078" lon="10.907271"><ele>466</ele></trkpt>
            <trkpt lat="51.732434" lon="10.907141"><ele>462.5</ele></trkpt>
            <trkpt lat="51.732505" lon="10.907036"><ele>461</ele></trkpt>
            <trkpt lat="51.732661" lon="10.906514"><ele>459</ele></trkpt>
            <trkpt lat="51.732709" lon="10.906471"><ele>458.2</ele></trkpt>
            <trkpt lat="51.732811" lon="10.906448"><ele>458.4</ele></trkpt>
            <trkpt lat="51.732862" lon="10.906473"><ele>458.5</ele></trkpt>
            <trkpt lat="51.732953" lon="10.906626"><ele>458.5</ele></trkpt>
            <trkpt lat="51.733171" lon="10.907197"><ele>456</ele></trkpt>
            <trkpt lat="51.733236" lon="10.907277"><ele>456</ele></trkpt>
            <trkpt lat="51.733274" lon="10.907273"><ele>456</ele></trkpt>
            <trkpt lat="51.733359" lon="10.907368"><ele>456</ele></trkpt>
            <trkpt lat="51.73341" lon="10.907329"><ele>456</ele></trkpt>
            <trkpt lat="51.733585" lon="10.907216"><ele>456</ele></trkpt>
            <trkpt lat="51.733669" lon="10.907161"><ele>456</ele></trkpt>
            <trkpt lat="51.733738" lon="10.907118"><ele>456</ele></trkpt>
            <trkpt lat="51.733836" lon="10.907056"><ele>456</ele></trkpt>
            <trkpt lat="51.73409" lon="10.90812"><ele>455</ele></trkpt>
            <trkpt lat="51.73422" lon="10.908481"><ele>455.7</ele></trkpt>
            <trkpt lat="51.734322" lon="10.908657"><ele>456</ele></trkpt>
            <trkpt lat="51.734277" lon="10.908955"><ele>455.6</ele></trkpt>
            <trkpt lat="51.734234" lon="10.909417"><ele>455</ele></trkpt>
            <trkpt lat="51.734266" lon="10.909468"><ele>454.4</ele></trkpt>
            <trkpt lat="51.734371" lon="10.909508"><ele>454.5</ele></trkpt>
            <trkpt lat="51.734575" lon="10.909739"><ele>454.2</ele></trkpt>
            <trkpt lat="51.734755" lon="10.910036"><ele>454.1</ele></trkpt>
            <trkpt lat="51.735322" lon="10.910525"><ele>454.2</ele></trkpt>
            <trkpt lat="51.735538" lon="10.910946"><ele>451</ele></trkpt>
            <trkpt lat="51.735609" lon="10.91127"><ele>446.4</ele></trkpt>
            <trkpt lat="51.735645" lon="10.911584"><ele>447</ele></trkpt>
            <trkpt lat="51.735633" lon="10.911943"><ele>446</ele></trkpt>
            <trkpt lat="51.735667" lon="10.912206"><ele>446</ele></trkpt>
            <trkpt lat="51.735762" lon="10.912451"><ele>445.2</ele></trkpt>
            <trkpt lat="51.735874" lon="10.912633"><ele>444.2</ele></trkpt>
            <trkpt lat="51.736174" lon="10.913234"><ele>441.2</ele></trkpt>
            <trkpt lat="51.736376" lon="10.913706"><ele>438.7</ele></trkpt>
            <trkpt lat="51.736508" lon="10.913913"><ele>436.5</ele></trkpt>
            <trkpt lat="51.736685" lon="10.914062"><ele>432.8</ele></trkpt>
            <trkpt lat="51.736793" lon="10.914239"><ele>413</ele></trkpt>
            <trkpt lat="51.736779" lon="10.914462"><ele>413</ele></trkpt>
            <trkpt lat="51.736788" lon="10.914699"><ele>413</ele></trkpt>
            <trkpt lat="51.736919" lon="10.914803"><ele>413</ele></trkpt>
            <trkpt lat="51.736967" lon="10.914774"><ele>413</ele></trkpt>
            <trkpt lat="51.736993" lon="10.914797"><ele>413</ele></trkpt>
            <trkpt lat="51.736971" lon="10.914886"><ele>413</ele></trkpt>
            <trkpt lat="51.737049" lon="10.914996"><ele>406.1</ele></trkpt>
            <trkpt lat="51.737357" lon="10.915283"><ele>406.1</ele></trkpt>
            <trkpt lat="51.737714" lon="10.915657"><ele>405.4</ele></trkpt>
            <trkpt lat="51.738106" lon="10.915934"><ele>393</ele></trkpt>
            <trkpt lat="51.738331" lon="10.916172"><ele>391.6</ele></trkpt>
            <trkpt lat="51.738653" lon="10.916404"><ele>390.5</ele></trkpt>
            <trkpt lat="51.739038" lon="10.916628"><ele>389.6</ele></trkpt>
            <trkpt lat="51.739129" lon="10.916728"><ele>392</ele></trkpt>
            <trkpt lat="51.739133" lon="10.916887"><ele>388.1</ele></trkpt>
            <trkpt lat="51.739106" lon="10.917118"><ele>388.6</ele></trkpt>
            <trkpt lat="51.739139" lon="10.917413"><ele>389.1</ele></trkpt>
            <trkpt lat="51.73924" lon="10.917746"><ele>387.7</ele></trkpt>
            <trkpt lat="51.73929" lon="10.918115"><ele>379</ele></trkpt>
            <trkpt lat="51.739799" lon="10.918542"><ele>373.3</ele></trkpt>
            <trkpt lat="51.740023" lon="10.918694"><ele>368</ele></trkpt>
            <trkpt lat="51.740101" lon="10.918714"><ele>368</ele></trkpt>
            <trkpt lat="51.740299" lon="10.918732"><ele>368</ele></trkpt>
            <trkpt lat="51.740664" lon="10.918662"><ele>368</ele></trkpt>
            <trkpt lat="51.740832" lon="10.9186"><ele>368</ele></trkpt>
            <trkpt lat="51.740904" lon="10.918572"><ele>356</ele></trkpt>
            <trkpt lat="51.740988" lon="10.918317"><ele>350</ele></trkpt>
            <trkpt lat="51.741054" lon="10.918232"><ele>350</ele></trkpt>
            <trkpt lat="51.741086" lon="10.918133"><ele>350</ele></trkpt>
            <trkpt lat="51.741223" lon="10.918112"><ele>348.4</ele></trkpt>
            <trkpt lat="51.741374" lon="10.91814"><ele>346.6</ele></trkpt>
            <trkpt lat="51.741823" lon="10.918408"><ele>345.1</ele></trkpt>
            <trkpt lat="51.742171" lon="10.918682"><ele>345.1</ele></trkpt>
            <trkpt lat="51.74252" lon="10.919026"><ele>343.2</ele></trkpt>
            <trkpt lat="51.742858" lon="10.919434"><ele>340</ele></trkpt>
            <trkpt lat="51.742877" lon="10.919484"><ele>340</ele></trkpt>
            <trkpt lat="51.742868" lon="10.919606"><ele>340</ele></trkpt>
            <trkpt lat="51.742879" lon="10.919802"><ele>340</ele></trkpt>
            <trkpt lat="51.742929" lon="10.919823"><ele>340</ele></trkpt>
            <trkpt lat="51.742984" lon="10.919741"><ele>340</ele></trkpt>
            <trkpt lat="51.743161" lon="10.919597"><ele>340</ele></trkpt>
            <trkpt lat="51.743213" lon="10.919345"><ele>351</ele></trkpt>
            <trkpt lat="51.743229" lon="10.919319"><ele>351.5</ele></trkpt>
            <trkpt lat="51.743213" lon="10.919345"><ele>351</ele></trkpt>
            <trkpt lat="51.743161" lon="10.919597"><ele>340</ele></trkpt>
            <trkpt lat="51.743152" lon="10.919747"><ele>340</ele></trkpt>
            <trkpt lat="51.743149" lon="10.920143"><ele>345.4</ele></trkpt>
            <trkpt lat="51.743125" lon="10.920391"><ele>345.3</ele></trkpt>
            <trkpt lat="51.743091" lon="10.920527"><ele>345.2</ele></trkpt>
            <trkpt lat="51.743057" lon="10.920617"><ele>345.1</ele></trkpt>
            <trkpt lat="51.74288" lon="10.920883"><ele>345.6</ele></trkpt>
            <trkpt lat="51.742801" lon="10.921042"><ele>346.2</ele></trkpt>
            <trkpt lat="51.74261" lon="10.921541"><ele>351</ele></trkpt>
            <trkpt lat="51.74256" lon="10.921864"><ele>358.4</ele></trkpt>
            <trkpt lat="51.74256" lon="10.922103"><ele>358.3</ele></trkpt>
            <trkpt lat="51.742582" lon="10.922309"><ele>358.9</ele></trkpt>
            <trkpt lat="51.742645" lon="10.922473"><ele>359.4</ele></trkpt>
            <trkpt lat="51.743382" lon="10.923845"><ele>363.9</ele></trkpt>
            <trkpt lat="51.743447" lon="10.924044"><ele>365.5</ele></trkpt>
            <trkpt lat="51.743537" lon="10.924542"><ele>367.7</ele></trkpt>
            <trkpt lat="51.743589" lon="10.924735"><ele>368.6</ele></trkpt>
            <trkpt lat="51.743567" lon="10.924853"><ele>375</ele></trkpt>
            <trkpt lat="51.743753" lon="10.925094"><ele>378</ele></trkpt>
            <trkpt lat="51.743725" lon="10.925167"><ele>378</ele></trkpt>
            <trkpt lat="51.74401" lon="10.925556"><ele>379.4</ele></trkpt>
            <trkpt lat="51.744251" lon="10.925847"><ele>379.7</ele></trkpt>
            <trkpt lat="51.744549" lon="10.926115"><ele>383</ele></trkpt>
            <trkpt lat="51.744524" lon="10.926145"><ele>386.5</ele></trkpt>
            <trkpt lat="51.744185" lon="10.926229"><ele>390.5</ele></trkpt>
            <trkpt lat="51.743881" lon="10.926399"><ele>392.3</ele></trkpt>
            <trkpt lat="51.743672" lon="10.926661"><ele>393.6</ele></trkpt>
            <trkpt lat="51.743494" lon="10.927111"><ele>394.7</ele></trkpt>
            <trkpt lat="51.743398" lon="10.927396"><ele>397.9</ele></trkpt>
            <trkpt lat="51.743396" lon="10.927764"><ele>398.1</ele></trkpt>
            <trkpt lat="51.743523" lon="10.928074"><ele>398.1</ele></trkpt>
            <trkpt lat="51.743598" lon="10.928378"><ele>399.8</ele></trkpt>
            <trkpt lat="51.743652" lon="10.928792"><ele>400.4</ele></trkpt>
            <trkpt lat="51.743711" lon="10.928975"><ele>401.1</ele></trkpt>
            <trkpt lat="51.743933" lon="10.929303"><ele>403</ele></trkpt>
            <trkpt lat="51.744361" lon="10.929876"><ele>406.9</ele></trkpt>
            <trkpt lat="51.744687" lon="10.930813"><ele>413.6</ele></trkpt>
            <trkpt lat="51.745129" lon="10.931619"><ele>419.1</ele></trkpt>
            <trkpt lat="51.745407" lon="10.932476"><ele>421.2</ele></trkpt>
            <trkpt lat="51.745599" lon="10.933185"><ele>429</ele></trkpt>
            <trkpt lat="51.745591" lon="10.933559"><ele>434.9</ele></trkpt>
            <trkpt lat="51.745657" lon="10.934017"><ele>434.7</ele></trkpt>
            <trkpt lat="51.745726" lon="10.934254"><ele>434.5</ele></trkpt>
            <trkpt lat="51.74583" lon="10.934496"><ele>434.4</ele></trkpt>
            <trkpt lat="51.746055" lon="10.934858"><ele>434.2</ele></trkpt>
            <trkpt lat="51.746748" lon="10.935872"><ele>435</ele></trkpt>
            <trkpt lat="51.74647" lon="10.936126"><ele>435</ele></trkpt>
            <trkpt lat="51.746073" lon="10.936538"><ele>434.7</ele></trkpt>
            <trkpt lat="51.745927" lon="10.936718"><ele>434</ele></trkpt>
            <trkpt lat="51.745936" lon="10.936891"><ele>434</ele></trkpt>
            <trkpt lat="51.745748" lon="10.937108"><ele>435</ele></trkpt>
            <trkpt lat="51.745691" lon="10.937285"><ele>435.1</ele></trkpt>
            <trkpt lat="51.745679" lon="10.937445"><ele>435.2</ele></trkpt>
            <trkpt lat="51.745609" lon="10.937692"><ele>435.1</ele></trkpt>
            <trkpt lat="51.745378" lon="10.938301"><ele>434.9</ele></trkpt>
            <trkpt lat="51.745204" lon="10.93864"><ele>434.8</ele></trkpt>
            <trkpt lat="51.745002" lon="10.938916"><ele>434.8</ele></trkpt>
            <trkpt lat="51.744788" lon="10.939117"><ele>434.5</ele></trkpt>
            <trkpt lat="51.74474" lon="10.939221"><ele>434.5</ele></trkpt>
            <trkpt lat="51.744607" lon="10.939765"><ele>434.5</ele></trkpt>
            <trkpt lat="51.74451" lon="10.939941"><ele>434.5</ele></trkpt>
            <trkpt lat="51.744379" lon="10.940096"><ele>434.5</ele></trkpt>
            <trkpt lat="51.743996" lon="10.940358"><ele>434.6</ele></trkpt>
            <trkpt lat="51.743905" lon="10.940459"><ele>434.6</ele></trkpt>
            <trkpt lat="51.74383" lon="10.940619"><ele>434.7</ele></trkpt>
            <trkpt lat="51.743804" lon="10.940753"><ele>434.7</ele></trkpt>
            <trkpt lat="51.743776" lon="10.940806"><ele>434.8</ele></trkpt>
            <trkpt lat="51.743642" lon="10.940855"><ele>436</ele></trkpt>
            <trkpt lat="51.743651" lon="10.9416"><ele>436</ele></trkpt>
            <trkpt lat="51.743651" lon="10.941984"><ele>436.7</ele></trkpt>
            <trkpt lat="51.743605" lon="10.942224"><ele>437</ele></trkpt>
            <trkpt lat="51.743208" lon="10.942737"><ele>435</ele></trkpt>
            <trkpt lat="51.743293" lon="10.943284"><ele>435.3</ele></trkpt>
            <trkpt lat="51.743381" lon="10.944227"><ele>436</ele></trkpt>
            <trkpt lat="51.743635" lon="10.946019"><ele>436.6</ele></trkpt>
            <trkpt lat="51.74371" lon="10.946725"><ele>436.5</ele></trkpt>
            <trkpt lat="51.743748" lon="10.94689"><ele>436.5</ele></trkpt>
            <trkpt lat="51.743801" lon="10.947039"><ele>436.4</ele></trkpt>
            <trkpt lat="51.743895" lon="10.947223"><ele>436</ele></trkpt>
            <trkpt lat="51.7439" lon="10.94729"><ele>436.3</ele></trkpt>
            <trkpt lat="51.744055" lon="10.947706"><ele>436.3</ele></trkpt>
            <trkpt lat="51.744087" lon="10.947881"><ele>436.3</ele></trkpt>
            <trkpt lat="51.74408" lon="10.94804"><ele>436.2</ele></trkpt>
            <trkpt lat="51.74405" lon="10.948225"><ele>436.2</ele></trkpt>
            <trkpt lat="51.743801" lon="10.949213"><ele>436.5</ele></trkpt>
            <trkpt lat="51.743726" lon="10.949374"><ele>437</ele></trkpt>
            <trkpt lat="51.743636" lon="10.949499"><ele>432.3</ele></trkpt>
            <trkpt lat="51.743178" lon="10.949796"><ele>430.8</ele></trkpt>
            <trkpt lat="51.742711" lon="10.949899"><ele>430.8</ele></trkpt>
            <trkpt lat="51.742431" lon="10.949914"><ele>430.2</ele></trkpt>
            <trkpt lat="51.742126" lon="10.950022"><ele>427.2</ele></trkpt>
            <trkpt lat="51.741994" lon="10.949998"><ele>425.9</ele></trkpt>
            <trkpt lat="51.741924" lon="10.94994"><ele>420</ele></trkpt>
            <trkpt lat="51.74172" lon="10.949625"><ele>418.6</ele></trkpt>
            <trkpt lat="51.741627" lon="10.949508"><ele>418</ele></trkpt>
            <trkpt lat="51.741571" lon="10.949484"><ele>415</ele></trkpt>
            <trkpt lat="51.741403" lon="10.949618"><ele>416.5</ele></trkpt>
            <trkpt lat="51.741307" lon="10.949655"><ele>416.5</ele></trkpt>
            <trkpt lat="51.740831" lon="10.949696"><ele>416.9</ele></trkpt>
            <trkpt lat="51.740733" lon="10.949739"><ele>417</ele></trkpt>
            <trkpt lat="51.740645" lon="10.949809"><ele>417</ele></trkpt>
            <trkpt lat="51.740571" lon="10.949902"><ele>416.9</ele></trkpt>
            <trkpt lat="51.740387" lon="10.950318"><ele>417.1</ele></trkpt>
            <trkpt lat="51.740237" lon="10.950776"><ele>418.5</ele></trkpt>
            <trkpt lat="51.740177" lon="10.950904"><ele>419</ele></trkpt>
            <trkpt lat="51.73995" lon="10.951153"><ele>420.5</ele></trkpt>
            <trkpt lat="51.739836" lon="10.951326"><ele>420.9</ele></trkpt>
            <trkpt lat="51.739487" lon="10.952099"><ele>424.2</ele></trkpt>
            <trkpt lat="51.739378" lon="10.952454"><ele>424.9</ele></trkpt>
            <trkpt lat="51.739027" lon="10.954076"><ele>427</ele></trkpt>
            <trkpt lat="51.739007" lon="10.954902"><ele>427</ele></trkpt>
            <trkpt lat="51.738969" lon="10.955378"><ele>426.2</ele></trkpt>
            <trkpt lat="51.738943" lon="10.955525"><ele>426.3</ele></trkpt>
            <trkpt lat="51.738905" lon="10.955646"><ele>426</ele></trkpt>
            <trkpt lat="51.738865" lon="10.955728"><ele>426</ele></trkpt>
            <trkpt lat="51.738816" lon="10.955784"><ele>426</ele></trkpt>
            <trkpt lat="51.738756" lon="10.955806"><ele>427.3</ele></trkpt>
            <trkpt lat="51.738543" lon="10.955762"><ele>427.7</ele></trkpt>
            <trkpt lat="51.73787" lon="10.955534"><ele>427.8</ele></trkpt>
            <trkpt lat="51.737546" lon="10.955497"><ele>429</ele></trkpt>
            <trkpt lat="51.737202" lon="10.955469"><ele>432.1</ele></trkpt>
            <trkpt lat="51.736973" lon="10.955526"><ele>433</ele></trkpt>
            <trkpt lat="51.736974" lon="10.955671"><ele>433</ele></trkpt>
            <trkpt lat="51.736973" lon="10.955526"><ele>433</ele></trkpt>
            <trkpt lat="51.736635" lon="10.955597"><ele>440</ele></trkpt>
            <trkpt lat="51.736608" lon="10.95581"><ele>440</ele></trkpt>
            <trkpt lat="51.736724" lon="10.95673"><ele>434.7</ele></trkpt>
            <trkpt lat="51.736733" lon="10.956978"><ele>434.1</ele></trkpt>
            <trkpt lat="51.73664" lon="10.958169"><ele>433.3</ele></trkpt>
            <trkpt lat="51.736655" lon="10.958341"><ele>438</ele></trkpt>
            <trkpt lat="51.736665" lon="10.958451"><ele>435</ele></trkpt>
            <trkpt lat="51.736927" lon="10.95927"><ele>434</ele></trkpt>
            <trkpt lat="51.737031" lon="10.959659"><ele>433.5</ele></trkpt>
            <trkpt lat="51.73708" lon="10.959876"><ele>433.3</ele></trkpt>
            <trkpt lat="51.737102" lon="10.960124"><ele>433.4</ele></trkpt>
            <trkpt lat="51.737071" lon="10.960531"><ele>432.3</ele></trkpt>
            <trkpt lat="51.736591" lon="10.961932"><ele>435</ele></trkpt>
            <trkpt lat="51.736528" lon="10.962107"><ele>434.6</ele></trkpt>
            <trkpt lat="51.736361" lon="10.962406"><ele>434.7</ele></trkpt>
            <trkpt lat="51.736225" lon="10.962499"><ele>434.6</ele></trkpt>
            <trkpt lat="51.735848" lon="10.962677"><ele>434.5</ele></trkpt>
            <trkpt lat="51.735687" lon="10.962795"><ele>434.4</ele></trkpt>
            <trkpt lat="51.735568" lon="10.962922"><ele>434.3</ele></trkpt>
            <trkpt lat="51.735484" lon="10.963092"><ele>434.2</ele></trkpt>
            <trkpt lat="51.735271" lon="10.963973"><ele>433.6</ele></trkpt>
            <trkpt lat="51.734816" lon="10.965999"><ele>436.3</ele></trkpt>
            <trkpt lat="51.734763" lon="10.966135"><ele>439</ele></trkpt>
            <trkpt lat="51.734617" lon="10.966237"><ele>437.6</ele></trkpt>
            <trkpt lat="51.733365" lon="10.9668"><ele>436.7</ele></trkpt>
            <trkpt lat="51.733172" lon="10.966921"><ele>436</ele></trkpt>
            <trkpt lat="51.733077" lon="10.967058"><ele>435.3</ele></trkpt>
            <trkpt lat="51.733035" lon="10.967179"><ele>433</ele></trkpt>
            <trkpt lat="51.732923" lon="10.967212"><ele>427.7</ele></trkpt>
            <trkpt lat="51.732609" lon="10.967388"><ele>426.8</ele></trkpt>
            <trkpt lat="51.732111" lon="10.967602"><ele>424.5</ele></trkpt>
            <trkpt lat="51.731791" lon="10.967635"><ele>421.1</ele></trkpt>
            <trkpt lat="51.731443" lon="10.967597"><ele>416.2</ele></trkpt>
            <trkpt lat="51.731034" lon="10.967313"><ele>412</ele></trkpt>
            <trkpt lat="51.730648" lon="10.967272"><ele>396</ele></trkpt>
            <trkpt lat="51.730333" lon="10.967152"><ele>391.3</ele></trkpt>
            <trkpt lat="51.730133" lon="10.966645"><ele>390.8</ele></trkpt>
            <trkpt lat="51.729905" lon="10.966194"><ele>389.7</ele></trkpt>
            <trkpt lat="51.729728" lon="10.96597"><ele>389.3</ele></trkpt>
            <trkpt lat="51.7296" lon="10.965938"><ele>389.4</ele></trkpt>
            <trkpt lat="51.72931" lon="10.965967"><ele>387.8</ele></trkpt>
            <trkpt lat="51.729048" lon="10.96588"><ele>386.5</ele></trkpt>
            <trkpt lat="51.72894" lon="10.965887"><ele>386</ele></trkpt>
            <trkpt lat="51.72879" lon="10.966107"><ele>384.5</ele></trkpt>
            <trkpt lat="51.728632" lon="10.96641"><ele>383.2</ele></trkpt>
            <trkpt lat="51.728477" lon="10.9666"><ele>382.9</ele></trkpt>
            <trkpt lat="51.72828" lon="10.966675"><ele>380.8</ele></trkpt>
            <trkpt lat="51.728173" lon="10.966821"><ele>380.9</ele></trkpt>
            <trkpt lat="51.728024" lon="10.967092"><ele>379.2</ele></trkpt>
            <trkpt lat="51.727954" lon="10.967347"><ele>378.9</ele></trkpt>
            <trkpt lat="51.727913" lon="10.967738"><ele>374.7</ele></trkpt>
            <trkpt lat="51.727857" lon="10.967871"><ele>373</ele></trkpt>
            <trkpt lat="51.727276" lon="10.968062"><ele>368.9</ele></trkpt>
            <trkpt lat="51.726622" lon="10.96817"><ele>340</ele></trkpt>
            <trkpt lat="51.726498" lon="10.968104"><ele>334.1</ele></trkpt>
            <trkpt lat="51.726244" lon="10.967865"><ele>334.4</ele></trkpt>
            <trkpt lat="51.725864" lon="10.96758"><ele>333</ele></trkpt>
            <trkpt lat="51.725428" lon="10.967329"><ele>331.1</ele></trkpt>
            <trkpt lat="51.725372" lon="10.967268"><ele>330.6</ele></trkpt>
            <trkpt lat="51.725217" lon="10.967004"><ele>329.9</ele></trkpt>
            <trkpt lat="51.724899" lon="10.966681"><ele>326</ele></trkpt>
            <trkpt lat="51.724759" lon="10.966603"><ele>323</ele></trkpt>
            <trkpt lat="51.724687" lon="10.966592"><ele>322.6</ele></trkpt>
            <trkpt lat="51.724442" lon="10.966626"><ele>321.7</ele></trkpt>
            <trkpt lat="51.724279" lon="10.966552"><ele>321</ele></trkpt>
            <trkpt lat="51.724175" lon="10.966436"><ele>319</ele></trkpt>
            <trkpt lat="51.724057" lon="10.96635"><ele>315.9</ele></trkpt>
            <trkpt lat="51.723723" lon="10.966229"><ele>309.9</ele></trkpt>
            <trkpt lat="51.723556" lon="10.966203"><ele>301</ele></trkpt>
            <trkpt lat="51.723563" lon="10.966257"><ele>301</ele></trkpt>
            <trkpt lat="51.723651" lon="10.966379"><ele>301</ele></trkpt>
            <trkpt lat="51.723872" lon="10.9667"><ele>303</ele></trkpt>
            <trkpt lat="51.723626" lon="10.96664"><ele>311</ele></trkpt>
            <trkpt lat="51.723077" lon="10.966686"><ele>313.5</ele></trkpt>
            <trkpt lat="51.722522" lon="10.967033"><ele>314.3</ele></trkpt>
            <trkpt lat="51.721954" lon="10.967936"><ele>316.9</ele></trkpt>
            <trkpt lat="51.721626" lon="10.969121"><ele>312.8</ele></trkpt>
            <trkpt lat="51.72148" lon="10.969599"><ele>308.7</ele></trkpt>
            <trkpt lat="51.720989" lon="10.970432"><ele>304.6</ele></trkpt>
            <trkpt lat="51.720772" lon="10.970712"><ele>307.2</ele></trkpt>
            <trkpt lat="51.720599" lon="10.97086"><ele>305.7</ele></trkpt>
            <trkpt lat="51.720314" lon="10.971035"><ele>306.6</ele></trkpt>
            <trkpt lat="51.719896" lon="10.971879"><ele>307.9</ele></trkpt>
            <trkpt lat="51.719447" lon="10.972323"><ele>310</ele></trkpt>
            <trkpt lat="51.7193" lon="10.97259"><ele>302.7</ele></trkpt>
            <trkpt lat="51.719117" lon="10.972759"><ele>302</ele></trkpt>
            <trkpt lat="51.718785" lon="10.973004"><ele>302</ele></trkpt>
            <trkpt lat="51.718605" lon="10.973034"><ele>302</ele></trkpt>
            <trkpt lat="51.718356" lon="10.973014"><ele>302</ele></trkpt>
            <trkpt lat="51.71798" lon="10.97309"><ele>297</ele></trkpt>
            <trkpt lat="51.71773" lon="10.973047"><ele>294.1</ele></trkpt>
            <trkpt lat="51.717534" lon="10.973125"><ele>294.6</ele></trkpt>
            <trkpt lat="51.717148" lon="10.973454"><ele>293.2</ele></trkpt>
            <trkpt lat="51.716906" lon="10.973741"><ele>292.2</ele></trkpt>
            <trkpt lat="51.716742" lon="10.97389"><ele>285</ele></trkpt>
            <trkpt lat="51.716509" lon="10.974051"><ele>278.3</ele></trkpt>
            <trkpt lat="51.716367" lon="10.97412"><ele>276</ele></trkpt>
            <trkpt lat="51.71619" lon="10.974159"><ele>276</ele></trkpt>
            <trkpt lat="51.716123" lon="10.974155"><ele>276</ele></trkpt>
            <trkpt lat="51.716087" lon="10.974262"><ele>274</ele></trkpt>
            <trkpt lat="51.716022" lon="10.974289"><ele>274</ele></trkpt>
            <trkpt lat="51.71598" lon="10.97426"><ele>274</ele></trkpt>
            <trkpt lat="51.715881" lon="10.97446"><ele>274</ele></trkpt>
            <trkpt lat="51.715807" lon="10.974606"><ele>277</ele></trkpt>
            <trkpt lat="51.715767" lon="10.974688"><ele>277</ele></trkpt>
            <trkpt lat="51.715438" lon="10.975351"><ele>280</ele></trkpt>
            <trkpt lat="51.715411" lon="10.975401"><ele>280</ele></trkpt>
            <trkpt lat="51.715366" lon="10.975491"><ele>280</ele></trkpt>
            <trkpt lat="51.714993" lon="10.976198"><ele>293.8</ele></trkpt>
            <trkpt lat="51.714925" lon="10.97626"><ele>293.5</ele></trkpt>
            <trkpt lat="51.714845" lon="10.976285"><ele>293</ele></trkpt>
            <trkpt lat="51.714745" lon="10.976236"><ele>296</ele></trkpt>
            <trkpt lat="51.714644" lon="10.976256"><ele>296</ele></trkpt>
            <trkpt lat="51.714559" lon="10.976161"><ele>296</ele></trkpt>
            <trkpt lat="51.71448" lon="10.976104"><ele>296</ele></trkpt>
            <trkpt lat="51.714305" lon="10.975896"><ele>293</ele></trkpt>
            <trkpt lat="51.7142" lon="10.975682"><ele>287</ele></trkpt>
            <trkpt lat="51.714195" lon="10.975533"><ele>309.6</ele></trkpt>
            <trkpt lat="51.714166" lon="10.975386"><ele>312.8</ele></trkpt>
            <trkpt lat="51.713893" lon="10.974804"><ele>310.8</ele></trkpt>
            <trkpt lat="51.713743" lon="10.974368"><ele>313.6</ele></trkpt>
            <trkpt lat="51.713614" lon="10.973908"><ele>314.9</ele></trkpt>
            <trkpt lat="51.713471" lon="10.973506"><ele>317.6</ele></trkpt>
            <trkpt lat="51.713361" lon="10.973108"><ele>319.2</ele></trkpt>
            <trkpt lat="51.713316" lon="10.973014"><ele>319.7</ele></trkpt>
            <trkpt lat="51.713141" lon="10.972805"><ele>319.9</ele></trkpt>
            <trkpt lat="51.713037" lon="10.972729"><ele>319.7</ele></trkpt>
            <trkpt lat="51.712869" lon="10.97254"><ele>319.7</ele></trkpt>
            <trkpt lat="51.712689" lon="10.972165"><ele>320</ele></trkpt>
            <trkpt lat="51.712555" lon="10.971974"><ele>320.5</ele></trkpt>
            <trkpt lat="51.712425" lon="10.971747"><ele>321.1</ele></trkpt>
            <trkpt lat="51.712129" lon="10.97149"><ele>321.3</ele></trkpt>
            <trkpt lat="51.711937" lon="10.971232"><ele>321.3</ele></trkpt>
            <trkpt lat="51.711806" lon="10.971113"><ele>321.4</ele></trkpt>
            <trkpt lat="51.711738" lon="10.971083"><ele>323</ele></trkpt>
            <trkpt lat="51.71148" lon="10.970932"><ele>317.7</ele></trkpt>
            <trkpt lat="51.711223" lon="10.970844"><ele>316</ele></trkpt>
            <trkpt lat="51.710967" lon="10.970871"><ele>315.7</ele></trkpt>
            <trkpt lat="51.710703" lon="10.970984"><ele>315.6</ele></trkpt>
            <trkpt lat="51.710585" lon="10.971098"><ele>315</ele></trkpt>
            <trkpt lat="51.71048" lon="10.971387"><ele>313.7</ele></trkpt>
            <trkpt lat="51.710389" lon="10.971784"><ele>312.9</ele></trkpt>
            <trkpt lat="51.710295" lon="10.972457"><ele>312.5</ele></trkpt>
            <trkpt lat="51.710217" lon="10.972732"><ele>313.1</ele></trkpt>
            <trkpt lat="51.710166" lon="10.973589"><ele>315.9</ele></trkpt>
            <trkpt lat="51.710169" lon="10.974026"><ele>317.7</ele></trkpt>
            <trkpt lat="51.710194" lon="10.974415"><ele>320.8</ele></trkpt>
            <trkpt lat="51.710173" lon="10.974673"><ele>322.1</ele></trkpt>
            <trkpt lat="51.710172" lon="10.975"><ele>323</ele></trkpt>
            <trkpt lat="51.710139" lon="10.975364"><ele>326.7</ele></trkpt>
            <trkpt lat="51.710233" lon="10.976244"><ele>331.6</ele></trkpt>
            <trkpt lat="51.710357" lon="10.97646"><ele>335.5</ele></trkpt>
            <trkpt lat="51.710524" lon="10.977417"><ele>349.3</ele></trkpt>
            <trkpt lat="51.710818" lon="10.978407"><ele>373.9</ele></trkpt>
            <trkpt lat="51.710878" lon="10.978802"><ele>379.2</ele></trkpt>
            <trkpt lat="51.710941" lon="10.978991"><ele>379.8</ele></trkpt>
            <trkpt lat="51.711057" lon="10.979565"><ele>385.8</ele></trkpt>
            <trkpt lat="51.711245" lon="10.980201"><ele>398</ele></trkpt>
            <trkpt lat="51.711446" lon="10.980521"><ele>411.3</ele></trkpt>
            <trkpt lat="51.711526" lon="10.980721"><ele>411.2</ele></trkpt>
            <trkpt lat="51.711759" lon="10.981736"><ele>414.9</ele></trkpt>
            <trkpt lat="51.711947" lon="10.982269"><ele>419.7</ele></trkpt>
            <trkpt lat="51.712058" lon="10.982706"><ele>423.3</ele></trkpt>
            <trkpt lat="51.712123" lon="10.983053"><ele>434</ele></trkpt>
            <trkpt lat="51.712209" lon="10.983379"><ele>437.7</ele></trkpt>
            <trkpt lat="51.712281" lon="10.983737"><ele>438</ele></trkpt>
            <trkpt lat="51.712522" lon="10.98465"><ele>438.6</ele></trkpt>
            <trkpt lat="51.712546" lon="10.984882"><ele>441</ele></trkpt>
            <trkpt lat="51.71253" lon="10.985068"><ele>441</ele></trkpt>
            <trkpt lat="51.711822" lon="10.988965"><ele>441</ele></trkpt>
            <trkpt lat="51.711542" lon="10.990442"><ele>430</ele></trkpt>
            <trkpt lat="51.711785" lon="10.99087"><ele>432.5</ele></trkpt>
            <trkpt lat="51.711879" lon="10.991108"><ele>432.3</ele></trkpt>
            <trkpt lat="51.711957" lon="10.991372"><ele>432.1</ele></trkpt>
            <trkpt lat="51.711995" lon="10.991709"><ele>431.9</ele></trkpt>
            <trkpt lat="51.711989" lon="10.992108"><ele>430.7</ele></trkpt>
            <trkpt lat="51.712012" lon="10.992466"><ele>429.6</ele></trkpt>
            <trkpt lat="51.712084" lon="10.992834"><ele>429.1</ele></trkpt>
            <trkpt lat="51.712217" lon="10.993155"><ele>428.5</ele></trkpt>
            <trkpt lat="51.712325" lon="10.993329"><ele>427.6</ele></trkpt>
            <trkpt lat="51.712733" lon="10.993698"><ele>426.2</ele></trkpt>
            <trkpt lat="51.712949" lon="10.99392"><ele>426.5</ele></trkpt>
            <trkpt lat="51.713105" lon="10.994199"><ele>427.1</ele></trkpt>
            <trkpt lat="51.713304" lon="10.994655"><ele>426</ele></trkpt>
            <trkpt lat="51.713316" lon="10.994853"><ele>435.1</ele></trkpt>
            <trkpt lat="51.713219" lon="10.995902"><ele>436.7</ele></trkpt>
            <trkpt lat="51.713208" lon="10.996136"><ele>436.4</ele></trkpt>
            <trkpt lat="51.713217" lon="10.996371"><ele>436.2</ele></trkpt>
            <trkpt lat="51.713286" lon="10.996876"><ele>437.1</ele></trkpt>
            <trkpt lat="51.713496" lon="10.997944"><ele>438.9</ele></trkpt>
            <trkpt lat="51.713593" lon="10.998264"><ele>439.6</ele></trkpt>
            <trkpt lat="51.713705" lon="10.998492"><ele>441.5</ele></trkpt>
            <trkpt lat="51.713896" lon="10.999074"><ele>444</ele></trkpt>
            <trkpt lat="51.714002" lon="10.999335"><ele>446.2</ele></trkpt>
            <trkpt lat="51.714102" lon="10.999472"><ele>447.5</ele></trkpt>
            <trkpt lat="51.714267" lon="10.999617"><ele>449.5</ele></trkpt>
            <trkpt lat="51.714865" lon="11.000048"><ele>457.1</ele></trkpt>
            <trkpt lat="51.715143" lon="11.000311"><ele>458.4</ele></trkpt>
            <trkpt lat="51.71558" lon="11.000935"><ele>461.4</ele></trkpt>
            <trkpt lat="51.71582" lon="11.001216"><ele>467</ele></trkpt>
            <trkpt lat="51.716584" lon="11.001935"><ele>472</ele></trkpt>
            <trkpt lat="51.717047" lon="11.002421"><ele>473</ele></trkpt>
            <trkpt lat="51.717123" lon="11.002549"><ele>475</ele></trkpt>
            <trkpt lat="51.717295" lon="11.002793"><ele>477.7</ele></trkpt>
            <trkpt lat="51.717667" lon="11.00341"><ele>483</ele></trkpt>
            <trkpt lat="51.71813" lon="11.004359"><ele>485</ele></trkpt>
            <trkpt lat="51.718154" lon="11.004484"><ele>485</ele></trkpt>
            <trkpt lat="51.718179" lon="11.004617"><ele>485.5</ele></trkpt>
            <trkpt lat="51.718204" lon="11.004991"><ele>485.6</ele></trkpt>
            <trkpt lat="51.7182" lon="11.005631"><ele>485.4</ele></trkpt>
            <trkpt lat="51.718224" lon="11.005911"><ele>485.2</ele></trkpt>
            <trkpt lat="51.718486" lon="11.007224"><ele>484</ele></trkpt>
            <trkpt lat="51.718729" lon="11.008598"><ele>488.5</ele></trkpt>
            <trkpt lat="51.718823" lon="11.009921"><ele>490.8</ele></trkpt>
            <trkpt lat="51.718905" lon="11.010524"><ele>492.1</ele></trkpt>
            <trkpt lat="51.718982" lon="11.010783"><ele>492.3</ele></trkpt>
            <trkpt lat="51.719228" lon="11.01122"><ele>492.2</ele></trkpt>
            <trkpt lat="51.719728" lon="11.012027"><ele>493.9</ele></trkpt>
            <trkpt lat="51.720419" lon="11.013524"><ele>492.6</ele></trkpt>
            <trkpt lat="51.72068" lon="11.014227"><ele>491.1</ele></trkpt>
            <trkpt lat="51.720915" lon="11.014952"><ele>489</ele></trkpt>
            <trkpt lat="51.72102" lon="11.015229"><ele>487</ele></trkpt>
            <trkpt lat="51.721428" lon="11.015126"><ele>485</ele></trkpt>
            <trkpt lat="51.722865" lon="11.014658"><ele>479.1</ele></trkpt>
            <trkpt lat="51.723399" lon="11.014542"><ele>472</ele></trkpt>
            <trkpt lat="51.723539" lon="11.014544"><ele>472</ele></trkpt>
            <trkpt lat="51.724116" lon="11.014596"><ele>477.4</ele></trkpt>
            <trkpt lat="51.72494" lon="11.014725"><ele>481.6</ele></trkpt>
            <trkpt lat="51.725542" lon="11.014856"><ele>483.1</ele></trkpt>
            <trkpt lat="51.725745" lon="11.014868"><ele>485</ele></trkpt>
            <trkpt lat="51.725902" lon="11.014884"><ele>488</ele></trkpt>
            <trkpt lat="51.726008" lon="11.014929"><ele>487.5</ele></trkpt>
            <trkpt lat="51.726145" lon="11.015035"><ele>486</ele></trkpt>
            <trkpt lat="51.726272" lon="11.015017"><ele>486</ele></trkpt>
            <trkpt lat="51.727442" lon="11.01519"><ele>486</ele></trkpt>
            <trkpt lat="51.727445" lon="11.01513"><ele>486</ele></trkpt>
            <trkpt lat="51.727504" lon="11.01492"><ele>481.2</ele></trkpt>
            <trkpt lat="51.728146" lon="11.013948"><ele>478.5</ele></trkpt>
            <trkpt lat="51.728513" lon="11.013126"><ele>474.2</ele></trkpt>
            <trkpt lat="51.728619" lon="11.012944"><ele>474</ele></trkpt>
            <trkpt lat="51.728668" lon="11.01289"><ele>473.9</ele></trkpt>
            <trkpt lat="51.728959" lon="11.012718"><ele>473</ele></trkpt>
            <trkpt lat="51.729346" lon="11.012534"><ele>467</ele></trkpt>
            <trkpt lat="51.730119" lon="11.012295"><ele>464.2</ele></trkpt>
            <trkpt lat="51.730464" lon="11.01229"><ele>464.3</ele></trkpt>
            <trkpt lat="51.730573" lon="11.012256"><ele>464.5</ele></trkpt>
            <trkpt lat="51.730856" lon="11.011977"><ele>461</ele></trkpt>
            <trkpt lat="51.731026" lon="11.011781"><ele>457.1</ele></trkpt>
            <trkpt lat="51.731145" lon="11.011591"><ele>456.7</ele></trkpt>
            <trkpt lat="51.731346" lon="11.01108"><ele>456.6</ele></trkpt>
            <trkpt lat="51.731423" lon="11.010936"><ele>456.6</ele></trkpt>
            <trkpt lat="51.731613" lon="11.010744"><ele>456.5</ele></trkpt>
            <trkpt lat="51.731966" lon="11.010457"><ele>455</ele></trkpt>
            <trkpt lat="51.732129" lon="11.010211"><ele>446.4</ele></trkpt>
            <trkpt lat="51.7323" lon="11.010035"><ele>445.2</ele></trkpt>
            <trkpt lat="51.732386" lon="11.009916"><ele>444.1</ele></trkpt>
            <trkpt lat="51.732494" lon="11.009732"><ele>443.6</ele></trkpt>
            <trkpt lat="51.732576" lon="11.009507"><ele>443.6</ele></trkpt>
            <trkpt lat="51.732834" lon="11.009104"><ele>442.7</ele></trkpt>
            <trkpt lat="51.733031" lon="11.008862"><ele>442.3</ele></trkpt>
            <trkpt lat="51.733204" lon="11.008709"><ele>442.1</ele></trkpt>
            <trkpt lat="51.733335" lon="11.008558"><ele>442.1</ele></trkpt>
            <trkpt lat="51.733428" lon="11.008411"><ele>438</ele></trkpt>
            <trkpt lat="51.733497" lon="11.00816"><ele>420.2</ele></trkpt>
            <trkpt lat="51.733626" lon="11.007441"><ele>403</ele></trkpt>
            <trkpt lat="51.733696" lon="11.007365"><ele>394.2</ele></trkpt>
            <trkpt lat="51.733626" lon="11.007441"><ele>403</ele></trkpt>
            <trkpt lat="51.733497" lon="11.00816"><ele>420.2</ele></trkpt>
            <trkpt lat="51.733428" lon="11.008411"><ele>438</ele></trkpt>
            <trkpt lat="51.733335" lon="11.008558"><ele>442.1</ele></trkpt>
            <trkpt lat="51.733204" lon="11.008709"><ele>442.1</ele></trkpt>
            <trkpt lat="51.733031" lon="11.008862"><ele>442.3</ele></trkpt>
            <trkpt lat="51.732834" lon="11.009104"><ele>442.7</ele></trkpt>
            <trkpt lat="51.732576" lon="11.009507"><ele>443.6</ele></trkpt>
            <trkpt lat="51.732494" lon="11.009732"><ele>443.6</ele></trkpt>
            <trkpt lat="51.732386" lon="11.009916"><ele>444.1</ele></trkpt>
            <trkpt lat="51.7323" lon="11.010035"><ele>445.2</ele></trkpt>
            <trkpt lat="51.732129" lon="11.010211"><ele>446.4</ele></trkpt>
            <trkpt lat="51.731966" lon="11.010457"><ele>455</ele></trkpt>
            <trkpt lat="51.731613" lon="11.010744"><ele>456.5</ele></trkpt>
            <trkpt lat="51.731423" lon="11.010936"><ele>456.6</ele></trkpt>
            <trkpt lat="51.731346" lon="11.01108"><ele>456.6</ele></trkpt>
            <trkpt lat="51.731145" lon="11.011591"><ele>456.7</ele></trkpt>
            <trkpt lat="51.731026" lon="11.011781"><ele>457.1</ele></trkpt>
            <trkpt lat="51.730856" lon="11.011977"><ele>461</ele></trkpt>
            <trkpt lat="51.730573" lon="11.012256"><ele>464.5</ele></trkpt>
            <trkpt lat="51.730464" lon="11.01229"><ele>464.3</ele></trkpt>
            <trkpt lat="51.730119" lon="11.012295"><ele>464.2</ele></trkpt>
            <trkpt lat="51.729346" lon="11.012534"><ele>467</ele></trkpt>
            <trkpt lat="51.728959" lon="11.012718"><ele>473</ele></trkpt>
            <trkpt lat="51.728668" lon="11.01289"><ele>473.9</ele></trkpt>
            <trkpt lat="51.728619" lon="11.012944"><ele>474</ele></trkpt>
            <trkpt lat="51.728513" lon="11.013126"><ele>474.2</ele></trkpt>
            <trkpt lat="51.728146" lon="11.013948"><ele>478.5</ele></trkpt>
            <trkpt lat="51.727504" lon="11.01492"><ele>481.2</ele></trkpt>
            <trkpt lat="51.727445" lon="11.01513"><ele>486</ele></trkpt>
            <trkpt lat="51.727442" lon="11.01519"><ele>486</ele></trkpt>
            <trkpt lat="51.726272" lon="11.015017"><ele>486</ele></trkpt>
            <trkpt lat="51.726145" lon="11.015035"><ele>486</ele></trkpt>
            <trkpt lat="51.726008" lon="11.014929"><ele>487.5</ele></trkpt>
            <trkpt lat="51.725902" lon="11.014884"><ele>488</ele></trkpt>
            <trkpt lat="51.725745" lon="11.014868"><ele>485</ele></trkpt>
            <trkpt lat="51.725542" lon="11.014856"><ele>483.1</ele></trkpt>
            <trkpt lat="51.72494" lon="11.014725"><ele>481.6</ele></trkpt>
            <trkpt lat="51.724116" lon="11.014596"><ele>477.4</ele></trkpt>
            <trkpt lat="51.723539" lon="11.014544"><ele>472</ele></trkpt>
            <trkpt lat="51.723399" lon="11.014542"><ele>472</ele></trkpt>
            <trkpt lat="51.722865" lon="11.014658"><ele>479.1</ele></trkpt>
            <trkpt lat="51.721428" lon="11.015126"><ele>485</ele></trkpt>
            <trkpt lat="51.72102" lon="11.015229"><ele>487</ele></trkpt>
            <trkpt lat="51.720915" lon="11.014952"><ele>489</ele></trkpt>
            <trkpt lat="51.72068" lon="11.014227"><ele>491.1</ele></trkpt>
            <trkpt lat="51.720419" lon="11.013524"><ele>492.6</ele></trkpt>
            <trkpt lat="51.719728" lon="11.012027"><ele>493.9</ele></trkpt>
            <trkpt lat="51.719228" lon="11.01122"><ele>492.2</ele></trkpt>
            <trkpt lat="51.718982" lon="11.010783"><ele>492.3</ele></trkpt>
            <trkpt lat="51.718905" lon="11.010524"><ele>492.1</ele></trkpt>
            <trkpt lat="51.718823" lon="11.009921"><ele>490.8</ele></trkpt>
            <trkpt lat="51.718729" lon="11.008598"><ele>488.5</ele></trkpt>
            <trkpt lat="51.718486" lon="11.007224"><ele>484</ele></trkpt>
            <trkpt lat="51.718224" lon="11.005911"><ele>485.2</ele></trkpt>
            <trkpt lat="51.7182" lon="11.005631"><ele>485.4</ele></trkpt>
            <trkpt lat="51.718204" lon="11.004991"><ele>485.6</ele></trkpt>
            <trkpt lat="51.718179" lon="11.004617"><ele>485.5</ele></trkpt>
            <trkpt lat="51.718154" lon="11.004484"><ele>485</ele></trkpt>
            <trkpt lat="51.71813" lon="11.004359"><ele>485</ele></trkpt>
            <trkpt lat="51.717667" lon="11.00341"><ele>483</ele></trkpt>
            <trkpt lat="51.717295" lon="11.002793"><ele>477.7</ele></trkpt>
            <trkpt lat="51.717123" lon="11.002549"><ele>475</ele></trkpt>
            <trkpt lat="51.717233" lon="11.002205"><ele>473</ele></trkpt>
        </trkseg>
    </trk>
</gpx>
