<?xml version="1.0" encoding="UTF-8"?>
<gpx version="1.1" creator="HWN Route Compare (OpenRouteService)" xmlns="http://www.topografix.com/GPX/1/1">
    <metadata>
        <name>OpenRouteService – Tour D7b</name>
    </metadata>
    <trk>
        <name>OpenRouteService – Tour D7b</name>
        <trkseg>
            <trkpt lat="51.733696" lon="11.007365"><ele>394.2</ele></trkpt>
            <trkpt lat="51.733626" lon="11.007441"><ele>403</ele></trkpt>
            <trkpt lat="51.733497" lon="11.00816"><ele>420.2</ele></trkpt>
            <trkpt lat="51.733428" lon="11.008411"><ele>438</ele></trkpt>
            <trkpt lat="51.733335" lon="11.008558"><ele>442.1</ele></trkpt>
            <trkpt lat="51.733204" lon="11.008709"><ele>442.1</ele></trkpt>
            <trkpt lat="51.733031" lon="11.008862"><ele>442.3</ele></trkpt>
            <trkpt lat="51.732834" lon="11.009104"><ele>442.7</ele></trkpt>
            <trkpt lat="51.732576" lon="11.009507"><ele>443.6</ele></trkpt>
            <trkpt lat="51.732494" lon="11.009732"><ele>443.6</ele></trkpt>
            <trkpt lat="51.732386" lon="11.009916"><ele>444.1</ele></trkpt>
            <trkpt lat="51.7323" lon="11.010035"><ele>445.2</ele></trkpt>
            <trkpt lat="51.732129" lon="11.010211"><ele>446.4</ele></trkpt>
            <trkpt lat="51.731966" lon="11.010457"><ele>455</ele></trkpt>
            <trkpt lat="51.731613" lon="11.010744"><ele>456.5</ele></trkpt>
            <trkpt lat="51.731423" lon="11.010936"><ele>456.6</ele></trkpt>
            <trkpt lat="51.731346" lon="11.01108"><ele>456.6</ele></trkpt>
            <trkpt lat="51.731145" lon="11.011591"><ele>456.7</ele></trkpt>
            <trkpt lat="51.731026" lon="11.011781"><ele>457.1</ele></trkpt>
            <trkpt lat="51.730856" lon="11.011977"><ele>461</ele></trkpt>
            <trkpt lat="51.730573" lon="11.012256"><ele>464.5</ele></trkpt>
            <trkpt lat="51.730464" lon="11.01229"><ele>464.3</ele></trkpt>
            <trkpt lat="51.730119" lon="11.012295"><ele>464.2</ele></trkpt>
            <trkpt lat="51.729346" lon="11.012534"><ele>467</ele></trkpt>
            <trkpt lat="51.728959" lon="11.012718"><ele>473</ele></trkpt>
            <trkpt lat="51.728668" lon="11.01289"><ele>473.9</ele></trkpt>
            <trkpt lat="51.728619" lon="11.012944"><ele>474</ele></trkpt>
            <trkpt lat="51.728513" lon="11.013126"><ele>474.2</ele></trkpt>
            <trkpt lat="51.728146" lon="11.013948"><ele>478.5</ele></trkpt>
            <trkpt lat="51.727504" lon="11.01492"><ele>481.2</ele></trkpt>
            <trkpt lat="51.727445" lon="11.01513"><ele>486</ele></trkpt>
            <trkpt lat="51.727442" lon="11.01519"><ele>486</ele></trkpt>
            <trkpt lat="51.726272" lon="11.015017"><ele>486</ele></trkpt>
            <trkpt lat="51.726145" lon="11.015035"><ele>486</ele></trkpt>
            <trkpt lat="51.726008" lon="11.014929"><ele>487.5</ele></trkpt>
            <trkpt lat="51.725902" lon="11.014884"><ele>488</ele></trkpt>
            <trkpt lat="51.725745" lon="11.014868"><ele>485</ele></trkpt>
            <trkpt lat="51.725542" lon="11.014856"><ele>483.1</ele></trkpt>
            <trkpt lat="51.72494" lon="11.014725"><ele>481.6</ele></trkpt>
            <trkpt lat="51.724116" lon="11.014596"><ele>477.4</ele></trkpt>
            <trkpt lat="51.723539" lon="11.014544"><ele>472</ele></trkpt>
            <trkpt lat="51.723399" lon="11.014542"><ele>472</ele></trkpt>
            <trkpt lat="51.722865" lon="11.014658"><ele>479.1</ele></trkpt>
            <trkpt lat="51.721428" lon="11.015126"><ele>485</ele></trkpt>
            <trkpt lat="51.72102" lon="11.015229"><ele>487</ele></trkpt>
            <trkpt lat="51.720915" lon="11.014952"><ele>489</ele></trkpt>
            <trkpt lat="51.72068" lon="11.014227"><ele>491.1</ele></trkpt>
            <trkpt lat="51.720419" lon="11.013524"><ele>492.6</ele></trkpt>
            <trkpt lat="51.719728" lon="11.012027"><ele>493.9</ele></trkpt>
            <trkpt lat="51.719228" lon="11.01122"><ele>492.2</ele></trkpt>
            <trkpt lat="51.718982" lon="11.010783"><ele>492.3</ele></trkpt>
            <trkpt lat="51.718905" lon="11.010524"><ele>492.1</ele></trkpt>
            <trkpt lat="51.718823" lon="11.009921"><ele>490.8</ele></trkpt>
            <trkpt lat="51.718729" lon="11.008598"><ele>488.5</ele></trkpt>
            <trkpt lat="51.718486" lon="11.007224"><ele>484</ele></trkpt>
            <trkpt lat="51.718224" lon="11.005911"><ele>485.2</ele></trkpt>
            <trkpt lat="51.7182" lon="11.005631"><ele>485.4</ele></trkpt>
            <trkpt lat="51.718204" lon="11.004991"><ele>485.6</ele></trkpt>
            <trkpt lat="51.718179" lon="11.004617"><ele>485.5</ele></trkpt>
            <trkpt lat="51.718154" lon="11.004484"><ele>485</ele></trkpt>
            <trkpt lat="51.71813" lon="11.004359"><ele>485</ele></trkpt>
            <trkpt lat="51.717667" lon="11.00341"><ele>483</ele></trkpt>
            <trkpt lat="51.717295" lon="11.002793"><ele>477.7</ele></trkpt>
            <trkpt lat="51.717123" lon="11.002549"><ele>475</ele></trkpt>
            <trkpt lat="51.717233" lon="11.002205"><ele>473</ele></trkpt>
            <trkpt lat="51.717183" lon="11.0022"><ele>473</ele></trkpt>
            <trkpt lat="51.717096" lon="11.002245"><ele>473</ele></trkpt>
            <trkpt lat="51.717047" lon="11.002421"><ele>473</ele></trkpt>
            <trkpt lat="51.716584" lon="11.001935"><ele>472</ele></trkpt>
            <trkpt lat="51.71582" lon="11.001216"><ele>467</ele></trkpt>
            <trkpt lat="51.71558" lon="11.000935"><ele>461.4</ele></trkpt>
            <trkpt lat="51.715143" lon="11.000311"><ele>458.4</ele></trkpt>
            <trkpt lat="51.714865" lon="11.000048"><ele>457.1</ele></trkpt>
            <trkpt lat="51.714267" lon="10.999617"><ele>449.5</ele></trkpt>
            <trkpt lat="51.714102" lon="10.999472"><ele>447.5</ele></trkpt>
            <trkpt lat="51.714002" lon="10.999335"><ele>446.2</ele></trkpt>
            <trkpt lat="51.713896" lon="10.999074"><ele>444</ele></trkpt>
            <trkpt lat="51.713705" lon="10.998492"><ele>441.5</ele></trkpt>
            <trkpt lat="51.713593" lon="10.998264"><ele>439.6</ele></trkpt>
            <trkpt lat="51.713496" lon="10.997944"><ele>438.9</ele></trkpt>
            <trkpt lat="51.713286" lon="10.996876"><ele>437.1</ele></trkpt>
            <trkpt lat="51.713217" lon="10.996371"><ele>436.2</ele></trkpt>
            <trkpt lat="51.713208" lon="10.996136"><ele>436.4</ele></trkpt>
            <trkpt lat="51.713219" lon="10.995902"><ele>436.7</ele></trkpt>
            <trkpt lat="51.713316" lon="10.994853"><ele>435.1</ele></trkpt>
            <trkpt lat="51.713304" lon="10.994655"><ele>426</ele></trkpt>
            <trkpt lat="51.713105" lon="10.994199"><ele>427.1</ele></trkpt>
            <trkpt lat="51.712949" lon="10.99392"><ele>426.5</ele></trkpt>
            <trkpt lat="51.712733" lon="10.993698"><ele>426.2</ele></trkpt>
            <trkpt lat="51.712325" lon="10.993329"><ele>427.6</ele></trkpt>
            <trkpt lat="51.712217" lon="10.993155"><ele>428.5</ele></trkpt>
            <trkpt lat="51.712084" lon="10.992834"><ele>429.1</ele></trkpt>
            <trkpt lat="51.712012" lon="10.992466"><ele>429.6</ele></trkpt>
            <trkpt lat="51.711989" lon="10.992108"><ele>430.7</ele></trkpt>
            <trkpt lat="51.711995" lon="10.991709"><ele>431.9</ele></trkpt>
            <trkpt lat="51.711957" lon="10.991372"><ele>432.1</ele></trkpt>
            <trkpt lat="51.711879" lon="10.991108"><ele>432.3</ele></trkpt>
            <trkpt lat="51.711785" lon="10.99087"><ele>432.5</ele></trkpt>
            <trkpt lat="51.711542" lon="10.990442"><ele>430</ele></trkpt>
            <trkpt lat="51.711822" lon="10.988965"><ele>441</ele></trkpt>
            <trkpt lat="51.71253" lon="10.985068"><ele>441</ele></trkpt>
            <trkpt lat="51.71264" lon="10.984958"><ele>441</ele></trkpt>
            <trkpt lat="51.712892" lon="10.984784"><ele>439</ele></trkpt>
            <trkpt lat="51.714251" lon="10.98371"><ele>431</ele></trkpt>
            <trkpt lat="51.715209" lon="10.982932"><ele>427</ele></trkpt>
            <trkpt lat="51.715305" lon="10.982858"><ele>427</ele></trkpt>
            <trkpt lat="51.715333" lon="10.982715"><ele>424.4</ele></trkpt>
            <trkpt lat="51.715653" lon="10.981811"><ele>423.5</ele></trkpt>
            <trkpt lat="51.716486" lon="10.979627"><ele>400</ele></trkpt>
            <trkpt lat="51.716605" lon="10.979255"><ele>394.7</ele></trkpt>
            <trkpt lat="51.716655" lon="10.979179"><ele>395.2</ele></trkpt>
            <trkpt lat="51.716755" lon="10.978945"><ele>395.6</ele></trkpt>
            <trkpt lat="51.716797" lon="10.978793"><ele>396.4</ele></trkpt>
            <trkpt lat="51.716874" lon="10.97867"><ele>396.7</ele></trkpt>
            <trkpt lat="51.716898" lon="10.978528"><ele>397</ele></trkpt>
            <trkpt lat="51.71697" lon="10.978316"><ele>370</ele></trkpt>
            <trkpt lat="51.717003" lon="10.978085"><ele>370</ele></trkpt>
            <trkpt lat="51.716967" lon="10.978019"><ele>370</ele></trkpt>
            <trkpt lat="51.716935" lon="10.97804"><ele>369</ele></trkpt>
            <trkpt lat="51.71692" lon="10.97806"><ele>369</ele></trkpt>
            <trkpt lat="51.716935" lon="10.97804"><ele>369</ele></trkpt>
            <trkpt lat="51.716967" lon="10.978019"><ele>370</ele></trkpt>
            <trkpt lat="51.717003" lon="10.978085"><ele>370</ele></trkpt>
            <trkpt lat="51.71697" lon="10.978316"><ele>370</ele></trkpt>
            <trkpt lat="51.716898" lon="10.978528"><ele>397</ele></trkpt>
            <trkpt lat="51.716874" lon="10.97867"><ele>396.7</ele></trkpt>
            <trkpt lat="51.716797" lon="10.978793"><ele>396.4</ele></trkpt>
            <trkpt lat="51.716755" lon="10.978945"><ele>395.6</ele></trkpt>
            <trkpt lat="51.716655" lon="10.979179"><ele>395.2</ele></trkpt>
            <trkpt lat="51.716605" lon="10.979255"><ele>394.7</ele></trkpt>
            <trkpt lat="51.716486" lon="10.979627"><ele>400</ele></trkpt>
            <trkpt lat="51.715653" lon="10.981811"><ele>423.5</ele></trkpt>
            <trkpt lat="51.715333" lon="10.982715"><ele>424.4</ele></trkpt>
            <trkpt lat="51.715305" lon="10.982858"><ele>427</ele></trkpt>
            <trkpt lat="51.716054" lon="10.982323"><ele>428.4</ele></trkpt>
            <trkpt lat="51.716259" lon="10.982214"><ele>428.3</ele></trkpt>
            <trkpt lat="51.71652" lon="10.982109"><ele>429</ele></trkpt>
            <trkpt lat="51.717099" lon="10.981938"><ele>429</ele></trkpt>
            <trkpt lat="51.717785" lon="10.981625"><ele>430</ele></trkpt>
            <trkpt lat="51.71838" lon="10.981484"><ele>420.3</ele></trkpt>
            <trkpt lat="51.718777" lon="10.981576"><ele>419</ele></trkpt>
            <trkpt lat="51.719256" lon="10.981802"><ele>416.7</ele></trkpt>
            <trkpt lat="51.719424" lon="10.981805"><ele>417.1</ele></trkpt>
            <trkpt lat="51.719528" lon="10.981657"><ele>417.6</ele></trkpt>
            <trkpt lat="51.719724" lon="10.981114"><ele>417.5</ele></trkpt>
            <trkpt lat="51.719987" lon="10.980185"><ele>418</ele></trkpt>
            <trkpt lat="51.720283" lon="10.979104"><ele>408.7</ele></trkpt>
            <trkpt lat="51.720406" lon="10.978909"><ele>404</ele></trkpt>
            <trkpt lat="51.720694" lon="10.978621"><ele>404</ele></trkpt>
            <trkpt lat="51.720883" lon="10.978446"><ele>397</ele></trkpt>
            <trkpt lat="51.721163" lon="10.977883"><ele>396.6</ele></trkpt>
            <trkpt lat="51.721543" lon="10.977179"><ele>396.7</ele></trkpt>
            <trkpt lat="51.721639" lon="10.977083"><ele>393</ele></trkpt>
            <trkpt lat="51.721998" lon="10.976418"><ele>393.9</ele></trkpt>
            <trkpt lat="51.722183" lon="10.976032"><ele>393.8</ele></trkpt>
            <trkpt lat="51.722444" lon="10.97583"><ele>392.8</ele></trkpt>
            <trkpt lat="51.722509" lon="10.975672"><ele>392.8</ele></trkpt>
            <trkpt lat="51.722576" lon="10.975308"><ele>391.7</ele></trkpt>
            <trkpt lat="51.722583" lon="10.975009"><ele>393</ele></trkpt>
            <trkpt lat="51.72259" lon="10.974659"><ele>377.3</ele></trkpt>
            <trkpt lat="51.72268" lon="10.974167"><ele>375.8</ele></trkpt>
            <trkpt lat="51.722874" lon="10.973876"><ele>373.5</ele></trkpt>
            <trkpt lat="51.723121" lon="10.973554"><ele>367</ele></trkpt>
            <trkpt lat="51.723182" lon="10.973426"><ele>346</ele></trkpt>
            <trkpt lat="51.723193" lon="10.973358"><ele>347.3</ele></trkpt>
            <trkpt lat="51.723171" lon="10.973269"><ele>347.4</ele></trkpt>
            <trkpt lat="51.723024" lon="10.972988"><ele>346</ele></trkpt>
            <trkpt lat="51.722911" lon="10.972885"><ele>346.2</ele></trkpt>
            <trkpt lat="51.722627" lon="10.972772"><ele>346.5</ele></trkpt>
            <trkpt lat="51.722573" lon="10.972684"><ele>346.7</ele></trkpt>
            <trkpt lat="51.722538" lon="10.972531"><ele>344.5</ele></trkpt>
            <trkpt lat="51.722458" lon="10.972389"><ele>339.8</ele></trkpt>
            <trkpt lat="51.722406" lon="10.972232"><ele>335.8</ele></trkpt>
            <trkpt lat="51.722413" lon="10.972074"><ele>332.3</ele></trkpt>
            <trkpt lat="51.722562" lon="10.971604"><ele>330</ele></trkpt>
            <trkpt lat="51.722701" lon="10.971011"><ele>320.3</ele></trkpt>
            <trkpt lat="51.722985" lon="10.970577"><ele>306.1</ele></trkpt>
            <trkpt lat="51.723113" lon="10.970456"><ele>300.7</ele></trkpt>
            <trkpt lat="51.723266" lon="10.970402"><ele>300.3</ele></trkpt>
            <trkpt lat="51.723393" lon="10.97044"><ele>302</ele></trkpt>
            <trkpt lat="51.723372" lon="10.970299"><ele>295.3</ele></trkpt>
            <trkpt lat="51.723217" lon="10.969849"><ele>293.8</ele></trkpt>
            <trkpt lat="51.723215" lon="10.969673"><ele>292.7</ele></trkpt>
            <trkpt lat="51.72324" lon="10.969526"><ele>286</ele></trkpt>
            <trkpt lat="51.722962" lon="10.969525"><ele>284</ele></trkpt>
            <trkpt lat="51.722668" lon="10.969621"><ele>284.1</ele></trkpt>
            <trkpt lat="51.722258" lon="10.969844"><ele>284.4</ele></trkpt>
            <trkpt lat="51.722177" lon="10.96992"><ele>284.5</ele></trkpt>
            <trkpt lat="51.722079" lon="10.970086"><ele>284.1</ele></trkpt>
            <trkpt lat="51.722" lon="10.970131"><ele>283.7</ele></trkpt>
            <trkpt lat="51.72191" lon="10.970182"><ele>283.2</ele></trkpt>
            <trkpt lat="51.721882" lon="10.970221"><ele>282.9</ele></trkpt>
            <trkpt lat="51.721652" lon="10.971246"><ele>282.3</ele></trkpt>
            <trkpt lat="51.721575" lon="10.971493"><ele>282.6</ele></trkpt>
            <trkpt lat="51.72148" lon="10.971654"><ele>282.3</ele></trkpt>
            <trkpt lat="51.721298" lon="10.971869"><ele>282</ele></trkpt>
            <trkpt lat="51.720828" lon="10.97252"><ele>284.6</ele></trkpt>
            <trkpt lat="51.720507" lon="10.972861"><ele>289</ele></trkpt>
            <trkpt lat="51.72032" lon="10.973212"><ele>287.4</ele></trkpt>
            <trkpt lat="51.720196" lon="10.973397"><ele>287.1</ele></trkpt>
            <trkpt lat="51.719964" lon="10.973625"><ele>286.7</ele></trkpt>
            <trkpt lat="51.719765" lon="10.973725"><ele>286.4</ele></trkpt>
            <trkpt lat="51.719345" lon="10.973887"><ele>286.2</ele></trkpt>
            <trkpt lat="51.718894" lon="10.974015"><ele>285.9</ele></trkpt>
            <trkpt lat="51.718075" lon="10.974119"><ele>286</ele></trkpt>
            <trkpt lat="51.717856" lon="10.97429"><ele>286.1</ele></trkpt>
            <trkpt lat="51.717144" lon="10.974654"><ele>283.7</ele></trkpt>
            <trkpt lat="51.716924" lon="10.974743"><ele>281.8</ele></trkpt>
            <trkpt lat="51.716599" lon="10.975181"><ele>279.4</ele></trkpt>
            <trkpt lat="51.71627" lon="10.975535"><ele>276.5</ele></trkpt>
            <trkpt lat="51.71608" lon="10.975592"><ele>276</ele></trkpt>
            <trkpt lat="51.715941" lon="10.975723"><ele>274.8</ele></trkpt>
            <trkpt lat="51.715914" lon="10.975723"><ele>271</ele></trkpt>
            <trkpt lat="51.71578" lon="10.975714"><ele>280</ele></trkpt>
            <trkpt lat="51.715707" lon="10.975704"><ele>280</ele></trkpt>
            <trkpt lat="51.715624" lon="10.975648"><ele>280</ele></trkpt>
            <trkpt lat="51.715411" lon="10.975401"><ele>280</ele></trkpt>
            <trkpt lat="51.715438" lon="10.975351"><ele>280</ele></trkpt>
            <trkpt lat="51.715767" lon="10.974688"><ele>277</ele></trkpt>
            <trkpt lat="51.715807" lon="10.974606"><ele>277</ele></trkpt>
            <trkpt lat="51.715881" lon="10.97446"><ele>274</ele></trkpt>
            <trkpt lat="51.71598" lon="10.97426"><ele>274</ele></trkpt>
            <trkpt lat="51.716022" lon="10.974289"><ele>274</ele></trkpt>
            <trkpt lat="51.716087" lon="10.974262"><ele>274</ele></trkpt>
            <trkpt lat="51.716123" lon="10.974155"><ele>276</ele></trkpt>
            <trkpt lat="51.71619" lon="10.974159"><ele>276</ele></trkpt>
            <trkpt lat="51.716367" lon="10.97412"><ele>276</ele></trkpt>
            <trkpt lat="51.716509" lon="10.974051"><ele>278.3</ele></trkpt>
            <trkpt lat="51.716742" lon="10.97389"><ele>285</ele></trkpt>
            <trkpt lat="51.716906" lon="10.973741"><ele>292.2</ele></trkpt>
            <trkpt lat="51.717148" lon="10.973454"><ele>293.2</ele></trkpt>
            <trkpt lat="51.717534" lon="10.973125"><ele>294.6</ele></trkpt>
            <trkpt lat="51.71773" lon="10.973047"><ele>294.1</ele></trkpt>
            <trkpt lat="51.71798" lon="10.97309"><ele>297</ele></trkpt>
            <trkpt lat="51.718356" lon="10.973014"><ele>302</ele></trkpt>
            <trkpt lat="51.718605" lon="10.973034"><ele>302</ele></trkpt>
            <trkpt lat="51.718785" lon="10.973004"><ele>302</ele></trkpt>
            <trkpt lat="51.719117" lon="10.972759"><ele>302</ele></trkpt>
            <trkpt lat="51.7193" lon="10.97259"><ele>302.7</ele></trkpt>
            <trkpt lat="51.719447" lon="10.972323"><ele>310</ele></trkpt>
            <trkpt lat="51.719896" lon="10.971879"><ele>307.9</ele></trkpt>
            <trkpt lat="51.720314" lon="10.971035"><ele>306.6</ele></trkpt>
            <trkpt lat="51.720599" lon="10.97086"><ele>305.7</ele></trkpt>
            <trkpt lat="51.720772" lon="10.970712"><ele>307.2</ele></trkpt>
            <trkpt lat="51.720989" lon="10.970432"><ele>304.6</ele></trkpt>
            <trkpt lat="51.72148" lon="10.969599"><ele>308.7</ele></trkpt>
            <trkpt lat="51.721626" lon="10.969121"><ele>312.8</ele></trkpt>
            <trkpt lat="51.721954" lon="10.967936"><ele>316.9</ele></trkpt>
            <trkpt lat="51.722522" lon="10.967033"><ele>314.3</ele></trkpt>
            <trkpt lat="51.723077" lon="10.966686"><ele>313.5</ele></trkpt>
            <trkpt lat="51.723626" lon="10.96664"><ele>311</ele></trkpt>
            <trkpt lat="51.723872" lon="10.9667"><ele>303</ele></trkpt>
            <trkpt lat="51.723651" lon="10.966379"><ele>301</ele></trkpt>
            <trkpt lat="51.723563" lon="10.966257"><ele>301</ele></trkpt>
            <trkpt lat="51.723556" lon="10.966203"><ele>301</ele></trkpt>
            <trkpt lat="51.723531" lon="10.96615"><ele>301</ele></trkpt>
            <trkpt lat="51.723507" lon="10.965918"><ele>301</ele></trkpt>
            <trkpt lat="51.723487" lon="10.965765"><ele>299</ele></trkpt>
            <trkpt lat="51.723437" lon="10.9658"><ele>299</ele></trkpt>
            <trkpt lat="51.723206" lon="10.965973"><ele>305.8</ele></trkpt>
            <trkpt lat="51.723115" lon="10.965942"><ele>308</ele></trkpt>
            <trkpt lat="51.723009" lon="10.965916"><ele>308</ele></trkpt>
            <trkpt lat="51.722974" lon="10.965932"><ele>308</ele></trkpt>
            <trkpt lat="51.72295" lon="10.965979"><ele>308</ele></trkpt>
            <trkpt lat="51.723004" lon="10.966007"><ele>308</ele></trkpt>
            <trkpt lat="51.723013" lon="10.966028"><ele>308</ele></trkpt>
            <trkpt lat="51.722993" lon="10.966051"><ele>308</ele></trkpt>
            <trkpt lat="51.723105" lon="10.96611"><ele>308</ele></trkpt>
            <trkpt lat="51.722993" lon="10.966051"><ele>308</ele></trkpt>
            <trkpt lat="51.723013" lon="10.966028"><ele>308</ele></trkpt>
            <trkpt lat="51.723004" lon="10.966007"><ele>308</ele></trkpt>
            <trkpt lat="51.72295" lon="10.965979"><ele>308</ele></trkpt>
            <trkpt lat="51.722974" lon="10.965932"><ele>308</ele></trkpt>
            <trkpt lat="51.723009" lon="10.965916"><ele>308</ele></trkpt>
            <trkpt lat="51.723115" lon="10.965942"><ele>308</ele></trkpt>
            <trkpt lat="51.723206" lon="10.965973"><ele>305.8</ele></trkpt>
            <trkpt lat="51.723437" lon="10.9658"><ele>299</ele></trkpt>
            <trkpt lat="51.723487" lon="10.965765"><ele>299</ele></trkpt>
            <trkpt lat="51.723507" lon="10.965918"><ele>301</ele></trkpt>
            <trkpt lat="51.723531" lon="10.96615"><ele>301</ele></trkpt>
            <trkpt lat="51.723556" lon="10.966203"><ele>301</ele></trkpt>
            <trkpt lat="51.723563" lon="10.966257"><ele>301</ele></trkpt>
            <trkpt lat="51.723651" lon="10.966379"><ele>301</ele></trkpt>
            <trkpt lat="51.723872" lon="10.9667"><ele>303</ele></trkpt>
            <trkpt lat="51.723626" lon="10.96664"><ele>311</ele></trkpt>
            <trkpt lat="51.723077" lon="10.966686"><ele>313.5</ele></trkpt>
            <trkpt lat="51.722522" lon="10.967033"><ele>314.3</ele></trkpt>
            <trkpt lat="51.721954" lon="10.967936"><ele>316.9</ele></trkpt>
            <trkpt lat="51.721626" lon="10.969121"><ele>312.8</ele></trkpt>
            <trkpt lat="51.72148" lon="10.969599"><ele>308.7</ele></trkpt>
            <trkpt lat="51.720989" lon="10.970432"><ele>304.6</ele></trkpt>
            <trkpt lat="51.720772" lon="10.970712"><ele>307.2</ele></trkpt>
            <trkpt lat="51.720599" lon="10.97086"><ele>305.7</ele></trkpt>
            <trkpt lat="51.720314" lon="10.971035"><ele>306.6</ele></trkpt>
            <trkpt lat="51.719896" lon="10.971879"><ele>307.9</ele></trkpt>
            <trkpt lat="51.719447" lon="10.972323"><ele>310</ele></trkpt>
            <trkpt lat="51.7193" lon="10.97259"><ele>302.7</ele></trkpt>
            <trkpt lat="51.719117" lon="10.972759"><ele>302</ele></trkpt>
            <trkpt lat="51.718785" lon="10.973004"><ele>302</ele></trkpt>
            <trkpt lat="51.718605" lon="10.973034"><ele>302</ele></trkpt>
            <trkpt lat="51.718356" lon="10.973014"><ele>302</ele></trkpt>
            <trkpt lat="51.71798" lon="10.97309"><ele>297</ele></trkpt>
            <trkpt lat="51.71773" lon="10.973047"><ele>294.1</ele></trkpt>
            <trkpt lat="51.717534" lon="10.973125"><ele>294.6</ele></trkpt>
            <trkpt lat="51.717148" lon="10.973454"><ele>293.2</ele></trkpt>
            <trkpt lat="51.716906" lon="10.973741"><ele>292.2</ele></trkpt>
            <trkpt lat="51.716742" lon="10.97389"><ele>285</ele></trkpt>
            <trkpt lat="51.716509" lon="10.974051"><ele>278.3</ele></trkpt>
            <trkpt lat="51.716367" lon="10.97412"><ele>276</ele></trkpt>
            <trkpt lat="51.71619" lon="10.974159"><ele>276</ele></trkpt>
            <trkpt lat="51.716123" lon="10.974155"><ele>276</ele></trkpt>
            <trkpt lat="51.716087" lon="10.974262"><ele>274</ele></trkpt>
            <trkpt lat="51.716022" lon="10.974289"><ele>274</ele></trkpt>
            <trkpt lat="51.71598" lon="10.97426"><ele>274</ele></trkpt>
            <trkpt lat="51.715881" lon="10.97446"><ele>274</ele></trkpt>
            <trkpt lat="51.715807" lon="10.974606"><ele>277</ele></trkpt>
            <trkpt lat="51.715767" lon="10.974688"><ele>277</ele></trkpt>
            <trkpt lat="51.715438" lon="10.975351"><ele>280</ele></trkpt>
            <trkpt lat="51.715411" lon="10.975401"><ele>280</ele></trkpt>
            <trkpt lat="51.715366" lon="10.975491"><ele>280</ele></trkpt>
            <trkpt lat="51.714993" lon="10.976198"><ele>293.8</ele></trkpt>
            <trkpt lat="51.714925" lon="10.97626"><ele>293.5</ele></trkpt>
            <trkpt lat="51.714845" lon="10.976285"><ele>293</ele></trkpt>
            <trkpt lat="51.714745" lon="10.976236"><ele>296</ele></trkpt>
            <trkpt lat="51.714644" lon="10.976256"><ele>296</ele></trkpt>
            <trkpt lat="51.714559" lon="10.976161"><ele>296</ele></trkpt>
            <trkpt lat="51.71448" lon="10.976104"><ele>296</ele></trkpt>
            <trkpt lat="51.714305" lon="10.975896"><ele>293</ele></trkpt>
            <trkpt lat="51.7142" lon="10.975682"><ele>287</ele></trkpt>
            <trkpt lat="51.714195" lon="10.975533"><ele>309.6</ele></trkpt>
            <trkpt lat="51.714166" lon="10.975386"><ele>312.8</ele></trkpt>
            <trkpt lat="51.713893" lon="10.974804"><ele>310.8</ele></trkpt>
            <trkpt lat="51.713743" lon="10.974368"><ele>313.6</ele></trkpt>
            <trkpt lat="51.713614" lon="10.973908"><ele>314.9</ele></trkpt>
            <trkpt lat="51.713471" lon="10.973506"><ele>317.6</ele></trkpt>
            <trkpt lat="51.713361" lon="10.973108"><ele>319.2</ele></trkpt>
            <trkpt lat="51.713316" lon="10.973014"><ele>319.7</ele></trkpt>
            <trkpt lat="51.713141" lon="10.972805"><ele>319.9</ele></trkpt>
            <trkpt lat="51.713037" lon="10.972729"><ele>319.7</ele></trkpt>
            <trkpt lat="51.712869" lon="10.97254"><ele>319.7</ele></trkpt>
            <trkpt lat="51.712689" lon="10.972165"><ele>320</ele></trkpt>
            <trkpt lat="51.712555" lon="10.971974"><ele>320.5</ele></trkpt>
            <trkpt lat="51.712425" lon="10.971747"><ele>321.1</ele></trkpt>
            <trkpt lat="51.712129" lon="10.97149"><ele>321.3</ele></trkpt>
            <trkpt lat="51.711937" lon="10.971232"><ele>321.3</ele></trkpt>
            <trkpt lat="51.711806" lon="10.971113"><ele>321.4</ele></trkpt>
            <trkpt lat="51.711738" lon="10.971083"><ele>323</ele></trkpt>
            <trkpt lat="51.71148" lon="10.970932"><ele>317.7</ele></trkpt>
            <trkpt lat="51.711223" lon="10.970844"><ele>316</ele></trkpt>
            <trkpt lat="51.710967" lon="10.970871"><ele>315.7</ele></trkpt>
            <trkpt lat="51.710703" lon="10.970984"><ele>315.6</ele></trkpt>
            <trkpt lat="51.710585" lon="10.971098"><ele>315</ele></trkpt>
            <trkpt lat="51.71048" lon="10.971387"><ele>313.7</ele></trkpt>
            <trkpt lat="51.710389" lon="10.971784"><ele>312.9</ele></trkpt>
            <trkpt lat="51.710295" lon="10.972457"><ele>312.5</ele></trkpt>
            <trkpt lat="51.710217" lon="10.972732"><ele>313.1</ele></trkpt>
            <trkpt lat="51.710166" lon="10.973589"><ele>315.9</ele></trkpt>
            <trkpt lat="51.710169" lon="10.974026"><ele>317.7</ele></trkpt>
            <trkpt lat="51.710194" lon="10.974415"><ele>320.8</ele></trkpt>
            <trkpt lat="51.710173" lon="10.974673"><ele>322.1</ele></trkpt>
            <trkpt lat="51.710172" lon="10.975"><ele>323</ele></trkpt>
            <trkpt lat="51.710139" lon="10.975364"><ele>326.7</ele></trkpt>
            <trkpt lat="51.710233" lon="10.976244"><ele>331.6</ele></trkpt>
            <trkpt lat="51.710357" lon="10.97646"><ele>335.5</ele></trkpt>
            <trkpt lat="51.710524" lon="10.977417"><ele>349.3</ele></trkpt>
            <trkpt lat="51.710818" lon="10.978407"><ele>373.9</ele></trkpt>
            <trkpt lat="51.710878" lon="10.978802"><ele>379.2</ele></trkpt>
            <trkpt lat="51.710941" lon="10.978991"><ele>379.8</ele></trkpt>
            <trkpt lat="51.711057" lon="10.979565"><ele>385.8</ele></trkpt>
            <trkpt lat="51.711245" lon="10.980201"><ele>398</ele></trkpt>
            <trkpt lat="51.711446" lon="10.980521"><ele>411.3</ele></trkpt>
            <trkpt lat="51.711526" lon="10.980721"><ele>411.2</ele></trkpt>
            <trkpt lat="51.711759" lon="10.981736"><ele>414.9</ele></trkpt>
            <trkpt lat="51.711947" lon="10.982269"><ele>419.7</ele></trkpt>
            <trkpt lat="51.712058" lon="10.982706"><ele>423.3</ele></trkpt>
            <trkpt lat="51.712123" lon="10.983053"><ele>434</ele></trkpt>
            <trkpt lat="51.712209" lon="10.983379"><ele>437.7</ele></trkpt>
            <trkpt lat="51.712281" lon="10.983737"><ele>438</ele></trkpt>
            <trkpt lat="51.712522" lon="10.98465"><ele>438.6</ele></trkpt>
            <trkpt lat="51.712546" lon="10.984882"><ele>441</ele></trkpt>
            <trkpt lat="51.71253" lon="10.985068"><ele>441</ele></trkpt>
            <trkpt lat="51.711822" lon="10.988965"><ele>441</ele></trkpt>
            <trkpt lat="51.711542" lon="10.990442"><ele>430</ele></trkpt>
            <trkpt lat="51.711785" lon="10.99087"><ele>432.5</ele></trkpt>
            <trkpt lat="51.711879" lon="10.991108"><ele>432.3</ele></trkpt>
            <trkpt lat="51.711957" lon="10.991372"><ele>432.1</ele></trkpt>
            <trkpt lat="51.711995" lon="10.991709"><ele>431.9</ele></trkpt>
            <trkpt lat="51.711989" lon="10.992108"><ele>430.7</ele></trkpt>
            <trkpt lat="51.712012" lon="10.992466"><ele>429.6</ele></trkpt>
            <trkpt lat="51.712084" lon="10.992834"><ele>429.1</ele></trkpt>
            <trkpt lat="51.712217" lon="10.993155"><ele>428.5</ele></trkpt>
            <trkpt lat="51.712325" lon="10.993329"><ele>427.6</ele></trkpt>
            <trkpt lat="51.712733" lon="10.993698"><ele>426.2</ele></trkpt>
            <trkpt lat="51.712949" lon="10.99392"><ele>426.5</ele></trkpt>
            <trkpt lat="51.713105" lon="10.994199"><ele>427.1</ele></trkpt>
            <trkpt lat="51.713304" lon="10.994655"><ele>426</ele></trkpt>
            <trkpt lat="51.713316" lon="10.994853"><ele>435.1</ele></trkpt>
            <trkpt lat="51.713219" lon="10.995902"><ele>436.7</ele></trkpt>
            <trkpt lat="51.713208" lon="10.996136"><ele>436.4</ele></trkpt>
            <trkpt lat="51.713217" lon="10.996371"><ele>436.2</ele></trkpt>
            <trkpt lat="51.713286" lon="10.996876"><ele>437.1</ele></trkpt>
            <trkpt lat="51.713496" lon="10.997944"><ele>438.9</ele></trkpt>
            <trkpt lat="51.713593" lon="10.998264"><ele>439.6</ele></trkpt>
            <trkpt lat="51.713705" lon="10.998492"><ele>441.5</ele></trkpt>
            <trkpt lat="51.713896" lon="10.999074"><ele>444</ele></trkpt>
            <trkpt lat="51.714002" lon="10.999335"><ele>446.2</ele></trkpt>
            <trkpt lat="51.714102" lon="10.999472"><ele>447.5</ele></trkpt>
            <trkpt lat="51.714267" lon="10.999617"><ele>449.5</ele></trkpt>
            <trkpt lat="51.714865" lon="11.000048"><ele>457.1</ele></trkpt>
            <trkpt lat="51.715143" lon="11.000311"><ele>458.4</ele></trkpt>
            <trkpt lat="51.71558" lon="11.000935"><ele>461.4</ele></trkpt>
            <trkpt lat="51.71582" lon="11.001216"><ele>467</ele></trkpt>
            <trkpt lat="51.716584" lon="11.001935"><ele>472</ele></trkpt>
            <trkpt lat="51.717047" lon="11.002421"><ele>473</ele></trkpt>
            <trkpt lat="51.717123" lon="11.002549"><ele>475</ele></trkpt>
            <trkpt lat="51.717295" lon="11.002793"><ele>477.7</ele></trkpt>
            <trkpt lat="51.717667" lon="11.00341"><ele>483</ele></trkpt>
            <trkpt lat="51.71813" lon="11.004359"><ele>485</ele></trkpt>
            <trkpt lat="51.718154" lon="11.004484"><ele>485</ele></trkpt>
            <trkpt lat="51.718179" lon="11.004617"><ele>485.5</ele></trkpt>
            <trkpt lat="51.718204" lon="11.004991"><ele>485.6</ele></trkpt>
            <trkpt lat="51.7182" lon="11.005631"><ele>485.4</ele></trkpt>
            <trkpt lat="51.718224" lon="11.005911"><ele>485.2</ele></trkpt>
            <trkpt lat="51.718486" lon="11.007224"><ele>484</ele></trkpt>
            <trkpt lat="51.718729" lon="11.008598"><ele>488.5</ele></trkpt>
            <trkpt lat="51.718823" lon="11.009921"><ele>490.8</ele></trkpt>
            <trkpt lat="51.718905" lon="11.010524"><ele>492.1</ele></trkpt>
            <trkpt lat="51.718982" lon="11.010783"><ele>492.3</ele></trkpt>
            <trkpt lat="51.719228" lon="11.01122"><ele>492.2</ele></trkpt>
            <trkpt lat="51.719728" lon="11.012027"><ele>493.9</ele></trkpt>
            <trkpt lat="51.720419" lon="11.013524"><ele>492.6</ele></trkpt>
            <trkpt lat="51.72068" lon="11.014227"><ele>491.1</ele></trkpt>
            <trkpt lat="51.720915" lon="11.014952"><ele>489</ele></trkpt>
            <trkpt lat="51.72102" lon="11.015229"><ele>487</ele></trkpt>
            <trkpt lat="51.721428" lon="11.015126"><ele>485</ele></trkpt>
            <trkpt lat="51.722865" lon="11.014658"><ele>479.1</ele></trkpt>
            <trkpt lat="51.723399" lon="11.014542"><ele>472</ele></trkpt>
            <trkpt lat="51.723539" lon="11.014544"><ele>472</ele></trkpt>
            <trkpt lat="51.724116" lon="11.014596"><ele>477.4</ele></trkpt>
            <trkpt lat="51.72494" lon="11.014725"><ele>481.6</ele></trkpt>
            <trkpt lat="51.725542" lon="11.014856"><ele>483.1</ele></trkpt>
            <trkpt lat="51.725745" lon="11.014868"><ele>485</ele></trkpt>
            <trkpt lat="51.725902" lon="11.014884"><ele>488</ele></trkpt>
            <trkpt lat="51.726008" lon="11.014929"><ele>487.5</ele></trkpt>
            <trkpt lat="51.726145" lon="11.015035"><ele>486</ele></trkpt>
            <trkpt lat="51.726272" lon="11.015017"><ele>486</ele></trkpt>
            <trkpt lat="51.727442" lon="11.01519"><ele>486</ele></trkpt>
            <trkpt lat="51.727445" lon="11.01513"><ele>486</ele></trkpt>
            <trkpt lat="51.727504" lon="11.01492"><ele>481.2</ele></trkpt>
            <trkpt lat="51.728146" lon="11.013948"><ele>478.5</ele></trkpt>
            <trkpt lat="51.728513" lon="11.013126"><ele>474.2</ele></trkpt>
            <trkpt lat="51.728619" lon="11.012944"><ele>474</ele></trkpt>
            <trkpt lat="51.728668" lon="11.01289"><ele>473.9</ele></trkpt>
            <trkpt lat="51.728959" lon="11.012718"><ele>473</ele></trkpt>
            <trkpt lat="51.729346" lon="11.012534"><ele>467</ele></trkpt>
            <trkpt lat="51.730119" lon="11.012295"><ele>464.2</ele></trkpt>
            <trkpt lat="51.730464" lon="11.01229"><ele>464.3</ele></trkpt>
            <trkpt lat="51.730573" lon="11.012256"><ele>464.5</ele></trkpt>
            <trkpt lat="51.730856" lon="11.011977"><ele>461</ele></trkpt>
            <trkpt lat="51.731026" lon="11.011781"><ele>457.1</ele></trkpt>
            <trkpt lat="51.731145" lon="11.011591"><ele>456.7</ele></trkpt>
            <trkpt lat="51.731346" lon="11.01108"><ele>456.6</ele></trkpt>
            <trkpt lat="51.731423" lon="11.010936"><ele>456.6</ele></trkpt>
            <trkpt lat="51.731613" lon="11.010744"><ele>456.5</ele></trkpt>
            <trkpt lat="51.731966" lon="11.010457"><ele>455</ele></trkpt>
            <trkpt lat="51.732129" lon="11.010211"><ele>446.4</ele></trkpt>
            <trkpt lat="51.7323" lon="11.010035"><ele>445.2</ele></trkpt>
            <trkpt lat="51.732386" lon="11.009916"><ele>444.1</ele></trkpt>
            <trkpt lat="51.732494" lon="11.009732"><ele>443.6</ele></trkpt>
            <trkpt lat="51.732576" lon="11.009507"><ele>443.6</ele></trkpt>
            <trkpt lat="51.732834" lon="11.009104"><ele>442.7</ele></trkpt>
            <trkpt lat="51.733031" lon="11.008862"><ele>442.3</ele></trkpt>
            <trkpt lat="51.733204" lon="11.008709"><ele>442.1</ele></trkpt>
            <trkpt lat="51.733335" lon="11.008558"><ele>442.1</ele></trkpt>
            <trkpt lat="51.733428" lon="11.008411"><ele>438</ele></trkpt>
            <trkpt lat="51.733497" lon="11.00816"><ele>420.2</ele></trkpt>
            <trkpt lat="51.733626" lon="11.007441"><ele>403</ele></trkpt>
            <trkpt lat="51.733696" lon="11.007365"><ele>394.2</ele></trkpt>
        </trkseg>
    </trk>
</gpx>
