<?xml version="1.0" encoding="UTF-8"?>
<gpx version="1.1" creator="HWN Route Compare (OpenRouteService)" xmlns="http://www.topografix.com/GPX/1/1">
    <metadata>
        <name>OpenRouteService – Tour E2</name>
    </metadata>
    <trk>
        <name>OpenRouteService – Tour E2</name>
        <trkseg>
            <trkpt lat="51.576906" lon="10.575264"><ele>276</ele></trkpt>
            <trkpt lat="51.576872" lon="10.575335"><ele>276</ele></trkpt>
            <trkpt lat="51.576714" lon="10.575543"><ele>275.8</ele></trkpt>
            <trkpt lat="51.576407" lon="10.575862"><ele>273</ele></trkpt>
            <trkpt lat="51.57591" lon="10.576426"><ele>273</ele></trkpt>
            <trkpt lat="51.575969" lon="10.576677"><ele>271.8</ele></trkpt>
            <trkpt lat="51.575984" lon="10.576848"><ele>271.7</ele></trkpt>
            <trkpt lat="51.575938" lon="10.577132"><ele>271.6</ele></trkpt>
            <trkpt lat="51.575878" lon="10.577231"><ele>271</ele></trkpt>
            <trkpt lat="51.575861" lon="10.577339"><ele>271</ele></trkpt>
            <trkpt lat="51.575853" lon="10.577376"><ele>270.7</ele></trkpt>
            <trkpt lat="51.575879" lon="10.577393"><ele>270.8</ele></trkpt>
            <trkpt lat="51.575837" lon="10.577576"><ele>270</ele></trkpt>
            <trkpt lat="51.575816" lon="10.577753"><ele>271</ele></trkpt>
            <trkpt lat="51.576064" lon="10.57769"><ele>270.5</ele></trkpt>
            <trkpt lat="51.576184" lon="10.577624"><ele>270.4</ele></trkpt>
            <trkpt lat="51.576399" lon="10.57744"><ele>271</ele></trkpt>
            <trkpt lat="51.576582" lon="10.577342"><ele>271</ele></trkpt>
            <trkpt lat="51.576666" lon="10.57732"><ele>271</ele></trkpt>
            <trkpt lat="51.576802" lon="10.57733"><ele>271</ele></trkpt>
            <trkpt lat="51.577136" lon="10.577475"><ele>271</ele></trkpt>
            <trkpt lat="51.577484" lon="10.577648"><ele>270</ele></trkpt>
            <trkpt lat="51.577849" lon="10.577755"><ele>270.7</ele></trkpt>
            <trkpt lat="51.577948" lon="10.577823"><ele>270.7</ele></trkpt>
            <trkpt lat="51.57827" lon="10.578342"><ele>270.7</ele></trkpt>
            <trkpt lat="51.578349" lon="10.578533"><ele>270.7</ele></trkpt>
            <trkpt lat="51.578395" lon="10.578567"><ele>270.7</ele></trkpt>
            <trkpt lat="51.578438" lon="10.578581"><ele>270.7</ele></trkpt>
            <trkpt lat="51.578656" lon="10.578471"><ele>271</ele></trkpt>
            <trkpt lat="51.578834" lon="10.578528"><ele>271</ele></trkpt>
            <trkpt lat="51.578837" lon="10.578674"><ele>271</ele></trkpt>
            <trkpt lat="51.578641" lon="10.57876"><ele>271</ele></trkpt>
            <trkpt lat="51.578476" lon="10.578908"><ele>271</ele></trkpt>
            <trkpt lat="51.578351" lon="10.579116"><ele>271</ele></trkpt>
            <trkpt lat="51.578966" lon="10.579894"><ele>271.7</ele></trkpt>
            <trkpt lat="51.579179" lon="10.580213"><ele>271.8</ele></trkpt>
            <trkpt lat="51.579527" lon="10.580432"><ele>272.3</ele></trkpt>
            <trkpt lat="51.579778" lon="10.580696"><ele>273</ele></trkpt>
            <trkpt lat="51.579963" lon="10.580858"><ele>277.7</ele></trkpt>
            <trkpt lat="51.5801" lon="10.581017"><ele>281</ele></trkpt>
            <trkpt lat="51.58014" lon="10.581188"><ele>281</ele></trkpt>
            <trkpt lat="51.58023" lon="10.581382"><ele>281</ele></trkpt>
            <trkpt lat="51.580244" lon="10.581456"><ele>281</ele></trkpt>
            <trkpt lat="51.580236" lon="10.581519"><ele>281</ele></trkpt>
            <trkpt lat="51.580167" lon="10.581604"><ele>281.8</ele></trkpt>
            <trkpt lat="51.580107" lon="10.58163"><ele>281.8</ele></trkpt>
            <trkpt lat="51.579677" lon="10.581622"><ele>281.1</ele></trkpt>
            <trkpt lat="51.579597" lon="10.581663"><ele>280.9</ele></trkpt>
            <trkpt lat="51.57952" lon="10.581748"><ele>286</ele></trkpt>
            <trkpt lat="51.579471" lon="10.581799"><ele>286</ele></trkpt>
            <trkpt lat="51.579441" lon="10.581922"><ele>286</ele></trkpt>
            <trkpt lat="51.579459" lon="10.582055"><ele>286</ele></trkpt>
            <trkpt lat="51.579449" lon="10.582177"><ele>289.2</ele></trkpt>
            <trkpt lat="51.579469" lon="10.582296"><ele>288.9</ele></trkpt>
            <trkpt lat="51.579503" lon="10.582352"><ele>288.7</ele></trkpt>
            <trkpt lat="51.579614" lon="10.582448"><ele>288.2</ele></trkpt>
            <trkpt lat="51.579668" lon="10.582558"><ele>289</ele></trkpt>
            <trkpt lat="51.579738" lon="10.582775"><ele>290.4</ele></trkpt>
            <trkpt lat="51.579917" lon="10.583057"><ele>297</ele></trkpt>
            <trkpt lat="51.579939" lon="10.583172"><ele>300.5</ele></trkpt>
            <trkpt lat="51.580044" lon="10.58335"><ele>312</ele></trkpt>
            <trkpt lat="51.580376" lon="10.583659"><ele>312</ele></trkpt>
            <trkpt lat="51.580544" lon="10.583636"><ele>312</ele></trkpt>
            <trkpt lat="51.580724" lon="10.5838"><ele>312</ele></trkpt>
            <trkpt lat="51.580705" lon="10.583819"><ele>312</ele></trkpt>
            <trkpt lat="51.580705" lon="10.583849"><ele>312</ele></trkpt>
            <trkpt lat="51.580705" lon="10.583858"><ele>312</ele></trkpt>
            <trkpt lat="51.580678" lon="10.583917"><ele>312</ele></trkpt>
            <trkpt lat="51.580608" lon="10.583994"><ele>312</ele></trkpt>
            <trkpt lat="51.580607" lon="10.584135"><ele>312</ele></trkpt>
            <trkpt lat="51.580635" lon="10.584555"><ele>321</ele></trkpt>
            <trkpt lat="51.58055" lon="10.584913"><ele>321</ele></trkpt>
            <trkpt lat="51.580503" lon="10.585034"><ele>328.5</ele></trkpt>
            <trkpt lat="51.580386" lon="10.585164"><ele>331</ele></trkpt>
            <trkpt lat="51.580313" lon="10.58522"><ele>331.8</ele></trkpt>
            <trkpt lat="51.58022" lon="10.585331"><ele>332.2</ele></trkpt>
            <trkpt lat="51.580006" lon="10.585735"><ele>332.8</ele></trkpt>
            <trkpt lat="51.579963" lon="10.585866"><ele>332.9</ele></trkpt>
            <trkpt lat="51.579928" lon="10.586091"><ele>333</ele></trkpt>
            <trkpt lat="51.579836" lon="10.586324"><ele>333.1</ele></trkpt>
            <trkpt lat="51.579463" lon="10.586994"><ele>333.4</ele></trkpt>
            <trkpt lat="51.579349" lon="10.587379"><ele>335</ele></trkpt>
            <trkpt lat="51.579028" lon="10.588738"><ele>329</ele></trkpt>
            <trkpt lat="51.578921" lon="10.589057"><ele>329.1</ele></trkpt>
            <trkpt lat="51.578714" lon="10.58958"><ele>327</ele></trkpt>
            <trkpt lat="51.578909" lon="10.589894"><ele>324.1</ele></trkpt>
            <trkpt lat="51.579017" lon="10.590002"><ele>323.6</ele></trkpt>
            <trkpt lat="51.579116" lon="10.590135"><ele>323.4</ele></trkpt>
            <trkpt lat="51.579176" lon="10.590242"><ele>323.2</ele></trkpt>
            <trkpt lat="51.579225" lon="10.59038"><ele>320</ele></trkpt>
            <trkpt lat="51.579342" lon="10.59162"><ele>316</ele></trkpt>
            <trkpt lat="51.579284" lon="10.591793"><ele>312.1</ele></trkpt>
            <trkpt lat="51.579281" lon="10.591852"><ele>312.2</ele></trkpt>
            <trkpt lat="51.579295" lon="10.591929"><ele>312.7</ele></trkpt>
            <trkpt lat="51.579412" lon="10.592106"><ele>312.8</ele></trkpt>
            <trkpt lat="51.579446" lon="10.592257"><ele>313.2</ele></trkpt>
            <trkpt lat="51.579455" lon="10.592423"><ele>313.6</ele></trkpt>
            <trkpt lat="51.579432" lon="10.592771"><ele>314.2</ele></trkpt>
            <trkpt lat="51.579388" lon="10.593086"><ele>314.4</ele></trkpt>
            <trkpt lat="51.579394" lon="10.593206"><ele>314.6</ele></trkpt>
            <trkpt lat="51.579231" lon="10.59405"><ele>316.9</ele></trkpt>
            <trkpt lat="51.57953" lon="10.59436"><ele>317.4</ele></trkpt>
            <trkpt lat="51.579631" lon="10.59454"><ele>317.8</ele></trkpt>
            <trkpt lat="51.579661" lon="10.594683"><ele>318.1</ele></trkpt>
            <trkpt lat="51.579635" lon="10.594826"><ele>318.3</ele></trkpt>
            <trkpt lat="51.579562" lon="10.59491"><ele>318.4</ele></trkpt>
            <trkpt lat="51.579508" lon="10.595033"><ele>318.9</ele></trkpt>
            <trkpt lat="51.579326" lon="10.595294"><ele>319.4</ele></trkpt>
            <trkpt lat="51.579151" lon="10.595423"><ele>320</ele></trkpt>
            <trkpt lat="51.57905" lon="10.595412"><ele>319.8</ele></trkpt>
            <trkpt lat="51.579015" lon="10.595425"><ele>319.5</ele></trkpt>
            <trkpt lat="51.578986" lon="10.595475"><ele>319.3</ele></trkpt>
            <trkpt lat="51.578914" lon="10.595503"><ele>323</ele></trkpt>
            <trkpt lat="51.578914" lon="10.595835"><ele>319</ele></trkpt>
            <trkpt lat="51.579012" lon="10.595729"><ele>321.8</ele></trkpt>
            <trkpt lat="51.579119" lon="10.595649"><ele>323</ele></trkpt>
            <trkpt lat="51.579182" lon="10.595676"><ele>318.2</ele></trkpt>
            <trkpt lat="51.579335" lon="10.595918"><ele>316</ele></trkpt>
            <trkpt lat="51.579388" lon="10.595749"><ele>316</ele></trkpt>
            <trkpt lat="51.579568" lon="10.595932"><ele>311.6</ele></trkpt>
            <trkpt lat="51.579893" lon="10.596173"><ele>311.5</ele></trkpt>
            <trkpt lat="51.580098" lon="10.596407"><ele>310.9</ele></trkpt>
            <trkpt lat="51.580172" lon="10.596526"><ele>310.6</ele></trkpt>
            <trkpt lat="51.580259" lon="10.596716"><ele>310.3</ele></trkpt>
            <trkpt lat="51.580407" lon="10.597128"><ele>310</ele></trkpt>
            <trkpt lat="51.580477" lon="10.597192"><ele>309.4</ele></trkpt>
            <trkpt lat="51.580648" lon="10.597269"><ele>308.8</ele></trkpt>
            <trkpt lat="51.580818" lon="10.597528"><ele>308.7</ele></trkpt>
            <trkpt lat="51.580895" lon="10.597708"><ele>308</ele></trkpt>
            <trkpt lat="51.581058" lon="10.598012"><ele>307.7</ele></trkpt>
            <trkpt lat="51.581143" lon="10.598073"><ele>307.3</ele></trkpt>
            <trkpt lat="51.5814" lon="10.598082"><ele>306.9</ele></trkpt>
            <trkpt lat="51.581631" lon="10.598149"><ele>306.3</ele></trkpt>
            <trkpt lat="51.582086" lon="10.598506"><ele>305.4</ele></trkpt>
            <trkpt lat="51.582361" lon="10.598799"><ele>303.8</ele></trkpt>
            <trkpt lat="51.582518" lon="10.599096"><ele>303.5</ele></trkpt>
            <trkpt lat="51.582597" lon="10.599442"><ele>301.8</ele></trkpt>
            <trkpt lat="51.58264" lon="10.599821"><ele>300.8</ele></trkpt>
            <trkpt lat="51.582578" lon="10.600693"><ele>297.4</ele></trkpt>
            <trkpt lat="51.582605" lon="10.601133"><ele>295.4</ele></trkpt>
            <trkpt lat="51.582583" lon="10.601482"><ele>292.8</ele></trkpt>
            <trkpt lat="51.582617" lon="10.601802"><ele>291.2</ele></trkpt>
            <trkpt lat="51.582609" lon="10.602834"><ele>287.4</ele></trkpt>
            <trkpt lat="51.582641" lon="10.603189"><ele>286.3</ele></trkpt>
            <trkpt lat="51.582724" lon="10.603569"><ele>285</ele></trkpt>
            <trkpt lat="51.582842" lon="10.604032"><ele>283.7</ele></trkpt>
            <trkpt lat="51.582963" lon="10.604389"><ele>282.9</ele></trkpt>
            <trkpt lat="51.583012" lon="10.604604"><ele>282.6</ele></trkpt>
            <trkpt lat="51.583027" lon="10.604716"><ele>282.4</ele></trkpt>
            <trkpt lat="51.583006" lon="10.604895"><ele>280</ele></trkpt>
            <trkpt lat="51.582908" lon="10.605529"><ele>277.6</ele></trkpt>
            <trkpt lat="51.582907" lon="10.605744"><ele>277.6</ele></trkpt>
            <trkpt lat="51.582971" lon="10.60635"><ele>277</ele></trkpt>
            <trkpt lat="51.582914" lon="10.606549"><ele>277</ele></trkpt>
            <trkpt lat="51.582723" lon="10.607034"><ele>277</ele></trkpt>
            <trkpt lat="51.582663" lon="10.607265"><ele>277</ele></trkpt>
            <trkpt lat="51.582613" lon="10.607487"><ele>277</ele></trkpt>
            <trkpt lat="51.582559" lon="10.607648"><ele>282.2</ele></trkpt>
            <trkpt lat="51.58252" lon="10.60791"><ele>282.3</ele></trkpt>
            <trkpt lat="51.582515" lon="10.608587"><ele>282.3</ele></trkpt>
            <trkpt lat="51.582498" lon="10.608881"><ele>284</ele></trkpt>
            <trkpt lat="51.582474" lon="10.609035"><ele>284.9</ele></trkpt>
            <trkpt lat="51.582267" lon="10.609668"><ele>286.1</ele></trkpt>
            <trkpt lat="51.582187" lon="10.610212"><ele>287</ele></trkpt>
            <trkpt lat="51.582046" lon="10.610647"><ele>288.2</ele></trkpt>
            <trkpt lat="51.582024" lon="10.610797"><ele>288.4</ele></trkpt>
            <trkpt lat="51.582031" lon="10.6109"><ele>288.3</ele></trkpt>
            <trkpt lat="51.5821" lon="10.611099"><ele>288</ele></trkpt>
            <trkpt lat="51.582529" lon="10.611948"><ele>272</ele></trkpt>
            <trkpt lat="51.582548" lon="10.611998"><ele>272</ele></trkpt>
            <trkpt lat="51.582517" lon="10.612213"><ele>276.5</ele></trkpt>
            <trkpt lat="51.582322" lon="10.612953"><ele>284</ele></trkpt>
            <trkpt lat="51.582085" lon="10.613798"><ele>285.9</ele></trkpt>
            <trkpt lat="51.582032" lon="10.613944"><ele>285.3</ele></trkpt>
            <trkpt lat="51.58163" lon="10.61468"><ele>297</ele></trkpt>
            <trkpt lat="51.581617" lon="10.614741"><ele>292.3</ele></trkpt>
            <trkpt lat="51.581596" lon="10.615386"><ele>291.3</ele></trkpt>
            <trkpt lat="51.581546" lon="10.615622"><ele>286</ele></trkpt>
            <trkpt lat="51.581115" lon="10.616546"><ele>278</ele></trkpt>
            <trkpt lat="51.581245" lon="10.616701"><ele>271.5</ele></trkpt>
            <trkpt lat="51.581505" lon="10.616937"><ele>272</ele></trkpt>
            <trkpt lat="51.581651" lon="10.617213"><ele>269</ele></trkpt>
            <trkpt lat="51.581743" lon="10.617328"><ele>270</ele></trkpt>
            <trkpt lat="51.581914" lon="10.617593"><ele>270</ele></trkpt>
            <trkpt lat="51.581857" lon="10.617656"><ele>270</ele></trkpt>
            <trkpt lat="51.58184" lon="10.617953"><ele>270</ele></trkpt>
            <trkpt lat="51.581837" lon="10.618011"><ele>270</ele></trkpt>
            <trkpt lat="51.582267" lon="10.618084"><ele>270</ele></trkpt>
            <trkpt lat="51.582452" lon="10.618187"><ele>270</ele></trkpt>
            <trkpt lat="51.582444" lon="10.618236"><ele>270</ele></trkpt>
            <trkpt lat="51.582426" lon="10.618359"><ele>270.8</ele></trkpt>
            <trkpt lat="51.582431" lon="10.618597"><ele>271</ele></trkpt>
            <trkpt lat="51.582444" lon="10.618645"><ele>271</ele></trkpt>
            <trkpt lat="51.582498" lon="10.618689"><ele>271</ele></trkpt>
            <trkpt lat="51.582468" lon="10.619183"><ele>269</ele></trkpt>
            <trkpt lat="51.582386" lon="10.619329"><ele>269</ele></trkpt>
            <trkpt lat="51.582283" lon="10.61937"><ele>269</ele></trkpt>
            <trkpt lat="51.582256" lon="10.619446"><ele>268.7</ele></trkpt>
            <trkpt lat="51.582218" lon="10.619748"><ele>268.7</ele></trkpt>
            <trkpt lat="51.58218" lon="10.619822"><ele>268.8</ele></trkpt>
            <trkpt lat="51.582091" lon="10.619899"><ele>268.8</ele></trkpt>
            <trkpt lat="51.582059" lon="10.61997"><ele>268.8</ele></trkpt>
            <trkpt lat="51.582055" lon="10.620237"><ele>267</ele></trkpt>
            <trkpt lat="51.582174" lon="10.62024"><ele>267</ele></trkpt>
            <trkpt lat="51.582195" lon="10.6205"><ele>267</ele></trkpt>
            <trkpt lat="51.582191" lon="10.620601"><ele>267</ele></trkpt>
            <trkpt lat="51.582192" lon="10.620671"><ele>267</ele></trkpt>
            <trkpt lat="51.582174" lon="10.620716"><ele>267</ele></trkpt>
            <trkpt lat="51.582208" lon="10.62077"><ele>267</ele></trkpt>
            <trkpt lat="51.581972" lon="10.621444"><ele>267.2</ele></trkpt>
            <trkpt lat="51.581774" lon="10.621751"><ele>267.2</ele></trkpt>
            <trkpt lat="51.581537" lon="10.621921"><ele>267.1</ele></trkpt>
            <trkpt lat="51.581276" lon="10.622062"><ele>267.1</ele></trkpt>
            <trkpt lat="51.58097" lon="10.622083"><ele>267</ele></trkpt>
            <trkpt lat="51.580983" lon="10.622154"><ele>267</ele></trkpt>
            <trkpt lat="51.581015" lon="10.622317"><ele>267</ele></trkpt>
            <trkpt lat="51.581061" lon="10.622603"><ele>267</ele></trkpt>
            <trkpt lat="51.581199" lon="10.623023"><ele>267</ele></trkpt>
            <trkpt lat="51.580517" lon="10.626466"><ele>263.3</ele></trkpt>
            <trkpt lat="51.580445" lon="10.626968"><ele>263.4</ele></trkpt>
            <trkpt lat="51.580446" lon="10.627205"><ele>263.5</ele></trkpt>
            <trkpt lat="51.580516" lon="10.628146"><ele>263.7</ele></trkpt>
            <trkpt lat="51.580594" lon="10.628934"><ele>263</ele></trkpt>
            <trkpt lat="51.580167" lon="10.629214"><ele>262</ele></trkpt>
            <trkpt lat="51.580026" lon="10.629275"><ele>262</ele></trkpt>
            <trkpt lat="51.580025" lon="10.629823"><ele>261.5</ele></trkpt>
            <trkpt lat="51.580099" lon="10.63141"><ele>261.9</ele></trkpt>
            <trkpt lat="51.580175" lon="10.631786"><ele>261.9</ele></trkpt>
            <trkpt lat="51.580238" lon="10.63202"><ele>262</ele></trkpt>
            <trkpt lat="51.580282" lon="10.632111"><ele>262</ele></trkpt>
            <trkpt lat="51.580433" lon="10.632267"><ele>262</ele></trkpt>
            <trkpt lat="51.580546" lon="10.632432"><ele>262</ele></trkpt>
            <trkpt lat="51.580605" lon="10.63255"><ele>263</ele></trkpt>
            <trkpt lat="51.580603" lon="10.633063"><ele>263.5</ele></trkpt>
            <trkpt lat="51.580509" lon="10.635983"><ele>263.9</ele></trkpt>
            <trkpt lat="51.580514" lon="10.636162"><ele>264</ele></trkpt>
            <trkpt lat="51.580535" lon="10.636244"><ele>270.9</ele></trkpt>
            <trkpt lat="51.580813" lon="10.636941"><ele>272.9</ele></trkpt>
            <trkpt lat="51.581075" lon="10.637448"><ele>274.9</ele></trkpt>
            <trkpt lat="51.581141" lon="10.63764"><ele>275.3</ele></trkpt>
            <trkpt lat="51.581286" lon="10.638181"><ele>282.4</ele></trkpt>
            <trkpt lat="51.581465" lon="10.638584"><ele>282.2</ele></trkpt>
            <trkpt lat="51.581661" lon="10.638905"><ele>283.9</ele></trkpt>
            <trkpt lat="51.582287" lon="10.639549"><ele>305</ele></trkpt>
            <trkpt lat="51.582232" lon="10.639769"><ele>309.8</ele></trkpt>
            <trkpt lat="51.582196" lon="10.640092"><ele>310.1</ele></trkpt>
            <trkpt lat="51.582189" lon="10.64043"><ele>310.1</ele></trkpt>
            <trkpt lat="51.582157" lon="10.640696"><ele>310.5</ele></trkpt>
            <trkpt lat="51.582159" lon="10.64121"><ele>311.4</ele></trkpt>
            <trkpt lat="51.582137" lon="10.641321"><ele>311.6</ele></trkpt>
            <trkpt lat="51.58176" lon="10.642656"><ele>314.7</ele></trkpt>
            <trkpt lat="51.581644" lon="10.643002"><ele>313.8</ele></trkpt>
            <trkpt lat="51.581611" lon="10.643218"><ele>312.1</ele></trkpt>
            <trkpt lat="51.581518" lon="10.643533"><ele>311.7</ele></trkpt>
            <trkpt lat="51.581425" lon="10.643741"><ele>311</ele></trkpt>
            <trkpt lat="51.581321" lon="10.64396"><ele>311</ele></trkpt>
            <trkpt lat="51.581237" lon="10.644414"><ele>321.1</ele></trkpt>
            <trkpt lat="51.581014" lon="10.645096"><ele>338</ele></trkpt>
            <trkpt lat="51.581055" lon="10.645415"><ele>338</ele></trkpt>
            <trkpt lat="51.581134" lon="10.645882"><ele>335.5</ele></trkpt>
            <trkpt lat="51.581055" lon="10.645415"><ele>338</ele></trkpt>
            <trkpt lat="51.581014" lon="10.645096"><ele>338</ele></trkpt>
            <trkpt lat="51.581237" lon="10.644414"><ele>321.1</ele></trkpt>
            <trkpt lat="51.581321" lon="10.64396"><ele>311</ele></trkpt>
            <trkpt lat="51.581425" lon="10.643741"><ele>311</ele></trkpt>
            <trkpt lat="51.581518" lon="10.643533"><ele>311.7</ele></trkpt>
            <trkpt lat="51.581611" lon="10.643218"><ele>312.1</ele></trkpt>
            <trkpt lat="51.581644" lon="10.643002"><ele>313.8</ele></trkpt>
            <trkpt lat="51.58176" lon="10.642656"><ele>314.7</ele></trkpt>
            <trkpt lat="51.582137" lon="10.641321"><ele>311.6</ele></trkpt>
            <trkpt lat="51.582159" lon="10.64121"><ele>311.4</ele></trkpt>
            <trkpt lat="51.582157" lon="10.640696"><ele>310.5</ele></trkpt>
            <trkpt lat="51.582189" lon="10.64043"><ele>310.1</ele></trkpt>
            <trkpt lat="51.582196" lon="10.640092"><ele>310.1</ele></trkpt>
            <trkpt lat="51.582232" lon="10.639769"><ele>309.8</ele></trkpt>
            <trkpt lat="51.582287" lon="10.639549"><ele>305</ele></trkpt>
            <trkpt lat="51.581661" lon="10.638905"><ele>283.9</ele></trkpt>
            <trkpt lat="51.581465" lon="10.638584"><ele>282.2</ele></trkpt>
            <trkpt lat="51.581286" lon="10.638181"><ele>282.4</ele></trkpt>
            <trkpt lat="51.581141" lon="10.63764"><ele>275.3</ele></trkpt>
            <trkpt lat="51.581075" lon="10.637448"><ele>274.9</ele></trkpt>
            <trkpt lat="51.580813" lon="10.636941"><ele>272.9</ele></trkpt>
            <trkpt lat="51.580535" lon="10.636244"><ele>270.9</ele></trkpt>
            <trkpt lat="51.580514" lon="10.636162"><ele>264</ele></trkpt>
            <trkpt lat="51.580509" lon="10.635983"><ele>263.9</ele></trkpt>
            <trkpt lat="51.580603" lon="10.633063"><ele>263.5</ele></trkpt>
            <trkpt lat="51.580605" lon="10.63255"><ele>263</ele></trkpt>
            <trkpt lat="51.580546" lon="10.632432"><ele>262</ele></trkpt>
            <trkpt lat="51.580433" lon="10.632267"><ele>262</ele></trkpt>
            <trkpt lat="51.580282" lon="10.632111"><ele>262</ele></trkpt>
            <trkpt lat="51.580238" lon="10.63202"><ele>262</ele></trkpt>
            <trkpt lat="51.580175" lon="10.631786"><ele>261.9</ele></trkpt>
            <trkpt lat="51.580099" lon="10.63141"><ele>261.9</ele></trkpt>
            <trkpt lat="51.580025" lon="10.629823"><ele>261.5</ele></trkpt>
            <trkpt lat="51.580026" lon="10.629275"><ele>262</ele></trkpt>
            <trkpt lat="51.580167" lon="10.629214"><ele>262</ele></trkpt>
            <trkpt lat="51.580594" lon="10.628934"><ele>263</ele></trkpt>
            <trkpt lat="51.580516" lon="10.628146"><ele>263.7</ele></trkpt>
            <trkpt lat="51.580446" lon="10.627205"><ele>263.5</ele></trkpt>
            <trkpt lat="51.580445" lon="10.626968"><ele>263.4</ele></trkpt>
            <trkpt lat="51.580517" lon="10.626466"><ele>263.3</ele></trkpt>
            <trkpt lat="51.581199" lon="10.623023"><ele>267</ele></trkpt>
            <trkpt lat="51.581061" lon="10.622603"><ele>267</ele></trkpt>
            <trkpt lat="51.581015" lon="10.622317"><ele>267</ele></trkpt>
            <trkpt lat="51.580983" lon="10.622154"><ele>267</ele></trkpt>
            <trkpt lat="51.58097" lon="10.622083"><ele>267</ele></trkpt>
            <trkpt lat="51.581276" lon="10.622062"><ele>267.1</ele></trkpt>
            <trkpt lat="51.581537" lon="10.621921"><ele>267.1</ele></trkpt>
            <trkpt lat="51.581774" lon="10.621751"><ele>267.2</ele></trkpt>
            <trkpt lat="51.581972" lon="10.621444"><ele>267.2</ele></trkpt>
            <trkpt lat="51.582208" lon="10.62077"><ele>267</ele></trkpt>
            <trkpt lat="51.582174" lon="10.620716"><ele>267</ele></trkpt>
            <trkpt lat="51.582192" lon="10.620671"><ele>267</ele></trkpt>
            <trkpt lat="51.582191" lon="10.620601"><ele>267</ele></trkpt>
            <trkpt lat="51.582195" lon="10.6205"><ele>267</ele></trkpt>
            <trkpt lat="51.582174" lon="10.62024"><ele>267</ele></trkpt>
            <trkpt lat="51.582055" lon="10.620237"><ele>267</ele></trkpt>
            <trkpt lat="51.582059" lon="10.61997"><ele>268.8</ele></trkpt>
            <trkpt lat="51.582091" lon="10.619899"><ele>268.8</ele></trkpt>
            <trkpt lat="51.58218" lon="10.619822"><ele>268.8</ele></trkpt>
            <trkpt lat="51.582218" lon="10.619748"><ele>268.7</ele></trkpt>
            <trkpt lat="51.582256" lon="10.619446"><ele>268.7</ele></trkpt>
            <trkpt lat="51.582283" lon="10.61937"><ele>269</ele></trkpt>
            <trkpt lat="51.582386" lon="10.619329"><ele>269</ele></trkpt>
            <trkpt lat="51.582468" lon="10.619183"><ele>269</ele></trkpt>
            <trkpt lat="51.582498" lon="10.618689"><ele>271</ele></trkpt>
            <trkpt lat="51.582444" lon="10.618645"><ele>271</ele></trkpt>
            <trkpt lat="51.582431" lon="10.618597"><ele>271</ele></trkpt>
            <trkpt lat="51.582426" lon="10.618359"><ele>270.8</ele></trkpt>
            <trkpt lat="51.582444" lon="10.618236"><ele>270</ele></trkpt>
            <trkpt lat="51.582452" lon="10.618187"><ele>270</ele></trkpt>
            <trkpt lat="51.582267" lon="10.618084"><ele>270</ele></trkpt>
            <trkpt lat="51.581837" lon="10.618011"><ele>270</ele></trkpt>
            <trkpt lat="51.58184" lon="10.617953"><ele>270</ele></trkpt>
            <trkpt lat="51.581857" lon="10.617656"><ele>270</ele></trkpt>
            <trkpt lat="51.581914" lon="10.617593"><ele>270</ele></trkpt>
            <trkpt lat="51.581743" lon="10.617328"><ele>270</ele></trkpt>
            <trkpt lat="51.581651" lon="10.617213"><ele>269</ele></trkpt>
            <trkpt lat="51.581505" lon="10.616937"><ele>272</ele></trkpt>
            <trkpt lat="51.581245" lon="10.616701"><ele>271.5</ele></trkpt>
            <trkpt lat="51.581115" lon="10.616546"><ele>278</ele></trkpt>
            <trkpt lat="51.581546" lon="10.615622"><ele>286</ele></trkpt>
            <trkpt lat="51.581596" lon="10.615386"><ele>291.3</ele></trkpt>
            <trkpt lat="51.581617" lon="10.614741"><ele>292.3</ele></trkpt>
            <trkpt lat="51.58163" lon="10.61468"><ele>297</ele></trkpt>
            <trkpt lat="51.582032" lon="10.613944"><ele>285.3</ele></trkpt>
            <trkpt lat="51.582085" lon="10.613798"><ele>285.9</ele></trkpt>
            <trkpt lat="51.582322" lon="10.612953"><ele>284</ele></trkpt>
            <trkpt lat="51.582517" lon="10.612213"><ele>276.5</ele></trkpt>
            <trkpt lat="51.582548" lon="10.611998"><ele>272</ele></trkpt>
            <trkpt lat="51.582529" lon="10.611948"><ele>272</ele></trkpt>
            <trkpt lat="51.5821" lon="10.611099"><ele>288</ele></trkpt>
            <trkpt lat="51.582031" lon="10.6109"><ele>288.3</ele></trkpt>
            <trkpt lat="51.582024" lon="10.610797"><ele>288.4</ele></trkpt>
            <trkpt lat="51.582046" lon="10.610647"><ele>288.2</ele></trkpt>
            <trkpt lat="51.582187" lon="10.610212"><ele>287</ele></trkpt>
            <trkpt lat="51.582267" lon="10.609668"><ele>286.1</ele></trkpt>
            <trkpt lat="51.582474" lon="10.609035"><ele>284.9</ele></trkpt>
            <trkpt lat="51.582498" lon="10.608881"><ele>284</ele></trkpt>
            <trkpt lat="51.582515" lon="10.608587"><ele>282.3</ele></trkpt>
            <trkpt lat="51.58252" lon="10.60791"><ele>282.3</ele></trkpt>
            <trkpt lat="51.582559" lon="10.607648"><ele>282.2</ele></trkpt>
            <trkpt lat="51.582613" lon="10.607487"><ele>277</ele></trkpt>
            <trkpt lat="51.582663" lon="10.607265"><ele>277</ele></trkpt>
            <trkpt lat="51.582723" lon="10.607034"><ele>277</ele></trkpt>
            <trkpt lat="51.582914" lon="10.606549"><ele>277</ele></trkpt>
            <trkpt lat="51.582971" lon="10.60635"><ele>277</ele></trkpt>
            <trkpt lat="51.582907" lon="10.605744"><ele>277.6</ele></trkpt>
            <trkpt lat="51.582908" lon="10.605529"><ele>277.6</ele></trkpt>
            <trkpt lat="51.583006" lon="10.604895"><ele>280</ele></trkpt>
            <trkpt lat="51.583027" lon="10.604716"><ele>282.4</ele></trkpt>
            <trkpt lat="51.583012" lon="10.604604"><ele>282.6</ele></trkpt>
            <trkpt lat="51.582963" lon="10.604389"><ele>282.9</ele></trkpt>
            <trkpt lat="51.582842" lon="10.604032"><ele>283.7</ele></trkpt>
            <trkpt lat="51.582724" lon="10.603569"><ele>285</ele></trkpt>
            <trkpt lat="51.582641" lon="10.603189"><ele>286.3</ele></trkpt>
            <trkpt lat="51.582609" lon="10.602834"><ele>287.4</ele></trkpt>
            <trkpt lat="51.582617" lon="10.601802"><ele>291.2</ele></trkpt>
            <trkpt lat="51.582583" lon="10.601482"><ele>292.8</ele></trkpt>
            <trkpt lat="51.582605" lon="10.601133"><ele>295.4</ele></trkpt>
            <trkpt lat="51.582578" lon="10.600693"><ele>297.4</ele></trkpt>
            <trkpt lat="51.58264" lon="10.599821"><ele>300.8</ele></trkpt>
            <trkpt lat="51.582597" lon="10.599442"><ele>301.8</ele></trkpt>
            <trkpt lat="51.582518" lon="10.599096"><ele>303.5</ele></trkpt>
            <trkpt lat="51.582361" lon="10.598799"><ele>303.8</ele></trkpt>
            <trkpt lat="51.582086" lon="10.598506"><ele>305.4</ele></trkpt>
            <trkpt lat="51.581631" lon="10.598149"><ele>306.3</ele></trkpt>
            <trkpt lat="51.5814" lon="10.598082"><ele>306.9</ele></trkpt>
            <trkpt lat="51.581143" lon="10.598073"><ele>307.3</ele></trkpt>
            <trkpt lat="51.581058" lon="10.598012"><ele>307.7</ele></trkpt>
            <trkpt lat="51.580895" lon="10.597708"><ele>308</ele></trkpt>
            <trkpt lat="51.580818" lon="10.597528"><ele>308.7</ele></trkpt>
            <trkpt lat="51.580648" lon="10.597269"><ele>308.8</ele></trkpt>
            <trkpt lat="51.580477" lon="10.597192"><ele>309.4</ele></trkpt>
            <trkpt lat="51.580407" lon="10.597128"><ele>310</ele></trkpt>
            <trkpt lat="51.580259" lon="10.596716"><ele>310.3</ele></trkpt>
            <trkpt lat="51.580172" lon="10.596526"><ele>310.6</ele></trkpt>
            <trkpt lat="51.580098" lon="10.596407"><ele>310.9</ele></trkpt>
            <trkpt lat="51.579893" lon="10.596173"><ele>311.5</ele></trkpt>
            <trkpt lat="51.579568" lon="10.595932"><ele>311.6</ele></trkpt>
            <trkpt lat="51.579388" lon="10.595749"><ele>316</ele></trkpt>
            <trkpt lat="51.579335" lon="10.595918"><ele>316</ele></trkpt>
            <trkpt lat="51.579182" lon="10.595676"><ele>318.2</ele></trkpt>
            <trkpt lat="51.579119" lon="10.595649"><ele>323</ele></trkpt>
            <trkpt lat="51.579012" lon="10.595729"><ele>321.8</ele></trkpt>
            <trkpt lat="51.578914" lon="10.595835"><ele>319</ele></trkpt>
            <trkpt lat="51.578914" lon="10.595503"><ele>323</ele></trkpt>
            <trkpt lat="51.578886" lon="10.59494"><ele>324.3</ele></trkpt>
            <trkpt lat="51.578827" lon="10.594738"><ele>324.5</ele></trkpt>
            <trkpt lat="51.578762" lon="10.59458"><ele>324.6</ele></trkpt>
            <trkpt lat="51.57845" lon="10.594116"><ele>325.1</ele></trkpt>
            <trkpt lat="51.57831" lon="10.593765"><ele>325</ele></trkpt>
            <trkpt lat="51.57819" lon="10.59339"><ele>324</ele></trkpt>
            <trkpt lat="51.577946" lon="10.593363"><ele>324</ele></trkpt>
            <trkpt lat="51.577634" lon="10.593387"><ele>324</ele></trkpt>
            <trkpt lat="51.57757" lon="10.593312"><ele>325</ele></trkpt>
            <trkpt lat="51.577569" lon="10.593069"><ele>325.3</ele></trkpt>
            <trkpt lat="51.577589" lon="10.59288"><ele>325.3</ele></trkpt>
            <trkpt lat="51.577572" lon="10.592589"><ele>325.2</ele></trkpt>
            <trkpt lat="51.577543" lon="10.592384"><ele>325.3</ele></trkpt>
            <trkpt lat="51.577554" lon="10.592295"><ele>325.4</ele></trkpt>
            <trkpt lat="51.577531" lon="10.592035"><ele>325.4</ele></trkpt>
            <trkpt lat="51.577542" lon="10.591958"><ele>325.5</ele></trkpt>
            <trkpt lat="51.577539" lon="10.591601"><ele>325.5</ele></trkpt>
            <trkpt lat="51.577569" lon="10.591436"><ele>325.4</ele></trkpt>
            <trkpt lat="51.577615" lon="10.591"><ele>325</ele></trkpt>
            <trkpt lat="51.57746" lon="10.590945"><ele>314</ele></trkpt>
            <trkpt lat="51.577224" lon="10.59115"><ele>309.7</ele></trkpt>
            <trkpt lat="51.576951" lon="10.591295"><ele>308.6</ele></trkpt>
            <trkpt lat="51.576872" lon="10.591317"><ele>308.2</ele></trkpt>
            <trkpt lat="51.576772" lon="10.591261"><ele>307.8</ele></trkpt>
            <trkpt lat="51.57664" lon="10.591118"><ele>307.3</ele></trkpt>
            <trkpt lat="51.576329" lon="10.590677"><ele>307.6</ele></trkpt>
            <trkpt lat="51.576253" lon="10.590466"><ele>307.9</ele></trkpt>
            <trkpt lat="51.576091" lon="10.589725"><ele>305</ele></trkpt>
            <trkpt lat="51.576065" lon="10.589013"><ele>299.5</ele></trkpt>
            <trkpt lat="51.575973" lon="10.588701"><ele>298.4</ele></trkpt>
            <trkpt lat="51.575892" lon="10.588566"><ele>297.8</ele></trkpt>
            <trkpt lat="51.575783" lon="10.588443"><ele>297.2</ele></trkpt>
            <trkpt lat="51.575607" lon="10.588295"><ele>297.6</ele></trkpt>
            <trkpt lat="51.575425" lon="10.588071"><ele>292</ele></trkpt>
            <trkpt lat="51.575514" lon="10.58802"><ele>291.4</ele></trkpt>
            <trkpt lat="51.575582" lon="10.587924"><ele>291.3</ele></trkpt>
            <trkpt lat="51.575611" lon="10.587849"><ele>291.2</ele></trkpt>
            <trkpt lat="51.575616" lon="10.587756"><ele>291</ele></trkpt>
            <trkpt lat="51.575609" lon="10.587662"><ele>290.9</ele></trkpt>
            <trkpt lat="51.5755" lon="10.587163"><ele>290.7</ele></trkpt>
            <trkpt lat="51.575482" lon="10.586805"><ele>290.6</ele></trkpt>
            <trkpt lat="51.575472" lon="10.58604"><ele>290.6</ele></trkpt>
            <trkpt lat="51.575548" lon="10.585375"><ele>289</ele></trkpt>
            <trkpt lat="51.57572" lon="10.584657"><ele>285.9</ele></trkpt>
            <trkpt lat="51.575825" lon="10.584317"><ele>284</ele></trkpt>
            <trkpt lat="51.575874" lon="10.58428"><ele>293.3</ele></trkpt>
            <trkpt lat="51.575893" lon="10.584227"><ele>298</ele></trkpt>
            <trkpt lat="51.575917" lon="10.58399"><ele>289.4</ele></trkpt>
            <trkpt lat="51.575871" lon="10.583258"><ele>289.1</ele></trkpt>
            <trkpt lat="51.575899" lon="10.582622"><ele>288.4</ele></trkpt>
            <trkpt lat="51.575919" lon="10.582478"><ele>281</ele></trkpt>
            <trkpt lat="51.575806" lon="10.582357"><ele>274.8</ele></trkpt>
            <trkpt lat="51.575643" lon="10.582009"><ele>272</ele></trkpt>
            <trkpt lat="51.575547" lon="10.581746"><ele>271.3</ele></trkpt>
            <trkpt lat="51.575509" lon="10.581569"><ele>270</ele></trkpt>
            <trkpt lat="51.575466" lon="10.581433"><ele>270</ele></trkpt>
            <trkpt lat="51.575401" lon="10.581372"><ele>270</ele></trkpt>
            <trkpt lat="51.57525" lon="10.580922"><ele>270</ele></trkpt>
            <trkpt lat="51.5753" lon="10.580861"><ele>270</ele></trkpt>
            <trkpt lat="51.575072" lon="10.580211"><ele>269</ele></trkpt>
            <trkpt lat="51.575054" lon="10.580156"><ele>269</ele></trkpt>
            <trkpt lat="51.575024" lon="10.580063"><ele>269</ele></trkpt>
            <trkpt lat="51.574899" lon="10.57964"><ele>271.4</ele></trkpt>
            <trkpt lat="51.574884" lon="10.579488"><ele>272</ele></trkpt>
            <trkpt lat="51.574867" lon="10.578988"><ele>274</ele></trkpt>
            <trkpt lat="51.574925" lon="10.578659"><ele>274</ele></trkpt>
            <trkpt lat="51.574937" lon="10.578555"><ele>274</ele></trkpt>
            <trkpt lat="51.574952" lon="10.578451"><ele>274</ele></trkpt>
            <trkpt lat="51.574977" lon="10.578333"><ele>279</ele></trkpt>
            <trkpt lat="51.575065" lon="10.578147"><ele>274.1</ele></trkpt>
            <trkpt lat="51.575232" lon="10.577888"><ele>271</ele></trkpt>
            <trkpt lat="51.575308" lon="10.577744"><ele>271.3</ele></trkpt>
            <trkpt lat="51.575385" lon="10.577529"><ele>271.3</ele></trkpt>
            <trkpt lat="51.575434" lon="10.577294"><ele>271.4</ele></trkpt>
            <trkpt lat="51.575488" lon="10.576912"><ele>272</ele></trkpt>
            <trkpt lat="51.57559" lon="10.576759"><ele>272.3</ele></trkpt>
            <trkpt lat="51.57591" lon="10.576426"><ele>273</ele></trkpt>
            <trkpt lat="51.576407" lon="10.575862"><ele>273</ele></trkpt>
            <trkpt lat="51.576714" lon="10.575543"><ele>275.8</ele></trkpt>
            <trkpt lat="51.576872" lon="10.575335"><ele>276</ele></trkpt>
            <trkpt lat="51.576906" lon="10.575264"><ele>276</ele></trkpt>
        </trkseg>
    </trk>
</gpx>
