<?xml version="1.0" encoding="UTF-8"?>
<gpx version="1.1" creator="HWN Route Compare (OpenRouteService)" xmlns="http://www.topografix.com/GPX/1/1">
    <metadata>
        <name>OpenRouteService – Tour E3</name>
    </metadata>
    <trk>
        <name>OpenRouteService – Tour E3</name>
        <trkseg>
            <trkpt lat="51.628193" lon="10.584867"><ele>382.9</ele></trkpt>
            <trkpt lat="51.628224" lon="10.584944"><ele>389.7</ele></trkpt>
            <trkpt lat="51.628072" lon="10.585127"><ele>392.9</ele></trkpt>
            <trkpt lat="51.628005" lon="10.585253"><ele>392</ele></trkpt>
            <trkpt lat="51.627915" lon="10.585598"><ele>401</ele></trkpt>
            <trkpt lat="51.627911" lon="10.585715"><ele>404.8</ele></trkpt>
            <trkpt lat="51.627868" lon="10.58587"><ele>416</ele></trkpt>
            <trkpt lat="51.627844" lon="10.586095"><ele>430.4</ele></trkpt>
            <trkpt lat="51.627692" lon="10.587023"><ele>432.4</ele></trkpt>
            <trkpt lat="51.62753" lon="10.587397"><ele>432.7</ele></trkpt>
            <trkpt lat="51.627291" lon="10.587872"><ele>434</ele></trkpt>
            <trkpt lat="51.627268" lon="10.587941"><ele>434.3</ele></trkpt>
            <trkpt lat="51.627266" lon="10.588048"><ele>434.6</ele></trkpt>
            <trkpt lat="51.627292" lon="10.588114"><ele>435.8</ele></trkpt>
            <trkpt lat="51.627351" lon="10.588175"><ele>436.2</ele></trkpt>
            <trkpt lat="51.627567" lon="10.588161"><ele>436.3</ele></trkpt>
            <trkpt lat="51.627658" lon="10.588189"><ele>436.4</ele></trkpt>
            <trkpt lat="51.627917" lon="10.588334"><ele>438.1</ele></trkpt>
            <trkpt lat="51.628314" lon="10.588497"><ele>440.4</ele></trkpt>
            <trkpt lat="51.62846" lon="10.588621"><ele>440.2</ele></trkpt>
            <trkpt lat="51.628625" lon="10.588908"><ele>441.4</ele></trkpt>
            <trkpt lat="51.628773" lon="10.589424"><ele>452</ele></trkpt>
            <trkpt lat="51.628844" lon="10.589664"><ele>459.7</ele></trkpt>
            <trkpt lat="51.629076" lon="10.590192"><ele>461.8</ele></trkpt>
            <trkpt lat="51.629243" lon="10.590427"><ele>461.5</ele></trkpt>
            <trkpt lat="51.629568" lon="10.590687"><ele>463.7</ele></trkpt>
            <trkpt lat="51.629645" lon="10.590855"><ele>464.1</ele></trkpt>
            <trkpt lat="51.62976" lon="10.591351"><ele>468.6</ele></trkpt>
            <trkpt lat="51.629794" lon="10.591831"><ele>473.1</ele></trkpt>
            <trkpt lat="51.629932" lon="10.592437"><ele>477.8</ele></trkpt>
            <trkpt lat="51.629974" lon="10.593205"><ele>489.5</ele></trkpt>
            <trkpt lat="51.629953" lon="10.594374"><ele>499</ele></trkpt>
            <trkpt lat="51.630005" lon="10.595122"><ele>508</ele></trkpt>
            <trkpt lat="51.629943" lon="10.596254"><ele>514</ele></trkpt>
            <trkpt lat="51.629957" lon="10.59642"><ele>517</ele></trkpt>
            <trkpt lat="51.629916" lon="10.596876"><ele>512</ele></trkpt>
            <trkpt lat="51.629956" lon="10.597158"><ele>512.8</ele></trkpt>
            <trkpt lat="51.630008" lon="10.597375"><ele>513.2</ele></trkpt>
            <trkpt lat="51.630277" lon="10.598426"><ele>513.8</ele></trkpt>
            <trkpt lat="51.630611" lon="10.599643"><ele>515</ele></trkpt>
            <trkpt lat="51.630659" lon="10.599819"><ele>515</ele></trkpt>
            <trkpt lat="51.63089" lon="10.600434"><ele>526.5</ele></trkpt>
            <trkpt lat="51.631311" lon="10.601201"><ele>528.7</ele></trkpt>
            <trkpt lat="51.631411" lon="10.60147"><ele>530.7</ele></trkpt>
            <trkpt lat="51.631472" lon="10.601788"><ele>533</ele></trkpt>
            <trkpt lat="51.63155" lon="10.603155"><ele>538.2</ele></trkpt>
            <trkpt lat="51.631595" lon="10.603398"><ele>547</ele></trkpt>
            <trkpt lat="51.631713" lon="10.603572"><ele>549</ele></trkpt>
            <trkpt lat="51.632098" lon="10.603929"><ele>552.5</ele></trkpt>
            <trkpt lat="51.632306" lon="10.603967"><ele>553.5</ele></trkpt>
            <trkpt lat="51.632543" lon="10.603856"><ele>554.5</ele></trkpt>
            <trkpt lat="51.632781" lon="10.603711"><ele>555.7</ele></trkpt>
            <trkpt lat="51.632969" lon="10.603507"><ele>558.7</ele></trkpt>
            <trkpt lat="51.633131" lon="10.603416"><ele>559.6</ele></trkpt>
            <trkpt lat="51.633292" lon="10.603448"><ele>561.6</ele></trkpt>
            <trkpt lat="51.633771" lon="10.603866"><ele>566</ele></trkpt>
            <trkpt lat="51.633892" lon="10.603925"><ele>567</ele></trkpt>
            <trkpt lat="51.633991" lon="10.604046"><ele>568.2</ele></trkpt>
            <trkpt lat="51.634101" lon="10.604222"><ele>570.3</ele></trkpt>
            <trkpt lat="51.634177" lon="10.604434"><ele>571.4</ele></trkpt>
            <trkpt lat="51.634291" lon="10.604602"><ele>572.8</ele></trkpt>
            <trkpt lat="51.634475" lon="10.604737"><ele>575.5</ele></trkpt>
            <trkpt lat="51.634819" lon="10.604802"><ele>576.2</ele></trkpt>
            <trkpt lat="51.635143" lon="10.604795"><ele>577.6</ele></trkpt>
            <trkpt lat="51.635654" lon="10.604975"><ele>580.2</ele></trkpt>
            <trkpt lat="51.635779" lon="10.605"><ele>594</ele></trkpt>
            <trkpt lat="51.636088" lon="10.604983"><ele>597.3</ele></trkpt>
            <trkpt lat="51.636524" lon="10.604917"><ele>599</ele></trkpt>
            <trkpt lat="51.636565" lon="10.60492"><ele>599</ele></trkpt>
            <trkpt lat="51.636858" lon="10.604928"><ele>605.6</ele></trkpt>
            <trkpt lat="51.637306" lon="10.605153"><ele>605.5</ele></trkpt>
            <trkpt lat="51.637563" lon="10.605326"><ele>605.7</ele></trkpt>
            <trkpt lat="51.637845" lon="10.605464"><ele>605.3</ele></trkpt>
            <trkpt lat="51.638525" lon="10.606024"><ele>606</ele></trkpt>
            <trkpt lat="51.639064" lon="10.606682"><ele>602</ele></trkpt>
            <trkpt lat="51.639331" lon="10.606956"><ele>602.1</ele></trkpt>
            <trkpt lat="51.639626" lon="10.607174"><ele>601</ele></trkpt>
            <trkpt lat="51.639793" lon="10.607249"><ele>597.3</ele></trkpt>
            <trkpt lat="51.640305" lon="10.607364"><ele>589.6</ele></trkpt>
            <trkpt lat="51.640729" lon="10.607339"><ele>583.4</ele></trkpt>
            <trkpt lat="51.640983" lon="10.607276"><ele>577.6</ele></trkpt>
            <trkpt lat="51.641347" lon="10.60713"><ele>575.4</ele></trkpt>
            <trkpt lat="51.641452" lon="10.60718"><ele>575.1</ele></trkpt>
            <trkpt lat="51.641543" lon="10.607325"><ele>574.7</ele></trkpt>
            <trkpt lat="51.64164" lon="10.607783"><ele>572.8</ele></trkpt>
            <trkpt lat="51.641695" lon="10.607924"><ele>572.4</ele></trkpt>
            <trkpt lat="51.642124" lon="10.608381"><ele>563</ele></trkpt>
            <trkpt lat="51.642243" lon="10.608491"><ele>557.4</ele></trkpt>
            <trkpt lat="51.642378" lon="10.608715"><ele>556.6</ele></trkpt>
            <trkpt lat="51.642474" lon="10.608981"><ele>555.7</ele></trkpt>
            <trkpt lat="51.642738" lon="10.610447"><ele>548</ele></trkpt>
            <trkpt lat="51.642754" lon="10.610563"><ele>550</ele></trkpt>
            <trkpt lat="51.642788" lon="10.610666"><ele>550.8</ele></trkpt>
            <trkpt lat="51.642944" lon="10.611003"><ele>551.4</ele></trkpt>
            <trkpt lat="51.643284" lon="10.611607"><ele>551.8</ele></trkpt>
            <trkpt lat="51.643551" lon="10.611984"><ele>551.9</ele></trkpt>
            <trkpt lat="51.643688" lon="10.612141"><ele>552.4</ele></trkpt>
            <trkpt lat="51.643913" lon="10.612256"><ele>552.4</ele></trkpt>
            <trkpt lat="51.644276" lon="10.612347"><ele>553</ele></trkpt>
            <trkpt lat="51.644451" lon="10.612314"><ele>555.1</ele></trkpt>
            <trkpt lat="51.644579" lon="10.612256"><ele>555.2</ele></trkpt>
            <trkpt lat="51.644733" lon="10.612124"><ele>555.4</ele></trkpt>
            <trkpt lat="51.644856" lon="10.611954"><ele>555.5</ele></trkpt>
            <trkpt lat="51.645006" lon="10.611568"><ele>556.5</ele></trkpt>
            <trkpt lat="51.645112" lon="10.611165"><ele>557</ele></trkpt>
            <trkpt lat="51.645212" lon="10.610898"><ele>556.8</ele></trkpt>
            <trkpt lat="51.645302" lon="10.61076"><ele>557.6</ele></trkpt>
            <trkpt lat="51.645429" lon="10.61063"><ele>558.2</ele></trkpt>
            <trkpt lat="51.645999" lon="10.61028"><ele>559.1</ele></trkpt>
            <trkpt lat="51.646492" lon="10.610127"><ele>558.5</ele></trkpt>
            <trkpt lat="51.646874" lon="10.609959"><ele>551</ele></trkpt>
            <trkpt lat="51.647218" lon="10.609756"><ele>553</ele></trkpt>
            <trkpt lat="51.648024" lon="10.609015"><ele>553</ele></trkpt>
            <trkpt lat="51.648208" lon="10.60886"><ele>561.3</ele></trkpt>
            <trkpt lat="51.648399" lon="10.608658"><ele>562.3</ele></trkpt>
            <trkpt lat="51.648504" lon="10.608469"><ele>563.1</ele></trkpt>
            <trkpt lat="51.648592" lon="10.608194"><ele>564.7</ele></trkpt>
            <trkpt lat="51.648755" lon="10.607432"><ele>566.2</ele></trkpt>
            <trkpt lat="51.648885" lon="10.606988"><ele>568.9</ele></trkpt>
            <trkpt lat="51.649036" lon="10.606615"><ele>572.6</ele></trkpt>
            <trkpt lat="51.649186" lon="10.606334"><ele>576</ele></trkpt>
            <trkpt lat="51.649388" lon="10.605864"><ele>579.9</ele></trkpt>
            <trkpt lat="51.649499" lon="10.605555"><ele>582</ele></trkpt>
            <trkpt lat="51.649641" lon="10.604987"><ele>585</ele></trkpt>
            <trkpt lat="51.649755" lon="10.604373"><ele>588.6</ele></trkpt>
            <trkpt lat="51.649763" lon="10.603836"><ele>590.6</ele></trkpt>
            <trkpt lat="51.649814" lon="10.603407"><ele>592.1</ele></trkpt>
            <trkpt lat="51.649901" lon="10.603162"><ele>592.3</ele></trkpt>
            <trkpt lat="51.650001" lon="10.602965"><ele>593.4</ele></trkpt>
            <trkpt lat="51.650132" lon="10.602807"><ele>594.3</ele></trkpt>
            <trkpt lat="51.650233" lon="10.60272"><ele>595.1</ele></trkpt>
            <trkpt lat="51.650338" lon="10.602693"><ele>595.4</ele></trkpt>
            <trkpt lat="51.650454" lon="10.602729"><ele>595.8</ele></trkpt>
            <trkpt lat="51.651264" lon="10.603245"><ele>599.3</ele></trkpt>
            <trkpt lat="51.651496" lon="10.603341"><ele>600</ele></trkpt>
            <trkpt lat="51.65156" lon="10.60333"><ele>599.6</ele></trkpt>
            <trkpt lat="51.651818" lon="10.603208"><ele>601</ele></trkpt>
            <trkpt lat="51.652092" lon="10.603032"><ele>601.3</ele></trkpt>
            <trkpt lat="51.652377" lon="10.602755"><ele>601.5</ele></trkpt>
            <trkpt lat="51.652929" lon="10.601729"><ele>601</ele></trkpt>
            <trkpt lat="51.653036" lon="10.60139"><ele>600.1</ele></trkpt>
            <trkpt lat="51.653208" lon="10.600715"><ele>595</ele></trkpt>
            <trkpt lat="51.653295" lon="10.600824"><ele>601.2</ele></trkpt>
            <trkpt lat="51.653208" lon="10.600715"><ele>595</ele></trkpt>
            <trkpt lat="51.653036" lon="10.60139"><ele>600.1</ele></trkpt>
            <trkpt lat="51.652929" lon="10.601729"><ele>601</ele></trkpt>
            <trkpt lat="51.652377" lon="10.602755"><ele>601.5</ele></trkpt>
            <trkpt lat="51.652092" lon="10.603032"><ele>601.3</ele></trkpt>
            <trkpt lat="51.651818" lon="10.603208"><ele>601</ele></trkpt>
            <trkpt lat="51.65156" lon="10.60333"><ele>599.6</ele></trkpt>
            <trkpt lat="51.651496" lon="10.603341"><ele>600</ele></trkpt>
            <trkpt lat="51.651264" lon="10.603245"><ele>599.3</ele></trkpt>
            <trkpt lat="51.650454" lon="10.602729"><ele>595.8</ele></trkpt>
            <trkpt lat="51.650338" lon="10.602693"><ele>595.4</ele></trkpt>
            <trkpt lat="51.650233" lon="10.60272"><ele>595.1</ele></trkpt>
            <trkpt lat="51.650132" lon="10.602807"><ele>594.3</ele></trkpt>
            <trkpt lat="51.650001" lon="10.602965"><ele>593.4</ele></trkpt>
            <trkpt lat="51.649901" lon="10.603162"><ele>592.3</ele></trkpt>
            <trkpt lat="51.649814" lon="10.603407"><ele>592.1</ele></trkpt>
            <trkpt lat="51.649763" lon="10.603836"><ele>590.6</ele></trkpt>
            <trkpt lat="51.649755" lon="10.604373"><ele>588.6</ele></trkpt>
            <trkpt lat="51.649641" lon="10.604987"><ele>585</ele></trkpt>
            <trkpt lat="51.649499" lon="10.605555"><ele>582</ele></trkpt>
            <trkpt lat="51.649388" lon="10.605864"><ele>579.9</ele></trkpt>
            <trkpt lat="51.649186" lon="10.606334"><ele>576</ele></trkpt>
            <trkpt lat="51.649036" lon="10.606615"><ele>572.6</ele></trkpt>
            <trkpt lat="51.648885" lon="10.606988"><ele>568.9</ele></trkpt>
            <trkpt lat="51.648755" lon="10.607432"><ele>566.2</ele></trkpt>
            <trkpt lat="51.648592" lon="10.608194"><ele>564.7</ele></trkpt>
            <trkpt lat="51.648504" lon="10.608469"><ele>563.1</ele></trkpt>
            <trkpt lat="51.648399" lon="10.608658"><ele>562.3</ele></trkpt>
            <trkpt lat="51.648208" lon="10.60886"><ele>561.3</ele></trkpt>
            <trkpt lat="51.648024" lon="10.609015"><ele>553</ele></trkpt>
            <trkpt lat="51.647218" lon="10.609756"><ele>553</ele></trkpt>
            <trkpt lat="51.646874" lon="10.609959"><ele>551</ele></trkpt>
            <trkpt lat="51.646492" lon="10.610127"><ele>558.5</ele></trkpt>
            <trkpt lat="51.645999" lon="10.61028"><ele>559.1</ele></trkpt>
            <trkpt lat="51.645429" lon="10.61063"><ele>558.2</ele></trkpt>
            <trkpt lat="51.645302" lon="10.61076"><ele>557.6</ele></trkpt>
            <trkpt lat="51.645212" lon="10.610898"><ele>556.8</ele></trkpt>
            <trkpt lat="51.645112" lon="10.611165"><ele>557</ele></trkpt>
            <trkpt lat="51.645006" lon="10.611568"><ele>556.5</ele></trkpt>
            <trkpt lat="51.644856" lon="10.611954"><ele>555.5</ele></trkpt>
            <trkpt lat="51.644733" lon="10.612124"><ele>555.4</ele></trkpt>
            <trkpt lat="51.644579" lon="10.612256"><ele>555.2</ele></trkpt>
            <trkpt lat="51.644451" lon="10.612314"><ele>555.1</ele></trkpt>
            <trkpt lat="51.644276" lon="10.612347"><ele>553</ele></trkpt>
            <trkpt lat="51.643913" lon="10.612256"><ele>552.4</ele></trkpt>
            <trkpt lat="51.643688" lon="10.612141"><ele>552.4</ele></trkpt>
            <trkpt lat="51.643551" lon="10.611984"><ele>551.9</ele></trkpt>
            <trkpt lat="51.643284" lon="10.611607"><ele>551.8</ele></trkpt>
            <trkpt lat="51.642944" lon="10.611003"><ele>551.4</ele></trkpt>
            <trkpt lat="51.642788" lon="10.610666"><ele>550.8</ele></trkpt>
            <trkpt lat="51.642754" lon="10.610563"><ele>550</ele></trkpt>
            <trkpt lat="51.642738" lon="10.610447"><ele>548</ele></trkpt>
            <trkpt lat="51.642519" lon="10.610626"><ele>547</ele></trkpt>
            <trkpt lat="51.642309" lon="10.610858"><ele>543</ele></trkpt>
            <trkpt lat="51.642245" lon="10.6108"><ele>545.3</ele></trkpt>
            <trkpt lat="51.642309" lon="10.610858"><ele>543</ele></trkpt>
            <trkpt lat="51.642193" lon="10.611125"><ele>537.8</ele></trkpt>
            <trkpt lat="51.641857" lon="10.61204"><ele>537</ele></trkpt>
            <trkpt lat="51.641672" lon="10.612455"><ele>536.8</ele></trkpt>
            <trkpt lat="51.64152" lon="10.612641"><ele>535.6</ele></trkpt>
            <trkpt lat="51.641309" lon="10.612767"><ele>534.3</ele></trkpt>
            <trkpt lat="51.641088" lon="10.612984"><ele>531</ele></trkpt>
            <trkpt lat="51.641096" lon="10.613103"><ele>522.3</ele></trkpt>
            <trkpt lat="51.641067" lon="10.613257"><ele>518.4</ele></trkpt>
            <trkpt lat="51.640789" lon="10.613803"><ele>519.9</ele></trkpt>
            <trkpt lat="51.640712" lon="10.614048"><ele>520.8</ele></trkpt>
            <trkpt lat="51.640673" lon="10.614255"><ele>520.8</ele></trkpt>
            <trkpt lat="51.640643" lon="10.614525"><ele>521.1</ele></trkpt>
            <trkpt lat="51.640638" lon="10.61471"><ele>521.3</ele></trkpt>
            <trkpt lat="51.640653" lon="10.614968"><ele>521.6</ele></trkpt>
            <trkpt lat="51.640695" lon="10.615193"><ele>522.2</ele></trkpt>
            <trkpt lat="51.640765" lon="10.615376"><ele>524.8</ele></trkpt>
            <trkpt lat="51.640883" lon="10.615522"><ele>526.8</ele></trkpt>
            <trkpt lat="51.640961" lon="10.615568"><ele>527</ele></trkpt>
            <trkpt lat="51.641112" lon="10.615608"><ele>524.8</ele></trkpt>
            <trkpt lat="51.641366" lon="10.615618"><ele>524.6</ele></trkpt>
            <trkpt lat="51.641424" lon="10.615675"><ele>524.4</ele></trkpt>
            <trkpt lat="51.641483" lon="10.615808"><ele>524.2</ele></trkpt>
            <trkpt lat="51.641523" lon="10.616143"><ele>523.7</ele></trkpt>
            <trkpt lat="51.641553" lon="10.616241"><ele>523.6</ele></trkpt>
            <trkpt lat="51.641601" lon="10.616352"><ele>523.8</ele></trkpt>
            <trkpt lat="51.641762" lon="10.616594"><ele>523.6</ele></trkpt>
            <trkpt lat="51.641809" lon="10.616745"><ele>522.5</ele></trkpt>
            <trkpt lat="51.641813" lon="10.616866"><ele>522.1</ele></trkpt>
            <trkpt lat="51.641796" lon="10.617028"><ele>521.7</ele></trkpt>
            <trkpt lat="51.641719" lon="10.617348"><ele>520.6</ele></trkpt>
            <trkpt lat="51.641624" lon="10.617515"><ele>518.3</ele></trkpt>
            <trkpt lat="51.641402" lon="10.61772"><ele>517.6</ele></trkpt>
            <trkpt lat="51.641095" lon="10.618169"><ele>513.9</ele></trkpt>
            <trkpt lat="51.641003" lon="10.618401"><ele>512</ele></trkpt>
            <trkpt lat="51.640875" lon="10.618948"><ele>508.6</ele></trkpt>
            <trkpt lat="51.640839" lon="10.619044"><ele>507.5</ele></trkpt>
            <trkpt lat="51.640639" lon="10.619338"><ele>507.1</ele></trkpt>
            <trkpt lat="51.640429" lon="10.619888"><ele>497</ele></trkpt>
            <trkpt lat="51.640274" lon="10.620419"><ele>499.6</ele></trkpt>
            <trkpt lat="51.640185" lon="10.620611"><ele>497.7</ele></trkpt>
            <trkpt lat="51.640026" lon="10.620844"><ele>496.9</ele></trkpt>
            <trkpt lat="51.639961" lon="10.620995"><ele>494.8</ele></trkpt>
            <trkpt lat="51.63986" lon="10.621308"><ele>495.7</ele></trkpt>
            <trkpt lat="51.639464" lon="10.622193"><ele>494.2</ele></trkpt>
            <trkpt lat="51.639425" lon="10.622327"><ele>491.3</ele></trkpt>
            <trkpt lat="51.63925" lon="10.623281"><ele>482.5</ele></trkpt>
            <trkpt lat="51.639048" lon="10.624652"><ele>477.9</ele></trkpt>
            <trkpt lat="51.639059" lon="10.625273"><ele>479.4</ele></trkpt>
            <trkpt lat="51.639045" lon="10.625474"><ele>479.2</ele></trkpt>
            <trkpt lat="51.638945" lon="10.626146"><ele>482</ele></trkpt>
            <trkpt lat="51.638897" lon="10.626449"><ele>483.9</ele></trkpt>
            <trkpt lat="51.638922" lon="10.626823"><ele>487</ele></trkpt>
            <trkpt lat="51.638951" lon="10.626861"><ele>487</ele></trkpt>
            <trkpt lat="51.638843" lon="10.627077"><ele>487</ele></trkpt>
            <trkpt lat="51.638715" lon="10.627468"><ele>487.3</ele></trkpt>
            <trkpt lat="51.63869" lon="10.627591"><ele>488</ele></trkpt>
            <trkpt lat="51.638664" lon="10.627869"><ele>485</ele></trkpt>
            <trkpt lat="51.638681" lon="10.628323"><ele>485.3</ele></trkpt>
            <trkpt lat="51.638615" lon="10.628994"><ele>485.9</ele></trkpt>
            <trkpt lat="51.638611" lon="10.629171"><ele>485.5</ele></trkpt>
            <trkpt lat="51.63853" lon="10.629504"><ele>484.2</ele></trkpt>
            <trkpt lat="51.638528" lon="10.629573"><ele>483.9</ele></trkpt>
            <trkpt lat="51.638578" lon="10.629657"><ele>483.2</ele></trkpt>
            <trkpt lat="51.638669" lon="10.629726"><ele>478</ele></trkpt>
            <trkpt lat="51.638621" lon="10.629819"><ele>469.1</ele></trkpt>
            <trkpt lat="51.638579" lon="10.629862"><ele>469.5</ele></trkpt>
            <trkpt lat="51.638526" lon="10.629875"><ele>469.9</ele></trkpt>
            <trkpt lat="51.638274" lon="10.629814"><ele>469.1</ele></trkpt>
            <trkpt lat="51.638267" lon="10.629832"><ele>467.6</ele></trkpt>
            <trkpt lat="51.638364" lon="10.630031"><ele>464.9</ele></trkpt>
            <trkpt lat="51.638464" lon="10.630393"><ele>465.1</ele></trkpt>
            <trkpt lat="51.638473" lon="10.630446"><ele>465.1</ele></trkpt>
            <trkpt lat="51.63846" lon="10.630495"><ele>465.2</ele></trkpt>
            <trkpt lat="51.638436" lon="10.630503"><ele>465.2</ele></trkpt>
            <trkpt lat="51.638373" lon="10.630345"><ele>466</ele></trkpt>
            <trkpt lat="51.638317" lon="10.630419"><ele>435</ele></trkpt>
            <trkpt lat="51.638302" lon="10.630487"><ele>428.3</ele></trkpt>
            <trkpt lat="51.638288" lon="10.630459"><ele>428.5</ele></trkpt>
            <trkpt lat="51.638278" lon="10.630474"><ele>428.7</ele></trkpt>
            <trkpt lat="51.638301" lon="10.630607"><ele>429</ele></trkpt>
            <trkpt lat="51.638306" lon="10.630746"><ele>429.3</ele></trkpt>
            <trkpt lat="51.638247" lon="10.630644"><ele>429.7</ele></trkpt>
            <trkpt lat="51.638208" lon="10.630479"><ele>430</ele></trkpt>
            <trkpt lat="51.63818" lon="10.630495"><ele>430.2</ele></trkpt>
            <trkpt lat="51.638202" lon="10.630727"><ele>430.5</ele></trkpt>
            <trkpt lat="51.638197" lon="10.630943"><ele>429.7</ele></trkpt>
            <trkpt lat="51.638212" lon="10.631004"><ele>429.2</ele></trkpt>
            <trkpt lat="51.638137" lon="10.630945"><ele>428.3</ele></trkpt>
            <trkpt lat="51.638082" lon="10.630838"><ele>427.5</ele></trkpt>
            <trkpt lat="51.638058" lon="10.630836"><ele>427.3</ele></trkpt>
            <trkpt lat="51.638068" lon="10.631086"><ele>426.1</ele></trkpt>
            <trkpt lat="51.638051" lon="10.631115"><ele>425.4</ele></trkpt>
            <trkpt lat="51.638113" lon="10.631251"><ele>425.1</ele></trkpt>
            <trkpt lat="51.638071" lon="10.631235"><ele>424.8</ele></trkpt>
            <trkpt lat="51.637946" lon="10.631009"><ele>412</ele></trkpt>
            <trkpt lat="51.63793" lon="10.630968"><ele>412</ele></trkpt>
            <trkpt lat="51.637768" lon="10.630852"><ele>404.8</ele></trkpt>
            <trkpt lat="51.637415" lon="10.630695"><ele>403.2</ele></trkpt>
            <trkpt lat="51.637257" lon="10.630574"><ele>400.6</ele></trkpt>
            <trkpt lat="51.637164" lon="10.630453"><ele>392</ele></trkpt>
            <trkpt lat="51.637102" lon="10.63039"><ele>392</ele></trkpt>
            <trkpt lat="51.636958" lon="10.629824"><ele>393.7</ele></trkpt>
            <trkpt lat="51.636928" lon="10.629641"><ele>393.8</ele></trkpt>
            <trkpt lat="51.636823" lon="10.629352"><ele>393.8</ele></trkpt>
            <trkpt lat="51.636732" lon="10.628835"><ele>394</ele></trkpt>
            <trkpt lat="51.636677" lon="10.628318"><ele>394.4</ele></trkpt>
            <trkpt lat="51.636359" lon="10.627452"><ele>395</ele></trkpt>
            <trkpt lat="51.636167" lon="10.62861"><ele>386.8</ele></trkpt>
            <trkpt lat="51.636172" lon="10.628918"><ele>387</ele></trkpt>
            <trkpt lat="51.636116" lon="10.629376"><ele>380</ele></trkpt>
            <trkpt lat="51.635987" lon="10.629733"><ele>380</ele></trkpt>
            <trkpt lat="51.635939" lon="10.629994"><ele>380</ele></trkpt>
            <trkpt lat="51.635702" lon="10.630558"><ele>415</ele></trkpt>
            <trkpt lat="51.635656" lon="10.630729"><ele>415</ele></trkpt>
            <trkpt lat="51.635469" lon="10.631557"><ele>403.8</ele></trkpt>
            <trkpt lat="51.635365" lon="10.631942"><ele>392</ele></trkpt>
            <trkpt lat="51.635137" lon="10.632449"><ele>385.6</ele></trkpt>
            <trkpt lat="51.634996" lon="10.632723"><ele>387</ele></trkpt>
            <trkpt lat="51.634808" lon="10.633257"><ele>388.2</ele></trkpt>
            <trkpt lat="51.634629" lon="10.633519"><ele>369</ele></trkpt>
            <trkpt lat="51.634396" lon="10.633942"><ele>362.7</ele></trkpt>
            <trkpt lat="51.634154" lon="10.63423"><ele>361.7</ele></trkpt>
            <trkpt lat="51.634146" lon="10.634269"><ele>361.7</ele></trkpt>
            <trkpt lat="51.634273" lon="10.634571"><ele>352</ele></trkpt>
            <trkpt lat="51.634195" lon="10.634662"><ele>355.4</ele></trkpt>
            <trkpt lat="51.634094" lon="10.63474"><ele>361</ele></trkpt>
            <trkpt lat="51.633747" lon="10.634922"><ele>361.4</ele></trkpt>
            <trkpt lat="51.633548" lon="10.634974"><ele>361.3</ele></trkpt>
            <trkpt lat="51.633311" lon="10.634954"><ele>361.5</ele></trkpt>
            <trkpt lat="51.632557" lon="10.634785"><ele>363</ele></trkpt>
            <trkpt lat="51.632419" lon="10.634755"><ele>358.1</ele></trkpt>
            <trkpt lat="51.632003" lon="10.6348"><ele>358.3</ele></trkpt>
            <trkpt lat="51.631762" lon="10.634774"><ele>358.4</ele></trkpt>
            <trkpt lat="51.631627" lon="10.634718"><ele>357.6</ele></trkpt>
            <trkpt lat="51.631483" lon="10.634624"><ele>352</ele></trkpt>
            <trkpt lat="51.631448" lon="10.634666"><ele>352</ele></trkpt>
            <trkpt lat="51.631384" lon="10.634769"><ele>352</ele></trkpt>
            <trkpt lat="51.631357" lon="10.634812"><ele>352</ele></trkpt>
            <trkpt lat="51.631307" lon="10.634828"><ele>352</ele></trkpt>
            <trkpt lat="51.63105" lon="10.634779"><ele>352</ele></trkpt>
            <trkpt lat="51.630797" lon="10.634644"><ele>344.2</ele></trkpt>
            <trkpt lat="51.630483" lon="10.634398"><ele>337</ele></trkpt>
            <trkpt lat="51.630385" lon="10.635133"><ele>349.7</ele></trkpt>
            <trkpt lat="51.630323" lon="10.635325"><ele>353.7</ele></trkpt>
            <trkpt lat="51.630238" lon="10.635497"><ele>355.8</ele></trkpt>
            <trkpt lat="51.629861" lon="10.63604"><ele>360.1</ele></trkpt>
            <trkpt lat="51.62961" lon="10.636451"><ele>366.2</ele></trkpt>
            <trkpt lat="51.62942" lon="10.636841"><ele>373.2</ele></trkpt>
            <trkpt lat="51.629301" lon="10.637213"><ele>380.7</ele></trkpt>
            <trkpt lat="51.628892" lon="10.638959"><ele>388.1</ele></trkpt>
            <trkpt lat="51.628738" lon="10.639269"><ele>387</ele></trkpt>
            <trkpt lat="51.628434" lon="10.639712"><ele>389</ele></trkpt>
            <trkpt lat="51.628158" lon="10.639832"><ele>407.5</ele></trkpt>
            <trkpt lat="51.628004" lon="10.640056"><ele>405</ele></trkpt>
            <trkpt lat="51.627751" lon="10.640502"><ele>405</ele></trkpt>
            <trkpt lat="51.627715" lon="10.640524"><ele>405</ele></trkpt>
            <trkpt lat="51.627658" lon="10.640494"><ele>405</ele></trkpt>
            <trkpt lat="51.627785" lon="10.640177"><ele>412.3</ele></trkpt>
            <trkpt lat="51.628054" lon="10.639604"><ele>413.9</ele></trkpt>
            <trkpt lat="51.628293" lon="10.639203"><ele>415.9</ele></trkpt>
            <trkpt lat="51.628402" lon="10.638901"><ele>415.5</ele></trkpt>
            <trkpt lat="51.628489" lon="10.638516"><ele>414.1</ele></trkpt>
            <trkpt lat="51.628564" lon="10.638095"><ele>415</ele></trkpt>
            <trkpt lat="51.628726" lon="10.637452"><ele>415</ele></trkpt>
            <trkpt lat="51.62877" lon="10.637115"><ele>425</ele></trkpt>
            <trkpt lat="51.628509" lon="10.637802"><ele>432.1</ele></trkpt>
            <trkpt lat="51.628014" lon="10.638897"><ele>441.9</ele></trkpt>
            <trkpt lat="51.627711" lon="10.639396"><ele>446.3</ele></trkpt>
            <trkpt lat="51.627493" lon="10.639718"><ele>451.8</ele></trkpt>
            <trkpt lat="51.627414" lon="10.639793"><ele>453.2</ele></trkpt>
            <trkpt lat="51.627331" lon="10.639852"><ele>453.9</ele></trkpt>
            <trkpt lat="51.627128" lon="10.639927"><ele>455.8</ele></trkpt>
            <trkpt lat="51.626628" lon="10.640367"><ele>456.8</ele></trkpt>
            <trkpt lat="51.626241" lon="10.640583"><ele>462.2</ele></trkpt>
            <trkpt lat="51.62565" lon="10.641048"><ele>468.9</ele></trkpt>
            <trkpt lat="51.625091" lon="10.641431"><ele>471.9</ele></trkpt>
            <trkpt lat="51.624985" lon="10.641452"><ele>472.4</ele></trkpt>
            <trkpt lat="51.62479" lon="10.641384"><ele>473.3</ele></trkpt>
            <trkpt lat="51.624664" lon="10.641389"><ele>472.8</ele></trkpt>
            <trkpt lat="51.624581" lon="10.641447"><ele>473.1</ele></trkpt>
            <trkpt lat="51.624458" lon="10.641644"><ele>473.4</ele></trkpt>
            <trkpt lat="51.62436" lon="10.641751"><ele>472.5</ele></trkpt>
            <trkpt lat="51.624162" lon="10.64177"><ele>472</ele></trkpt>
            <trkpt lat="51.624007" lon="10.641682"><ele>471.6</ele></trkpt>
            <trkpt lat="51.62372" lon="10.641268"><ele>470.9</ele></trkpt>
            <trkpt lat="51.62338" lon="10.641102"><ele>467</ele></trkpt>
            <trkpt lat="51.623325" lon="10.641111"><ele>462.9</ele></trkpt>
            <trkpt lat="51.623273" lon="10.641161"><ele>462.5</ele></trkpt>
            <trkpt lat="51.623141" lon="10.641338"><ele>461</ele></trkpt>
            <trkpt lat="51.623125" lon="10.641587"><ele>466.2</ele></trkpt>
            <trkpt lat="51.623044" lon="10.641977"><ele>466.7</ele></trkpt>
            <trkpt lat="51.622967" lon="10.642631"><ele>467.3</ele></trkpt>
            <trkpt lat="51.622981" lon="10.643049"><ele>467.5</ele></trkpt>
            <trkpt lat="51.623059" lon="10.643543"><ele>468.6</ele></trkpt>
            <trkpt lat="51.62307" lon="10.643746"><ele>468.9</ele></trkpt>
            <trkpt lat="51.62292" lon="10.644674"><ele>470.7</ele></trkpt>
            <trkpt lat="51.622875" lon="10.645434"><ele>471.8</ele></trkpt>
            <trkpt lat="51.622755" lon="10.646117"><ele>472.8</ele></trkpt>
            <trkpt lat="51.622727" lon="10.646482"><ele>472.8</ele></trkpt>
            <trkpt lat="51.622756" lon="10.646779"><ele>472.6</ele></trkpt>
            <trkpt lat="51.622937" lon="10.647644"><ele>472.5</ele></trkpt>
            <trkpt lat="51.623004" lon="10.648038"><ele>472.5</ele></trkpt>
            <trkpt lat="51.623034" lon="10.648321"><ele>472</ele></trkpt>
            <trkpt lat="51.62299" lon="10.648606"><ele>468</ele></trkpt>
            <trkpt lat="51.623072" lon="10.649034"><ele>467.8</ele></trkpt>
            <trkpt lat="51.623098" lon="10.649557"><ele>467.6</ele></trkpt>
            <trkpt lat="51.623234" lon="10.649993"><ele>467.6</ele></trkpt>
            <trkpt lat="51.623251" lon="10.650126"><ele>467.5</ele></trkpt>
            <trkpt lat="51.623223" lon="10.650335"><ele>467</ele></trkpt>
            <trkpt lat="51.623164" lon="10.650634"><ele>482.7</ele></trkpt>
            <trkpt lat="51.623142" lon="10.651119"><ele>488.4</ele></trkpt>
            <trkpt lat="51.623214" lon="10.651637"><ele>491.4</ele></trkpt>
            <trkpt lat="51.623328" lon="10.652173"><ele>496.1</ele></trkpt>
            <trkpt lat="51.623333" lon="10.652303"><ele>496.9</ele></trkpt>
            <trkpt lat="51.623371" lon="10.652401"><ele>498.8</ele></trkpt>
            <trkpt lat="51.623411" lon="10.652714"><ele>501.4</ele></trkpt>
            <trkpt lat="51.623458" lon="10.652829"><ele>503.2</ele></trkpt>
            <trkpt lat="51.623636" lon="10.652967"><ele>503.3</ele></trkpt>
            <trkpt lat="51.62381" lon="10.653437"><ele>507</ele></trkpt>
            <trkpt lat="51.623851" lon="10.653616"><ele>507.8</ele></trkpt>
            <trkpt lat="51.623857" lon="10.654039"><ele>513.5</ele></trkpt>
            <trkpt lat="51.623813" lon="10.654166"><ele>514.7</ele></trkpt>
            <trkpt lat="51.623834" lon="10.654335"><ele>518.5</ele></trkpt>
            <trkpt lat="51.62388" lon="10.654419"><ele>520.9</ele></trkpt>
            <trkpt lat="51.623969" lon="10.6548"><ele>526.8</ele></trkpt>
            <trkpt lat="51.623983" lon="10.655082"><ele>535.6</ele></trkpt>
            <trkpt lat="51.624047" lon="10.655555"><ele>540.5</ele></trkpt>
            <trkpt lat="51.624172" lon="10.655983"><ele>545.8</ele></trkpt>
            <trkpt lat="51.62418" lon="10.656048"><ele>545.6</ele></trkpt>
            <trkpt lat="51.624168" lon="10.65611"><ele>545.4</ele></trkpt>
            <trkpt lat="51.624229" lon="10.656518"><ele>550.3</ele></trkpt>
            <trkpt lat="51.624278" lon="10.656709"><ele>552.2</ele></trkpt>
            <trkpt lat="51.624354" lon="10.65688"><ele>551.5</ele></trkpt>
            <trkpt lat="51.624431" lon="10.656954"><ele>552.5</ele></trkpt>
            <trkpt lat="51.624565" lon="10.657033"><ele>551.2</ele></trkpt>
            <trkpt lat="51.624589" lon="10.657095"><ele>562</ele></trkpt>
            <trkpt lat="51.624569" lon="10.657128"><ele>561.6</ele></trkpt>
            <trkpt lat="51.624517" lon="10.657217"><ele>561.3</ele></trkpt>
            <trkpt lat="51.623981" lon="10.657769"><ele>559</ele></trkpt>
            <trkpt lat="51.623815" lon="10.657935"><ele>559</ele></trkpt>
            <trkpt lat="51.623673" lon="10.658039"><ele>559</ele></trkpt>
            <trkpt lat="51.623519" lon="10.658091"><ele>559</ele></trkpt>
            <trkpt lat="51.623279" lon="10.658301"><ele>550</ele></trkpt>
            <trkpt lat="51.623084" lon="10.658476"><ele>549.9</ele></trkpt>
            <trkpt lat="51.622904" lon="10.658602"><ele>551.2</ele></trkpt>
            <trkpt lat="51.62269" lon="10.658673"><ele>551.5</ele></trkpt>
            <trkpt lat="51.622155" lon="10.658731"><ele>548.5</ele></trkpt>
            <trkpt lat="51.622031" lon="10.658772"><ele>546.9</ele></trkpt>
            <trkpt lat="51.621586" lon="10.659206"><ele>539</ele></trkpt>
            <trkpt lat="51.621071" lon="10.659634"><ele>533.2</ele></trkpt>
            <trkpt lat="51.620716" lon="10.659983"><ele>524.3</ele></trkpt>
            <trkpt lat="51.62064" lon="10.660081"><ele>516</ele></trkpt>
            <trkpt lat="51.620541" lon="10.660015"><ele>514.1</ele></trkpt>
            <trkpt lat="51.620428" lon="10.659882"><ele>513.5</ele></trkpt>
            <trkpt lat="51.620294" lon="10.659661"><ele>510</ele></trkpt>
            <trkpt lat="51.62024" lon="10.659553"><ele>510</ele></trkpt>
            <trkpt lat="51.620101" lon="10.659368"><ele>510</ele></trkpt>
            <trkpt lat="51.61984" lon="10.659065"><ele>500.9</ele></trkpt>
            <trkpt lat="51.619503" lon="10.658414"><ele>500.2</ele></trkpt>
            <trkpt lat="51.619336" lon="10.658136"><ele>499.8</ele></trkpt>
            <trkpt lat="51.619215" lon="10.658006"><ele>499.7</ele></trkpt>
            <trkpt lat="51.619113" lon="10.657941"><ele>499.1</ele></trkpt>
            <trkpt lat="51.619039" lon="10.657816"><ele>497.2</ele></trkpt>
            <trkpt lat="51.618989" lon="10.657656"><ele>496.9</ele></trkpt>
            <trkpt lat="51.618926" lon="10.657522"><ele>496.5</ele></trkpt>
            <trkpt lat="51.618539" lon="10.657073"><ele>496.7</ele></trkpt>
            <trkpt lat="51.618383" lon="10.656822"><ele>497.4</ele></trkpt>
            <trkpt lat="51.618282" lon="10.656426"><ele>494.5</ele></trkpt>
            <trkpt lat="51.618167" lon="10.655817"><ele>492.5</ele></trkpt>
            <trkpt lat="51.618188" lon="10.655633"><ele>491.3</ele></trkpt>
            <trkpt lat="51.618263" lon="10.655259"><ele>490.6</ele></trkpt>
            <trkpt lat="51.618211" lon="10.65516"><ele>488</ele></trkpt>
            <trkpt lat="51.617968" lon="10.654536"><ele>480</ele></trkpt>
            <trkpt lat="51.617965" lon="10.654257"><ele>479.3</ele></trkpt>
            <trkpt lat="51.617993" lon="10.653914"><ele>478</ele></trkpt>
            <trkpt lat="51.617951" lon="10.653628"><ele>463.6</ele></trkpt>
            <trkpt lat="51.617844" lon="10.653337"><ele>460.1</ele></trkpt>
            <trkpt lat="51.617838" lon="10.653208"><ele>458.9</ele></trkpt>
            <trkpt lat="51.617808" lon="10.653074"><ele>458.2</ele></trkpt>
            <trkpt lat="51.617754" lon="10.652936"><ele>457.4</ele></trkpt>
            <trkpt lat="51.61751" lon="10.652443"><ele>455.7</ele></trkpt>
            <trkpt lat="51.617269" lon="10.652176"><ele>456.1</ele></trkpt>
            <trkpt lat="51.617188" lon="10.652025"><ele>454.5</ele></trkpt>
            <trkpt lat="51.617102" lon="10.651801"><ele>442</ele></trkpt>
            <trkpt lat="51.617132" lon="10.651678"><ele>435.5</ele></trkpt>
            <trkpt lat="51.617102" lon="10.651801"><ele>442</ele></trkpt>
            <trkpt lat="51.617188" lon="10.652025"><ele>454.5</ele></trkpt>
            <trkpt lat="51.617269" lon="10.652176"><ele>456.1</ele></trkpt>
            <trkpt lat="51.61751" lon="10.652443"><ele>455.7</ele></trkpt>
            <trkpt lat="51.617754" lon="10.652936"><ele>457.4</ele></trkpt>
            <trkpt lat="51.617808" lon="10.653074"><ele>458.2</ele></trkpt>
            <trkpt lat="51.617838" lon="10.653208"><ele>458.9</ele></trkpt>
            <trkpt lat="51.617844" lon="10.653337"><ele>460.1</ele></trkpt>
            <trkpt lat="51.617951" lon="10.653628"><ele>463.6</ele></trkpt>
            <trkpt lat="51.617993" lon="10.653914"><ele>478</ele></trkpt>
            <trkpt lat="51.617965" lon="10.654257"><ele>479.3</ele></trkpt>
            <trkpt lat="51.617968" lon="10.654536"><ele>480</ele></trkpt>
            <trkpt lat="51.618211" lon="10.65516"><ele>488</ele></trkpt>
            <trkpt lat="51.618263" lon="10.655259"><ele>490.6</ele></trkpt>
            <trkpt lat="51.618188" lon="10.655633"><ele>491.3</ele></trkpt>
            <trkpt lat="51.618167" lon="10.655817"><ele>492.5</ele></trkpt>
            <trkpt lat="51.618282" lon="10.656426"><ele>494.5</ele></trkpt>
            <trkpt lat="51.618383" lon="10.656822"><ele>497.4</ele></trkpt>
            <trkpt lat="51.618539" lon="10.657073"><ele>496.7</ele></trkpt>
            <trkpt lat="51.618926" lon="10.657522"><ele>496.5</ele></trkpt>
            <trkpt lat="51.618989" lon="10.657656"><ele>496.9</ele></trkpt>
            <trkpt lat="51.619039" lon="10.657816"><ele>497.2</ele></trkpt>
            <trkpt lat="51.619113" lon="10.657941"><ele>499.1</ele></trkpt>
            <trkpt lat="51.619215" lon="10.658006"><ele>499.7</ele></trkpt>
            <trkpt lat="51.619336" lon="10.658136"><ele>499.8</ele></trkpt>
            <trkpt lat="51.619503" lon="10.658414"><ele>500.2</ele></trkpt>
            <trkpt lat="51.61984" lon="10.659065"><ele>500.9</ele></trkpt>
            <trkpt lat="51.620101" lon="10.659368"><ele>510</ele></trkpt>
            <trkpt lat="51.62024" lon="10.659553"><ele>510</ele></trkpt>
            <trkpt lat="51.620294" lon="10.659661"><ele>510</ele></trkpt>
            <trkpt lat="51.620428" lon="10.659882"><ele>513.5</ele></trkpt>
            <trkpt lat="51.620541" lon="10.660015"><ele>514.1</ele></trkpt>
            <trkpt lat="51.62064" lon="10.660081"><ele>516</ele></trkpt>
            <trkpt lat="51.620716" lon="10.659983"><ele>524.3</ele></trkpt>
            <trkpt lat="51.621071" lon="10.659634"><ele>533.2</ele></trkpt>
            <trkpt lat="51.621586" lon="10.659206"><ele>539</ele></trkpt>
            <trkpt lat="51.622031" lon="10.658772"><ele>546.9</ele></trkpt>
            <trkpt lat="51.622155" lon="10.658731"><ele>548.5</ele></trkpt>
            <trkpt lat="51.62269" lon="10.658673"><ele>551.5</ele></trkpt>
            <trkpt lat="51.622904" lon="10.658602"><ele>551.2</ele></trkpt>
            <trkpt lat="51.623084" lon="10.658476"><ele>549.9</ele></trkpt>
            <trkpt lat="51.623279" lon="10.658301"><ele>550</ele></trkpt>
            <trkpt lat="51.623519" lon="10.658091"><ele>559</ele></trkpt>
            <trkpt lat="51.623673" lon="10.658039"><ele>559</ele></trkpt>
            <trkpt lat="51.623815" lon="10.657935"><ele>559</ele></trkpt>
            <trkpt lat="51.623981" lon="10.657769"><ele>559</ele></trkpt>
            <trkpt lat="51.624517" lon="10.657217"><ele>561.3</ele></trkpt>
            <trkpt lat="51.624589" lon="10.657095"><ele>562</ele></trkpt>
            <trkpt lat="51.624565" lon="10.657033"><ele>551.2</ele></trkpt>
            <trkpt lat="51.624431" lon="10.656954"><ele>552.5</ele></trkpt>
            <trkpt lat="51.624354" lon="10.65688"><ele>551.5</ele></trkpt>
            <trkpt lat="51.624278" lon="10.656709"><ele>552.2</ele></trkpt>
            <trkpt lat="51.624229" lon="10.656518"><ele>550.3</ele></trkpt>
            <trkpt lat="51.624168" lon="10.65611"><ele>545.4</ele></trkpt>
            <trkpt lat="51.62418" lon="10.656048"><ele>545.6</ele></trkpt>
            <trkpt lat="51.624172" lon="10.655983"><ele>545.8</ele></trkpt>
            <trkpt lat="51.624047" lon="10.655555"><ele>540.5</ele></trkpt>
            <trkpt lat="51.623983" lon="10.655082"><ele>535.6</ele></trkpt>
            <trkpt lat="51.623969" lon="10.6548"><ele>526.8</ele></trkpt>
            <trkpt lat="51.62388" lon="10.654419"><ele>520.9</ele></trkpt>
            <trkpt lat="51.623834" lon="10.654335"><ele>518.5</ele></trkpt>
            <trkpt lat="51.623813" lon="10.654166"><ele>514.7</ele></trkpt>
            <trkpt lat="51.623857" lon="10.654039"><ele>513.5</ele></trkpt>
            <trkpt lat="51.623851" lon="10.653616"><ele>507.8</ele></trkpt>
            <trkpt lat="51.62381" lon="10.653437"><ele>507</ele></trkpt>
            <trkpt lat="51.623636" lon="10.652967"><ele>503.3</ele></trkpt>
            <trkpt lat="51.623458" lon="10.652829"><ele>503.2</ele></trkpt>
            <trkpt lat="51.623411" lon="10.652714"><ele>501.4</ele></trkpt>
            <trkpt lat="51.623371" lon="10.652401"><ele>498.8</ele></trkpt>
            <trkpt lat="51.623333" lon="10.652303"><ele>496.9</ele></trkpt>
            <trkpt lat="51.623328" lon="10.652173"><ele>496.1</ele></trkpt>
            <trkpt lat="51.623214" lon="10.651637"><ele>491.4</ele></trkpt>
            <trkpt lat="51.623142" lon="10.651119"><ele>488.4</ele></trkpt>
            <trkpt lat="51.623164" lon="10.650634"><ele>482.7</ele></trkpt>
            <trkpt lat="51.623223" lon="10.650335"><ele>467</ele></trkpt>
            <trkpt lat="51.623251" lon="10.650126"><ele>467.5</ele></trkpt>
            <trkpt lat="51.623234" lon="10.649993"><ele>467.6</ele></trkpt>
            <trkpt lat="51.623098" lon="10.649557"><ele>467.6</ele></trkpt>
            <trkpt lat="51.623072" lon="10.649034"><ele>467.8</ele></trkpt>
            <trkpt lat="51.62299" lon="10.648606"><ele>468</ele></trkpt>
            <trkpt lat="51.623034" lon="10.648321"><ele>472</ele></trkpt>
            <trkpt lat="51.623004" lon="10.648038"><ele>472.5</ele></trkpt>
            <trkpt lat="51.622937" lon="10.647644"><ele>472.5</ele></trkpt>
            <trkpt lat="51.622756" lon="10.646779"><ele>472.6</ele></trkpt>
            <trkpt lat="51.622727" lon="10.646482"><ele>472.8</ele></trkpt>
            <trkpt lat="51.622755" lon="10.646117"><ele>472.8</ele></trkpt>
            <trkpt lat="51.622875" lon="10.645434"><ele>471.8</ele></trkpt>
            <trkpt lat="51.62292" lon="10.644674"><ele>470.7</ele></trkpt>
            <trkpt lat="51.62307" lon="10.643746"><ele>468.9</ele></trkpt>
            <trkpt lat="51.623059" lon="10.643543"><ele>468.6</ele></trkpt>
            <trkpt lat="51.623019" lon="10.64329"><ele>468</ele></trkpt>
            <trkpt lat="51.622981" lon="10.643049"><ele>467.5</ele></trkpt>
            <trkpt lat="51.622967" lon="10.642631"><ele>467.3</ele></trkpt>
            <trkpt lat="51.623044" lon="10.641977"><ele>466.7</ele></trkpt>
            <trkpt lat="51.623125" lon="10.641587"><ele>466.2</ele></trkpt>
            <trkpt lat="51.623141" lon="10.641338"><ele>461</ele></trkpt>
            <trkpt lat="51.62311" lon="10.641313"><ele>461</ele></trkpt>
            <trkpt lat="51.622823" lon="10.640853"><ele>453.8</ele></trkpt>
            <trkpt lat="51.622254" lon="10.639812"><ele>448.5</ele></trkpt>
            <trkpt lat="51.622083" lon="10.639581"><ele>444.6</ele></trkpt>
            <trkpt lat="51.621825" lon="10.639355"><ele>441.4</ele></trkpt>
            <trkpt lat="51.621383" lon="10.63882"><ele>441.2</ele></trkpt>
            <trkpt lat="51.621089" lon="10.638388"><ele>440</ele></trkpt>
            <trkpt lat="51.620675" lon="10.637849"><ele>429.4</ele></trkpt>
            <trkpt lat="51.620373" lon="10.637057"><ele>425.5</ele></trkpt>
            <trkpt lat="51.619861" lon="10.636304"><ele>422.1</ele></trkpt>
            <trkpt lat="51.619783" lon="10.636231"><ele>421.8</ele></trkpt>
            <trkpt lat="51.6197" lon="10.636206"><ele>420.1</ele></trkpt>
            <trkpt lat="51.619605" lon="10.636235"><ele>420</ele></trkpt>
            <trkpt lat="51.619384" lon="10.636378"><ele>420.2</ele></trkpt>
            <trkpt lat="51.619291" lon="10.636408"><ele>420</ele></trkpt>
            <trkpt lat="51.619187" lon="10.636405"><ele>420.1</ele></trkpt>
            <trkpt lat="51.619001" lon="10.636315"><ele>420.1</ele></trkpt>
            <trkpt lat="51.618909" lon="10.636336"><ele>420.7</ele></trkpt>
            <trkpt lat="51.618793" lon="10.6364"><ele>420.8</ele></trkpt>
            <trkpt lat="51.618344" lon="10.636572"><ele>421.6</ele></trkpt>
            <trkpt lat="51.618202" lon="10.636599"><ele>422.4</ele></trkpt>
            <trkpt lat="51.618077" lon="10.636571"><ele>422.9</ele></trkpt>
            <trkpt lat="51.617936" lon="10.636505"><ele>424.4</ele></trkpt>
            <trkpt lat="51.617614" lon="10.636594"><ele>429</ele></trkpt>
            <trkpt lat="51.61764" lon="10.636193"><ele>419.4</ele></trkpt>
            <trkpt lat="51.617937" lon="10.635384"><ele>417</ele></trkpt>
            <trkpt lat="51.618025" lon="10.634855"><ele>414.7</ele></trkpt>
            <trkpt lat="51.618074" lon="10.634679"><ele>414.4</ele></trkpt>
            <trkpt lat="51.618263" lon="10.634415"><ele>412.5</ele></trkpt>
            <trkpt lat="51.618415" lon="10.634032"><ele>408.8</ele></trkpt>
            <trkpt lat="51.618589" lon="10.633836"><ele>407.6</ele></trkpt>
            <trkpt lat="51.618739" lon="10.633558"><ele>399</ele></trkpt>
            <trkpt lat="51.618716" lon="10.632388"><ele>376.1</ele></trkpt>
            <trkpt lat="51.618671" lon="10.632"><ele>375.8</ele></trkpt>
            <trkpt lat="51.618537" lon="10.63167"><ele>375.5</ele></trkpt>
            <trkpt lat="51.618351" lon="10.631622"><ele>375.1</ele></trkpt>
            <trkpt lat="51.618051" lon="10.631626"><ele>357</ele></trkpt>
            <trkpt lat="51.617946" lon="10.631607"><ele>357</ele></trkpt>
            <trkpt lat="51.618649" lon="10.631234"><ele>364.3</ele></trkpt>
            <trkpt lat="51.618814" lon="10.63133"><ele>364.1</ele></trkpt>
            <trkpt lat="51.618985" lon="10.631634"><ele>363.9</ele></trkpt>
            <trkpt lat="51.619139" lon="10.632062"><ele>365</ele></trkpt>
            <trkpt lat="51.619344" lon="10.632257"><ele>366.2</ele></trkpt>
            <trkpt lat="51.619575" lon="10.632121"><ele>366.7</ele></trkpt>
            <trkpt lat="51.619741" lon="10.631862"><ele>366.1</ele></trkpt>
            <trkpt lat="51.619905" lon="10.631365"><ele>365.1</ele></trkpt>
            <trkpt lat="51.619952" lon="10.631011"><ele>363.6</ele></trkpt>
            <trkpt lat="51.620016" lon="10.63082"><ele>361.4</ele></trkpt>
            <trkpt lat="51.620155" lon="10.630635"><ele>360.7</ele></trkpt>
            <trkpt lat="51.620155" lon="10.630075"><ele>353.8</ele></trkpt>
            <trkpt lat="51.620223" lon="10.629732"><ele>351.3</ele></trkpt>
            <trkpt lat="51.620546" lon="10.629207"><ele>342.4</ele></trkpt>
            <trkpt lat="51.620636" lon="10.628948"><ele>340.1</ele></trkpt>
            <trkpt lat="51.620764" lon="10.628267"><ele>335.1</ele></trkpt>
            <trkpt lat="51.620724" lon="10.627652"><ele>329.1</ele></trkpt>
            <trkpt lat="51.620733" lon="10.627441"><ele>326.5</ele></trkpt>
            <trkpt lat="51.620773" lon="10.627266"><ele>311</ele></trkpt>
            <trkpt lat="51.620814" lon="10.627234"><ele>311</ele></trkpt>
            <trkpt lat="51.620846" lon="10.627207"><ele>315</ele></trkpt>
            <trkpt lat="51.62088" lon="10.627177"><ele>315</ele></trkpt>
            <trkpt lat="51.621214" lon="10.626525"><ele>316</ele></trkpt>
            <trkpt lat="51.621809" lon="10.626253"><ele>320</ele></trkpt>
            <trkpt lat="51.62182" lon="10.625741"><ele>313</ele></trkpt>
            <trkpt lat="51.621822" lon="10.625541"><ele>313</ele></trkpt>
            <trkpt lat="51.621821" lon="10.625425"><ele>313</ele></trkpt>
            <trkpt lat="51.621804" lon="10.62407"><ele>328</ele></trkpt>
            <trkpt lat="51.621806" lon="10.622779"><ele>334</ele></trkpt>
            <trkpt lat="51.621827" lon="10.622662"><ele>334</ele></trkpt>
            <trkpt lat="51.621905" lon="10.622068"><ele>337.4</ele></trkpt>
            <trkpt lat="51.62201" lon="10.621724"><ele>339</ele></trkpt>
            <trkpt lat="51.622251" lon="10.621202"><ele>356</ele></trkpt>
            <trkpt lat="51.622609" lon="10.620348"><ele>362.4</ele></trkpt>
            <trkpt lat="51.622955" lon="10.619666"><ele>369.1</ele></trkpt>
            <trkpt lat="51.623438" lon="10.618917"><ele>381.7</ele></trkpt>
            <trkpt lat="51.624016" lon="10.61812"><ele>390.7</ele></trkpt>
            <trkpt lat="51.624385" lon="10.617746"><ele>390.3</ele></trkpt>
            <trkpt lat="51.625345" lon="10.617199"><ele>398.3</ele></trkpt>
            <trkpt lat="51.62604" lon="10.616876"><ele>400.7</ele></trkpt>
            <trkpt lat="51.626399" lon="10.616636"><ele>406.9</ele></trkpt>
            <trkpt lat="51.626483" lon="10.616642"><ele>407.3</ele></trkpt>
            <trkpt lat="51.626715" lon="10.616783"><ele>409.3</ele></trkpt>
            <trkpt lat="51.626795" lon="10.616802"><ele>410.3</ele></trkpt>
            <trkpt lat="51.626994" lon="10.616746"><ele>411.4</ele></trkpt>
            <trkpt lat="51.627243" lon="10.616584"><ele>413.6</ele></trkpt>
            <trkpt lat="51.627394" lon="10.616609"><ele>414.5</ele></trkpt>
            <trkpt lat="51.627648" lon="10.616597"><ele>414.6</ele></trkpt>
            <trkpt lat="51.627793" lon="10.616508"><ele>414.7</ele></trkpt>
            <trkpt lat="51.627983" lon="10.616541"><ele>414.7</ele></trkpt>
            <trkpt lat="51.628023" lon="10.616589"><ele>422</ele></trkpt>
            <trkpt lat="51.628069" lon="10.616709"><ele>404</ele></trkpt>
            <trkpt lat="51.628254" lon="10.616571"><ele>422.1</ele></trkpt>
            <trkpt lat="51.62861" lon="10.616108"><ele>424.8</ele></trkpt>
            <trkpt lat="51.628913" lon="10.615688"><ele>428.6</ele></trkpt>
            <trkpt lat="51.62919" lon="10.615238"><ele>438</ele></trkpt>
            <trkpt lat="51.629446" lon="10.614611"><ele>443.9</ele></trkpt>
            <trkpt lat="51.629626" lon="10.614106"><ele>455.4</ele></trkpt>
            <trkpt lat="51.629794" lon="10.613576"><ele>459.5</ele></trkpt>
            <trkpt lat="51.629916" lon="10.612498"><ele>479.6</ele></trkpt>
            <trkpt lat="51.630161" lon="10.611322"><ele>494.1</ele></trkpt>
            <trkpt lat="51.630313" lon="10.610478"><ele>495.5</ele></trkpt>
            <trkpt lat="51.630553" lon="10.609714"><ele>508</ele></trkpt>
            <trkpt lat="51.630632" lon="10.609519"><ele>514.7</ele></trkpt>
            <trkpt lat="51.630759" lon="10.60893"><ele>518.4</ele></trkpt>
            <trkpt lat="51.630853" lon="10.608568"><ele>518.6</ele></trkpt>
            <trkpt lat="51.630952" lon="10.608286"><ele>519.3</ele></trkpt>
            <trkpt lat="51.631015" lon="10.608157"><ele>519.3</ele></trkpt>
            <trkpt lat="51.631142" lon="10.608019"><ele>519.2</ele></trkpt>
            <trkpt lat="51.631332" lon="10.607883"><ele>520.1</ele></trkpt>
            <trkpt lat="51.631646" lon="10.607869"><ele>520.6</ele></trkpt>
            <trkpt lat="51.631728" lon="10.607896"><ele>537</ele></trkpt>
            <trkpt lat="51.631803" lon="10.607698"><ele>538.9</ele></trkpt>
            <trkpt lat="51.631798" lon="10.607536"><ele>538.5</ele></trkpt>
            <trkpt lat="51.631758" lon="10.607408"><ele>543</ele></trkpt>
            <trkpt lat="51.631805" lon="10.607312"><ele>538.5</ele></trkpt>
            <trkpt lat="51.631824" lon="10.6072"><ele>538.4</ele></trkpt>
            <trkpt lat="51.63181" lon="10.607145"><ele>538.1</ele></trkpt>
            <trkpt lat="51.631785" lon="10.607112"><ele>537.8</ele></trkpt>
            <trkpt lat="51.631257" lon="10.606777"><ele>538.3</ele></trkpt>
            <trkpt lat="51.631161" lon="10.606661"><ele>538.8</ele></trkpt>
            <trkpt lat="51.631107" lon="10.606554"><ele>538.9</ele></trkpt>
            <trkpt lat="51.631015" lon="10.605824"><ele>539.4</ele></trkpt>
            <trkpt lat="51.630959" lon="10.605702"><ele>539.3</ele></trkpt>
            <trkpt lat="51.630887" lon="10.605636"><ele>542</ele></trkpt>
            <trkpt lat="51.630936" lon="10.604939"><ele>545.1</ele></trkpt>
            <trkpt lat="51.631043" lon="10.603835"><ele>547</ele></trkpt>
            <trkpt lat="51.631595" lon="10.603398"><ele>547</ele></trkpt>
            <trkpt lat="51.63155" lon="10.603155"><ele>538.2</ele></trkpt>
            <trkpt lat="51.631472" lon="10.601788"><ele>533</ele></trkpt>
            <trkpt lat="51.631411" lon="10.60147"><ele>530.7</ele></trkpt>
            <trkpt lat="51.631311" lon="10.601201"><ele>528.7</ele></trkpt>
            <trkpt lat="51.63089" lon="10.600434"><ele>526.5</ele></trkpt>
            <trkpt lat="51.630659" lon="10.599819"><ele>515</ele></trkpt>
            <trkpt lat="51.630611" lon="10.599643"><ele>515</ele></trkpt>
            <trkpt lat="51.630277" lon="10.598426"><ele>513.8</ele></trkpt>
            <trkpt lat="51.630008" lon="10.597375"><ele>513.2</ele></trkpt>
            <trkpt lat="51.629956" lon="10.597158"><ele>512.8</ele></trkpt>
            <trkpt lat="51.629916" lon="10.596876"><ele>512</ele></trkpt>
            <trkpt lat="51.629957" lon="10.59642"><ele>517</ele></trkpt>
            <trkpt lat="51.629943" lon="10.596254"><ele>514</ele></trkpt>
            <trkpt lat="51.630005" lon="10.595122"><ele>508</ele></trkpt>
            <trkpt lat="51.629953" lon="10.594374"><ele>499</ele></trkpt>
            <trkpt lat="51.629974" lon="10.593205"><ele>489.5</ele></trkpt>
            <trkpt lat="51.629932" lon="10.592437"><ele>477.8</ele></trkpt>
            <trkpt lat="51.629794" lon="10.591831"><ele>473.1</ele></trkpt>
            <trkpt lat="51.62976" lon="10.591351"><ele>468.6</ele></trkpt>
            <trkpt lat="51.629645" lon="10.590855"><ele>464.1</ele></trkpt>
            <trkpt lat="51.629568" lon="10.590687"><ele>463.7</ele></trkpt>
            <trkpt lat="51.629243" lon="10.590427"><ele>461.5</ele></trkpt>
            <trkpt lat="51.629076" lon="10.590192"><ele>461.8</ele></trkpt>
            <trkpt lat="51.628844" lon="10.589664"><ele>459.7</ele></trkpt>
            <trkpt lat="51.628773" lon="10.589424"><ele>452</ele></trkpt>
            <trkpt lat="51.628625" lon="10.588908"><ele>441.4</ele></trkpt>
            <trkpt lat="51.62846" lon="10.588621"><ele>440.2</ele></trkpt>
            <trkpt lat="51.628314" lon="10.588497"><ele>440.4</ele></trkpt>
            <trkpt lat="51.627917" lon="10.588334"><ele>438.1</ele></trkpt>
            <trkpt lat="51.627658" lon="10.588189"><ele>436.4</ele></trkpt>
            <trkpt lat="51.627567" lon="10.588161"><ele>436.3</ele></trkpt>
            <trkpt lat="51.627351" lon="10.588175"><ele>436.2</ele></trkpt>
            <trkpt lat="51.627292" lon="10.588114"><ele>435.8</ele></trkpt>
            <trkpt lat="51.627266" lon="10.588048"><ele>434.6</ele></trkpt>
            <trkpt lat="51.627268" lon="10.587941"><ele>434.3</ele></trkpt>
            <trkpt lat="51.627291" lon="10.587872"><ele>434</ele></trkpt>
            <trkpt lat="51.62753" lon="10.587397"><ele>432.7</ele></trkpt>
            <trkpt lat="51.627692" lon="10.587023"><ele>432.4</ele></trkpt>
            <trkpt lat="51.627844" lon="10.586095"><ele>430.4</ele></trkpt>
            <trkpt lat="51.627868" lon="10.58587"><ele>416</ele></trkpt>
            <trkpt lat="51.627911" lon="10.585715"><ele>404.8</ele></trkpt>
            <trkpt lat="51.627915" lon="10.585598"><ele>401</ele></trkpt>
            <trkpt lat="51.628005" lon="10.585253"><ele>392</ele></trkpt>
            <trkpt lat="51.628072" lon="10.585127"><ele>392.9</ele></trkpt>
            <trkpt lat="51.628224" lon="10.584944"><ele>389.7</ele></trkpt>
            <trkpt lat="51.628193" lon="10.584867"><ele>382.9</ele></trkpt>
        </trkseg>
    </trk>
</gpx>
