<?xml version="1.0" encoding="UTF-8"?>
<gpx version="1.1" creator="HWN Route Compare (OpenRouteService)" xmlns="http://www.topografix.com/GPX/1/1">
    <metadata>
        <name>OpenRouteService – Tour E3a</name>
    </metadata>
    <trk>
        <name>OpenRouteService – Tour E3a</name>
        <trkseg>
            <trkpt lat="51.628193" lon="10.584867"><ele>382.9</ele></trkpt>
            <trkpt lat="51.628224" lon="10.584944"><ele>389.7</ele></trkpt>
            <trkpt lat="51.628072" lon="10.585127"><ele>392.9</ele></trkpt>
            <trkpt lat="51.628005" lon="10.585253"><ele>392</ele></trkpt>
            <trkpt lat="51.627915" lon="10.585598"><ele>401</ele></trkpt>
            <trkpt lat="51.627911" lon="10.585715"><ele>404.8</ele></trkpt>
            <trkpt lat="51.627868" lon="10.58587"><ele>416</ele></trkpt>
            <trkpt lat="51.627844" lon="10.586095"><ele>430.4</ele></trkpt>
            <trkpt lat="51.627692" lon="10.587023"><ele>432.4</ele></trkpt>
            <trkpt lat="51.62753" lon="10.587397"><ele>432.7</ele></trkpt>
            <trkpt lat="51.627291" lon="10.587872"><ele>434</ele></trkpt>
            <trkpt lat="51.627268" lon="10.587941"><ele>434.3</ele></trkpt>
            <trkpt lat="51.627266" lon="10.588048"><ele>434.6</ele></trkpt>
            <trkpt lat="51.627292" lon="10.588114"><ele>435.8</ele></trkpt>
            <trkpt lat="51.627351" lon="10.588175"><ele>436.2</ele></trkpt>
            <trkpt lat="51.627567" lon="10.588161"><ele>436.3</ele></trkpt>
            <trkpt lat="51.627658" lon="10.588189"><ele>436.4</ele></trkpt>
            <trkpt lat="51.627917" lon="10.588334"><ele>438.1</ele></trkpt>
            <trkpt lat="51.628314" lon="10.588497"><ele>440.4</ele></trkpt>
            <trkpt lat="51.62846" lon="10.588621"><ele>440.2</ele></trkpt>
            <trkpt lat="51.628625" lon="10.588908"><ele>441.4</ele></trkpt>
            <trkpt lat="51.628773" lon="10.589424"><ele>452</ele></trkpt>
            <trkpt lat="51.628844" lon="10.589664"><ele>459.7</ele></trkpt>
            <trkpt lat="51.629076" lon="10.590192"><ele>461.8</ele></trkpt>
            <trkpt lat="51.629243" lon="10.590427"><ele>461.5</ele></trkpt>
            <trkpt lat="51.629568" lon="10.590687"><ele>463.7</ele></trkpt>
            <trkpt lat="51.629645" lon="10.590855"><ele>464.1</ele></trkpt>
            <trkpt lat="51.62976" lon="10.591351"><ele>468.6</ele></trkpt>
            <trkpt lat="51.629794" lon="10.591831"><ele>473.1</ele></trkpt>
            <trkpt lat="51.629932" lon="10.592437"><ele>477.8</ele></trkpt>
            <trkpt lat="51.629974" lon="10.593205"><ele>489.5</ele></trkpt>
            <trkpt lat="51.629953" lon="10.594374"><ele>499</ele></trkpt>
            <trkpt lat="51.630005" lon="10.595122"><ele>508</ele></trkpt>
            <trkpt lat="51.629943" lon="10.596254"><ele>514</ele></trkpt>
            <trkpt lat="51.629957" lon="10.59642"><ele>517</ele></trkpt>
            <trkpt lat="51.629916" lon="10.596876"><ele>512</ele></trkpt>
            <trkpt lat="51.629956" lon="10.597158"><ele>512.8</ele></trkpt>
            <trkpt lat="51.630008" lon="10.597375"><ele>513.2</ele></trkpt>
            <trkpt lat="51.630277" lon="10.598426"><ele>513.8</ele></trkpt>
            <trkpt lat="51.630611" lon="10.599643"><ele>515</ele></trkpt>
            <trkpt lat="51.630659" lon="10.599819"><ele>515</ele></trkpt>
            <trkpt lat="51.63089" lon="10.600434"><ele>526.5</ele></trkpt>
            <trkpt lat="51.631311" lon="10.601201"><ele>528.7</ele></trkpt>
            <trkpt lat="51.631411" lon="10.60147"><ele>530.7</ele></trkpt>
            <trkpt lat="51.631472" lon="10.601788"><ele>533</ele></trkpt>
            <trkpt lat="51.63155" lon="10.603155"><ele>538.2</ele></trkpt>
            <trkpt lat="51.631595" lon="10.603398"><ele>547</ele></trkpt>
            <trkpt lat="51.631713" lon="10.603572"><ele>549</ele></trkpt>
            <trkpt lat="51.632098" lon="10.603929"><ele>552.5</ele></trkpt>
            <trkpt lat="51.632306" lon="10.603967"><ele>553.5</ele></trkpt>
            <trkpt lat="51.632543" lon="10.603856"><ele>554.5</ele></trkpt>
            <trkpt lat="51.632781" lon="10.603711"><ele>555.7</ele></trkpt>
            <trkpt lat="51.632969" lon="10.603507"><ele>558.7</ele></trkpt>
            <trkpt lat="51.633131" lon="10.603416"><ele>559.6</ele></trkpt>
            <trkpt lat="51.633292" lon="10.603448"><ele>561.6</ele></trkpt>
            <trkpt lat="51.633771" lon="10.603866"><ele>566</ele></trkpt>
            <trkpt lat="51.633892" lon="10.603925"><ele>567</ele></trkpt>
            <trkpt lat="51.633991" lon="10.604046"><ele>568.2</ele></trkpt>
            <trkpt lat="51.634101" lon="10.604222"><ele>570.3</ele></trkpt>
            <trkpt lat="51.634177" lon="10.604434"><ele>571.4</ele></trkpt>
            <trkpt lat="51.634291" lon="10.604602"><ele>572.8</ele></trkpt>
            <trkpt lat="51.634475" lon="10.604737"><ele>575.5</ele></trkpt>
            <trkpt lat="51.634819" lon="10.604802"><ele>576.2</ele></trkpt>
            <trkpt lat="51.635143" lon="10.604795"><ele>577.6</ele></trkpt>
            <trkpt lat="51.635654" lon="10.604975"><ele>580.2</ele></trkpt>
            <trkpt lat="51.635779" lon="10.605"><ele>594</ele></trkpt>
            <trkpt lat="51.636088" lon="10.604983"><ele>597.3</ele></trkpt>
            <trkpt lat="51.636524" lon="10.604917"><ele>599</ele></trkpt>
            <trkpt lat="51.636565" lon="10.60492"><ele>599</ele></trkpt>
            <trkpt lat="51.636858" lon="10.604928"><ele>605.6</ele></trkpt>
            <trkpt lat="51.637306" lon="10.605153"><ele>605.5</ele></trkpt>
            <trkpt lat="51.637563" lon="10.605326"><ele>605.7</ele></trkpt>
            <trkpt lat="51.637845" lon="10.605464"><ele>605.3</ele></trkpt>
            <trkpt lat="51.638525" lon="10.606024"><ele>606</ele></trkpt>
            <trkpt lat="51.639064" lon="10.606682"><ele>602</ele></trkpt>
            <trkpt lat="51.639331" lon="10.606956"><ele>602.1</ele></trkpt>
            <trkpt lat="51.639626" lon="10.607174"><ele>601</ele></trkpt>
            <trkpt lat="51.639793" lon="10.607249"><ele>597.3</ele></trkpt>
            <trkpt lat="51.640305" lon="10.607364"><ele>589.6</ele></trkpt>
            <trkpt lat="51.640729" lon="10.607339"><ele>583.4</ele></trkpt>
            <trkpt lat="51.640983" lon="10.607276"><ele>577.6</ele></trkpt>
            <trkpt lat="51.641347" lon="10.60713"><ele>575.4</ele></trkpt>
            <trkpt lat="51.641452" lon="10.60718"><ele>575.1</ele></trkpt>
            <trkpt lat="51.641543" lon="10.607325"><ele>574.7</ele></trkpt>
            <trkpt lat="51.64164" lon="10.607783"><ele>572.8</ele></trkpt>
            <trkpt lat="51.641695" lon="10.607924"><ele>572.4</ele></trkpt>
            <trkpt lat="51.642124" lon="10.608381"><ele>563</ele></trkpt>
            <trkpt lat="51.642243" lon="10.608491"><ele>557.4</ele></trkpt>
            <trkpt lat="51.642378" lon="10.608715"><ele>556.6</ele></trkpt>
            <trkpt lat="51.642474" lon="10.608981"><ele>555.7</ele></trkpt>
            <trkpt lat="51.642738" lon="10.610447"><ele>548</ele></trkpt>
            <trkpt lat="51.642754" lon="10.610563"><ele>550</ele></trkpt>
            <trkpt lat="51.642788" lon="10.610666"><ele>550.8</ele></trkpt>
            <trkpt lat="51.642944" lon="10.611003"><ele>551.4</ele></trkpt>
            <trkpt lat="51.643284" lon="10.611607"><ele>551.8</ele></trkpt>
            <trkpt lat="51.643551" lon="10.611984"><ele>551.9</ele></trkpt>
            <trkpt lat="51.643688" lon="10.612141"><ele>552.4</ele></trkpt>
            <trkpt lat="51.643913" lon="10.612256"><ele>552.4</ele></trkpt>
            <trkpt lat="51.644276" lon="10.612347"><ele>553</ele></trkpt>
            <trkpt lat="51.644451" lon="10.612314"><ele>555.1</ele></trkpt>
            <trkpt lat="51.644579" lon="10.612256"><ele>555.2</ele></trkpt>
            <trkpt lat="51.644733" lon="10.612124"><ele>555.4</ele></trkpt>
            <trkpt lat="51.644856" lon="10.611954"><ele>555.5</ele></trkpt>
            <trkpt lat="51.645006" lon="10.611568"><ele>556.5</ele></trkpt>
            <trkpt lat="51.645112" lon="10.611165"><ele>557</ele></trkpt>
            <trkpt lat="51.645212" lon="10.610898"><ele>556.8</ele></trkpt>
            <trkpt lat="51.645302" lon="10.61076"><ele>557.6</ele></trkpt>
            <trkpt lat="51.645429" lon="10.61063"><ele>558.2</ele></trkpt>
            <trkpt lat="51.645999" lon="10.61028"><ele>559.1</ele></trkpt>
            <trkpt lat="51.646492" lon="10.610127"><ele>558.5</ele></trkpt>
            <trkpt lat="51.646874" lon="10.609959"><ele>551</ele></trkpt>
            <trkpt lat="51.647218" lon="10.609756"><ele>553</ele></trkpt>
            <trkpt lat="51.648024" lon="10.609015"><ele>553</ele></trkpt>
            <trkpt lat="51.648208" lon="10.60886"><ele>561.3</ele></trkpt>
            <trkpt lat="51.648399" lon="10.608658"><ele>562.3</ele></trkpt>
            <trkpt lat="51.648504" lon="10.608469"><ele>563.1</ele></trkpt>
            <trkpt lat="51.648592" lon="10.608194"><ele>564.7</ele></trkpt>
            <trkpt lat="51.648755" lon="10.607432"><ele>566.2</ele></trkpt>
            <trkpt lat="51.648885" lon="10.606988"><ele>568.9</ele></trkpt>
            <trkpt lat="51.649036" lon="10.606615"><ele>572.6</ele></trkpt>
            <trkpt lat="51.649186" lon="10.606334"><ele>576</ele></trkpt>
            <trkpt lat="51.649388" lon="10.605864"><ele>579.9</ele></trkpt>
            <trkpt lat="51.649499" lon="10.605555"><ele>582</ele></trkpt>
            <trkpt lat="51.649641" lon="10.604987"><ele>585</ele></trkpt>
            <trkpt lat="51.649755" lon="10.604373"><ele>588.6</ele></trkpt>
            <trkpt lat="51.649763" lon="10.603836"><ele>590.6</ele></trkpt>
            <trkpt lat="51.649814" lon="10.603407"><ele>592.1</ele></trkpt>
            <trkpt lat="51.649901" lon="10.603162"><ele>592.3</ele></trkpt>
            <trkpt lat="51.650001" lon="10.602965"><ele>593.4</ele></trkpt>
            <trkpt lat="51.650132" lon="10.602807"><ele>594.3</ele></trkpt>
            <trkpt lat="51.650233" lon="10.60272"><ele>595.1</ele></trkpt>
            <trkpt lat="51.650338" lon="10.602693"><ele>595.4</ele></trkpt>
            <trkpt lat="51.650454" lon="10.602729"><ele>595.8</ele></trkpt>
            <trkpt lat="51.651264" lon="10.603245"><ele>599.3</ele></trkpt>
            <trkpt lat="51.651496" lon="10.603341"><ele>600</ele></trkpt>
            <trkpt lat="51.65156" lon="10.60333"><ele>599.6</ele></trkpt>
            <trkpt lat="51.651818" lon="10.603208"><ele>601</ele></trkpt>
            <trkpt lat="51.652092" lon="10.603032"><ele>601.3</ele></trkpt>
            <trkpt lat="51.652377" lon="10.602755"><ele>601.5</ele></trkpt>
            <trkpt lat="51.652929" lon="10.601729"><ele>601</ele></trkpt>
            <trkpt lat="51.653036" lon="10.60139"><ele>600.1</ele></trkpt>
            <trkpt lat="51.653208" lon="10.600715"><ele>595</ele></trkpt>
            <trkpt lat="51.653295" lon="10.600824"><ele>601.2</ele></trkpt>
            <trkpt lat="51.653208" lon="10.600715"><ele>595</ele></trkpt>
            <trkpt lat="51.653036" lon="10.60139"><ele>600.1</ele></trkpt>
            <trkpt lat="51.652929" lon="10.601729"><ele>601</ele></trkpt>
            <trkpt lat="51.652377" lon="10.602755"><ele>601.5</ele></trkpt>
            <trkpt lat="51.652092" lon="10.603032"><ele>601.3</ele></trkpt>
            <trkpt lat="51.651818" lon="10.603208"><ele>601</ele></trkpt>
            <trkpt lat="51.65156" lon="10.60333"><ele>599.6</ele></trkpt>
            <trkpt lat="51.651496" lon="10.603341"><ele>600</ele></trkpt>
            <trkpt lat="51.651264" lon="10.603245"><ele>599.3</ele></trkpt>
            <trkpt lat="51.650454" lon="10.602729"><ele>595.8</ele></trkpt>
            <trkpt lat="51.650338" lon="10.602693"><ele>595.4</ele></trkpt>
            <trkpt lat="51.650233" lon="10.60272"><ele>595.1</ele></trkpt>
            <trkpt lat="51.650132" lon="10.602807"><ele>594.3</ele></trkpt>
            <trkpt lat="51.650001" lon="10.602965"><ele>593.4</ele></trkpt>
            <trkpt lat="51.649901" lon="10.603162"><ele>592.3</ele></trkpt>
            <trkpt lat="51.649814" lon="10.603407"><ele>592.1</ele></trkpt>
            <trkpt lat="51.649763" lon="10.603836"><ele>590.6</ele></trkpt>
            <trkpt lat="51.649755" lon="10.604373"><ele>588.6</ele></trkpt>
            <trkpt lat="51.649641" lon="10.604987"><ele>585</ele></trkpt>
            <trkpt lat="51.649499" lon="10.605555"><ele>582</ele></trkpt>
            <trkpt lat="51.649388" lon="10.605864"><ele>579.9</ele></trkpt>
            <trkpt lat="51.649186" lon="10.606334"><ele>576</ele></trkpt>
            <trkpt lat="51.649036" lon="10.606615"><ele>572.6</ele></trkpt>
            <trkpt lat="51.648885" lon="10.606988"><ele>568.9</ele></trkpt>
            <trkpt lat="51.648755" lon="10.607432"><ele>566.2</ele></trkpt>
            <trkpt lat="51.648592" lon="10.608194"><ele>564.7</ele></trkpt>
            <trkpt lat="51.648504" lon="10.608469"><ele>563.1</ele></trkpt>
            <trkpt lat="51.648399" lon="10.608658"><ele>562.3</ele></trkpt>
            <trkpt lat="51.648208" lon="10.60886"><ele>561.3</ele></trkpt>
            <trkpt lat="51.648024" lon="10.609015"><ele>553</ele></trkpt>
            <trkpt lat="51.647218" lon="10.609756"><ele>553</ele></trkpt>
            <trkpt lat="51.646874" lon="10.609959"><ele>551</ele></trkpt>
            <trkpt lat="51.646492" lon="10.610127"><ele>558.5</ele></trkpt>
            <trkpt lat="51.645999" lon="10.61028"><ele>559.1</ele></trkpt>
            <trkpt lat="51.645429" lon="10.61063"><ele>558.2</ele></trkpt>
            <trkpt lat="51.645302" lon="10.61076"><ele>557.6</ele></trkpt>
            <trkpt lat="51.645212" lon="10.610898"><ele>556.8</ele></trkpt>
            <trkpt lat="51.645112" lon="10.611165"><ele>557</ele></trkpt>
            <trkpt lat="51.645006" lon="10.611568"><ele>556.5</ele></trkpt>
            <trkpt lat="51.644856" lon="10.611954"><ele>555.5</ele></trkpt>
            <trkpt lat="51.644733" lon="10.612124"><ele>555.4</ele></trkpt>
            <trkpt lat="51.644579" lon="10.612256"><ele>555.2</ele></trkpt>
            <trkpt lat="51.644451" lon="10.612314"><ele>555.1</ele></trkpt>
            <trkpt lat="51.644276" lon="10.612347"><ele>553</ele></trkpt>
            <trkpt lat="51.643913" lon="10.612256"><ele>552.4</ele></trkpt>
            <trkpt lat="51.643688" lon="10.612141"><ele>552.4</ele></trkpt>
            <trkpt lat="51.643551" lon="10.611984"><ele>551.9</ele></trkpt>
            <trkpt lat="51.643284" lon="10.611607"><ele>551.8</ele></trkpt>
            <trkpt lat="51.642944" lon="10.611003"><ele>551.4</ele></trkpt>
            <trkpt lat="51.642788" lon="10.610666"><ele>550.8</ele></trkpt>
            <trkpt lat="51.642754" lon="10.610563"><ele>550</ele></trkpt>
            <trkpt lat="51.642738" lon="10.610447"><ele>548</ele></trkpt>
            <trkpt lat="51.642519" lon="10.610626"><ele>547</ele></trkpt>
            <trkpt lat="51.642309" lon="10.610858"><ele>543</ele></trkpt>
            <trkpt lat="51.642245" lon="10.6108"><ele>545.3</ele></trkpt>
            <trkpt lat="51.642309" lon="10.610858"><ele>543</ele></trkpt>
            <trkpt lat="51.642519" lon="10.610626"><ele>547</ele></trkpt>
            <trkpt lat="51.642738" lon="10.610447"><ele>548</ele></trkpt>
            <trkpt lat="51.642474" lon="10.608981"><ele>555.7</ele></trkpt>
            <trkpt lat="51.642378" lon="10.608715"><ele>556.6</ele></trkpt>
            <trkpt lat="51.642243" lon="10.608491"><ele>557.4</ele></trkpt>
            <trkpt lat="51.642124" lon="10.608381"><ele>563</ele></trkpt>
            <trkpt lat="51.641695" lon="10.607924"><ele>572.4</ele></trkpt>
            <trkpt lat="51.64164" lon="10.607783"><ele>572.8</ele></trkpt>
            <trkpt lat="51.641543" lon="10.607325"><ele>574.7</ele></trkpt>
            <trkpt lat="51.641452" lon="10.60718"><ele>575.1</ele></trkpt>
            <trkpt lat="51.641347" lon="10.60713"><ele>575.4</ele></trkpt>
            <trkpt lat="51.640983" lon="10.607276"><ele>577.6</ele></trkpt>
            <trkpt lat="51.640729" lon="10.607339"><ele>583.4</ele></trkpt>
            <trkpt lat="51.640305" lon="10.607364"><ele>589.6</ele></trkpt>
            <trkpt lat="51.639793" lon="10.607249"><ele>597.3</ele></trkpt>
            <trkpt lat="51.639626" lon="10.607174"><ele>601</ele></trkpt>
            <trkpt lat="51.639331" lon="10.606956"><ele>602.1</ele></trkpt>
            <trkpt lat="51.639064" lon="10.606682"><ele>602</ele></trkpt>
            <trkpt lat="51.638525" lon="10.606024"><ele>606</ele></trkpt>
            <trkpt lat="51.637845" lon="10.605464"><ele>605.3</ele></trkpt>
            <trkpt lat="51.637563" lon="10.605326"><ele>605.7</ele></trkpt>
            <trkpt lat="51.637306" lon="10.605153"><ele>605.5</ele></trkpt>
            <trkpt lat="51.636858" lon="10.604928"><ele>605.6</ele></trkpt>
            <trkpt lat="51.636565" lon="10.60492"><ele>599</ele></trkpt>
            <trkpt lat="51.636524" lon="10.604917"><ele>599</ele></trkpt>
            <trkpt lat="51.636088" lon="10.604983"><ele>597.3</ele></trkpt>
            <trkpt lat="51.635779" lon="10.605"><ele>594</ele></trkpt>
            <trkpt lat="51.635654" lon="10.604975"><ele>580.2</ele></trkpt>
            <trkpt lat="51.635143" lon="10.604795"><ele>577.6</ele></trkpt>
            <trkpt lat="51.634819" lon="10.604802"><ele>576.2</ele></trkpt>
            <trkpt lat="51.634475" lon="10.604737"><ele>575.5</ele></trkpt>
            <trkpt lat="51.634291" lon="10.604602"><ele>572.8</ele></trkpt>
            <trkpt lat="51.634177" lon="10.604434"><ele>571.4</ele></trkpt>
            <trkpt lat="51.634101" lon="10.604222"><ele>570.3</ele></trkpt>
            <trkpt lat="51.633991" lon="10.604046"><ele>568.2</ele></trkpt>
            <trkpt lat="51.633892" lon="10.603925"><ele>567</ele></trkpt>
            <trkpt lat="51.633771" lon="10.603866"><ele>566</ele></trkpt>
            <trkpt lat="51.633292" lon="10.603448"><ele>561.6</ele></trkpt>
            <trkpt lat="51.633131" lon="10.603416"><ele>559.6</ele></trkpt>
            <trkpt lat="51.632969" lon="10.603507"><ele>558.7</ele></trkpt>
            <trkpt lat="51.632781" lon="10.603711"><ele>555.7</ele></trkpt>
            <trkpt lat="51.632543" lon="10.603856"><ele>554.5</ele></trkpt>
            <trkpt lat="51.632306" lon="10.603967"><ele>553.5</ele></trkpt>
            <trkpt lat="51.632098" lon="10.603929"><ele>552.5</ele></trkpt>
            <trkpt lat="51.631713" lon="10.603572"><ele>549</ele></trkpt>
            <trkpt lat="51.631595" lon="10.603398"><ele>547</ele></trkpt>
            <trkpt lat="51.63155" lon="10.603155"><ele>538.2</ele></trkpt>
            <trkpt lat="51.631472" lon="10.601788"><ele>533</ele></trkpt>
            <trkpt lat="51.631411" lon="10.60147"><ele>530.7</ele></trkpt>
            <trkpt lat="51.631311" lon="10.601201"><ele>528.7</ele></trkpt>
            <trkpt lat="51.63089" lon="10.600434"><ele>526.5</ele></trkpt>
            <trkpt lat="51.630659" lon="10.599819"><ele>515</ele></trkpt>
            <trkpt lat="51.630611" lon="10.599643"><ele>515</ele></trkpt>
            <trkpt lat="51.630277" lon="10.598426"><ele>513.8</ele></trkpt>
            <trkpt lat="51.630008" lon="10.597375"><ele>513.2</ele></trkpt>
            <trkpt lat="51.629956" lon="10.597158"><ele>512.8</ele></trkpt>
            <trkpt lat="51.629916" lon="10.596876"><ele>512</ele></trkpt>
            <trkpt lat="51.629957" lon="10.59642"><ele>517</ele></trkpt>
            <trkpt lat="51.629943" lon="10.596254"><ele>514</ele></trkpt>
            <trkpt lat="51.630005" lon="10.595122"><ele>508</ele></trkpt>
            <trkpt lat="51.629953" lon="10.594374"><ele>499</ele></trkpt>
            <trkpt lat="51.629974" lon="10.593205"><ele>489.5</ele></trkpt>
            <trkpt lat="51.629932" lon="10.592437"><ele>477.8</ele></trkpt>
            <trkpt lat="51.629794" lon="10.591831"><ele>473.1</ele></trkpt>
            <trkpt lat="51.62976" lon="10.591351"><ele>468.6</ele></trkpt>
            <trkpt lat="51.629645" lon="10.590855"><ele>464.1</ele></trkpt>
            <trkpt lat="51.629568" lon="10.590687"><ele>463.7</ele></trkpt>
            <trkpt lat="51.629243" lon="10.590427"><ele>461.5</ele></trkpt>
            <trkpt lat="51.629076" lon="10.590192"><ele>461.8</ele></trkpt>
            <trkpt lat="51.628844" lon="10.589664"><ele>459.7</ele></trkpt>
            <trkpt lat="51.628773" lon="10.589424"><ele>452</ele></trkpt>
            <trkpt lat="51.628625" lon="10.588908"><ele>441.4</ele></trkpt>
            <trkpt lat="51.62846" lon="10.588621"><ele>440.2</ele></trkpt>
            <trkpt lat="51.628314" lon="10.588497"><ele>440.4</ele></trkpt>
            <trkpt lat="51.627917" lon="10.588334"><ele>438.1</ele></trkpt>
            <trkpt lat="51.627658" lon="10.588189"><ele>436.4</ele></trkpt>
            <trkpt lat="51.627567" lon="10.588161"><ele>436.3</ele></trkpt>
            <trkpt lat="51.627351" lon="10.588175"><ele>436.2</ele></trkpt>
            <trkpt lat="51.627292" lon="10.588114"><ele>435.8</ele></trkpt>
            <trkpt lat="51.627266" lon="10.588048"><ele>434.6</ele></trkpt>
            <trkpt lat="51.627268" lon="10.587941"><ele>434.3</ele></trkpt>
            <trkpt lat="51.627291" lon="10.587872"><ele>434</ele></trkpt>
            <trkpt lat="51.62753" lon="10.587397"><ele>432.7</ele></trkpt>
            <trkpt lat="51.627692" lon="10.587023"><ele>432.4</ele></trkpt>
            <trkpt lat="51.627844" lon="10.586095"><ele>430.4</ele></trkpt>
            <trkpt lat="51.627868" lon="10.58587"><ele>416</ele></trkpt>
            <trkpt lat="51.627911" lon="10.585715"><ele>404.8</ele></trkpt>
            <trkpt lat="51.627915" lon="10.585598"><ele>401</ele></trkpt>
            <trkpt lat="51.628005" lon="10.585253"><ele>392</ele></trkpt>
            <trkpt lat="51.628072" lon="10.585127"><ele>392.9</ele></trkpt>
            <trkpt lat="51.628224" lon="10.584944"><ele>389.7</ele></trkpt>
            <trkpt lat="51.628193" lon="10.584867"><ele>382.9</ele></trkpt>
        </trkseg>
    </trk>
</gpx>
