<?xml version="1.0" encoding="UTF-8"?>
<gpx version="1.1" creator="HWN Route Compare (OpenRouteService)" xmlns="http://www.topografix.com/GPX/1/1">
    <metadata>
        <name>OpenRouteService – Tour E3b</name>
    </metadata>
    <trk>
        <name>OpenRouteService – Tour E3b</name>
        <trkseg>
            <trkpt lat="51.638436" lon="10.630503"><ele>465.2</ele></trkpt>
            <trkpt lat="51.638373" lon="10.630345"><ele>466</ele></trkpt>
            <trkpt lat="51.638317" lon="10.630419"><ele>435</ele></trkpt>
            <trkpt lat="51.638302" lon="10.630487"><ele>428.3</ele></trkpt>
            <trkpt lat="51.638288" lon="10.630459"><ele>428.5</ele></trkpt>
            <trkpt lat="51.638278" lon="10.630474"><ele>428.7</ele></trkpt>
            <trkpt lat="51.638301" lon="10.630607"><ele>429</ele></trkpt>
            <trkpt lat="51.638306" lon="10.630746"><ele>429.3</ele></trkpt>
            <trkpt lat="51.638247" lon="10.630644"><ele>429.7</ele></trkpt>
            <trkpt lat="51.638208" lon="10.630479"><ele>430</ele></trkpt>
            <trkpt lat="51.63818" lon="10.630495"><ele>430.2</ele></trkpt>
            <trkpt lat="51.638202" lon="10.630727"><ele>430.5</ele></trkpt>
            <trkpt lat="51.638197" lon="10.630943"><ele>429.7</ele></trkpt>
            <trkpt lat="51.638212" lon="10.631004"><ele>429.2</ele></trkpt>
            <trkpt lat="51.638137" lon="10.630945"><ele>428.3</ele></trkpt>
            <trkpt lat="51.638082" lon="10.630838"><ele>427.5</ele></trkpt>
            <trkpt lat="51.638058" lon="10.630836"><ele>427.3</ele></trkpt>
            <trkpt lat="51.638068" lon="10.631086"><ele>426.1</ele></trkpt>
            <trkpt lat="51.638051" lon="10.631115"><ele>425.4</ele></trkpt>
            <trkpt lat="51.638113" lon="10.631251"><ele>425.1</ele></trkpt>
            <trkpt lat="51.638071" lon="10.631235"><ele>424.8</ele></trkpt>
            <trkpt lat="51.637946" lon="10.631009"><ele>412</ele></trkpt>
            <trkpt lat="51.63793" lon="10.630968"><ele>412</ele></trkpt>
            <trkpt lat="51.637768" lon="10.630852"><ele>404.8</ele></trkpt>
            <trkpt lat="51.637415" lon="10.630695"><ele>403.2</ele></trkpt>
            <trkpt lat="51.637257" lon="10.630574"><ele>400.6</ele></trkpt>
            <trkpt lat="51.637164" lon="10.630453"><ele>392</ele></trkpt>
            <trkpt lat="51.637102" lon="10.63039"><ele>392</ele></trkpt>
            <trkpt lat="51.636958" lon="10.629824"><ele>393.7</ele></trkpt>
            <trkpt lat="51.636928" lon="10.629641"><ele>393.8</ele></trkpt>
            <trkpt lat="51.636823" lon="10.629352"><ele>393.8</ele></trkpt>
            <trkpt lat="51.636732" lon="10.628835"><ele>394</ele></trkpt>
            <trkpt lat="51.636677" lon="10.628318"><ele>394.4</ele></trkpt>
            <trkpt lat="51.636359" lon="10.627452"><ele>395</ele></trkpt>
            <trkpt lat="51.636167" lon="10.62861"><ele>386.8</ele></trkpt>
            <trkpt lat="51.636172" lon="10.628918"><ele>387</ele></trkpt>
            <trkpt lat="51.636116" lon="10.629376"><ele>380</ele></trkpt>
            <trkpt lat="51.635987" lon="10.629733"><ele>380</ele></trkpt>
            <trkpt lat="51.635939" lon="10.629994"><ele>380</ele></trkpt>
            <trkpt lat="51.635702" lon="10.630558"><ele>415</ele></trkpt>
            <trkpt lat="51.635656" lon="10.630729"><ele>415</ele></trkpt>
            <trkpt lat="51.635469" lon="10.631557"><ele>403.8</ele></trkpt>
            <trkpt lat="51.635365" lon="10.631942"><ele>392</ele></trkpt>
            <trkpt lat="51.635137" lon="10.632449"><ele>385.6</ele></trkpt>
            <trkpt lat="51.634996" lon="10.632723"><ele>387</ele></trkpt>
            <trkpt lat="51.634808" lon="10.633257"><ele>388.2</ele></trkpt>
            <trkpt lat="51.634629" lon="10.633519"><ele>369</ele></trkpt>
            <trkpt lat="51.634396" lon="10.633942"><ele>362.7</ele></trkpt>
            <trkpt lat="51.634154" lon="10.63423"><ele>361.7</ele></trkpt>
            <trkpt lat="51.634146" lon="10.634269"><ele>361.7</ele></trkpt>
            <trkpt lat="51.634273" lon="10.634571"><ele>352</ele></trkpt>
            <trkpt lat="51.634195" lon="10.634662"><ele>355.4</ele></trkpt>
            <trkpt lat="51.634094" lon="10.63474"><ele>361</ele></trkpt>
            <trkpt lat="51.633747" lon="10.634922"><ele>361.4</ele></trkpt>
            <trkpt lat="51.633548" lon="10.634974"><ele>361.3</ele></trkpt>
            <trkpt lat="51.633311" lon="10.634954"><ele>361.5</ele></trkpt>
            <trkpt lat="51.632557" lon="10.634785"><ele>363</ele></trkpt>
            <trkpt lat="51.632419" lon="10.634755"><ele>358.1</ele></trkpt>
            <trkpt lat="51.632003" lon="10.6348"><ele>358.3</ele></trkpt>
            <trkpt lat="51.631762" lon="10.634774"><ele>358.4</ele></trkpt>
            <trkpt lat="51.631627" lon="10.634718"><ele>357.6</ele></trkpt>
            <trkpt lat="51.631483" lon="10.634624"><ele>352</ele></trkpt>
            <trkpt lat="51.631448" lon="10.634666"><ele>352</ele></trkpt>
            <trkpt lat="51.631384" lon="10.634769"><ele>352</ele></trkpt>
            <trkpt lat="51.631357" lon="10.634812"><ele>352</ele></trkpt>
            <trkpt lat="51.631307" lon="10.634828"><ele>352</ele></trkpt>
            <trkpt lat="51.63105" lon="10.634779"><ele>352</ele></trkpt>
            <trkpt lat="51.630797" lon="10.634644"><ele>344.2</ele></trkpt>
            <trkpt lat="51.630483" lon="10.634398"><ele>337</ele></trkpt>
            <trkpt lat="51.630385" lon="10.635133"><ele>349.7</ele></trkpt>
            <trkpt lat="51.630323" lon="10.635325"><ele>353.7</ele></trkpt>
            <trkpt lat="51.630238" lon="10.635497"><ele>355.8</ele></trkpt>
            <trkpt lat="51.629861" lon="10.63604"><ele>360.1</ele></trkpt>
            <trkpt lat="51.62961" lon="10.636451"><ele>366.2</ele></trkpt>
            <trkpt lat="51.62942" lon="10.636841"><ele>373.2</ele></trkpt>
            <trkpt lat="51.629301" lon="10.637213"><ele>380.7</ele></trkpt>
            <trkpt lat="51.628892" lon="10.638959"><ele>388.1</ele></trkpt>
            <trkpt lat="51.628738" lon="10.639269"><ele>387</ele></trkpt>
            <trkpt lat="51.628434" lon="10.639712"><ele>389</ele></trkpt>
            <trkpt lat="51.628158" lon="10.639832"><ele>407.5</ele></trkpt>
            <trkpt lat="51.628004" lon="10.640056"><ele>405</ele></trkpt>
            <trkpt lat="51.627751" lon="10.640502"><ele>405</ele></trkpt>
            <trkpt lat="51.627715" lon="10.640524"><ele>405</ele></trkpt>
            <trkpt lat="51.627658" lon="10.640494"><ele>405</ele></trkpt>
            <trkpt lat="51.627785" lon="10.640177"><ele>412.3</ele></trkpt>
            <trkpt lat="51.628054" lon="10.639604"><ele>413.9</ele></trkpt>
            <trkpt lat="51.628293" lon="10.639203"><ele>415.9</ele></trkpt>
            <trkpt lat="51.628402" lon="10.638901"><ele>415.5</ele></trkpt>
            <trkpt lat="51.628489" lon="10.638516"><ele>414.1</ele></trkpt>
            <trkpt lat="51.628564" lon="10.638095"><ele>415</ele></trkpt>
            <trkpt lat="51.628726" lon="10.637452"><ele>415</ele></trkpt>
            <trkpt lat="51.62877" lon="10.637115"><ele>425</ele></trkpt>
            <trkpt lat="51.628509" lon="10.637802"><ele>432.1</ele></trkpt>
            <trkpt lat="51.628014" lon="10.638897"><ele>441.9</ele></trkpt>
            <trkpt lat="51.627711" lon="10.639396"><ele>446.3</ele></trkpt>
            <trkpt lat="51.627493" lon="10.639718"><ele>451.8</ele></trkpt>
            <trkpt lat="51.627414" lon="10.639793"><ele>453.2</ele></trkpt>
            <trkpt lat="51.627331" lon="10.639852"><ele>453.9</ele></trkpt>
            <trkpt lat="51.627128" lon="10.639927"><ele>455.8</ele></trkpt>
            <trkpt lat="51.626628" lon="10.640367"><ele>456.8</ele></trkpt>
            <trkpt lat="51.626241" lon="10.640583"><ele>462.2</ele></trkpt>
            <trkpt lat="51.62565" lon="10.641048"><ele>468.9</ele></trkpt>
            <trkpt lat="51.625091" lon="10.641431"><ele>471.9</ele></trkpt>
            <trkpt lat="51.624985" lon="10.641452"><ele>472.4</ele></trkpt>
            <trkpt lat="51.62479" lon="10.641384"><ele>473.3</ele></trkpt>
            <trkpt lat="51.624664" lon="10.641389"><ele>472.8</ele></trkpt>
            <trkpt lat="51.624581" lon="10.641447"><ele>473.1</ele></trkpt>
            <trkpt lat="51.624458" lon="10.641644"><ele>473.4</ele></trkpt>
            <trkpt lat="51.62436" lon="10.641751"><ele>472.5</ele></trkpt>
            <trkpt lat="51.624162" lon="10.64177"><ele>472</ele></trkpt>
            <trkpt lat="51.624007" lon="10.641682"><ele>471.6</ele></trkpt>
            <trkpt lat="51.62372" lon="10.641268"><ele>470.9</ele></trkpt>
            <trkpt lat="51.62338" lon="10.641102"><ele>467</ele></trkpt>
            <trkpt lat="51.623325" lon="10.641111"><ele>462.9</ele></trkpt>
            <trkpt lat="51.623273" lon="10.641161"><ele>462.5</ele></trkpt>
            <trkpt lat="51.623141" lon="10.641338"><ele>461</ele></trkpt>
            <trkpt lat="51.623125" lon="10.641587"><ele>466.2</ele></trkpt>
            <trkpt lat="51.623044" lon="10.641977"><ele>466.7</ele></trkpt>
            <trkpt lat="51.622967" lon="10.642631"><ele>467.3</ele></trkpt>
            <trkpt lat="51.622981" lon="10.643049"><ele>467.5</ele></trkpt>
            <trkpt lat="51.623059" lon="10.643543"><ele>468.6</ele></trkpt>
            <trkpt lat="51.62307" lon="10.643746"><ele>468.9</ele></trkpt>
            <trkpt lat="51.62292" lon="10.644674"><ele>470.7</ele></trkpt>
            <trkpt lat="51.622875" lon="10.645434"><ele>471.8</ele></trkpt>
            <trkpt lat="51.622755" lon="10.646117"><ele>472.8</ele></trkpt>
            <trkpt lat="51.622727" lon="10.646482"><ele>472.8</ele></trkpt>
            <trkpt lat="51.622756" lon="10.646779"><ele>472.6</ele></trkpt>
            <trkpt lat="51.622937" lon="10.647644"><ele>472.5</ele></trkpt>
            <trkpt lat="51.623004" lon="10.648038"><ele>472.5</ele></trkpt>
            <trkpt lat="51.623034" lon="10.648321"><ele>472</ele></trkpt>
            <trkpt lat="51.62299" lon="10.648606"><ele>468</ele></trkpt>
            <trkpt lat="51.623072" lon="10.649034"><ele>467.8</ele></trkpt>
            <trkpt lat="51.623098" lon="10.649557"><ele>467.6</ele></trkpt>
            <trkpt lat="51.623234" lon="10.649993"><ele>467.6</ele></trkpt>
            <trkpt lat="51.623251" lon="10.650126"><ele>467.5</ele></trkpt>
            <trkpt lat="51.623223" lon="10.650335"><ele>467</ele></trkpt>
            <trkpt lat="51.623164" lon="10.650634"><ele>482.7</ele></trkpt>
            <trkpt lat="51.623142" lon="10.651119"><ele>488.4</ele></trkpt>
            <trkpt lat="51.623214" lon="10.651637"><ele>491.4</ele></trkpt>
            <trkpt lat="51.623328" lon="10.652173"><ele>496.1</ele></trkpt>
            <trkpt lat="51.623333" lon="10.652303"><ele>496.9</ele></trkpt>
            <trkpt lat="51.623371" lon="10.652401"><ele>498.8</ele></trkpt>
            <trkpt lat="51.623411" lon="10.652714"><ele>501.4</ele></trkpt>
            <trkpt lat="51.623458" lon="10.652829"><ele>503.2</ele></trkpt>
            <trkpt lat="51.623636" lon="10.652967"><ele>503.3</ele></trkpt>
            <trkpt lat="51.62381" lon="10.653437"><ele>507</ele></trkpt>
            <trkpt lat="51.623851" lon="10.653616"><ele>507.8</ele></trkpt>
            <trkpt lat="51.623857" lon="10.654039"><ele>513.5</ele></trkpt>
            <trkpt lat="51.623813" lon="10.654166"><ele>514.7</ele></trkpt>
            <trkpt lat="51.623834" lon="10.654335"><ele>518.5</ele></trkpt>
            <trkpt lat="51.62388" lon="10.654419"><ele>520.9</ele></trkpt>
            <trkpt lat="51.623969" lon="10.6548"><ele>526.8</ele></trkpt>
            <trkpt lat="51.623983" lon="10.655082"><ele>535.6</ele></trkpt>
            <trkpt lat="51.624047" lon="10.655555"><ele>540.5</ele></trkpt>
            <trkpt lat="51.624172" lon="10.655983"><ele>545.8</ele></trkpt>
            <trkpt lat="51.62418" lon="10.656048"><ele>545.6</ele></trkpt>
            <trkpt lat="51.624168" lon="10.65611"><ele>545.4</ele></trkpt>
            <trkpt lat="51.624229" lon="10.656518"><ele>550.3</ele></trkpt>
            <trkpt lat="51.624278" lon="10.656709"><ele>552.2</ele></trkpt>
            <trkpt lat="51.624354" lon="10.65688"><ele>551.5</ele></trkpt>
            <trkpt lat="51.624431" lon="10.656954"><ele>552.5</ele></trkpt>
            <trkpt lat="51.624565" lon="10.657033"><ele>551.2</ele></trkpt>
            <trkpt lat="51.624589" lon="10.657095"><ele>562</ele></trkpt>
            <trkpt lat="51.624569" lon="10.657128"><ele>561.6</ele></trkpt>
            <trkpt lat="51.624517" lon="10.657217"><ele>561.3</ele></trkpt>
            <trkpt lat="51.623981" lon="10.657769"><ele>559</ele></trkpt>
            <trkpt lat="51.623815" lon="10.657935"><ele>559</ele></trkpt>
            <trkpt lat="51.623673" lon="10.658039"><ele>559</ele></trkpt>
            <trkpt lat="51.623519" lon="10.658091"><ele>559</ele></trkpt>
            <trkpt lat="51.623279" lon="10.658301"><ele>550</ele></trkpt>
            <trkpt lat="51.623084" lon="10.658476"><ele>549.9</ele></trkpt>
            <trkpt lat="51.622904" lon="10.658602"><ele>551.2</ele></trkpt>
            <trkpt lat="51.62269" lon="10.658673"><ele>551.5</ele></trkpt>
            <trkpt lat="51.622155" lon="10.658731"><ele>548.5</ele></trkpt>
            <trkpt lat="51.622031" lon="10.658772"><ele>546.9</ele></trkpt>
            <trkpt lat="51.621586" lon="10.659206"><ele>539</ele></trkpt>
            <trkpt lat="51.621071" lon="10.659634"><ele>533.2</ele></trkpt>
            <trkpt lat="51.620716" lon="10.659983"><ele>524.3</ele></trkpt>
            <trkpt lat="51.62064" lon="10.660081"><ele>516</ele></trkpt>
            <trkpt lat="51.620541" lon="10.660015"><ele>514.1</ele></trkpt>
            <trkpt lat="51.620428" lon="10.659882"><ele>513.5</ele></trkpt>
            <trkpt lat="51.620294" lon="10.659661"><ele>510</ele></trkpt>
            <trkpt lat="51.62024" lon="10.659553"><ele>510</ele></trkpt>
            <trkpt lat="51.620101" lon="10.659368"><ele>510</ele></trkpt>
            <trkpt lat="51.61984" lon="10.659065"><ele>500.9</ele></trkpt>
            <trkpt lat="51.619503" lon="10.658414"><ele>500.2</ele></trkpt>
            <trkpt lat="51.619336" lon="10.658136"><ele>499.8</ele></trkpt>
            <trkpt lat="51.619215" lon="10.658006"><ele>499.7</ele></trkpt>
            <trkpt lat="51.619113" lon="10.657941"><ele>499.1</ele></trkpt>
            <trkpt lat="51.619039" lon="10.657816"><ele>497.2</ele></trkpt>
            <trkpt lat="51.618989" lon="10.657656"><ele>496.9</ele></trkpt>
            <trkpt lat="51.618926" lon="10.657522"><ele>496.5</ele></trkpt>
            <trkpt lat="51.618539" lon="10.657073"><ele>496.7</ele></trkpt>
            <trkpt lat="51.618383" lon="10.656822"><ele>497.4</ele></trkpt>
            <trkpt lat="51.618282" lon="10.656426"><ele>494.5</ele></trkpt>
            <trkpt lat="51.618167" lon="10.655817"><ele>492.5</ele></trkpt>
            <trkpt lat="51.618188" lon="10.655633"><ele>491.3</ele></trkpt>
            <trkpt lat="51.618263" lon="10.655259"><ele>490.6</ele></trkpt>
            <trkpt lat="51.618211" lon="10.65516"><ele>488</ele></trkpt>
            <trkpt lat="51.617968" lon="10.654536"><ele>480</ele></trkpt>
            <trkpt lat="51.617965" lon="10.654257"><ele>479.3</ele></trkpt>
            <trkpt lat="51.617993" lon="10.653914"><ele>478</ele></trkpt>
            <trkpt lat="51.617951" lon="10.653628"><ele>463.6</ele></trkpt>
            <trkpt lat="51.617844" lon="10.653337"><ele>460.1</ele></trkpt>
            <trkpt lat="51.617838" lon="10.653208"><ele>458.9</ele></trkpt>
            <trkpt lat="51.617808" lon="10.653074"><ele>458.2</ele></trkpt>
            <trkpt lat="51.617754" lon="10.652936"><ele>457.4</ele></trkpt>
            <trkpt lat="51.61751" lon="10.652443"><ele>455.7</ele></trkpt>
            <trkpt lat="51.617269" lon="10.652176"><ele>456.1</ele></trkpt>
            <trkpt lat="51.617188" lon="10.652025"><ele>454.5</ele></trkpt>
            <trkpt lat="51.617102" lon="10.651801"><ele>442</ele></trkpt>
            <trkpt lat="51.617132" lon="10.651678"><ele>435.5</ele></trkpt>
            <trkpt lat="51.617102" lon="10.651801"><ele>442</ele></trkpt>
            <trkpt lat="51.617188" lon="10.652025"><ele>454.5</ele></trkpt>
            <trkpt lat="51.617269" lon="10.652176"><ele>456.1</ele></trkpt>
            <trkpt lat="51.61751" lon="10.652443"><ele>455.7</ele></trkpt>
            <trkpt lat="51.617754" lon="10.652936"><ele>457.4</ele></trkpt>
            <trkpt lat="51.617808" lon="10.653074"><ele>458.2</ele></trkpt>
            <trkpt lat="51.617838" lon="10.653208"><ele>458.9</ele></trkpt>
            <trkpt lat="51.617844" lon="10.653337"><ele>460.1</ele></trkpt>
            <trkpt lat="51.617951" lon="10.653628"><ele>463.6</ele></trkpt>
            <trkpt lat="51.617993" lon="10.653914"><ele>478</ele></trkpt>
            <trkpt lat="51.617965" lon="10.654257"><ele>479.3</ele></trkpt>
            <trkpt lat="51.617968" lon="10.654536"><ele>480</ele></trkpt>
            <trkpt lat="51.618211" lon="10.65516"><ele>488</ele></trkpt>
            <trkpt lat="51.618263" lon="10.655259"><ele>490.6</ele></trkpt>
            <trkpt lat="51.618188" lon="10.655633"><ele>491.3</ele></trkpt>
            <trkpt lat="51.618167" lon="10.655817"><ele>492.5</ele></trkpt>
            <trkpt lat="51.618282" lon="10.656426"><ele>494.5</ele></trkpt>
            <trkpt lat="51.618383" lon="10.656822"><ele>497.4</ele></trkpt>
            <trkpt lat="51.618539" lon="10.657073"><ele>496.7</ele></trkpt>
            <trkpt lat="51.618926" lon="10.657522"><ele>496.5</ele></trkpt>
            <trkpt lat="51.618989" lon="10.657656"><ele>496.9</ele></trkpt>
            <trkpt lat="51.619039" lon="10.657816"><ele>497.2</ele></trkpt>
            <trkpt lat="51.619113" lon="10.657941"><ele>499.1</ele></trkpt>
            <trkpt lat="51.619215" lon="10.658006"><ele>499.7</ele></trkpt>
            <trkpt lat="51.619336" lon="10.658136"><ele>499.8</ele></trkpt>
            <trkpt lat="51.619503" lon="10.658414"><ele>500.2</ele></trkpt>
            <trkpt lat="51.61984" lon="10.659065"><ele>500.9</ele></trkpt>
            <trkpt lat="51.620101" lon="10.659368"><ele>510</ele></trkpt>
            <trkpt lat="51.62024" lon="10.659553"><ele>510</ele></trkpt>
            <trkpt lat="51.620294" lon="10.659661"><ele>510</ele></trkpt>
            <trkpt lat="51.620428" lon="10.659882"><ele>513.5</ele></trkpt>
            <trkpt lat="51.620541" lon="10.660015"><ele>514.1</ele></trkpt>
            <trkpt lat="51.62064" lon="10.660081"><ele>516</ele></trkpt>
            <trkpt lat="51.620716" lon="10.659983"><ele>524.3</ele></trkpt>
            <trkpt lat="51.621071" lon="10.659634"><ele>533.2</ele></trkpt>
            <trkpt lat="51.621586" lon="10.659206"><ele>539</ele></trkpt>
            <trkpt lat="51.622031" lon="10.658772"><ele>546.9</ele></trkpt>
            <trkpt lat="51.622155" lon="10.658731"><ele>548.5</ele></trkpt>
            <trkpt lat="51.62269" lon="10.658673"><ele>551.5</ele></trkpt>
            <trkpt lat="51.622904" lon="10.658602"><ele>551.2</ele></trkpt>
            <trkpt lat="51.623084" lon="10.658476"><ele>549.9</ele></trkpt>
            <trkpt lat="51.623279" lon="10.658301"><ele>550</ele></trkpt>
            <trkpt lat="51.623519" lon="10.658091"><ele>559</ele></trkpt>
            <trkpt lat="51.623673" lon="10.658039"><ele>559</ele></trkpt>
            <trkpt lat="51.623815" lon="10.657935"><ele>559</ele></trkpt>
            <trkpt lat="51.623981" lon="10.657769"><ele>559</ele></trkpt>
            <trkpt lat="51.624517" lon="10.657217"><ele>561.3</ele></trkpt>
            <trkpt lat="51.624589" lon="10.657095"><ele>562</ele></trkpt>
            <trkpt lat="51.624565" lon="10.657033"><ele>551.2</ele></trkpt>
            <trkpt lat="51.624431" lon="10.656954"><ele>552.5</ele></trkpt>
            <trkpt lat="51.624354" lon="10.65688"><ele>551.5</ele></trkpt>
            <trkpt lat="51.624278" lon="10.656709"><ele>552.2</ele></trkpt>
            <trkpt lat="51.624229" lon="10.656518"><ele>550.3</ele></trkpt>
            <trkpt lat="51.624168" lon="10.65611"><ele>545.4</ele></trkpt>
            <trkpt lat="51.62418" lon="10.656048"><ele>545.6</ele></trkpt>
            <trkpt lat="51.624172" lon="10.655983"><ele>545.8</ele></trkpt>
            <trkpt lat="51.624047" lon="10.655555"><ele>540.5</ele></trkpt>
            <trkpt lat="51.623983" lon="10.655082"><ele>535.6</ele></trkpt>
            <trkpt lat="51.623969" lon="10.6548"><ele>526.8</ele></trkpt>
            <trkpt lat="51.62388" lon="10.654419"><ele>520.9</ele></trkpt>
            <trkpt lat="51.623834" lon="10.654335"><ele>518.5</ele></trkpt>
            <trkpt lat="51.623813" lon="10.654166"><ele>514.7</ele></trkpt>
            <trkpt lat="51.623857" lon="10.654039"><ele>513.5</ele></trkpt>
            <trkpt lat="51.623851" lon="10.653616"><ele>507.8</ele></trkpt>
            <trkpt lat="51.62381" lon="10.653437"><ele>507</ele></trkpt>
            <trkpt lat="51.623636" lon="10.652967"><ele>503.3</ele></trkpt>
            <trkpt lat="51.623458" lon="10.652829"><ele>503.2</ele></trkpt>
            <trkpt lat="51.623411" lon="10.652714"><ele>501.4</ele></trkpt>
            <trkpt lat="51.623371" lon="10.652401"><ele>498.8</ele></trkpt>
            <trkpt lat="51.623333" lon="10.652303"><ele>496.9</ele></trkpt>
            <trkpt lat="51.623328" lon="10.652173"><ele>496.1</ele></trkpt>
            <trkpt lat="51.623214" lon="10.651637"><ele>491.4</ele></trkpt>
            <trkpt lat="51.623142" lon="10.651119"><ele>488.4</ele></trkpt>
            <trkpt lat="51.623164" lon="10.650634"><ele>482.7</ele></trkpt>
            <trkpt lat="51.623223" lon="10.650335"><ele>467</ele></trkpt>
            <trkpt lat="51.623251" lon="10.650126"><ele>467.5</ele></trkpt>
            <trkpt lat="51.623234" lon="10.649993"><ele>467.6</ele></trkpt>
            <trkpt lat="51.623098" lon="10.649557"><ele>467.6</ele></trkpt>
            <trkpt lat="51.623072" lon="10.649034"><ele>467.8</ele></trkpt>
            <trkpt lat="51.62299" lon="10.648606"><ele>468</ele></trkpt>
            <trkpt lat="51.623034" lon="10.648321"><ele>472</ele></trkpt>
            <trkpt lat="51.623004" lon="10.648038"><ele>472.5</ele></trkpt>
            <trkpt lat="51.622937" lon="10.647644"><ele>472.5</ele></trkpt>
            <trkpt lat="51.622756" lon="10.646779"><ele>472.6</ele></trkpt>
            <trkpt lat="51.622727" lon="10.646482"><ele>472.8</ele></trkpt>
            <trkpt lat="51.622755" lon="10.646117"><ele>472.8</ele></trkpt>
            <trkpt lat="51.622875" lon="10.645434"><ele>471.8</ele></trkpt>
            <trkpt lat="51.62292" lon="10.644674"><ele>470.7</ele></trkpt>
            <trkpt lat="51.62307" lon="10.643746"><ele>468.9</ele></trkpt>
            <trkpt lat="51.623059" lon="10.643543"><ele>468.6</ele></trkpt>
            <trkpt lat="51.623019" lon="10.64329"><ele>468</ele></trkpt>
            <trkpt lat="51.622981" lon="10.643049"><ele>467.5</ele></trkpt>
            <trkpt lat="51.622967" lon="10.642631"><ele>467.3</ele></trkpt>
            <trkpt lat="51.623044" lon="10.641977"><ele>466.7</ele></trkpt>
            <trkpt lat="51.623125" lon="10.641587"><ele>466.2</ele></trkpt>
            <trkpt lat="51.623141" lon="10.641338"><ele>461</ele></trkpt>
            <trkpt lat="51.623273" lon="10.641161"><ele>462.5</ele></trkpt>
            <trkpt lat="51.623325" lon="10.641111"><ele>462.9</ele></trkpt>
            <trkpt lat="51.62338" lon="10.641102"><ele>467</ele></trkpt>
            <trkpt lat="51.62372" lon="10.641268"><ele>470.9</ele></trkpt>
            <trkpt lat="51.624007" lon="10.641682"><ele>471.6</ele></trkpt>
            <trkpt lat="51.624162" lon="10.64177"><ele>472</ele></trkpt>
            <trkpt lat="51.62436" lon="10.641751"><ele>472.5</ele></trkpt>
            <trkpt lat="51.624458" lon="10.641644"><ele>473.4</ele></trkpt>
            <trkpt lat="51.624581" lon="10.641447"><ele>473.1</ele></trkpt>
            <trkpt lat="51.624664" lon="10.641389"><ele>472.8</ele></trkpt>
            <trkpt lat="51.62479" lon="10.641384"><ele>473.3</ele></trkpt>
            <trkpt lat="51.624985" lon="10.641452"><ele>472.4</ele></trkpt>
            <trkpt lat="51.625091" lon="10.641431"><ele>471.9</ele></trkpt>
            <trkpt lat="51.62565" lon="10.641048"><ele>468.9</ele></trkpt>
            <trkpt lat="51.626241" lon="10.640583"><ele>462.2</ele></trkpt>
            <trkpt lat="51.626628" lon="10.640367"><ele>456.8</ele></trkpt>
            <trkpt lat="51.627128" lon="10.639927"><ele>455.8</ele></trkpt>
            <trkpt lat="51.627331" lon="10.639852"><ele>453.9</ele></trkpt>
            <trkpt lat="51.627414" lon="10.639793"><ele>453.2</ele></trkpt>
            <trkpt lat="51.627493" lon="10.639718"><ele>451.8</ele></trkpt>
            <trkpt lat="51.627711" lon="10.639396"><ele>446.3</ele></trkpt>
            <trkpt lat="51.628014" lon="10.638897"><ele>441.9</ele></trkpt>
            <trkpt lat="51.628509" lon="10.637802"><ele>432.1</ele></trkpt>
            <trkpt lat="51.62877" lon="10.637115"><ele>425</ele></trkpt>
            <trkpt lat="51.628726" lon="10.637452"><ele>415</ele></trkpt>
            <trkpt lat="51.628564" lon="10.638095"><ele>415</ele></trkpt>
            <trkpt lat="51.628489" lon="10.638516"><ele>414.1</ele></trkpt>
            <trkpt lat="51.628402" lon="10.638901"><ele>415.5</ele></trkpt>
            <trkpt lat="51.628293" lon="10.639203"><ele>415.9</ele></trkpt>
            <trkpt lat="51.628054" lon="10.639604"><ele>413.9</ele></trkpt>
            <trkpt lat="51.627785" lon="10.640177"><ele>412.3</ele></trkpt>
            <trkpt lat="51.627658" lon="10.640494"><ele>405</ele></trkpt>
            <trkpt lat="51.627715" lon="10.640524"><ele>405</ele></trkpt>
            <trkpt lat="51.627751" lon="10.640502"><ele>405</ele></trkpt>
            <trkpt lat="51.628004" lon="10.640056"><ele>405</ele></trkpt>
            <trkpt lat="51.628158" lon="10.639832"><ele>407.5</ele></trkpt>
            <trkpt lat="51.628434" lon="10.639712"><ele>389</ele></trkpt>
            <trkpt lat="51.628738" lon="10.639269"><ele>387</ele></trkpt>
            <trkpt lat="51.628892" lon="10.638959"><ele>388.1</ele></trkpt>
            <trkpt lat="51.629301" lon="10.637213"><ele>380.7</ele></trkpt>
            <trkpt lat="51.62942" lon="10.636841"><ele>373.2</ele></trkpt>
            <trkpt lat="51.62961" lon="10.636451"><ele>366.2</ele></trkpt>
            <trkpt lat="51.629861" lon="10.63604"><ele>360.1</ele></trkpt>
            <trkpt lat="51.630238" lon="10.635497"><ele>355.8</ele></trkpt>
            <trkpt lat="51.630323" lon="10.635325"><ele>353.7</ele></trkpt>
            <trkpt lat="51.630385" lon="10.635133"><ele>349.7</ele></trkpt>
            <trkpt lat="51.630483" lon="10.634398"><ele>337</ele></trkpt>
            <trkpt lat="51.630797" lon="10.634644"><ele>344.2</ele></trkpt>
            <trkpt lat="51.63105" lon="10.634779"><ele>352</ele></trkpt>
            <trkpt lat="51.631307" lon="10.634828"><ele>352</ele></trkpt>
            <trkpt lat="51.631357" lon="10.634812"><ele>352</ele></trkpt>
            <trkpt lat="51.631384" lon="10.634769"><ele>352</ele></trkpt>
            <trkpt lat="51.631448" lon="10.634666"><ele>352</ele></trkpt>
            <trkpt lat="51.631483" lon="10.634624"><ele>352</ele></trkpt>
            <trkpt lat="51.631627" lon="10.634718"><ele>357.6</ele></trkpt>
            <trkpt lat="51.631762" lon="10.634774"><ele>358.4</ele></trkpt>
            <trkpt lat="51.632003" lon="10.6348"><ele>358.3</ele></trkpt>
            <trkpt lat="51.632419" lon="10.634755"><ele>358.1</ele></trkpt>
            <trkpt lat="51.632557" lon="10.634785"><ele>363</ele></trkpt>
            <trkpt lat="51.633311" lon="10.634954"><ele>361.5</ele></trkpt>
            <trkpt lat="51.633548" lon="10.634974"><ele>361.3</ele></trkpt>
            <trkpt lat="51.633747" lon="10.634922"><ele>361.4</ele></trkpt>
            <trkpt lat="51.634094" lon="10.63474"><ele>361</ele></trkpt>
            <trkpt lat="51.634195" lon="10.634662"><ele>355.4</ele></trkpt>
            <trkpt lat="51.634273" lon="10.634571"><ele>352</ele></trkpt>
            <trkpt lat="51.634146" lon="10.634269"><ele>361.7</ele></trkpt>
            <trkpt lat="51.634154" lon="10.63423"><ele>361.7</ele></trkpt>
            <trkpt lat="51.634396" lon="10.633942"><ele>362.7</ele></trkpt>
            <trkpt lat="51.634629" lon="10.633519"><ele>369</ele></trkpt>
            <trkpt lat="51.634808" lon="10.633257"><ele>388.2</ele></trkpt>
            <trkpt lat="51.634996" lon="10.632723"><ele>387</ele></trkpt>
            <trkpt lat="51.635137" lon="10.632449"><ele>385.6</ele></trkpt>
            <trkpt lat="51.635365" lon="10.631942"><ele>392</ele></trkpt>
            <trkpt lat="51.635469" lon="10.631557"><ele>403.8</ele></trkpt>
            <trkpt lat="51.635656" lon="10.630729"><ele>415</ele></trkpt>
            <trkpt lat="51.635702" lon="10.630558"><ele>415</ele></trkpt>
            <trkpt lat="51.635939" lon="10.629994"><ele>380</ele></trkpt>
            <trkpt lat="51.635987" lon="10.629733"><ele>380</ele></trkpt>
            <trkpt lat="51.636116" lon="10.629376"><ele>380</ele></trkpt>
            <trkpt lat="51.636172" lon="10.628918"><ele>387</ele></trkpt>
            <trkpt lat="51.636167" lon="10.62861"><ele>386.8</ele></trkpt>
            <trkpt lat="51.636359" lon="10.627452"><ele>395</ele></trkpt>
            <trkpt lat="51.636677" lon="10.628318"><ele>394.4</ele></trkpt>
            <trkpt lat="51.636732" lon="10.628835"><ele>394</ele></trkpt>
            <trkpt lat="51.636823" lon="10.629352"><ele>393.8</ele></trkpt>
            <trkpt lat="51.636928" lon="10.629641"><ele>393.8</ele></trkpt>
            <trkpt lat="51.636958" lon="10.629824"><ele>393.7</ele></trkpt>
            <trkpt lat="51.637102" lon="10.63039"><ele>392</ele></trkpt>
            <trkpt lat="51.637164" lon="10.630453"><ele>392</ele></trkpt>
            <trkpt lat="51.637257" lon="10.630574"><ele>400.6</ele></trkpt>
            <trkpt lat="51.637415" lon="10.630695"><ele>403.2</ele></trkpt>
            <trkpt lat="51.637768" lon="10.630852"><ele>404.8</ele></trkpt>
            <trkpt lat="51.63793" lon="10.630968"><ele>412</ele></trkpt>
            <trkpt lat="51.637946" lon="10.631009"><ele>412</ele></trkpt>
            <trkpt lat="51.638071" lon="10.631235"><ele>424.8</ele></trkpt>
            <trkpt lat="51.638113" lon="10.631251"><ele>425.1</ele></trkpt>
            <trkpt lat="51.638051" lon="10.631115"><ele>425.4</ele></trkpt>
            <trkpt lat="51.638068" lon="10.631086"><ele>426.1</ele></trkpt>
            <trkpt lat="51.638058" lon="10.630836"><ele>427.3</ele></trkpt>
            <trkpt lat="51.638082" lon="10.630838"><ele>427.5</ele></trkpt>
            <trkpt lat="51.638137" lon="10.630945"><ele>428.3</ele></trkpt>
            <trkpt lat="51.638212" lon="10.631004"><ele>429.2</ele></trkpt>
            <trkpt lat="51.638197" lon="10.630943"><ele>429.7</ele></trkpt>
            <trkpt lat="51.638202" lon="10.630727"><ele>430.5</ele></trkpt>
            <trkpt lat="51.63818" lon="10.630495"><ele>430.2</ele></trkpt>
            <trkpt lat="51.638208" lon="10.630479"><ele>430</ele></trkpt>
            <trkpt lat="51.638247" lon="10.630644"><ele>429.7</ele></trkpt>
            <trkpt lat="51.638306" lon="10.630746"><ele>429.3</ele></trkpt>
            <trkpt lat="51.638301" lon="10.630607"><ele>429</ele></trkpt>
            <trkpt lat="51.638278" lon="10.630474"><ele>428.7</ele></trkpt>
            <trkpt lat="51.638288" lon="10.630459"><ele>428.5</ele></trkpt>
            <trkpt lat="51.638302" lon="10.630487"><ele>428.3</ele></trkpt>
            <trkpt lat="51.638317" lon="10.630419"><ele>435</ele></trkpt>
            <trkpt lat="51.638373" lon="10.630345"><ele>466</ele></trkpt>
            <trkpt lat="51.638436" lon="10.630503"><ele>465.2</ele></trkpt>
        </trkseg>
    </trk>
</gpx>
