<?xml version="1.0" encoding="UTF-8"?>
<gpx version="1.1" creator="HWN Route Compare (OpenRouteService)" xmlns="http://www.topografix.com/GPX/1/1">
    <metadata>
        <name>OpenRouteService – Tour E4</name>
    </metadata>
    <trk>
        <name>OpenRouteService – Tour E4</name>
        <trkseg>
            <trkpt lat="51.690715" lon="10.595724"><ele>597.4</ele></trkpt>
            <trkpt lat="51.69059" lon="10.595701"><ele>597.3</ele></trkpt>
            <trkpt lat="51.690166" lon="10.595493"><ele>596.9</ele></trkpt>
            <trkpt lat="51.689696" lon="10.595043"><ele>596.5</ele></trkpt>
            <trkpt lat="51.689274" lon="10.594699"><ele>596.7</ele></trkpt>
            <trkpt lat="51.688777" lon="10.594223"><ele>600.7</ele></trkpt>
            <trkpt lat="51.68867" lon="10.594029"><ele>602.4</ele></trkpt>
            <trkpt lat="51.688438" lon="10.593457"><ele>604.4</ele></trkpt>
            <trkpt lat="51.688137" lon="10.592556"><ele>606.5</ele></trkpt>
            <trkpt lat="51.688051" lon="10.592408"><ele>606.5</ele></trkpt>
            <trkpt lat="51.68799" lon="10.592359"><ele>606.9</ele></trkpt>
            <trkpt lat="51.687401" lon="10.592168"><ele>606.9</ele></trkpt>
            <trkpt lat="51.685597" lon="10.591863"><ele>606.2</ele></trkpt>
            <trkpt lat="51.684761" lon="10.591614"><ele>611</ele></trkpt>
            <trkpt lat="51.684686" lon="10.591741"><ele>611</ele></trkpt>
            <trkpt lat="51.684491" lon="10.59223"><ele>611</ele></trkpt>
            <trkpt lat="51.684237" lon="10.592802"><ele>612.3</ele></trkpt>
            <trkpt lat="51.684118" lon="10.592952"><ele>612.3</ele></trkpt>
            <trkpt lat="51.684051" lon="10.592973"><ele>612.4</ele></trkpt>
            <trkpt lat="51.68377" lon="10.592831"><ele>612.8</ele></trkpt>
            <trkpt lat="51.683698" lon="10.592816"><ele>612.9</ele></trkpt>
            <trkpt lat="51.683513" lon="10.592827"><ele>613.2</ele></trkpt>
            <trkpt lat="51.6831" lon="10.592931"><ele>613.7</ele></trkpt>
            <trkpt lat="51.682653" lon="10.593077"><ele>614.9</ele></trkpt>
            <trkpt lat="51.682299" lon="10.593231"><ele>616</ele></trkpt>
            <trkpt lat="51.682051" lon="10.59335"><ele>618.2</ele></trkpt>
            <trkpt lat="51.681945" lon="10.59347"><ele>618.2</ele></trkpt>
            <trkpt lat="51.681728" lon="10.59391"><ele>618.1</ele></trkpt>
            <trkpt lat="51.681602" lon="10.594285"><ele>623</ele></trkpt>
            <trkpt lat="51.681691" lon="10.594429"><ele>622.8</ele></trkpt>
            <trkpt lat="51.681793" lon="10.594731"><ele>623.2</ele></trkpt>
            <trkpt lat="51.682561" lon="10.597493"><ele>617.2</ele></trkpt>
            <trkpt lat="51.682649" lon="10.597953"><ele>616.8</ele></trkpt>
            <trkpt lat="51.682684" lon="10.598266"><ele>616.1</ele></trkpt>
            <trkpt lat="51.682645" lon="10.598927"><ele>616.2</ele></trkpt>
            <trkpt lat="51.682664" lon="10.599244"><ele>615.9</ele></trkpt>
            <trkpt lat="51.682732" lon="10.599546"><ele>616</ele></trkpt>
            <trkpt lat="51.682784" lon="10.599646"><ele>615</ele></trkpt>
            <trkpt lat="51.682676" lon="10.599869"><ele>617.2</ele></trkpt>
            <trkpt lat="51.682624" lon="10.600063"><ele>617.5</ele></trkpt>
            <trkpt lat="51.682585" lon="10.600344"><ele>617.8</ele></trkpt>
            <trkpt lat="51.682577" lon="10.601053"><ele>618.6</ele></trkpt>
            <trkpt lat="51.682518" lon="10.601252"><ele>618.6</ele></trkpt>
            <trkpt lat="51.682228" lon="10.601972"><ele>621</ele></trkpt>
            <trkpt lat="51.682115" lon="10.602369"><ele>622.2</ele></trkpt>
            <trkpt lat="51.68177" lon="10.603263"><ele>625.1</ele></trkpt>
            <trkpt lat="51.681526" lon="10.603963"><ele>625.3</ele></trkpt>
            <trkpt lat="51.681171" lon="10.60464"><ele>623</ele></trkpt>
            <trkpt lat="51.681107" lon="10.604819"><ele>622.1</ele></trkpt>
            <trkpt lat="51.681064" lon="10.60513"><ele>621.9</ele></trkpt>
            <trkpt lat="51.681064" lon="10.605459"><ele>621.7</ele></trkpt>
            <trkpt lat="51.681143" lon="10.606265"><ele>621.7</ele></trkpt>
            <trkpt lat="51.681138" lon="10.606687"><ele>622.1</ele></trkpt>
            <trkpt lat="51.681095" lon="10.60701"><ele>622.2</ele></trkpt>
            <trkpt lat="51.680783" lon="10.607985"><ele>622.7</ele></trkpt>
            <trkpt lat="51.680612" lon="10.608642"><ele>622.7</ele></trkpt>
            <trkpt lat="51.679893" lon="10.6103"><ele>621.6</ele></trkpt>
            <trkpt lat="51.679834" lon="10.610556"><ele>621.3</ele></trkpt>
            <trkpt lat="51.679792" lon="10.610905"><ele>620.7</ele></trkpt>
            <trkpt lat="51.679628" lon="10.613372"><ele>614.9</ele></trkpt>
            <trkpt lat="51.679612" lon="10.614111"><ele>613.8</ele></trkpt>
            <trkpt lat="51.679639" lon="10.61477"><ele>613.5</ele></trkpt>
            <trkpt lat="51.679635" lon="10.615394"><ele>610</ele></trkpt>
            <trkpt lat="51.679432" lon="10.61787"><ele>610</ele></trkpt>
            <trkpt lat="51.679416" lon="10.618536"><ele>609</ele></trkpt>
            <trkpt lat="51.679361" lon="10.61951"><ele>611</ele></trkpt>
            <trkpt lat="51.679347" lon="10.619748"><ele>611</ele></trkpt>
            <trkpt lat="51.679345" lon="10.619792"><ele>611</ele></trkpt>
            <trkpt lat="51.679352" lon="10.620087"><ele>613</ele></trkpt>
            <trkpt lat="51.679365" lon="10.62041"><ele>613</ele></trkpt>
            <trkpt lat="51.67939" lon="10.620637"><ele>613</ele></trkpt>
            <trkpt lat="51.679218" lon="10.62107"><ele>618.3</ele></trkpt>
            <trkpt lat="51.679076" lon="10.621596"><ele>618.4</ele></trkpt>
            <trkpt lat="51.6788" lon="10.622363"><ele>621.9</ele></trkpt>
            <trkpt lat="51.678526" lon="10.623687"><ele>632.6</ele></trkpt>
            <trkpt lat="51.678258" lon="10.624455"><ele>645.2</ele></trkpt>
            <trkpt lat="51.677812" lon="10.626338"><ele>659.7</ele></trkpt>
            <trkpt lat="51.677748" lon="10.626885"><ele>664.3</ele></trkpt>
            <trkpt lat="51.677648" lon="10.627979"><ele>667.8</ele></trkpt>
            <trkpt lat="51.677554" lon="10.628771"><ele>672.5</ele></trkpt>
            <trkpt lat="51.677409" lon="10.629336"><ele>676.5</ele></trkpt>
            <trkpt lat="51.677253" lon="10.630235"><ele>680.4</ele></trkpt>
            <trkpt lat="51.677153" lon="10.630523"><ele>680.4</ele></trkpt>
            <trkpt lat="51.676946" lon="10.630842"><ele>679</ele></trkpt>
            <trkpt lat="51.676889" lon="10.630892"><ele>668.8</ele></trkpt>
            <trkpt lat="51.676634" lon="10.631372"><ele>664.3</ele></trkpt>
            <trkpt lat="51.67641" lon="10.632162"><ele>664.5</ele></trkpt>
            <trkpt lat="51.676019" lon="10.633334"><ele>644.7</ele></trkpt>
            <trkpt lat="51.675649" lon="10.634578"><ele>643.6</ele></trkpt>
            <trkpt lat="51.675608" lon="10.63484"><ele>648</ele></trkpt>
            <trkpt lat="51.67563" lon="10.6351"><ele>649.8</ele></trkpt>
            <trkpt lat="51.675828" lon="10.635663"><ele>651.7</ele></trkpt>
            <trkpt lat="51.675844" lon="10.635875"><ele>653.2</ele></trkpt>
            <trkpt lat="51.675751" lon="10.636162"><ele>651.2</ele></trkpt>
            <trkpt lat="51.675413" lon="10.636608"><ele>651.5</ele></trkpt>
            <trkpt lat="51.675388" lon="10.636822"><ele>659</ele></trkpt>
            <trkpt lat="51.675291" lon="10.636891"><ele>648.1</ele></trkpt>
            <trkpt lat="51.674936" lon="10.637063"><ele>645.3</ele></trkpt>
            <trkpt lat="51.674856" lon="10.637075"><ele>645.2</ele></trkpt>
            <trkpt lat="51.674392" lon="10.637256"><ele>645</ele></trkpt>
            <trkpt lat="51.674058" lon="10.637434"><ele>641.3</ele></trkpt>
            <trkpt lat="51.673911" lon="10.63754"><ele>638.4</ele></trkpt>
            <trkpt lat="51.673802" lon="10.637672"><ele>635.2</ele></trkpt>
            <trkpt lat="51.673768" lon="10.63777"><ele>627</ele></trkpt>
            <trkpt lat="51.673642" lon="10.638101"><ele>622.4</ele></trkpt>
            <trkpt lat="51.673559" lon="10.638232"><ele>622.4</ele></trkpt>
            <trkpt lat="51.673454" lon="10.638325"><ele>622.9</ele></trkpt>
            <trkpt lat="51.673204" lon="10.638857"><ele>619.8</ele></trkpt>
            <trkpt lat="51.673026" lon="10.639153"><ele>619.2</ele></trkpt>
            <trkpt lat="51.67279" lon="10.639486"><ele>618.4</ele></trkpt>
            <trkpt lat="51.672625" lon="10.639622"><ele>617.5</ele></trkpt>
            <trkpt lat="51.672206" lon="10.639905"><ele>607</ele></trkpt>
            <trkpt lat="51.672212" lon="10.64001"><ele>618.7</ele></trkpt>
            <trkpt lat="51.672314" lon="10.64026"><ele>620.2</ele></trkpt>
            <trkpt lat="51.672505" lon="10.640553"><ele>620.9</ele></trkpt>
            <trkpt lat="51.672674" lon="10.640744"><ele>621.4</ele></trkpt>
            <trkpt lat="51.672851" lon="10.640902"><ele>621.1</ele></trkpt>
            <trkpt lat="51.67305" lon="10.641001"><ele>622</ele></trkpt>
            <trkpt lat="51.6733" lon="10.64107"><ele>624.7</ele></trkpt>
            <trkpt lat="51.673419" lon="10.641055"><ele>626.5</ele></trkpt>
            <trkpt lat="51.673528" lon="10.640989"><ele>627</ele></trkpt>
            <trkpt lat="51.673629" lon="10.640863"><ele>627.4</ele></trkpt>
            <trkpt lat="51.673921" lon="10.640419"><ele>627.2</ele></trkpt>
            <trkpt lat="51.674128" lon="10.640177"><ele>626.9</ele></trkpt>
            <trkpt lat="51.674322" lon="10.639988"><ele>626.2</ele></trkpt>
            <trkpt lat="51.674393" lon="10.63997"><ele>625</ele></trkpt>
            <trkpt lat="51.674463" lon="10.639986"><ele>623.8</ele></trkpt>
            <trkpt lat="51.674521" lon="10.640033"><ele>622.3</ele></trkpt>
            <trkpt lat="51.674696" lon="10.640432"><ele>618.2</ele></trkpt>
            <trkpt lat="51.674811" lon="10.640626"><ele>617.5</ele></trkpt>
            <trkpt lat="51.674938" lon="10.640751"><ele>616.8</ele></trkpt>
            <trkpt lat="51.675391" lon="10.641026"><ele>615.1</ele></trkpt>
            <trkpt lat="51.675484" lon="10.641128"><ele>614.5</ele></trkpt>
            <trkpt lat="51.675571" lon="10.641289"><ele>613.4</ele></trkpt>
            <trkpt lat="51.675558" lon="10.641483"><ele>612.7</ele></trkpt>
            <trkpt lat="51.675521" lon="10.641581"><ele>612.6</ele></trkpt>
            <trkpt lat="51.67546" lon="10.641667"><ele>612</ele></trkpt>
            <trkpt lat="51.675425" lon="10.641699"><ele>612.5</ele></trkpt>
            <trkpt lat="51.675179" lon="10.64193"><ele>613</ele></trkpt>
            <trkpt lat="51.674576" lon="10.642422"><ele>612</ele></trkpt>
            <trkpt lat="51.673831" lon="10.643461"><ele>604</ele></trkpt>
            <trkpt lat="51.673444" lon="10.644072"><ele>594</ele></trkpt>
            <trkpt lat="51.673323" lon="10.643945"><ele>592.2</ele></trkpt>
            <trkpt lat="51.673133" lon="10.643809"><ele>592</ele></trkpt>
            <trkpt lat="51.672994" lon="10.643781"><ele>591.9</ele></trkpt>
            <trkpt lat="51.672853" lon="10.643803"><ele>591.7</ele></trkpt>
            <trkpt lat="51.672201" lon="10.644094"><ele>587</ele></trkpt>
            <trkpt lat="51.672069" lon="10.644176"><ele>582.7</ele></trkpt>
            <trkpt lat="51.671515" lon="10.644345"><ele>581.8</ele></trkpt>
            <trkpt lat="51.67121" lon="10.644468"><ele>581.2</ele></trkpt>
            <trkpt lat="51.671068" lon="10.644572"><ele>581.3</ele></trkpt>
            <trkpt lat="51.670923" lon="10.644742"><ele>581.4</ele></trkpt>
            <trkpt lat="51.67064" lon="10.645204"><ele>580.5</ele></trkpt>
            <trkpt lat="51.670244" lon="10.645927"><ele>579.8</ele></trkpt>
            <trkpt lat="51.669914" lon="10.64646"><ele>580</ele></trkpt>
            <trkpt lat="51.669648" lon="10.646848"><ele>568</ele></trkpt>
            <trkpt lat="51.66948" lon="10.647096"><ele>570.3</ele></trkpt>
            <trkpt lat="51.669344" lon="10.647231"><ele>570.6</ele></trkpt>
            <trkpt lat="51.6689" lon="10.647436"><ele>569.2</ele></trkpt>
            <trkpt lat="51.668729" lon="10.647578"><ele>567.6</ele></trkpt>
            <trkpt lat="51.66839" lon="10.647928"><ele>567.7</ele></trkpt>
            <trkpt lat="51.667997" lon="10.648274"><ele>567.3</ele></trkpt>
            <trkpt lat="51.667881" lon="10.648477"><ele>566</ele></trkpt>
            <trkpt lat="51.66774" lon="10.648919"><ele>564</ele></trkpt>
            <trkpt lat="51.667576" lon="10.64942"><ele>550.5</ele></trkpt>
            <trkpt lat="51.66756" lon="10.649571"><ele>549.1</ele></trkpt>
            <trkpt lat="51.667563" lon="10.650368"><ele>543</ele></trkpt>
            <trkpt lat="51.66748" lon="10.650811"><ele>542.2</ele></trkpt>
            <trkpt lat="51.66731" lon="10.651324"><ele>539.9</ele></trkpt>
            <trkpt lat="51.667143" lon="10.651657"><ele>538.5</ele></trkpt>
            <trkpt lat="51.667022" lon="10.651957"><ele>520</ele></trkpt>
            <trkpt lat="51.666968" lon="10.651949"><ele>516.5</ele></trkpt>
            <trkpt lat="51.666879" lon="10.651979"><ele>516.1</ele></trkpt>
            <trkpt lat="51.666679" lon="10.651973"><ele>518.5</ele></trkpt>
            <trkpt lat="51.666302" lon="10.651788"><ele>521.5</ele></trkpt>
            <trkpt lat="51.665986" lon="10.65183"><ele>522.7</ele></trkpt>
            <trkpt lat="51.665883" lon="10.651811"><ele>523.5</ele></trkpt>
            <trkpt lat="51.66547" lon="10.651582"><ele>525.6</ele></trkpt>
            <trkpt lat="51.66529" lon="10.651554"><ele>526.8</ele></trkpt>
            <trkpt lat="51.66514" lon="10.651583"><ele>527</ele></trkpt>
            <trkpt lat="51.664873" lon="10.651703"><ele>527.2</ele></trkpt>
            <trkpt lat="51.664719" lon="10.651799"><ele>526.9</ele></trkpt>
            <trkpt lat="51.664594" lon="10.651889"><ele>527.4</ele></trkpt>
            <trkpt lat="51.663674" lon="10.652773"><ele>522.1</ele></trkpt>
            <trkpt lat="51.66359" lon="10.652883"><ele>520.5</ele></trkpt>
            <trkpt lat="51.663164" lon="10.653659"><ele>515.6</ele></trkpt>
            <trkpt lat="51.663029" lon="10.653969"><ele>514.2</ele></trkpt>
            <trkpt lat="51.662845" lon="10.654513"><ele>513.4</ele></trkpt>
            <trkpt lat="51.662757" lon="10.65468"><ele>513.2</ele></trkpt>
            <trkpt lat="51.662699" lon="10.65472"><ele>508</ele></trkpt>
            <trkpt lat="51.662559" lon="10.65473"><ele>506.9</ele></trkpt>
            <trkpt lat="51.662324" lon="10.654607"><ele>506.7</ele></trkpt>
            <trkpt lat="51.662229" lon="10.654596"><ele>506</ele></trkpt>
            <trkpt lat="51.662158" lon="10.654595"><ele>506</ele></trkpt>
            <trkpt lat="51.662075" lon="10.654553"><ele>506</ele></trkpt>
            <trkpt lat="51.661958" lon="10.654369"><ele>506</ele></trkpt>
            <trkpt lat="51.661912" lon="10.654198"><ele>506</ele></trkpt>
            <trkpt lat="51.661855" lon="10.654056"><ele>500.7</ele></trkpt>
            <trkpt lat="51.661718" lon="10.653848"><ele>500.4</ele></trkpt>
            <trkpt lat="51.661572" lon="10.653669"><ele>499.5</ele></trkpt>
            <trkpt lat="51.661222" lon="10.653155"><ele>497.9</ele></trkpt>
            <trkpt lat="51.660824" lon="10.652753"><ele>496.3</ele></trkpt>
            <trkpt lat="51.660705" lon="10.652601"><ele>495.2</ele></trkpt>
            <trkpt lat="51.660395" lon="10.65198"><ele>490</ele></trkpt>
            <trkpt lat="51.659924" lon="10.651408"><ele>487.1</ele></trkpt>
            <trkpt lat="51.659553" lon="10.650894"><ele>482.6</ele></trkpt>
            <trkpt lat="51.659374" lon="10.650729"><ele>482.6</ele></trkpt>
            <trkpt lat="51.6592" lon="10.650612"><ele>481.2</ele></trkpt>
            <trkpt lat="51.65896" lon="10.650519"><ele>478.9</ele></trkpt>
            <trkpt lat="51.658307" lon="10.650348"><ele>471.8</ele></trkpt>
            <trkpt lat="51.657976" lon="10.650204"><ele>468.8</ele></trkpt>
            <trkpt lat="51.657695" lon="10.650043"><ele>467.4</ele></trkpt>
            <trkpt lat="51.657587" lon="10.649936"><ele>466.5</ele></trkpt>
            <trkpt lat="51.657486" lon="10.649722"><ele>466.9</ele></trkpt>
            <trkpt lat="51.657382" lon="10.649055"><ele>466.8</ele></trkpt>
            <trkpt lat="51.657371" lon="10.648876"><ele>466.6</ele></trkpt>
            <trkpt lat="51.657379" lon="10.648415"><ele>465</ele></trkpt>
            <trkpt lat="51.65725" lon="10.648261"><ele>455</ele></trkpt>
            <trkpt lat="51.657264" lon="10.648264"><ele>455</ele></trkpt>
            <trkpt lat="51.657291" lon="10.648083"><ele>455</ele></trkpt>
            <trkpt lat="51.657264" lon="10.648264"><ele>455</ele></trkpt>
            <trkpt lat="51.65725" lon="10.648261"><ele>455</ele></trkpt>
            <trkpt lat="51.657379" lon="10.648415"><ele>465</ele></trkpt>
            <trkpt lat="51.657371" lon="10.648876"><ele>466.6</ele></trkpt>
            <trkpt lat="51.657382" lon="10.649055"><ele>466.8</ele></trkpt>
            <trkpt lat="51.657486" lon="10.649722"><ele>466.9</ele></trkpt>
            <trkpt lat="51.657587" lon="10.649936"><ele>466.5</ele></trkpt>
            <trkpt lat="51.657695" lon="10.650043"><ele>467.4</ele></trkpt>
            <trkpt lat="51.657976" lon="10.650204"><ele>468.8</ele></trkpt>
            <trkpt lat="51.658307" lon="10.650348"><ele>471.8</ele></trkpt>
            <trkpt lat="51.65896" lon="10.650519"><ele>478.9</ele></trkpt>
            <trkpt lat="51.6592" lon="10.650612"><ele>481.2</ele></trkpt>
            <trkpt lat="51.659374" lon="10.650729"><ele>482.6</ele></trkpt>
            <trkpt lat="51.659553" lon="10.650894"><ele>482.6</ele></trkpt>
            <trkpt lat="51.659924" lon="10.651408"><ele>487.1</ele></trkpt>
            <trkpt lat="51.660395" lon="10.65198"><ele>490</ele></trkpt>
            <trkpt lat="51.660705" lon="10.652601"><ele>495.2</ele></trkpt>
            <trkpt lat="51.660824" lon="10.652753"><ele>496.3</ele></trkpt>
            <trkpt lat="51.661222" lon="10.653155"><ele>497.9</ele></trkpt>
            <trkpt lat="51.661572" lon="10.653669"><ele>499.5</ele></trkpt>
            <trkpt lat="51.661718" lon="10.653848"><ele>500.4</ele></trkpt>
            <trkpt lat="51.661855" lon="10.654056"><ele>500.7</ele></trkpt>
            <trkpt lat="51.661912" lon="10.654198"><ele>506</ele></trkpt>
            <trkpt lat="51.661958" lon="10.654369"><ele>506</ele></trkpt>
            <trkpt lat="51.662075" lon="10.654553"><ele>506</ele></trkpt>
            <trkpt lat="51.662158" lon="10.654595"><ele>506</ele></trkpt>
            <trkpt lat="51.662229" lon="10.654596"><ele>506</ele></trkpt>
            <trkpt lat="51.662248" lon="10.654717"><ele>506.9</ele></trkpt>
            <trkpt lat="51.66232" lon="10.654771"><ele>506.8</ele></trkpt>
            <trkpt lat="51.66237" lon="10.654858"><ele>506.7</ele></trkpt>
            <trkpt lat="51.662386" lon="10.654948"><ele>506.6</ele></trkpt>
            <trkpt lat="51.662357" lon="10.655175"><ele>509</ele></trkpt>
            <trkpt lat="51.662346" lon="10.655295"><ele>509</ele></trkpt>
            <trkpt lat="51.662358" lon="10.655372"><ele>509</ele></trkpt>
            <trkpt lat="51.662591" lon="10.655873"><ele>510.6</ele></trkpt>
            <trkpt lat="51.662871" lon="10.656423"><ele>511.3</ele></trkpt>
            <trkpt lat="51.662872" lon="10.656796"><ele>512.2</ele></trkpt>
            <trkpt lat="51.662807" lon="10.657242"><ele>516</ele></trkpt>
            <trkpt lat="51.662748" lon="10.657582"><ele>520.2</ele></trkpt>
            <trkpt lat="51.662742" lon="10.657902"><ele>520.2</ele></trkpt>
            <trkpt lat="51.662536" lon="10.658382"><ele>520.8</ele></trkpt>
            <trkpt lat="51.662531" lon="10.658521"><ele>524</ele></trkpt>
            <trkpt lat="51.662468" lon="10.65856"><ele>517</ele></trkpt>
            <trkpt lat="51.662381" lon="10.658742"><ele>518.5</ele></trkpt>
            <trkpt lat="51.662332" lon="10.659264"><ele>519.6</ele></trkpt>
            <trkpt lat="51.662287" lon="10.660095"><ele>523.2</ele></trkpt>
            <trkpt lat="51.662302" lon="10.660777"><ele>531.7</ele></trkpt>
            <trkpt lat="51.66248" lon="10.662099"><ele>544.3</ele></trkpt>
            <trkpt lat="51.662508" lon="10.662409"><ele>548.3</ele></trkpt>
            <trkpt lat="51.662362" lon="10.662839"><ele>553.8</ele></trkpt>
            <trkpt lat="51.662416" lon="10.663319"><ele>557.9</ele></trkpt>
            <trkpt lat="51.662733" lon="10.664129"><ele>559.5</ele></trkpt>
            <trkpt lat="51.663006" lon="10.664534"><ele>563</ele></trkpt>
            <trkpt lat="51.663096" lon="10.664621"><ele>572</ele></trkpt>
            <trkpt lat="51.663328" lon="10.665497"><ele>576</ele></trkpt>
            <trkpt lat="51.663496" lon="10.666131"><ele>601</ele></trkpt>
            <trkpt lat="51.663972" lon="10.666188"><ele>606</ele></trkpt>
            <trkpt lat="51.664151" lon="10.666154"><ele>605.2</ele></trkpt>
            <trkpt lat="51.664359" lon="10.666204"><ele>616</ele></trkpt>
            <trkpt lat="51.66435" lon="10.666275"><ele>616</ele></trkpt>
            <trkpt lat="51.664324" lon="10.666522"><ele>616.8</ele></trkpt>
            <trkpt lat="51.664324" lon="10.666656"><ele>616.9</ele></trkpt>
            <trkpt lat="51.664386" lon="10.667431"><ele>618</ele></trkpt>
            <trkpt lat="51.66521" lon="10.667284"><ele>617</ele></trkpt>
            <trkpt lat="51.665405" lon="10.667203"><ele>617</ele></trkpt>
            <trkpt lat="51.665447" lon="10.667275"><ele>615.8</ele></trkpt>
            <trkpt lat="51.665513" lon="10.667336"><ele>615.9</ele></trkpt>
            <trkpt lat="51.66566" lon="10.667396"><ele>616.1</ele></trkpt>
            <trkpt lat="51.665811" lon="10.667369"><ele>616.2</ele></trkpt>
            <trkpt lat="51.666076" lon="10.667257"><ele>612</ele></trkpt>
            <trkpt lat="51.666312" lon="10.667238"><ele>613</ele></trkpt>
            <trkpt lat="51.66652" lon="10.66725"><ele>612.9</ele></trkpt>
            <trkpt lat="51.666809" lon="10.667314"><ele>612.8</ele></trkpt>
            <trkpt lat="51.666931" lon="10.667383"><ele>612.8</ele></trkpt>
            <trkpt lat="51.666973" lon="10.667436"><ele>612.9</ele></trkpt>
            <trkpt lat="51.666998" lon="10.667548"><ele>618</ele></trkpt>
            <trkpt lat="51.667157" lon="10.667485"><ele>616.2</ele></trkpt>
            <trkpt lat="51.667296" lon="10.667491"><ele>615.6</ele></trkpt>
            <trkpt lat="51.667432" lon="10.667545"><ele>616</ele></trkpt>
            <trkpt lat="51.667684" lon="10.667741"><ele>617</ele></trkpt>
            <trkpt lat="51.668075" lon="10.668088"><ele>615.5</ele></trkpt>
            <trkpt lat="51.668466" lon="10.668387"><ele>613</ele></trkpt>
            <trkpt lat="51.66849" lon="10.668481"><ele>613</ele></trkpt>
            <trkpt lat="51.668794" lon="10.668404"><ele>611.7</ele></trkpt>
            <trkpt lat="51.66907" lon="10.668197"><ele>609</ele></trkpt>
            <trkpt lat="51.670156" lon="10.66779"><ele>607</ele></trkpt>
            <trkpt lat="51.670628" lon="10.667877"><ele>606</ele></trkpt>
            <trkpt lat="51.671358" lon="10.668088"><ele>602</ele></trkpt>
            <trkpt lat="51.671703" lon="10.668103"><ele>595</ele></trkpt>
            <trkpt lat="51.672079" lon="10.667954"><ele>593.9</ele></trkpt>
            <trkpt lat="51.672253" lon="10.667816"><ele>593.8</ele></trkpt>
            <trkpt lat="51.672585" lon="10.667612"><ele>591.7</ele></trkpt>
            <trkpt lat="51.673307" lon="10.667446"><ele>584.5</ele></trkpt>
            <trkpt lat="51.673885" lon="10.667358"><ele>582.1</ele></trkpt>
            <trkpt lat="51.674156" lon="10.667286"><ele>581.2</ele></trkpt>
            <trkpt lat="51.674248" lon="10.667217"><ele>580.2</ele></trkpt>
            <trkpt lat="51.674355" lon="10.667098"><ele>580.9</ele></trkpt>
            <trkpt lat="51.674547" lon="10.667149"><ele>577</ele></trkpt>
            <trkpt lat="51.674939" lon="10.667242"><ele>576.7</ele></trkpt>
            <trkpt lat="51.675233" lon="10.667279"><ele>576</ele></trkpt>
            <trkpt lat="51.675462" lon="10.667292"><ele>575.9</ele></trkpt>
            <trkpt lat="51.675677" lon="10.667259"><ele>575.8</ele></trkpt>
            <trkpt lat="51.67602" lon="10.667253"><ele>575.7</ele></trkpt>
            <trkpt lat="51.676503" lon="10.667074"><ele>575.7</ele></trkpt>
            <trkpt lat="51.677003" lon="10.666829"><ele>575</ele></trkpt>
            <trkpt lat="51.677129" lon="10.667145"><ele>575</ele></trkpt>
            <trkpt lat="51.677238" lon="10.667766"><ele>575</ele></trkpt>
            <trkpt lat="51.678606" lon="10.667392"><ele>574.7</ele></trkpt>
            <trkpt lat="51.678824" lon="10.667399"><ele>574.5</ele></trkpt>
            <trkpt lat="51.678962" lon="10.667379"><ele>574.5</ele></trkpt>
            <trkpt lat="51.681016" lon="10.666703"><ele>585.9</ele></trkpt>
            <trkpt lat="51.682148" lon="10.666301"><ele>593.5</ele></trkpt>
            <trkpt lat="51.682795" lon="10.66593"><ele>595.2</ele></trkpt>
            <trkpt lat="51.683189" lon="10.665747"><ele>598</ele></trkpt>
            <trkpt lat="51.683288" lon="10.665767"><ele>592.8</ele></trkpt>
            <trkpt lat="51.683373" lon="10.665838"><ele>592</ele></trkpt>
            <trkpt lat="51.683501" lon="10.666049"><ele>591.1</ele></trkpt>
            <trkpt lat="51.684013" lon="10.667034"><ele>589</ele></trkpt>
            <trkpt lat="51.684309" lon="10.667517"><ele>587.8</ele></trkpt>
            <trkpt lat="51.684511" lon="10.6678"><ele>587.7</ele></trkpt>
            <trkpt lat="51.684692" lon="10.668012"><ele>587.6</ele></trkpt>
            <trkpt lat="51.684793" lon="10.668078"><ele>587.8</ele></trkpt>
            <trkpt lat="51.684889" lon="10.668102"><ele>588</ele></trkpt>
            <trkpt lat="51.685001" lon="10.668099"><ele>588.2</ele></trkpt>
            <trkpt lat="51.68527" lon="10.668001"><ele>589</ele></trkpt>
            <trkpt lat="51.685695" lon="10.667827"><ele>589</ele></trkpt>
            <trkpt lat="51.686736" lon="10.667398"><ele>574.3</ele></trkpt>
            <trkpt lat="51.687343" lon="10.667027"><ele>568</ele></trkpt>
            <trkpt lat="51.688108" lon="10.666553"><ele>560</ele></trkpt>
            <trkpt lat="51.688258" lon="10.666483"><ele>564</ele></trkpt>
            <trkpt lat="51.690166" lon="10.666126"><ele>521</ele></trkpt>
            <trkpt lat="51.690208" lon="10.666118"><ele>521</ele></trkpt>
            <trkpt lat="51.690523" lon="10.666072"><ele>521</ele></trkpt>
            <trkpt lat="51.6918" lon="10.665824"><ele>541.2</ele></trkpt>
            <trkpt lat="51.691858" lon="10.665831"><ele>541.5</ele></trkpt>
            <trkpt lat="51.692804" lon="10.666491"><ele>546.9</ele></trkpt>
            <trkpt lat="51.693549" lon="10.666848"><ele>552</ele></trkpt>
            <trkpt lat="51.693592" lon="10.666786"><ele>552.7</ele></trkpt>
            <trkpt lat="51.693609" lon="10.666781"><ele>552.7</ele></trkpt>
            <trkpt lat="51.69368" lon="10.666762"><ele>552.8</ele></trkpt>
            <trkpt lat="51.693763" lon="10.666682"><ele>552.9</ele></trkpt>
            <trkpt lat="51.693999" lon="10.66652"><ele>554</ele></trkpt>
            <trkpt lat="51.694036" lon="10.666507"><ele>549.6</ele></trkpt>
            <trkpt lat="51.694189" lon="10.666621"><ele>549.7</ele></trkpt>
            <trkpt lat="51.694274" lon="10.666653"><ele>549.8</ele></trkpt>
            <trkpt lat="51.694354" lon="10.666773"><ele>549.8</ele></trkpt>
            <trkpt lat="51.694443" lon="10.666825"><ele>549.8</ele></trkpt>
            <trkpt lat="51.694522" lon="10.666923"><ele>549.8</ele></trkpt>
            <trkpt lat="51.694625" lon="10.66698"><ele>549.9</ele></trkpt>
            <trkpt lat="51.694793" lon="10.667007"><ele>549.9</ele></trkpt>
            <trkpt lat="51.694944" lon="10.666781"><ele>549.9</ele></trkpt>
            <trkpt lat="51.694999" lon="10.666618"><ele>550</ele></trkpt>
            <trkpt lat="51.695048" lon="10.666383"><ele>538</ele></trkpt>
            <trkpt lat="51.695062" lon="10.666196"><ele>541.7</ele></trkpt>
            <trkpt lat="51.694972" lon="10.665081"><ele>543.7</ele></trkpt>
            <trkpt lat="51.695026" lon="10.663887"><ele>544.3</ele></trkpt>
            <trkpt lat="51.69502" lon="10.663522"><ele>544.4</ele></trkpt>
            <trkpt lat="51.694915" lon="10.662811"><ele>543.8</ele></trkpt>
            <trkpt lat="51.694827" lon="10.66237"><ele>543.3</ele></trkpt>
            <trkpt lat="51.694634" lon="10.661657"><ele>544.1</ele></trkpt>
            <trkpt lat="51.694493" lon="10.661003"><ele>544</ele></trkpt>
            <trkpt lat="51.694427" lon="10.660488"><ele>543.1</ele></trkpt>
            <trkpt lat="51.694393" lon="10.659887"><ele>542.1</ele></trkpt>
            <trkpt lat="51.694322" lon="10.65919"><ele>541.9</ele></trkpt>
            <trkpt lat="51.694221" lon="10.658785"><ele>543</ele></trkpt>
            <trkpt lat="51.694224" lon="10.658638"><ele>542.8</ele></trkpt>
            <trkpt lat="51.694263" lon="10.658364"><ele>542.8</ele></trkpt>
            <trkpt lat="51.694278" lon="10.658123"><ele>542.4</ele></trkpt>
            <trkpt lat="51.69426" lon="10.657682"><ele>542.6</ele></trkpt>
            <trkpt lat="51.694269" lon="10.657418"><ele>542.7</ele></trkpt>
            <trkpt lat="51.694319" lon="10.65718"><ele>542.8</ele></trkpt>
            <trkpt lat="51.694389" lon="10.656988"><ele>542.9</ele></trkpt>
            <trkpt lat="51.694493" lon="10.656829"><ele>543</ele></trkpt>
            <trkpt lat="51.694622" lon="10.656715"><ele>543</ele></trkpt>
            <trkpt lat="51.694833" lon="10.656647"><ele>543.4</ele></trkpt>
            <trkpt lat="51.695101" lon="10.656645"><ele>535</ele></trkpt>
            <trkpt lat="51.695193" lon="10.657076"><ele>531.9</ele></trkpt>
            <trkpt lat="51.69548" lon="10.658039"><ele>531.5</ele></trkpt>
            <trkpt lat="51.695581" lon="10.6586"><ele>531.3</ele></trkpt>
            <trkpt lat="51.695683" lon="10.659392"><ele>530</ele></trkpt>
            <trkpt lat="51.695776" lon="10.658705"><ele>521.8</ele></trkpt>
            <trkpt lat="51.695973" lon="10.658103"><ele>521.2</ele></trkpt>
            <trkpt lat="51.696038" lon="10.6578"><ele>516</ele></trkpt>
            <trkpt lat="51.696033" lon="10.656091"><ele>518.4</ele></trkpt>
            <trkpt lat="51.695936" lon="10.654272"><ele>518</ele></trkpt>
            <trkpt lat="51.69593" lon="10.653396"><ele>517.7</ele></trkpt>
            <trkpt lat="51.695533" lon="10.650047"><ele>528.7</ele></trkpt>
            <trkpt lat="51.695356" lon="10.648338"><ele>527.5</ele></trkpt>
            <trkpt lat="51.695299" lon="10.647664"><ele>527.7</ele></trkpt>
            <trkpt lat="51.695278" lon="10.647031"><ele>527.8</ele></trkpt>
            <trkpt lat="51.695316" lon="10.646375"><ele>528.8</ele></trkpt>
            <trkpt lat="51.695554" lon="10.644113"><ele>535.2</ele></trkpt>
            <trkpt lat="51.695683" lon="10.642435"><ele>540.8</ele></trkpt>
            <trkpt lat="51.695715" lon="10.641787"><ele>541.2</ele></trkpt>
            <trkpt lat="51.695717" lon="10.641383"><ele>540</ele></trkpt>
            <trkpt lat="51.695655" lon="10.640807"><ele>537.6</ele></trkpt>
            <trkpt lat="51.695416" lon="10.639626"><ele>533.8</ele></trkpt>
            <trkpt lat="51.695221" lon="10.639066"><ele>533.1</ele></trkpt>
            <trkpt lat="51.695101" lon="10.638634"><ele>532.6</ele></trkpt>
            <trkpt lat="51.694811" lon="10.637416"><ele>534.2</ele></trkpt>
            <trkpt lat="51.694514" lon="10.636508"><ele>535.8</ele></trkpt>
            <trkpt lat="51.694433" lon="10.636216"><ele>536.1</ele></trkpt>
            <trkpt lat="51.694359" lon="10.63579"><ele>536.5</ele></trkpt>
            <trkpt lat="51.694323" lon="10.635376"><ele>537</ele></trkpt>
            <trkpt lat="51.69433" lon="10.634888"><ele>538</ele></trkpt>
            <trkpt lat="51.694385" lon="10.634431"><ele>538</ele></trkpt>
            <trkpt lat="51.694811" lon="10.632098"><ele>545.1</ele></trkpt>
            <trkpt lat="51.694861" lon="10.631762"><ele>544.7</ele></trkpt>
            <trkpt lat="51.695107" lon="10.629186"><ele>535</ele></trkpt>
            <trkpt lat="51.695182" lon="10.62879"><ele>537.4</ele></trkpt>
            <trkpt lat="51.695279" lon="10.628415"><ele>537.6</ele></trkpt>
            <trkpt lat="51.695495" lon="10.628038"><ele>537.9</ele></trkpt>
            <trkpt lat="51.69592" lon="10.627421"><ele>538</ele></trkpt>
            <trkpt lat="51.695973" lon="10.627472"><ele>538</ele></trkpt>
            <trkpt lat="51.696041" lon="10.627462"><ele>538</ele></trkpt>
            <trkpt lat="51.696374" lon="10.62697"><ele>538</ele></trkpt>
            <trkpt lat="51.696476" lon="10.62692"><ele>538</ele></trkpt>
            <trkpt lat="51.696579" lon="10.626572"><ele>537.4</ele></trkpt>
            <trkpt lat="51.696787" lon="10.626125"><ele>536.7</ele></trkpt>
            <trkpt lat="51.697016" lon="10.625737"><ele>537.1</ele></trkpt>
            <trkpt lat="51.696968" lon="10.625617"><ele>537.1</ele></trkpt>
            <trkpt lat="51.697158" lon="10.625568"><ele>537.1</ele></trkpt>
            <trkpt lat="51.697279" lon="10.625417"><ele>537.1</ele></trkpt>
            <trkpt lat="51.697329" lon="10.625403"><ele>537.2</ele></trkpt>
            <trkpt lat="51.697375" lon="10.625436"><ele>537</ele></trkpt>
            <trkpt lat="51.697418" lon="10.625361"><ele>532.7</ele></trkpt>
            <trkpt lat="51.697513" lon="10.625288"><ele>532.1</ele></trkpt>
            <trkpt lat="51.697532" lon="10.625185"><ele>532.5</ele></trkpt>
            <trkpt lat="51.697666" lon="10.625073"><ele>533.1</ele></trkpt>
            <trkpt lat="51.697706" lon="10.624926"><ele>533.6</ele></trkpt>
            <trkpt lat="51.69768" lon="10.624828"><ele>534</ele></trkpt>
            <trkpt lat="51.697621" lon="10.624774"><ele>534</ele></trkpt>
            <trkpt lat="51.697681" lon="10.624655"><ele>538.7</ele></trkpt>
            <trkpt lat="51.698816" lon="10.622964"><ele>549</ele></trkpt>
            <trkpt lat="51.699083" lon="10.62248"><ele>549.7</ele></trkpt>
            <trkpt lat="51.699182" lon="10.622243"><ele>543</ele></trkpt>
            <trkpt lat="51.699433" lon="10.6212"><ele>551</ele></trkpt>
            <trkpt lat="51.699607" lon="10.620483"><ele>558</ele></trkpt>
            <trkpt lat="51.699715" lon="10.620359"><ele>558</ele></trkpt>
            <trkpt lat="51.699896" lon="10.619941"><ele>560.1</ele></trkpt>
            <trkpt lat="51.69995" lon="10.619732"><ele>560.4</ele></trkpt>
            <trkpt lat="51.699964" lon="10.619609"><ele>562</ele></trkpt>
            <trkpt lat="51.699979" lon="10.619383"><ele>562</ele></trkpt>
            <trkpt lat="51.699958" lon="10.619174"><ele>562</ele></trkpt>
            <trkpt lat="51.699938" lon="10.618755"><ele>561.5</ele></trkpt>
            <trkpt lat="51.699957" lon="10.618575"><ele>560.7</ele></trkpt>
            <trkpt lat="51.700075" lon="10.618002"><ele>550</ele></trkpt>
            <trkpt lat="51.700304" lon="10.61702"><ele>555</ele></trkpt>
            <trkpt lat="51.700513" lon="10.616421"><ele>556</ele></trkpt>
            <trkpt lat="51.700551" lon="10.616339"><ele>556</ele></trkpt>
            <trkpt lat="51.700583" lon="10.616274"><ele>556</ele></trkpt>
            <trkpt lat="51.700699" lon="10.616111"><ele>556</ele></trkpt>
            <trkpt lat="51.700726" lon="10.615947"><ele>556</ele></trkpt>
            <trkpt lat="51.70071" lon="10.615724"><ele>556.4</ele></trkpt>
            <trkpt lat="51.700634" lon="10.615279"><ele>556.5</ele></trkpt>
            <trkpt lat="51.700547" lon="10.614889"><ele>556</ele></trkpt>
            <trkpt lat="51.700484" lon="10.614774"><ele>556</ele></trkpt>
            <trkpt lat="51.700405" lon="10.614698"><ele>556</ele></trkpt>
            <trkpt lat="51.700247" lon="10.614623"><ele>556</ele></trkpt>
            <trkpt lat="51.700195" lon="10.614562"><ele>556</ele></trkpt>
            <trkpt lat="51.700072" lon="10.613272"><ele>554.9</ele></trkpt>
            <trkpt lat="51.700031" lon="10.611458"><ele>559.4</ele></trkpt>
            <trkpt lat="51.699993" lon="10.61085"><ele>561.9</ele></trkpt>
            <trkpt lat="51.699857" lon="10.609437"><ele>561.6</ele></trkpt>
            <trkpt lat="51.699783" lon="10.608928"><ele>561.9</ele></trkpt>
            <trkpt lat="51.699692" lon="10.608524"><ele>562.1</ele></trkpt>
            <trkpt lat="51.699688" lon="10.608368"><ele>562.2</ele></trkpt>
            <trkpt lat="51.699716" lon="10.608173"><ele>565</ele></trkpt>
            <trkpt lat="51.699782" lon="10.607853"><ele>565.9</ele></trkpt>
            <trkpt lat="51.699875" lon="10.606625"><ele>565.6</ele></trkpt>
            <trkpt lat="51.699864" lon="10.606032"><ele>565.7</ele></trkpt>
            <trkpt lat="51.699832" lon="10.605709"><ele>565.8</ele></trkpt>
            <trkpt lat="51.699732" lon="10.605038"><ele>566.3</ele></trkpt>
            <trkpt lat="51.699839" lon="10.604069"><ele>567.4</ele></trkpt>
            <trkpt lat="51.699826" lon="10.603062"><ele>567.9</ele></trkpt>
            <trkpt lat="51.699864" lon="10.602587"><ele>568.3</ele></trkpt>
            <trkpt lat="51.699874" lon="10.602083"><ele>570</ele></trkpt>
            <trkpt lat="51.699851" lon="10.601841"><ele>570</ele></trkpt>
            <trkpt lat="51.699813" lon="10.601589"><ele>565.2</ele></trkpt>
            <trkpt lat="51.699734" lon="10.601258"><ele>566.7</ele></trkpt>
            <trkpt lat="51.699471" lon="10.600422"><ele>567.7</ele></trkpt>
            <trkpt lat="51.699306" lon="10.600029"><ele>568.3</ele></trkpt>
            <trkpt lat="51.699134" lon="10.599704"><ele>569.2</ele></trkpt>
            <trkpt lat="51.699083" lon="10.599494"><ele>569</ele></trkpt>
            <trkpt lat="51.699058" lon="10.599245"><ele>569</ele></trkpt>
            <trkpt lat="51.699051" lon="10.598642"><ele>568.9</ele></trkpt>
            <trkpt lat="51.698854" lon="10.59681"><ele>568</ele></trkpt>
            <trkpt lat="51.698825" lon="10.596676"><ele>567.8</ele></trkpt>
            <trkpt lat="51.69855" lon="10.595917"><ele>567.3</ele></trkpt>
            <trkpt lat="51.698474" lon="10.595623"><ele>564</ele></trkpt>
            <trkpt lat="51.69836" lon="10.595486"><ele>567.5</ele></trkpt>
            <trkpt lat="51.698262" lon="10.595418"><ele>568.4</ele></trkpt>
            <trkpt lat="51.698147" lon="10.595376"><ele>571</ele></trkpt>
            <trkpt lat="51.697808" lon="10.595505"><ele>575.8</ele></trkpt>
            <trkpt lat="51.697721" lon="10.595517"><ele>576.3</ele></trkpt>
            <trkpt lat="51.697183" lon="10.595501"><ele>578.2</ele></trkpt>
            <trkpt lat="51.696943" lon="10.595566"><ele>578</ele></trkpt>
            <trkpt lat="51.696252" lon="10.595873"><ele>583</ele></trkpt>
            <trkpt lat="51.695396" lon="10.596022"><ele>588.6</ele></trkpt>
            <trkpt lat="51.6951" lon="10.596106"><ele>588.8</ele></trkpt>
            <trkpt lat="51.694948" lon="10.596123"><ele>589.1</ele></trkpt>
            <trkpt lat="51.69338" lon="10.59591"><ele>597.3</ele></trkpt>
            <trkpt lat="51.692977" lon="10.595812"><ele>597.9</ele></trkpt>
            <trkpt lat="51.692329" lon="10.595778"><ele>598.1</ele></trkpt>
            <trkpt lat="51.691901" lon="10.59586"><ele>598.2</ele></trkpt>
            <trkpt lat="51.691253" lon="10.595743"><ele>598.1</ele></trkpt>
            <trkpt lat="51.690855" lon="10.59575"><ele>597.5</ele></trkpt>
            <trkpt lat="51.690715" lon="10.595724"><ele>597.4</ele></trkpt>
        </trkseg>
    </trk>
</gpx>
