<?xml version="1.0" encoding="UTF-8"?>
<gpx version="1.1" creator="HWN Route Compare (OpenRouteService)" xmlns="http://www.topografix.com/GPX/1/1">
    <metadata>
        <name>OpenRouteService – Tour E5</name>
    </metadata>
    <trk>
        <name>OpenRouteService – Tour E5</name>
        <trkseg>
            <trkpt lat="51.63271" lon="10.791085"><ele>526</ele></trkpt>
            <trkpt lat="51.632745" lon="10.790994"><ele>526</ele></trkpt>
            <trkpt lat="51.632776" lon="10.790912"><ele>526</ele></trkpt>
            <trkpt lat="51.632855" lon="10.790918"><ele>525.8</ele></trkpt>
            <trkpt lat="51.632959" lon="10.79085"><ele>525.8</ele></trkpt>
            <trkpt lat="51.633044" lon="10.790826"><ele>525.7</ele></trkpt>
            <trkpt lat="51.633103" lon="10.790848"><ele>526</ele></trkpt>
            <trkpt lat="51.633164" lon="10.790912"><ele>525.9</ele></trkpt>
            <trkpt lat="51.633262" lon="10.790952"><ele>525.9</ele></trkpt>
            <trkpt lat="51.633368" lon="10.790964"><ele>526</ele></trkpt>
            <trkpt lat="51.633917" lon="10.790302"><ele>525</ele></trkpt>
            <trkpt lat="51.63433" lon="10.791232"><ele>532</ele></trkpt>
            <trkpt lat="51.634417" lon="10.79096"><ele>532</ele></trkpt>
            <trkpt lat="51.634549" lon="10.790655"><ele>530.5</ele></trkpt>
            <trkpt lat="51.635328" lon="10.789604"><ele>532</ele></trkpt>
            <trkpt lat="51.635634" lon="10.789121"><ele>530</ele></trkpt>
            <trkpt lat="51.636045" lon="10.788488"><ele>529.7</ele></trkpt>
            <trkpt lat="51.636178" lon="10.788354"><ele>529.7</ele></trkpt>
            <trkpt lat="51.636534" lon="10.788089"><ele>529.6</ele></trkpt>
            <trkpt lat="51.636622" lon="10.787993"><ele>529</ele></trkpt>
            <trkpt lat="51.636687" lon="10.787657"><ele>530.3</ele></trkpt>
            <trkpt lat="51.636729" lon="10.787527"><ele>530.3</ele></trkpt>
            <trkpt lat="51.637225" lon="10.786398"><ele>530.6</ele></trkpt>
            <trkpt lat="51.637303" lon="10.786187"><ele>533</ele></trkpt>
            <trkpt lat="51.637153" lon="10.785057"><ele>538.8</ele></trkpt>
            <trkpt lat="51.636916" lon="10.781999"><ele>549</ele></trkpt>
            <trkpt lat="51.636678" lon="10.777726"><ele>567</ele></trkpt>
            <trkpt lat="51.636652" lon="10.777496"><ele>571.4</ele></trkpt>
            <trkpt lat="51.636514" lon="10.776687"><ele>572.3</ele></trkpt>
            <trkpt lat="51.636478" lon="10.775311"><ele>573.2</ele></trkpt>
            <trkpt lat="51.636525" lon="10.774661"><ele>573.2</ele></trkpt>
            <trkpt lat="51.636608" lon="10.773945"><ele>571.9</ele></trkpt>
            <trkpt lat="51.636635" lon="10.773165"><ele>571.6</ele></trkpt>
            <trkpt lat="51.636635" lon="10.77242"><ele>569.8</ele></trkpt>
            <trkpt lat="51.636612" lon="10.772206"><ele>568</ele></trkpt>
            <trkpt lat="51.636906" lon="10.771017"><ele>573.7</ele></trkpt>
            <trkpt lat="51.637255" lon="10.769454"><ele>576.2</ele></trkpt>
            <trkpt lat="51.63789" lon="10.768027"><ele>576.9</ele></trkpt>
            <trkpt lat="51.637917" lon="10.767883"><ele>576.9</ele></trkpt>
            <trkpt lat="51.637923" lon="10.767725"><ele>576.9</ele></trkpt>
            <trkpt lat="51.637851" lon="10.767318"><ele>577.1</ele></trkpt>
            <trkpt lat="51.637869" lon="10.767207"><ele>577.1</ele></trkpt>
            <trkpt lat="51.638002" lon="10.767028"><ele>577.2</ele></trkpt>
            <trkpt lat="51.638362" lon="10.766753"><ele>577.1</ele></trkpt>
            <trkpt lat="51.638641" lon="10.766479"><ele>577</ele></trkpt>
            <trkpt lat="51.638932" lon="10.766086"><ele>576.9</ele></trkpt>
            <trkpt lat="51.639143" lon="10.765834"><ele>576.5</ele></trkpt>
            <trkpt lat="51.639593" lon="10.765192"><ele>575.5</ele></trkpt>
            <trkpt lat="51.639861" lon="10.764718"><ele>575</ele></trkpt>
            <trkpt lat="51.640084" lon="10.763425"><ele>580.5</ele></trkpt>
            <trkpt lat="51.640129" lon="10.762967"><ele>580.9</ele></trkpt>
            <trkpt lat="51.640137" lon="10.762388"><ele>582.5</ele></trkpt>
            <trkpt lat="51.64009" lon="10.76189"><ele>583.6</ele></trkpt>
            <trkpt lat="51.639926" lon="10.760966"><ele>585.4</ele></trkpt>
            <trkpt lat="51.63989" lon="10.760073"><ele>587</ele></trkpt>
            <trkpt lat="51.639853" lon="10.759804"><ele>587.1</ele></trkpt>
            <trkpt lat="51.639753" lon="10.759434"><ele>587.7</ele></trkpt>
            <trkpt lat="51.639696" lon="10.75929"><ele>588.2</ele></trkpt>
            <trkpt lat="51.639624" lon="10.759138"><ele>588.6</ele></trkpt>
            <trkpt lat="51.639438" lon="10.758913"><ele>590</ele></trkpt>
            <trkpt lat="51.639898" lon="10.758557"><ele>590</ele></trkpt>
            <trkpt lat="51.639997" lon="10.758445"><ele>589.1</ele></trkpt>
            <trkpt lat="51.640114" lon="10.758264"><ele>588</ele></trkpt>
            <trkpt lat="51.640304" lon="10.757948"><ele>583.3</ele></trkpt>
            <trkpt lat="51.641023" lon="10.756988"><ele>583.2</ele></trkpt>
            <trkpt lat="51.641034" lon="10.756972"><ele>583.2</ele></trkpt>
            <trkpt lat="51.641347" lon="10.756623"><ele>573</ele></trkpt>
            <trkpt lat="51.641276" lon="10.756476"><ele>574.3</ele></trkpt>
            <trkpt lat="51.641183" lon="10.756348"><ele>574.4</ele></trkpt>
            <trkpt lat="51.64097" lon="10.756171"><ele>574.8</ele></trkpt>
            <trkpt lat="51.64089" lon="10.756034"><ele>575</ele></trkpt>
            <trkpt lat="51.64066" lon="10.755502"><ele>578</ele></trkpt>
            <trkpt lat="51.640624" lon="10.755261"><ele>575.9</ele></trkpt>
            <trkpt lat="51.640643" lon="10.754963"><ele>575.4</ele></trkpt>
            <trkpt lat="51.640687" lon="10.754741"><ele>575.2</ele></trkpt>
            <trkpt lat="51.640941" lon="10.753901"><ele>575</ele></trkpt>
            <trkpt lat="51.640962" lon="10.753732"><ele>575.2</ele></trkpt>
            <trkpt lat="51.640932" lon="10.751808"><ele>575.5</ele></trkpt>
            <trkpt lat="51.640911" lon="10.751296"><ele>576</ele></trkpt>
            <trkpt lat="51.640841" lon="10.750599"><ele>576.1</ele></trkpt>
            <trkpt lat="51.640721" lon="10.749679"><ele>576.2</ele></trkpt>
            <trkpt lat="51.64071" lon="10.749342"><ele>577</ele></trkpt>
            <trkpt lat="51.640881" lon="10.746653"><ele>589.8</ele></trkpt>
            <trkpt lat="51.640963" lon="10.745848"><ele>590.8</ele></trkpt>
            <trkpt lat="51.641095" lon="10.745109"><ele>596</ele></trkpt>
            <trkpt lat="51.641217" lon="10.744563"><ele>601</ele></trkpt>
            <trkpt lat="51.642418" lon="10.74466"><ele>596.2</ele></trkpt>
            <trkpt lat="51.642591" lon="10.744642"><ele>593</ele></trkpt>
            <trkpt lat="51.642676" lon="10.744691"><ele>595.2</ele></trkpt>
            <trkpt lat="51.643023" lon="10.744656"><ele>596.5</ele></trkpt>
            <trkpt lat="51.643274" lon="10.744587"><ele>597.5</ele></trkpt>
            <trkpt lat="51.64357" lon="10.74457"><ele>598.4</ele></trkpt>
            <trkpt lat="51.643765" lon="10.744366"><ele>599.1</ele></trkpt>
            <trkpt lat="51.643944" lon="10.744281"><ele>599.9</ele></trkpt>
            <trkpt lat="51.644087" lon="10.744262"><ele>600.7</ele></trkpt>
            <trkpt lat="51.644532" lon="10.744392"><ele>601.1</ele></trkpt>
            <trkpt lat="51.644984" lon="10.744699"><ele>600.9</ele></trkpt>
            <trkpt lat="51.646374" lon="10.74555"><ele>601</ele></trkpt>
            <trkpt lat="51.646588" lon="10.74463"><ele>598.7</ele></trkpt>
            <trkpt lat="51.646896" lon="10.743996"><ele>597.8</ele></trkpt>
            <trkpt lat="51.647042" lon="10.743825"><ele>594</ele></trkpt>
            <trkpt lat="51.647126" lon="10.743852"><ele>591.3</ele></trkpt>
            <trkpt lat="51.647238" lon="10.743831"><ele>589.9</ele></trkpt>
            <trkpt lat="51.647371" lon="10.74373"><ele>588.7</ele></trkpt>
            <trkpt lat="51.648307" lon="10.742709"><ele>586.9</ele></trkpt>
            <trkpt lat="51.648413" lon="10.742613"><ele>587</ele></trkpt>
            <trkpt lat="51.648504" lon="10.742599"><ele>587.1</ele></trkpt>
            <trkpt lat="51.6486" lon="10.742674"><ele>587</ele></trkpt>
            <trkpt lat="51.649032" lon="10.743252"><ele>587.9</ele></trkpt>
            <trkpt lat="51.649188" lon="10.743517"><ele>588.9</ele></trkpt>
            <trkpt lat="51.649309" lon="10.743871"><ele>589.3</ele></trkpt>
            <trkpt lat="51.649514" lon="10.744577"><ele>587.7</ele></trkpt>
            <trkpt lat="51.649647" lon="10.744868"><ele>586.3</ele></trkpt>
            <trkpt lat="51.649854" lon="10.745218"><ele>585.9</ele></trkpt>
            <trkpt lat="51.650128" lon="10.745599"><ele>583.7</ele></trkpt>
            <trkpt lat="51.650295" lon="10.745899"><ele>582.8</ele></trkpt>
            <trkpt lat="51.650377" lon="10.746099"><ele>582.3</ele></trkpt>
            <trkpt lat="51.650408" lon="10.746283"><ele>581.4</ele></trkpt>
            <trkpt lat="51.650402" lon="10.746838"><ele>581</ele></trkpt>
            <trkpt lat="51.650441" lon="10.746982"><ele>580.6</ele></trkpt>
            <trkpt lat="51.650507" lon="10.747091"><ele>580.2</ele></trkpt>
            <trkpt lat="51.650668" lon="10.747255"><ele>578.2</ele></trkpt>
            <trkpt lat="51.650866" lon="10.747406"><ele>575.9</ele></trkpt>
            <trkpt lat="51.651058" lon="10.747476"><ele>574.8</ele></trkpt>
            <trkpt lat="51.651209" lon="10.747444"><ele>574.5</ele></trkpt>
            <trkpt lat="51.651404" lon="10.747262"><ele>574.1</ele></trkpt>
            <trkpt lat="51.651609" lon="10.747003"><ele>573.6</ele></trkpt>
            <trkpt lat="51.651871" lon="10.746608"><ele>571.1</ele></trkpt>
            <trkpt lat="51.651954" lon="10.746553"><ele>571.3</ele></trkpt>
            <trkpt lat="51.652055" lon="10.74655"><ele>571.9</ele></trkpt>
            <trkpt lat="51.652135" lon="10.7466"><ele>572.2</ele></trkpt>
            <trkpt lat="51.652316" lon="10.746819"><ele>573.4</ele></trkpt>
            <trkpt lat="51.652425" lon="10.747024"><ele>573.5</ele></trkpt>
            <trkpt lat="51.652502" lon="10.747236"><ele>573.7</ele></trkpt>
            <trkpt lat="51.652702" lon="10.747894"><ele>574.6</ele></trkpt>
            <trkpt lat="51.652778" lon="10.74826"><ele>575.1</ele></trkpt>
            <trkpt lat="51.652808" lon="10.748722"><ele>575.8</ele></trkpt>
            <trkpt lat="51.652818" lon="10.74887"><ele>576.6</ele></trkpt>
            <trkpt lat="51.653159" lon="10.751433"><ele>574.2</ele></trkpt>
            <trkpt lat="51.65323" lon="10.752254"><ele>572.5</ele></trkpt>
            <trkpt lat="51.653268" lon="10.752579"><ele>572.4</ele></trkpt>
            <trkpt lat="51.653304" lon="10.752723"><ele>570</ele></trkpt>
            <trkpt lat="51.653357" lon="10.752853"><ele>562.5</ele></trkpt>
            <trkpt lat="51.653446" lon="10.753002"><ele>563.1</ele></trkpt>
            <trkpt lat="51.653593" lon="10.753175"><ele>560</ele></trkpt>
            <trkpt lat="51.653866" lon="10.753445"><ele>556.8</ele></trkpt>
            <trkpt lat="51.654193" lon="10.75385"><ele>551</ele></trkpt>
            <trkpt lat="51.654467" lon="10.754251"><ele>551.3</ele></trkpt>
            <trkpt lat="51.654819" lon="10.754862"><ele>551.1</ele></trkpt>
            <trkpt lat="51.655836" lon="10.756357"><ele>543</ele></trkpt>
            <trkpt lat="51.655931" lon="10.756248"><ele>543</ele></trkpt>
            <trkpt lat="51.65793" lon="10.756056"><ele>535.5</ele></trkpt>
            <trkpt lat="51.65815" lon="10.756056"><ele>533.7</ele></trkpt>
            <trkpt lat="51.658505" lon="10.756157"><ele>532.1</ele></trkpt>
            <trkpt lat="51.658861" lon="10.75635"><ele>530.5</ele></trkpt>
            <trkpt lat="51.658931" lon="10.756353"><ele>530</ele></trkpt>
            <trkpt lat="51.659001" lon="10.756329"><ele>529.4</ele></trkpt>
            <trkpt lat="51.659276" lon="10.756123"><ele>528.2</ele></trkpt>
            <trkpt lat="51.659419" lon="10.756077"><ele>527.9</ele></trkpt>
            <trkpt lat="51.659744" lon="10.756067"><ele>525.9</ele></trkpt>
            <trkpt lat="51.66" lon="10.756095"><ele>522.6</ele></trkpt>
            <trkpt lat="51.660854" lon="10.756449"><ele>515.7</ele></trkpt>
            <trkpt lat="51.661152" lon="10.756601"><ele>514.6</ele></trkpt>
            <trkpt lat="51.661305" lon="10.756632"><ele>510</ele></trkpt>
            <trkpt lat="51.661349" lon="10.756633"><ele>510</ele></trkpt>
            <trkpt lat="51.661528" lon="10.75664"><ele>510</ele></trkpt>
            <trkpt lat="51.662623" lon="10.756613"><ele>491</ele></trkpt>
            <trkpt lat="51.662817" lon="10.756624"><ele>492.7</ele></trkpt>
            <trkpt lat="51.662998" lon="10.75676"><ele>496</ele></trkpt>
            <trkpt lat="51.663158" lon="10.756269"><ele>491</ele></trkpt>
            <trkpt lat="51.66321" lon="10.756087"><ele>491</ele></trkpt>
            <trkpt lat="51.663266" lon="10.75592"><ele>488.9</ele></trkpt>
            <trkpt lat="51.663358" lon="10.755737"><ele>488.4</ele></trkpt>
            <trkpt lat="51.663515" lon="10.755609"><ele>488</ele></trkpt>
            <trkpt lat="51.663629" lon="10.755583"><ele>486</ele></trkpt>
            <trkpt lat="51.663758" lon="10.755609"><ele>487.3</ele></trkpt>
            <trkpt lat="51.66409" lon="10.755776"><ele>487</ele></trkpt>
            <trkpt lat="51.664262" lon="10.75596"><ele>487.4</ele></trkpt>
            <trkpt lat="51.664382" lon="10.756224"><ele>487.7</ele></trkpt>
            <trkpt lat="51.664451" lon="10.756452"><ele>490</ele></trkpt>
            <trkpt lat="51.664509" lon="10.756641"><ele>488.6</ele></trkpt>
            <trkpt lat="51.664958" lon="10.757565"><ele>486.9</ele></trkpt>
            <trkpt lat="51.665137" lon="10.75798"><ele>487.3</ele></trkpt>
            <trkpt lat="51.665481" lon="10.758548"><ele>485.8</ele></trkpt>
            <trkpt lat="51.665645" lon="10.758871"><ele>485.5</ele></trkpt>
            <trkpt lat="51.666112" lon="10.760176"><ele>486</ele></trkpt>
            <trkpt lat="51.666227" lon="10.760405"><ele>486.2</ele></trkpt>
            <trkpt lat="51.667028" lon="10.761468"><ele>485.7</ele></trkpt>
            <trkpt lat="51.667285" lon="10.761744"><ele>485.4</ele></trkpt>
            <trkpt lat="51.667496" lon="10.761883"><ele>485</ele></trkpt>
            <trkpt lat="51.667851" lon="10.762018"><ele>485.2</ele></trkpt>
            <trkpt lat="51.668293" lon="10.762318"><ele>485.2</ele></trkpt>
            <trkpt lat="51.668377" lon="10.762321"><ele>486</ele></trkpt>
            <trkpt lat="51.66839" lon="10.76257"><ele>481.5</ele></trkpt>
            <trkpt lat="51.66861" lon="10.762996"><ele>481.2</ele></trkpt>
            <trkpt lat="51.66889" lon="10.763457"><ele>480.6</ele></trkpt>
            <trkpt lat="51.669087" lon="10.763844"><ele>480</ele></trkpt>
            <trkpt lat="51.669242" lon="10.763905"><ele>480</ele></trkpt>
            <trkpt lat="51.669451" lon="10.764038"><ele>480</ele></trkpt>
            <trkpt lat="51.669555" lon="10.764195"><ele>480</ele></trkpt>
            <trkpt lat="51.669644" lon="10.763702"><ele>483</ele></trkpt>
            <trkpt lat="51.669597" lon="10.763235"><ele>484</ele></trkpt>
            <trkpt lat="51.669655" lon="10.762643"><ele>486.4</ele></trkpt>
            <trkpt lat="51.669732" lon="10.762069"><ele>490.2</ele></trkpt>
            <trkpt lat="51.669855" lon="10.761705"><ele>491.8</ele></trkpt>
            <trkpt lat="51.67016" lon="10.76099"><ele>496</ele></trkpt>
            <trkpt lat="51.670513" lon="10.760486"><ele>504</ele></trkpt>
            <trkpt lat="51.670493" lon="10.760357"><ele>506.7</ele></trkpt>
            <trkpt lat="51.670496" lon="10.760148"><ele>507</ele></trkpt>
            <trkpt lat="51.670679" lon="10.75929"><ele>508.5</ele></trkpt>
            <trkpt lat="51.670742" lon="10.759134"><ele>509.3</ele></trkpt>
            <trkpt lat="51.670845" lon="10.758963"><ele>510.3</ele></trkpt>
            <trkpt lat="51.670968" lon="10.758807"><ele>521</ele></trkpt>
            <trkpt lat="51.672012" lon="10.757669"><ele>523.6</ele></trkpt>
            <trkpt lat="51.672309" lon="10.757311"><ele>524</ele></trkpt>
            <trkpt lat="51.67304" lon="10.75654"><ele>525.7</ele></trkpt>
            <trkpt lat="51.673513" lon="10.755968"><ele>525.4</ele></trkpt>
            <trkpt lat="51.673717" lon="10.75577"><ele>525.5</ele></trkpt>
            <trkpt lat="51.673971" lon="10.755641"><ele>525</ele></trkpt>
            <trkpt lat="51.674205" lon="10.755191"><ele>522.8</ele></trkpt>
            <trkpt lat="51.674542" lon="10.754675"><ele>522.7</ele></trkpt>
            <trkpt lat="51.674744" lon="10.754539"><ele>522.6</ele></trkpt>
            <trkpt lat="51.674908" lon="10.754521"><ele>522.5</ele></trkpt>
            <trkpt lat="51.675064" lon="10.75455"><ele>524</ele></trkpt>
            <trkpt lat="51.675397" lon="10.754888"><ele>523.8</ele></trkpt>
            <trkpt lat="51.675785" lon="10.75534"><ele>523.5</ele></trkpt>
            <trkpt lat="51.675956" lon="10.755597"><ele>523.6</ele></trkpt>
            <trkpt lat="51.675983" lon="10.755667"><ele>524</ele></trkpt>
            <trkpt lat="51.676228" lon="10.755477"><ele>524</ele></trkpt>
            <trkpt lat="51.676595" lon="10.755306"><ele>524.2</ele></trkpt>
            <trkpt lat="51.676228" lon="10.755477"><ele>524</ele></trkpt>
            <trkpt lat="51.675983" lon="10.755667"><ele>524</ele></trkpt>
            <trkpt lat="51.675956" lon="10.755597"><ele>523.6</ele></trkpt>
            <trkpt lat="51.675785" lon="10.75534"><ele>523.5</ele></trkpt>
            <trkpt lat="51.675397" lon="10.754888"><ele>523.8</ele></trkpt>
            <trkpt lat="51.675064" lon="10.75455"><ele>524</ele></trkpt>
            <trkpt lat="51.674908" lon="10.754521"><ele>522.5</ele></trkpt>
            <trkpt lat="51.674744" lon="10.754539"><ele>522.6</ele></trkpt>
            <trkpt lat="51.674542" lon="10.754675"><ele>522.7</ele></trkpt>
            <trkpt lat="51.674205" lon="10.755191"><ele>522.8</ele></trkpt>
            <trkpt lat="51.673971" lon="10.755641"><ele>525</ele></trkpt>
            <trkpt lat="51.673717" lon="10.75577"><ele>525.5</ele></trkpt>
            <trkpt lat="51.673513" lon="10.755968"><ele>525.4</ele></trkpt>
            <trkpt lat="51.67304" lon="10.75654"><ele>525.7</ele></trkpt>
            <trkpt lat="51.672309" lon="10.757311"><ele>524</ele></trkpt>
            <trkpt lat="51.672012" lon="10.757669"><ele>523.6</ele></trkpt>
            <trkpt lat="51.670968" lon="10.758807"><ele>521</ele></trkpt>
            <trkpt lat="51.670845" lon="10.758963"><ele>510.3</ele></trkpt>
            <trkpt lat="51.670742" lon="10.759134"><ele>509.3</ele></trkpt>
            <trkpt lat="51.670679" lon="10.75929"><ele>508.5</ele></trkpt>
            <trkpt lat="51.670496" lon="10.760148"><ele>507</ele></trkpt>
            <trkpt lat="51.670493" lon="10.760357"><ele>506.7</ele></trkpt>
            <trkpt lat="51.670513" lon="10.760486"><ele>504</ele></trkpt>
            <trkpt lat="51.67016" lon="10.76099"><ele>496</ele></trkpt>
            <trkpt lat="51.669855" lon="10.761705"><ele>491.8</ele></trkpt>
            <trkpt lat="51.669732" lon="10.762069"><ele>490.2</ele></trkpt>
            <trkpt lat="51.669655" lon="10.762643"><ele>486.4</ele></trkpt>
            <trkpt lat="51.669597" lon="10.763235"><ele>484</ele></trkpt>
            <trkpt lat="51.669644" lon="10.763702"><ele>483</ele></trkpt>
            <trkpt lat="51.669555" lon="10.764195"><ele>480</ele></trkpt>
            <trkpt lat="51.669451" lon="10.764038"><ele>480</ele></trkpt>
            <trkpt lat="51.669242" lon="10.763905"><ele>480</ele></trkpt>
            <trkpt lat="51.669087" lon="10.763844"><ele>480</ele></trkpt>
            <trkpt lat="51.66889" lon="10.763457"><ele>480.6</ele></trkpt>
            <trkpt lat="51.66861" lon="10.762996"><ele>481.2</ele></trkpt>
            <trkpt lat="51.66839" lon="10.76257"><ele>481.5</ele></trkpt>
            <trkpt lat="51.668377" lon="10.762321"><ele>486</ele></trkpt>
            <trkpt lat="51.668293" lon="10.762318"><ele>485.2</ele></trkpt>
            <trkpt lat="51.667851" lon="10.762018"><ele>485.2</ele></trkpt>
            <trkpt lat="51.667496" lon="10.761883"><ele>485</ele></trkpt>
            <trkpt lat="51.667285" lon="10.761744"><ele>485.4</ele></trkpt>
            <trkpt lat="51.667028" lon="10.761468"><ele>485.7</ele></trkpt>
            <trkpt lat="51.666227" lon="10.760405"><ele>486.2</ele></trkpt>
            <trkpt lat="51.666112" lon="10.760176"><ele>486</ele></trkpt>
            <trkpt lat="51.665645" lon="10.758871"><ele>485.5</ele></trkpt>
            <trkpt lat="51.665481" lon="10.758548"><ele>485.8</ele></trkpt>
            <trkpt lat="51.665137" lon="10.75798"><ele>487.3</ele></trkpt>
            <trkpt lat="51.664958" lon="10.757565"><ele>486.9</ele></trkpt>
            <trkpt lat="51.664509" lon="10.756641"><ele>488.6</ele></trkpt>
            <trkpt lat="51.664451" lon="10.756452"><ele>490</ele></trkpt>
            <trkpt lat="51.664382" lon="10.756224"><ele>487.7</ele></trkpt>
            <trkpt lat="51.664262" lon="10.75596"><ele>487.4</ele></trkpt>
            <trkpt lat="51.66409" lon="10.755776"><ele>487</ele></trkpt>
            <trkpt lat="51.663758" lon="10.755609"><ele>487.3</ele></trkpt>
            <trkpt lat="51.663629" lon="10.755583"><ele>486</ele></trkpt>
            <trkpt lat="51.663515" lon="10.755609"><ele>488</ele></trkpt>
            <trkpt lat="51.663358" lon="10.755737"><ele>488.4</ele></trkpt>
            <trkpt lat="51.663266" lon="10.75592"><ele>488.9</ele></trkpt>
            <trkpt lat="51.66321" lon="10.756087"><ele>491</ele></trkpt>
            <trkpt lat="51.663158" lon="10.756269"><ele>491</ele></trkpt>
            <trkpt lat="51.662998" lon="10.75676"><ele>496</ele></trkpt>
            <trkpt lat="51.662934" lon="10.757049"><ele>497.2</ele></trkpt>
            <trkpt lat="51.662819" lon="10.757338"><ele>497.6</ele></trkpt>
            <trkpt lat="51.662567" lon="10.757851"><ele>497.8</ele></trkpt>
            <trkpt lat="51.662428" lon="10.758199"><ele>498.2</ele></trkpt>
            <trkpt lat="51.662321" lon="10.758706"><ele>498.4</ele></trkpt>
            <trkpt lat="51.662242" lon="10.759266"><ele>499.9</ele></trkpt>
            <trkpt lat="51.66223" lon="10.760165"><ele>501.4</ele></trkpt>
            <trkpt lat="51.662158" lon="10.761021"><ele>503.7</ele></trkpt>
            <trkpt lat="51.66211" lon="10.761355"><ele>503.9</ele></trkpt>
            <trkpt lat="51.662026" lon="10.76174"><ele>504.7</ele></trkpt>
            <trkpt lat="51.661816" lon="10.762555"><ele>505.3</ele></trkpt>
            <trkpt lat="51.661763" lon="10.762867"><ele>507</ele></trkpt>
            <trkpt lat="51.661668" lon="10.763716"><ele>512.9</ele></trkpt>
            <trkpt lat="51.661683" lon="10.764064"><ele>515.8</ele></trkpt>
            <trkpt lat="51.661741" lon="10.764381"><ele>519.2</ele></trkpt>
            <trkpt lat="51.662125" lon="10.765674"><ele>522</ele></trkpt>
            <trkpt lat="51.662154" lon="10.765825"><ele>522.6</ele></trkpt>
            <trkpt lat="51.662154" lon="10.766058"><ele>522.8</ele></trkpt>
            <trkpt lat="51.662133" lon="10.766146"><ele>523.1</ele></trkpt>
            <trkpt lat="51.662098" lon="10.766211"><ele>523.1</ele></trkpt>
            <trkpt lat="51.661977" lon="10.766313"><ele>523.2</ele></trkpt>
            <trkpt lat="51.661884" lon="10.766362"><ele>523.2</ele></trkpt>
            <trkpt lat="51.661545" lon="10.766431"><ele>523.2</ele></trkpt>
            <trkpt lat="51.661316" lon="10.766546"><ele>523.3</ele></trkpt>
            <trkpt lat="51.661239" lon="10.766615"><ele>523.3</ele></trkpt>
            <trkpt lat="51.661155" lon="10.766756"><ele>523.2</ele></trkpt>
            <trkpt lat="51.6611" lon="10.766869"><ele>523.1</ele></trkpt>
            <trkpt lat="51.661066" lon="10.767006"><ele>525</ele></trkpt>
            <trkpt lat="51.661008" lon="10.767191"><ele>525</ele></trkpt>
            <trkpt lat="51.660997" lon="10.767229"><ele>525</ele></trkpt>
            <trkpt lat="51.661004" lon="10.767327"><ele>525</ele></trkpt>
            <trkpt lat="51.661022" lon="10.767676"><ele>524.2</ele></trkpt>
            <trkpt lat="51.661018" lon="10.767938"><ele>523.6</ele></trkpt>
            <trkpt lat="51.660901" lon="10.768888"><ele>522.1</ele></trkpt>
            <trkpt lat="51.6609" lon="10.769069"><ele>522</ele></trkpt>
            <trkpt lat="51.66098" lon="10.769484"><ele>521.8</ele></trkpt>
            <trkpt lat="51.66106" lon="10.769755"><ele>521.5</ele></trkpt>
            <trkpt lat="51.661101" lon="10.769956"><ele>521.3</ele></trkpt>
            <trkpt lat="51.661111" lon="10.770089"><ele>521.3</ele></trkpt>
            <trkpt lat="51.661094" lon="10.770218"><ele>521.3</ele></trkpt>
            <trkpt lat="51.66106" lon="10.770337"><ele>521.4</ele></trkpt>
            <trkpt lat="51.660953" lon="10.770528"><ele>519</ele></trkpt>
            <trkpt lat="51.66076" lon="10.770821"><ele>509.9</ele></trkpt>
            <trkpt lat="51.660662" lon="10.771044"><ele>509.7</ele></trkpt>
            <trkpt lat="51.660596" lon="10.771286"><ele>509.7</ele></trkpt>
            <trkpt lat="51.660425" lon="10.772268"><ele>510</ele></trkpt>
            <trkpt lat="51.660379" lon="10.772605"><ele>509.5</ele></trkpt>
            <trkpt lat="51.660311" lon="10.773495"><ele>509.7</ele></trkpt>
            <trkpt lat="51.660312" lon="10.773806"><ele>509.8</ele></trkpt>
            <trkpt lat="51.660352" lon="10.774278"><ele>509.8</ele></trkpt>
            <trkpt lat="51.66041" lon="10.774673"><ele>509.8</ele></trkpt>
            <trkpt lat="51.660724" lon="10.77602"><ele>509</ele></trkpt>
            <trkpt lat="51.660538" lon="10.776016"><ele>509</ele></trkpt>
            <trkpt lat="51.660436" lon="10.776042"><ele>509</ele></trkpt>
            <trkpt lat="51.660392" lon="10.776009"><ele>509</ele></trkpt>
            <trkpt lat="51.660311" lon="10.775896"><ele>509</ele></trkpt>
            <trkpt lat="51.660194" lon="10.775846"><ele>509</ele></trkpt>
            <trkpt lat="51.660014" lon="10.775812"><ele>511</ele></trkpt>
            <trkpt lat="51.659927" lon="10.775809"><ele>519.5</ele></trkpt>
            <trkpt lat="51.659855" lon="10.77574"><ele>519.6</ele></trkpt>
            <trkpt lat="51.659582" lon="10.775767"><ele>519.8</ele></trkpt>
            <trkpt lat="51.659525" lon="10.77584"><ele>519.9</ele></trkpt>
            <trkpt lat="51.659505" lon="10.775972"><ele>519.9</ele></trkpt>
            <trkpt lat="51.659375" lon="10.776118"><ele>519.9</ele></trkpt>
            <trkpt lat="51.659357" lon="10.776156"><ele>519.9</ele></trkpt>
            <trkpt lat="51.659372" lon="10.776433"><ele>519.9</ele></trkpt>
            <trkpt lat="51.659333" lon="10.776552"><ele>519.9</ele></trkpt>
            <trkpt lat="51.659329" lon="10.776647"><ele>519.9</ele></trkpt>
            <trkpt lat="51.659377" lon="10.777068"><ele>518</ele></trkpt>
            <trkpt lat="51.659406" lon="10.777579"><ele>520</ele></trkpt>
            <trkpt lat="51.659459" lon="10.77796"><ele>521.1</ele></trkpt>
            <trkpt lat="51.659518" lon="10.778758"><ele>521.3</ele></trkpt>
            <trkpt lat="51.659497" lon="10.77898"><ele>523</ele></trkpt>
            <trkpt lat="51.659455" lon="10.779181"><ele>524.3</ele></trkpt>
            <trkpt lat="51.659349" lon="10.779489"><ele>525</ele></trkpt>
            <trkpt lat="51.659196" lon="10.779484"><ele>534.6</ele></trkpt>
            <trkpt lat="51.659011" lon="10.779418"><ele>535.2</ele></trkpt>
            <trkpt lat="51.658779" lon="10.779371"><ele>536.8</ele></trkpt>
            <trkpt lat="51.658657" lon="10.779317"><ele>537.1</ele></trkpt>
            <trkpt lat="51.658294" lon="10.779284"><ele>538</ele></trkpt>
            <trkpt lat="51.658123" lon="10.779357"><ele>538.8</ele></trkpt>
            <trkpt lat="51.657896" lon="10.779513"><ele>541.1</ele></trkpt>
            <trkpt lat="51.65755" lon="10.779847"><ele>546</ele></trkpt>
            <trkpt lat="51.657489" lon="10.78043"><ele>555.6</ele></trkpt>
            <trkpt lat="51.657527" lon="10.781149"><ele>556.8</ele></trkpt>
            <trkpt lat="51.657765" lon="10.783005"><ele>564.1</ele></trkpt>
            <trkpt lat="51.657777" lon="10.783399"><ele>566.4</ele></trkpt>
            <trkpt lat="51.657732" lon="10.784118"><ele>566.5</ele></trkpt>
            <trkpt lat="51.657695" lon="10.784333"><ele>567.1</ele></trkpt>
            <trkpt lat="51.657624" lon="10.784478"><ele>567.6</ele></trkpt>
            <trkpt lat="51.656953" lon="10.784998"><ele>571.9</ele></trkpt>
            <trkpt lat="51.656615" lon="10.785419"><ele>573.6</ele></trkpt>
            <trkpt lat="51.656156" lon="10.785797"><ele>577.1</ele></trkpt>
            <trkpt lat="51.655983" lon="10.785963"><ele>576.5</ele></trkpt>
            <trkpt lat="51.655895" lon="10.786143"><ele>573</ele></trkpt>
            <trkpt lat="51.655397" lon="10.786695"><ele>575.3</ele></trkpt>
            <trkpt lat="51.654976" lon="10.787394"><ele>578</ele></trkpt>
            <trkpt lat="51.65494" lon="10.787482"><ele>578</ele></trkpt>
            <trkpt lat="51.654893" lon="10.787742"><ele>574.9</ele></trkpt>
            <trkpt lat="51.654895" lon="10.787945"><ele>574.8</ele></trkpt>
            <trkpt lat="51.654912" lon="10.78808"><ele>574.8</ele></trkpt>
            <trkpt lat="51.654984" lon="10.78838"><ele>574.8</ele></trkpt>
            <trkpt lat="51.655159" lon="10.789558"><ele>576</ele></trkpt>
            <trkpt lat="51.654612" lon="10.789684"><ele>576</ele></trkpt>
            <trkpt lat="51.654438" lon="10.789803"><ele>576</ele></trkpt>
            <trkpt lat="51.654431" lon="10.789905"><ele>576</ele></trkpt>
            <trkpt lat="51.654601" lon="10.790285"><ele>579.8</ele></trkpt>
            <trkpt lat="51.654824" lon="10.790706"><ele>581</ele></trkpt>
            <trkpt lat="51.655612" lon="10.79205"><ele>593.9</ele></trkpt>
            <trkpt lat="51.655994" lon="10.792755"><ele>597.6</ele></trkpt>
            <trkpt lat="51.656047" lon="10.792885"><ele>599</ele></trkpt>
            <trkpt lat="51.656246" lon="10.793731"><ele>605.1</ele></trkpt>
            <trkpt lat="51.656258" lon="10.794301"><ele>608.4</ele></trkpt>
            <trkpt lat="51.656216" lon="10.794804"><ele>610.2</ele></trkpt>
            <trkpt lat="51.656205" lon="10.795156"><ele>612.3</ele></trkpt>
            <trkpt lat="51.656231" lon="10.79538"><ele>613.4</ele></trkpt>
            <trkpt lat="51.656256" lon="10.795952"><ele>614.7</ele></trkpt>
            <trkpt lat="51.656306" lon="10.796215"><ele>618</ele></trkpt>
            <trkpt lat="51.656367" lon="10.796639"><ele>618.8</ele></trkpt>
            <trkpt lat="51.65645" lon="10.797039"><ele>619.4</ele></trkpt>
            <trkpt lat="51.656367" lon="10.796639"><ele>618.8</ele></trkpt>
            <trkpt lat="51.656306" lon="10.796215"><ele>618</ele></trkpt>
            <trkpt lat="51.656256" lon="10.795952"><ele>614.7</ele></trkpt>
            <trkpt lat="51.656231" lon="10.79538"><ele>613.4</ele></trkpt>
            <trkpt lat="51.656205" lon="10.795156"><ele>612.3</ele></trkpt>
            <trkpt lat="51.656216" lon="10.794804"><ele>610.2</ele></trkpt>
            <trkpt lat="51.656258" lon="10.794301"><ele>608.4</ele></trkpt>
            <trkpt lat="51.656246" lon="10.793731"><ele>605.1</ele></trkpt>
            <trkpt lat="51.656047" lon="10.792885"><ele>599</ele></trkpt>
            <trkpt lat="51.655994" lon="10.792755"><ele>597.6</ele></trkpt>
            <trkpt lat="51.655612" lon="10.79205"><ele>593.9</ele></trkpt>
            <trkpt lat="51.654824" lon="10.790706"><ele>581</ele></trkpt>
            <trkpt lat="51.654601" lon="10.790285"><ele>579.8</ele></trkpt>
            <trkpt lat="51.654431" lon="10.789905"><ele>576</ele></trkpt>
            <trkpt lat="51.653953" lon="10.789411"><ele>570.8</ele></trkpt>
            <trkpt lat="51.653759" lon="10.789256"><ele>570.5</ele></trkpt>
            <trkpt lat="51.653467" lon="10.789081"><ele>569.3</ele></trkpt>
            <trkpt lat="51.652455" lon="10.788247"><ele>565</ele></trkpt>
            <trkpt lat="51.651846" lon="10.787875"><ele>561.9</ele></trkpt>
            <trkpt lat="51.651577" lon="10.78759"><ele>561.3</ele></trkpt>
            <trkpt lat="51.651201" lon="10.787347"><ele>559</ele></trkpt>
            <trkpt lat="51.650951" lon="10.787637"><ele>556.1</ele></trkpt>
            <trkpt lat="51.65079" lon="10.787742"><ele>551</ele></trkpt>
            <trkpt lat="51.649495" lon="10.787857"><ele>546</ele></trkpt>
            <trkpt lat="51.649259" lon="10.787842"><ele>543</ele></trkpt>
            <trkpt lat="51.648844" lon="10.788003"><ele>524.6</ele></trkpt>
            <trkpt lat="51.648165" lon="10.788455"><ele>518.5</ele></trkpt>
            <trkpt lat="51.647737" lon="10.78864"><ele>515.5</ele></trkpt>
            <trkpt lat="51.647608" lon="10.788664"><ele>514.2</ele></trkpt>
            <trkpt lat="51.64704" lon="10.788654"><ele>513.8</ele></trkpt>
            <trkpt lat="51.646977" lon="10.788706"><ele>510</ele></trkpt>
            <trkpt lat="51.646902" lon="10.788865"><ele>510</ele></trkpt>
            <trkpt lat="51.646856" lon="10.788898"><ele>510</ele></trkpt>
            <trkpt lat="51.646702" lon="10.788962"><ele>520.5</ele></trkpt>
            <trkpt lat="51.646602" lon="10.789043"><ele>524.3</ele></trkpt>
            <trkpt lat="51.646456" lon="10.789114"><ele>525.6</ele></trkpt>
            <trkpt lat="51.646149" lon="10.789089"><ele>526</ele></trkpt>
            <trkpt lat="51.645845" lon="10.788984"><ele>526.3</ele></trkpt>
            <trkpt lat="51.645745" lon="10.788918"><ele>526.7</ele></trkpt>
            <trkpt lat="51.645351" lon="10.788769"><ele>528.5</ele></trkpt>
            <trkpt lat="51.645281" lon="10.788788"><ele>527.9</ele></trkpt>
            <trkpt lat="51.645246" lon="10.788826"><ele>534</ele></trkpt>
            <trkpt lat="51.645188" lon="10.789102"><ele>534</ele></trkpt>
            <trkpt lat="51.644999" lon="10.789142"><ele>537</ele></trkpt>
            <trkpt lat="51.644763" lon="10.789152"><ele>535.5</ele></trkpt>
            <trkpt lat="51.644008" lon="10.789076"><ele>533.9</ele></trkpt>
            <trkpt lat="51.643636" lon="10.789141"><ele>531</ele></trkpt>
            <trkpt lat="51.643468" lon="10.789176"><ele>528</ele></trkpt>
            <trkpt lat="51.643289" lon="10.78925"><ele>521</ele></trkpt>
            <trkpt lat="51.643245" lon="10.789285"><ele>511.5</ele></trkpt>
            <trkpt lat="51.642993" lon="10.789185"><ele>508.5</ele></trkpt>
            <trkpt lat="51.64294" lon="10.789136"><ele>507.4</ele></trkpt>
            <trkpt lat="51.642834" lon="10.788969"><ele>504.9</ele></trkpt>
            <trkpt lat="51.642666" lon="10.788636"><ele>503.4</ele></trkpt>
            <trkpt lat="51.64254" lon="10.788587"><ele>502.7</ele></trkpt>
            <trkpt lat="51.642479" lon="10.788624"><ele>502</ele></trkpt>
            <trkpt lat="51.642443" lon="10.788689"><ele>502.2</ele></trkpt>
            <trkpt lat="51.642387" lon="10.788728"><ele>502.4</ele></trkpt>
            <trkpt lat="51.642145" lon="10.788523"><ele>502.9</ele></trkpt>
            <trkpt lat="51.641836" lon="10.788534"><ele>502.3</ele></trkpt>
            <trkpt lat="51.641639" lon="10.788575"><ele>502.1</ele></trkpt>
            <trkpt lat="51.641603" lon="10.788558"><ele>502.2</ele></trkpt>
            <trkpt lat="51.641571" lon="10.788632"><ele>502.3</ele></trkpt>
            <trkpt lat="51.641476" lon="10.788647"><ele>499</ele></trkpt>
            <trkpt lat="51.641445" lon="10.788621"><ele>499</ele></trkpt>
            <trkpt lat="51.641399" lon="10.788627"><ele>499</ele></trkpt>
            <trkpt lat="51.64131" lon="10.788797"><ele>498.8</ele></trkpt>
            <trkpt lat="51.641252" lon="10.788816"><ele>498.8</ele></trkpt>
            <trkpt lat="51.641225" lon="10.788895"><ele>498.7</ele></trkpt>
            <trkpt lat="51.64112" lon="10.789038"><ele>498.6</ele></trkpt>
            <trkpt lat="51.641117" lon="10.789648"><ele>498</ele></trkpt>
            <trkpt lat="51.64102" lon="10.789312"><ele>498</ele></trkpt>
            <trkpt lat="51.64092" lon="10.789039"><ele>499</ele></trkpt>
            <trkpt lat="51.640781" lon="10.788699"><ele>516.8</ele></trkpt>
            <trkpt lat="51.640571" lon="10.788424"><ele>518.3</ele></trkpt>
            <trkpt lat="51.640355" lon="10.787968"><ele>519</ele></trkpt>
            <trkpt lat="51.64013" lon="10.787609"><ele>519</ele></trkpt>
            <trkpt lat="51.639863" lon="10.787411"><ele>521</ele></trkpt>
            <trkpt lat="51.639661" lon="10.787327"><ele>520.7</ele></trkpt>
            <trkpt lat="51.639498" lon="10.7873"><ele>520.5</ele></trkpt>
            <trkpt lat="51.639335" lon="10.787315"><ele>525</ele></trkpt>
            <trkpt lat="51.63923" lon="10.78736"><ele>528</ele></trkpt>
            <trkpt lat="51.638826" lon="10.787631"><ele>528.9</ele></trkpt>
            <trkpt lat="51.638664" lon="10.787718"><ele>529.2</ele></trkpt>
            <trkpt lat="51.638329" lon="10.787786"><ele>529.6</ele></trkpt>
            <trkpt lat="51.637946" lon="10.787735"><ele>529.7</ele></trkpt>
            <trkpt lat="51.637831" lon="10.787751"><ele>529.8</ele></trkpt>
            <trkpt lat="51.637395" lon="10.787909"><ele>530</ele></trkpt>
            <trkpt lat="51.636903" lon="10.787937"><ele>529.8</ele></trkpt>
            <trkpt lat="51.636622" lon="10.787993"><ele>529</ele></trkpt>
            <trkpt lat="51.636534" lon="10.788089"><ele>529.6</ele></trkpt>
            <trkpt lat="51.636178" lon="10.788354"><ele>529.7</ele></trkpt>
            <trkpt lat="51.636045" lon="10.788488"><ele>529.7</ele></trkpt>
            <trkpt lat="51.635634" lon="10.789121"><ele>530</ele></trkpt>
            <trkpt lat="51.635328" lon="10.789604"><ele>532</ele></trkpt>
            <trkpt lat="51.634549" lon="10.790655"><ele>530.5</ele></trkpt>
            <trkpt lat="51.634417" lon="10.79096"><ele>532</ele></trkpt>
            <trkpt lat="51.63433" lon="10.791232"><ele>532</ele></trkpt>
            <trkpt lat="51.633917" lon="10.790302"><ele>525</ele></trkpt>
            <trkpt lat="51.633368" lon="10.790964"><ele>526</ele></trkpt>
            <trkpt lat="51.633262" lon="10.790952"><ele>525.9</ele></trkpt>
            <trkpt lat="51.633164" lon="10.790912"><ele>525.9</ele></trkpt>
            <trkpt lat="51.633103" lon="10.790848"><ele>526</ele></trkpt>
            <trkpt lat="51.633044" lon="10.790826"><ele>525.7</ele></trkpt>
            <trkpt lat="51.632959" lon="10.79085"><ele>525.8</ele></trkpt>
            <trkpt lat="51.632855" lon="10.790918"><ele>525.8</ele></trkpt>
            <trkpt lat="51.632776" lon="10.790912"><ele>526</ele></trkpt>
            <trkpt lat="51.632745" lon="10.790994"><ele>526</ele></trkpt>
            <trkpt lat="51.63271" lon="10.791085"><ele>526</ele></trkpt>
        </trkseg>
    </trk>
</gpx>
