<?xml version="1.0" encoding="UTF-8"?>
<gpx version="1.1" creator="HWN Route Compare (OpenRouteService)" xmlns="http://www.topografix.com/GPX/1/1">
    <metadata>
        <name>OpenRouteService – Tour F1</name>
    </metadata>
    <trk>
        <name>OpenRouteService – Tour F1</name>
        <trkseg>
            <trkpt lat="51.684959" lon="11.112266"><ele>452</ele></trkpt>
            <trkpt lat="51.684913" lon="11.112207"><ele>452</ele></trkpt>
            <trkpt lat="51.684831" lon="11.11188"><ele>452</ele></trkpt>
            <trkpt lat="51.684804" lon="11.111697"><ele>452</ele></trkpt>
            <trkpt lat="51.684612" lon="11.110383"><ele>449.2</ele></trkpt>
            <trkpt lat="51.684592" lon="11.11031"><ele>449.1</ele></trkpt>
            <trkpt lat="51.684424" lon="11.109936"><ele>449</ele></trkpt>
            <trkpt lat="51.684316" lon="11.109749"><ele>449</ele></trkpt>
            <trkpt lat="51.684277" lon="11.109654"><ele>448.7</ele></trkpt>
            <trkpt lat="51.684272" lon="11.109588"><ele>449</ele></trkpt>
            <trkpt lat="51.683996" lon="11.109136"><ele>438</ele></trkpt>
            <trkpt lat="51.683826" lon="11.108875"><ele>438</ele></trkpt>
            <trkpt lat="51.683569" lon="11.108272"><ele>442.2</ele></trkpt>
            <trkpt lat="51.683499" lon="11.107973"><ele>442.3</ele></trkpt>
            <trkpt lat="51.683456" lon="11.107111"><ele>443.4</ele></trkpt>
            <trkpt lat="51.683414" lon="11.106796"><ele>445.1</ele></trkpt>
            <trkpt lat="51.683038" lon="11.104963"><ele>451.3</ele></trkpt>
            <trkpt lat="51.682894" lon="11.104151"><ele>453.3</ele></trkpt>
            <trkpt lat="51.682803" lon="11.103181"><ele>454.1</ele></trkpt>
            <trkpt lat="51.682597" lon="11.101829"><ele>455</ele></trkpt>
            <trkpt lat="51.682472" lon="11.101388"><ele>452</ele></trkpt>
            <trkpt lat="51.682458" lon="11.100944"><ele>460.8</ele></trkpt>
            <trkpt lat="51.682599" lon="11.099079"><ele>467.3</ele></trkpt>
            <trkpt lat="51.682566" lon="11.09872"><ele>468.8</ele></trkpt>
            <trkpt lat="51.682476" lon="11.098194"><ele>470.4</ele></trkpt>
            <trkpt lat="51.682184" lon="11.096937"><ele>475.4</ele></trkpt>
            <trkpt lat="51.682151" lon="11.096509"><ele>476.2</ele></trkpt>
            <trkpt lat="51.682198" lon="11.095882"><ele>477.6</ele></trkpt>
            <trkpt lat="51.682207" lon="11.095762"><ele>478.9</ele></trkpt>
            <trkpt lat="51.682269" lon="11.09526"><ele>480.4</ele></trkpt>
            <trkpt lat="51.682361" lon="11.094899"><ele>480.7</ele></trkpt>
            <trkpt lat="51.682565" lon="11.094329"><ele>482.3</ele></trkpt>
            <trkpt lat="51.682728" lon="11.093952"><ele>482.4</ele></trkpt>
            <trkpt lat="51.682861" lon="11.093705"><ele>487</ele></trkpt>
            <trkpt lat="51.682564" lon="11.091748"><ele>494.4</ele></trkpt>
            <trkpt lat="51.682454" lon="11.09143"><ele>496.2</ele></trkpt>
            <trkpt lat="51.682301" lon="11.091178"><ele>492</ele></trkpt>
            <trkpt lat="51.68241" lon="11.090712"><ele>503.7</ele></trkpt>
            <trkpt lat="51.682398" lon="11.090599"><ele>503</ele></trkpt>
            <trkpt lat="51.682788" lon="11.089327"><ele>508.5</ele></trkpt>
            <trkpt lat="51.682842" lon="11.089028"><ele>513.5</ele></trkpt>
            <trkpt lat="51.682935" lon="11.088718"><ele>514.4</ele></trkpt>
            <trkpt lat="51.683043" lon="11.088456"><ele>520</ele></trkpt>
            <trkpt lat="51.683161" lon="11.08825"><ele>527</ele></trkpt>
            <trkpt lat="51.682912" lon="11.08716"><ele>530</ele></trkpt>
            <trkpt lat="51.682356" lon="11.084987"><ele>536</ele></trkpt>
            <trkpt lat="51.682116" lon="11.083259"><ele>536</ele></trkpt>
            <trkpt lat="51.682053" lon="11.082611"><ele>537</ele></trkpt>
            <trkpt lat="51.682024" lon="11.081718"><ele>537</ele></trkpt>
            <trkpt lat="51.681978" lon="11.080424"><ele>538.3</ele></trkpt>
            <trkpt lat="51.681923" lon="11.079863"><ele>538.6</ele></trkpt>
            <trkpt lat="51.6818" lon="11.079175"><ele>539</ele></trkpt>
            <trkpt lat="51.68168" lon="11.07797"><ele>539.4</ele></trkpt>
            <trkpt lat="51.681608" lon="11.077669"><ele>539.2</ele></trkpt>
            <trkpt lat="51.681266" lon="11.076627"><ele>539.8</ele></trkpt>
            <trkpt lat="51.681026" lon="11.075989"><ele>540</ele></trkpt>
            <trkpt lat="51.6809" lon="11.075739"><ele>541.2</ele></trkpt>
            <trkpt lat="51.680749" lon="11.075382"><ele>542</ele></trkpt>
            <trkpt lat="51.680592" lon="11.075116"><ele>542.5</ele></trkpt>
            <trkpt lat="51.680267" lon="11.074438"><ele>543</ele></trkpt>
            <trkpt lat="51.680177" lon="11.074272"><ele>542.8</ele></trkpt>
            <trkpt lat="51.679303" lon="11.072932"><ele>544</ele></trkpt>
            <trkpt lat="51.679092" lon="11.0725"><ele>547</ele></trkpt>
            <trkpt lat="51.678918" lon="11.071975"><ele>545</ele></trkpt>
            <trkpt lat="51.678977" lon="11.07094"><ele>534.2</ele></trkpt>
            <trkpt lat="51.678969" lon="11.070121"><ele>531.7</ele></trkpt>
            <trkpt lat="51.678855" lon="11.068919"><ele>525.3</ele></trkpt>
            <trkpt lat="51.678786" lon="11.068337"><ele>522</ele></trkpt>
            <trkpt lat="51.678714" lon="11.067514"><ele>516.3</ele></trkpt>
            <trkpt lat="51.678729" lon="11.067013"><ele>514.2</ele></trkpt>
            <trkpt lat="51.678769" lon="11.066513"><ele>512.1</ele></trkpt>
            <trkpt lat="51.67886" lon="11.065823"><ele>510.5</ele></trkpt>
            <trkpt lat="51.678949" lon="11.065423"><ele>505</ele></trkpt>
            <trkpt lat="51.679031" lon="11.065205"><ele>505</ele></trkpt>
            <trkpt lat="51.679218" lon="11.065023"><ele>510</ele></trkpt>
            <trkpt lat="51.679295" lon="11.06497"><ele>508</ele></trkpt>
            <trkpt lat="51.679391" lon="11.064957"><ele>508</ele></trkpt>
            <trkpt lat="51.679477" lon="11.064945"><ele>510.6</ele></trkpt>
            <trkpt lat="51.679391" lon="11.064957"><ele>508</ele></trkpt>
            <trkpt lat="51.67935" lon="11.064791"><ele>508</ele></trkpt>
            <trkpt lat="51.679163" lon="11.063648"><ele>502</ele></trkpt>
            <trkpt lat="51.679163" lon="11.063639"><ele>502</ele></trkpt>
            <trkpt lat="51.679151" lon="11.063515"><ele>502</ele></trkpt>
            <trkpt lat="51.679317" lon="11.062905"><ele>506</ele></trkpt>
            <trkpt lat="51.679461" lon="11.062705"><ele>506</ele></trkpt>
            <trkpt lat="51.679536" lon="11.062539"><ele>506</ele></trkpt>
            <trkpt lat="51.679582" lon="11.062377"><ele>506</ele></trkpt>
            <trkpt lat="51.679599" lon="11.06222"><ele>506</ele></trkpt>
            <trkpt lat="51.679596" lon="11.062058"><ele>506</ele></trkpt>
            <trkpt lat="51.67958" lon="11.06188"><ele>506</ele></trkpt>
            <trkpt lat="51.679543" lon="11.061714"><ele>506</ele></trkpt>
            <trkpt lat="51.679534" lon="11.061356"><ele>509</ele></trkpt>
            <trkpt lat="51.679558" lon="11.060436"><ele>508.6</ele></trkpt>
            <trkpt lat="51.679499" lon="11.059914"><ele>516</ele></trkpt>
            <trkpt lat="51.679352" lon="11.05887"><ele>521.7</ele></trkpt>
            <trkpt lat="51.679247" lon="11.058359"><ele>522</ele></trkpt>
            <trkpt lat="51.679035" lon="11.057528"><ele>523.2</ele></trkpt>
            <trkpt lat="51.678958" lon="11.056911"><ele>529</ele></trkpt>
            <trkpt lat="51.678837" lon="11.056071"><ele>529.7</ele></trkpt>
            <trkpt lat="51.678821" lon="11.055805"><ele>529.8</ele></trkpt>
            <trkpt lat="51.678831" lon="11.055652"><ele>530</ele></trkpt>
            <trkpt lat="51.678742" lon="11.055242"><ele>518.4</ele></trkpt>
            <trkpt lat="51.678673" lon="11.054827"><ele>516.9</ele></trkpt>
            <trkpt lat="51.678661" lon="11.054621"><ele>516.5</ele></trkpt>
            <trkpt lat="51.678679" lon="11.054498"><ele>516.1</ele></trkpt>
            <trkpt lat="51.678842" lon="11.054085"><ele>514.3</ele></trkpt>
            <trkpt lat="51.678932" lon="11.053717"><ele>514.8</ele></trkpt>
            <trkpt lat="51.678968" lon="11.053251"><ele>513.5</ele></trkpt>
            <trkpt lat="51.678976" lon="11.052301"><ele>509.6</ele></trkpt>
            <trkpt lat="51.678918" lon="11.049739"><ele>505</ele></trkpt>
            <trkpt lat="51.678886" lon="11.048509"><ele>499.5</ele></trkpt>
            <trkpt lat="51.678896" lon="11.048149"><ele>499</ele></trkpt>
            <trkpt lat="51.679018" lon="11.046969"><ele>495.3</ele></trkpt>
            <trkpt lat="51.679056" lon="11.046391"><ele>495.1</ele></trkpt>
            <trkpt lat="51.679063" lon="11.045975"><ele>489</ele></trkpt>
            <trkpt lat="51.679064" lon="11.045812"><ele>484.3</ele></trkpt>
            <trkpt lat="51.679035" lon="11.045591"><ele>482</ele></trkpt>
            <trkpt lat="51.679006" lon="11.045228"><ele>478</ele></trkpt>
            <trkpt lat="51.678861" lon="11.044449"><ele>477.4</ele></trkpt>
            <trkpt lat="51.678697" lon="11.043783"><ele>477.3</ele></trkpt>
            <trkpt lat="51.678601" lon="11.043658"><ele>477.7</ele></trkpt>
            <trkpt lat="51.678301" lon="11.043476"><ele>479</ele></trkpt>
            <trkpt lat="51.678021" lon="11.043292"><ele>481.7</ele></trkpt>
            <trkpt lat="51.677875" lon="11.043136"><ele>483</ele></trkpt>
            <trkpt lat="51.676744" lon="11.041965"><ele>477</ele></trkpt>
            <trkpt lat="51.676424" lon="11.041699"><ele>473.4</ele></trkpt>
            <trkpt lat="51.675949" lon="11.041563"><ele>472.6</ele></trkpt>
            <trkpt lat="51.675431" lon="11.041182"><ele>471.1</ele></trkpt>
            <trkpt lat="51.675271" lon="11.041021"><ele>469</ele></trkpt>
            <trkpt lat="51.674782" lon="11.040523"><ele>468</ele></trkpt>
            <trkpt lat="51.674693" lon="11.040432"><ele>468.5</ele></trkpt>
            <trkpt lat="51.674475" lon="11.040142"><ele>468.6</ele></trkpt>
            <trkpt lat="51.67437" lon="11.039959"><ele>470</ele></trkpt>
            <trkpt lat="51.674326" lon="11.039884"><ele>462.3</ele></trkpt>
            <trkpt lat="51.674075" lon="11.039607"><ele>460.2</ele></trkpt>
            <trkpt lat="51.673588" lon="11.039099"><ele>456.3</ele></trkpt>
            <trkpt lat="51.67323" lon="11.038816"><ele>455.2</ele></trkpt>
            <trkpt lat="51.67301" lon="11.038583"><ele>453.2</ele></trkpt>
            <trkpt lat="51.672846" lon="11.038394"><ele>451</ele></trkpt>
            <trkpt lat="51.672738" lon="11.038224"><ele>449.8</ele></trkpt>
            <trkpt lat="51.672302" lon="11.036637"><ele>437</ele></trkpt>
            <trkpt lat="51.672354" lon="11.036646"><ele>437</ele></trkpt>
            <trkpt lat="51.672487" lon="11.036535"><ele>437</ele></trkpt>
            <trkpt lat="51.672418" lon="11.036436"><ele>437</ele></trkpt>
            <trkpt lat="51.6724" lon="11.03641"><ele>437</ele></trkpt>
            <trkpt lat="51.672343" lon="11.036383"><ele>437</ele></trkpt>
            <trkpt lat="51.672256" lon="11.03644"><ele>437</ele></trkpt>
            <trkpt lat="51.672145" lon="11.036007"><ele>434</ele></trkpt>
            <trkpt lat="51.672089" lon="11.03568"><ele>433.3</ele></trkpt>
            <trkpt lat="51.672074" lon="11.035475"><ele>431</ele></trkpt>
            <trkpt lat="51.67207" lon="11.035361"><ele>431</ele></trkpt>
            <trkpt lat="51.672075" lon="11.035187"><ele>433.5</ele></trkpt>
            <trkpt lat="51.672191" lon="11.03461"><ele>433.9</ele></trkpt>
            <trkpt lat="51.672214" lon="11.034433"><ele>433.9</ele></trkpt>
            <trkpt lat="51.672207" lon="11.033901"><ele>437</ele></trkpt>
            <trkpt lat="51.672759" lon="11.033448"><ele>444.4</ele></trkpt>
            <trkpt lat="51.673277" lon="11.03298"><ele>445.6</ele></trkpt>
            <trkpt lat="51.673367" lon="11.032846"><ele>446.2</ele></trkpt>
            <trkpt lat="51.673441" lon="11.03266"><ele>446.8</ele></trkpt>
            <trkpt lat="51.673474" lon="11.032361"><ele>447.8</ele></trkpt>
            <trkpt lat="51.673483" lon="11.031645"><ele>450.8</ele></trkpt>
            <trkpt lat="51.673513" lon="11.031421"><ele>452.2</ele></trkpt>
            <trkpt lat="51.673609" lon="11.031188"><ele>453.1</ele></trkpt>
            <trkpt lat="51.674108" lon="11.03045"><ele>457.4</ele></trkpt>
            <trkpt lat="51.67419" lon="11.030272"><ele>458</ele></trkpt>
            <trkpt lat="51.674259" lon="11.030043"><ele>458.7</ele></trkpt>
            <trkpt lat="51.674249" lon="11.029481"><ele>459.7</ele></trkpt>
            <trkpt lat="51.674313" lon="11.02928"><ele>463</ele></trkpt>
            <trkpt lat="51.674461" lon="11.029263"><ele>464.3</ele></trkpt>
            <trkpt lat="51.674644" lon="11.029201"><ele>464.5</ele></trkpt>
            <trkpt lat="51.674701" lon="11.029118"><ele>464.9</ele></trkpt>
            <trkpt lat="51.674981" lon="11.026632"><ele>478</ele></trkpt>
            <trkpt lat="51.675313" lon="11.023572"><ele>488</ele></trkpt>
            <trkpt lat="51.675543" lon="11.021831"><ele>491.7</ele></trkpt>
            <trkpt lat="51.675791" lon="11.019678"><ele>498</ele></trkpt>
            <trkpt lat="51.677267" lon="11.020061"><ele>504</ele></trkpt>
            <trkpt lat="51.677525" lon="11.020173"><ele>505.1</ele></trkpt>
            <trkpt lat="51.678997" lon="11.020542"><ele>505.5</ele></trkpt>
            <trkpt lat="51.678969" lon="11.019466"><ele>505.1</ele></trkpt>
            <trkpt lat="51.678977" lon="11.018642"><ele>504.7</ele></trkpt>
            <trkpt lat="51.679009" lon="11.018228"><ele>501</ele></trkpt>
            <trkpt lat="51.679173" lon="11.018302"><ele>502</ele></trkpt>
            <trkpt lat="51.67946" lon="11.017279"><ele>504.1</ele></trkpt>
            <trkpt lat="51.679805" lon="11.015758"><ele>506.1</ele></trkpt>
            <trkpt lat="51.680023" lon="11.015506"><ele>505.3</ele></trkpt>
            <trkpt lat="51.681271" lon="11.014409"><ele>498.5</ele></trkpt>
            <trkpt lat="51.681313" lon="11.014339"><ele>498.7</ele></trkpt>
            <trkpt lat="51.681266" lon="11.014066"><ele>498</ele></trkpt>
            <trkpt lat="51.682201" lon="11.013269"><ele>498.2</ele></trkpt>
            <trkpt lat="51.682461" lon="11.013094"><ele>497.8</ele></trkpt>
            <trkpt lat="51.682691" lon="11.012982"><ele>501</ele></trkpt>
            <trkpt lat="51.68284" lon="11.012914"><ele>501</ele></trkpt>
            <trkpt lat="51.682981" lon="11.012846"><ele>501</ele></trkpt>
            <trkpt lat="51.683112" lon="11.012737"><ele>501</ele></trkpt>
            <trkpt lat="51.68317" lon="11.012635"><ele>501.5</ele></trkpt>
            <trkpt lat="51.683302" lon="11.012519"><ele>501.6</ele></trkpt>
            <trkpt lat="51.683678" lon="11.012243"><ele>503</ele></trkpt>
            <trkpt lat="51.683929" lon="11.012002"><ele>504</ele></trkpt>
            <trkpt lat="51.684144" lon="11.011831"><ele>506.2</ele></trkpt>
            <trkpt lat="51.684505" lon="11.011656"><ele>506.8</ele></trkpt>
            <trkpt lat="51.685235" lon="11.011099"><ele>509</ele></trkpt>
            <trkpt lat="51.686712" lon="11.010532"><ele>506.1</ele></trkpt>
            <trkpt lat="51.687648" lon="11.010036"><ele>505</ele></trkpt>
            <trkpt lat="51.688138" lon="11.009225"><ele>502</ele></trkpt>
            <trkpt lat="51.688216" lon="11.009052"><ele>499</ele></trkpt>
            <trkpt lat="51.688619" lon="11.007819"><ele>499.6</ele></trkpt>
            <trkpt lat="51.688661" lon="11.00759"><ele>499.7</ele></trkpt>
            <trkpt lat="51.688658" lon="11.00709"><ele>499.7</ele></trkpt>
            <trkpt lat="51.688674" lon="11.006787"><ele>499.8</ele></trkpt>
            <trkpt lat="51.688755" lon="11.006328"><ele>499.8</ele></trkpt>
            <trkpt lat="51.688801" lon="11.006167"><ele>499</ele></trkpt>
            <trkpt lat="51.689089" lon="11.005381"><ele>497.1</ele></trkpt>
            <trkpt lat="51.689263" lon="11.004955"><ele>496.9</ele></trkpt>
            <trkpt lat="51.689475" lon="11.004581"><ele>496.7</ele></trkpt>
            <trkpt lat="51.68964" lon="11.004337"><ele>496.1</ele></trkpt>
            <trkpt lat="51.689888" lon="11.004026"><ele>495.1</ele></trkpt>
            <trkpt lat="51.690334" lon="11.003529"><ele>492.8</ele></trkpt>
            <trkpt lat="51.690553" lon="11.003247"><ele>491.1</ele></trkpt>
            <trkpt lat="51.690723" lon="11.002959"><ele>489.6</ele></trkpt>
            <trkpt lat="51.69081" lon="11.002627"><ele>489.8</ele></trkpt>
            <trkpt lat="51.690846" lon="11.002044"><ele>488.4</ele></trkpt>
            <trkpt lat="51.690878" lon="11.001772"><ele>487.5</ele></trkpt>
            <trkpt lat="51.690932" lon="11.001569"><ele>485.8</ele></trkpt>
            <trkpt lat="51.691122" lon="11.001253"><ele>478</ele></trkpt>
            <trkpt lat="51.691129" lon="11.000763"><ele>474</ele></trkpt>
            <trkpt lat="51.691178" lon="11.000058"><ele>472</ele></trkpt>
            <trkpt lat="51.6913" lon="10.998849"><ele>469.5</ele></trkpt>
            <trkpt lat="51.69136" lon="10.99848"><ele>469.4</ele></trkpt>
            <trkpt lat="51.691513" lon="10.997886"><ele>468.7</ele></trkpt>
            <trkpt lat="51.691648" lon="10.997505"><ele>468</ele></trkpt>
            <trkpt lat="51.692195" lon="10.995941"><ele>465.8</ele></trkpt>
            <trkpt lat="51.692492" lon="10.995189"><ele>464.4</ele></trkpt>
            <trkpt lat="51.692637" lon="10.994756"><ele>465</ele></trkpt>
            <trkpt lat="51.692079" lon="10.994765"><ele>463.9</ele></trkpt>
            <trkpt lat="51.691963" lon="10.994758"><ele>463.6</ele></trkpt>
            <trkpt lat="51.691851" lon="10.994719"><ele>463.7</ele></trkpt>
            <trkpt lat="51.691502" lon="10.99448"><ele>464.2</ele></trkpt>
            <trkpt lat="51.691131" lon="10.994178"><ele>466</ele></trkpt>
            <trkpt lat="51.69069" lon="10.993965"><ele>469</ele></trkpt>
            <trkpt lat="51.690435" lon="10.993802"><ele>470.8</ele></trkpt>
            <trkpt lat="51.690251" lon="10.993641"><ele>471.5</ele></trkpt>
            <trkpt lat="51.690209" lon="10.993572"><ele>471.7</ele></trkpt>
            <trkpt lat="51.690175" lon="10.993423"><ele>472</ele></trkpt>
            <trkpt lat="51.690096" lon="10.990599"><ele>471</ele></trkpt>
            <trkpt lat="51.690104" lon="10.990302"><ele>470.7</ele></trkpt>
            <trkpt lat="51.690158" lon="10.989659"><ele>469.7</ele></trkpt>
            <trkpt lat="51.690164" lon="10.989314"><ele>466</ele></trkpt>
            <trkpt lat="51.6902" lon="10.989316"><ele>466</ele></trkpt>
            <trkpt lat="51.690164" lon="10.989314"><ele>466</ele></trkpt>
            <trkpt lat="51.690158" lon="10.989659"><ele>469.7</ele></trkpt>
            <trkpt lat="51.690104" lon="10.990302"><ele>470.7</ele></trkpt>
            <trkpt lat="51.690096" lon="10.990599"><ele>471</ele></trkpt>
            <trkpt lat="51.690175" lon="10.993423"><ele>472</ele></trkpt>
            <trkpt lat="51.690209" lon="10.993572"><ele>471.7</ele></trkpt>
            <trkpt lat="51.690251" lon="10.993641"><ele>471.5</ele></trkpt>
            <trkpt lat="51.690435" lon="10.993802"><ele>470.8</ele></trkpt>
            <trkpt lat="51.69069" lon="10.993965"><ele>469</ele></trkpt>
            <trkpt lat="51.691131" lon="10.994178"><ele>466</ele></trkpt>
            <trkpt lat="51.691502" lon="10.99448"><ele>464.2</ele></trkpt>
            <trkpt lat="51.691851" lon="10.994719"><ele>463.7</ele></trkpt>
            <trkpt lat="51.691963" lon="10.994758"><ele>463.6</ele></trkpt>
            <trkpt lat="51.692079" lon="10.994765"><ele>463.9</ele></trkpt>
            <trkpt lat="51.692637" lon="10.994756"><ele>465</ele></trkpt>
            <trkpt lat="51.692492" lon="10.995189"><ele>464.4</ele></trkpt>
            <trkpt lat="51.692195" lon="10.995941"><ele>465.8</ele></trkpt>
            <trkpt lat="51.691648" lon="10.997505"><ele>468</ele></trkpt>
            <trkpt lat="51.691513" lon="10.997886"><ele>468.7</ele></trkpt>
            <trkpt lat="51.69136" lon="10.99848"><ele>469.4</ele></trkpt>
            <trkpt lat="51.6913" lon="10.998849"><ele>469.5</ele></trkpt>
            <trkpt lat="51.691178" lon="11.000058"><ele>472</ele></trkpt>
            <trkpt lat="51.691129" lon="11.000763"><ele>474</ele></trkpt>
            <trkpt lat="51.691122" lon="11.001253"><ele>478</ele></trkpt>
            <trkpt lat="51.691204" lon="11.001821"><ele>483.7</ele></trkpt>
            <trkpt lat="51.691526" lon="11.003253"><ele>482.7</ele></trkpt>
            <trkpt lat="51.691676" lon="11.004306"><ele>482.6</ele></trkpt>
            <trkpt lat="51.691823" lon="11.006157"><ele>484.5</ele></trkpt>
            <trkpt lat="51.6921" lon="11.00795"><ele>487</ele></trkpt>
            <trkpt lat="51.692111" lon="11.008264"><ele>487</ele></trkpt>
            <trkpt lat="51.692084" lon="11.008606"><ele>486</ele></trkpt>
            <trkpt lat="51.691801" lon="11.010669"><ele>480</ele></trkpt>
            <trkpt lat="51.691683" lon="11.011345"><ele>478</ele></trkpt>
            <trkpt lat="51.691579" lon="11.011813"><ele>478</ele></trkpt>
            <trkpt lat="51.691449" lon="11.012305"><ele>477</ele></trkpt>
            <trkpt lat="51.691374" lon="11.01258"><ele>473</ele></trkpt>
            <trkpt lat="51.69108" lon="11.013596"><ele>468</ele></trkpt>
            <trkpt lat="51.690367" lon="11.016065"><ele>463.4</ele></trkpt>
            <trkpt lat="51.690279" lon="11.016461"><ele>463.3</ele></trkpt>
            <trkpt lat="51.690238" lon="11.016822"><ele>462.5</ele></trkpt>
            <trkpt lat="51.690245" lon="11.017101"><ele>462.6</ele></trkpt>
            <trkpt lat="51.690377" lon="11.019714"><ele>465</ele></trkpt>
            <trkpt lat="51.69043" lon="11.020263"><ele>469.6</ele></trkpt>
            <trkpt lat="51.690473" lon="11.020529"><ele>469.8</ele></trkpt>
            <trkpt lat="51.690663" lon="11.021224"><ele>470.1</ele></trkpt>
            <trkpt lat="51.690691" lon="11.021424"><ele>470.1</ele></trkpt>
            <trkpt lat="51.690688" lon="11.021809"><ele>471.4</ele></trkpt>
            <trkpt lat="51.690633" lon="11.022102"><ele>472.1</ele></trkpt>
            <trkpt lat="51.690244" lon="11.023644"><ele>481</ele></trkpt>
            <trkpt lat="51.689774" lon="11.025551"><ele>485.7</ele></trkpt>
            <trkpt lat="51.689647" lon="11.026365"><ele>487</ele></trkpt>
            <trkpt lat="51.68947" lon="11.027145"><ele>486</ele></trkpt>
            <trkpt lat="51.689378" lon="11.027395"><ele>486.2</ele></trkpt>
            <trkpt lat="51.689319" lon="11.027642"><ele>486.6</ele></trkpt>
            <trkpt lat="51.689301" lon="11.027793"><ele>486.5</ele></trkpt>
            <trkpt lat="51.689306" lon="11.02792"><ele>487</ele></trkpt>
            <trkpt lat="51.689493" lon="11.028682"><ele>490</ele></trkpt>
            <trkpt lat="51.690168" lon="11.031411"><ele>507</ele></trkpt>
            <trkpt lat="51.690203" lon="11.031557"><ele>508.3</ele></trkpt>
            <trkpt lat="51.690273" lon="11.032067"><ele>511</ele></trkpt>
            <trkpt lat="51.690282" lon="11.032109"><ele>511</ele></trkpt>
            <trkpt lat="51.690356" lon="11.032431"><ele>511</ele></trkpt>
            <trkpt lat="51.690475" lon="11.032956"><ele>511.8</ele></trkpt>
            <trkpt lat="51.690502" lon="11.033169"><ele>512</ele></trkpt>
            <trkpt lat="51.690499" lon="11.033768"><ele>513</ele></trkpt>
            <trkpt lat="51.690482" lon="11.033989"><ele>513</ele></trkpt>
            <trkpt lat="51.690471" lon="11.034124"><ele>513</ele></trkpt>
            <trkpt lat="51.690415" lon="11.034316"><ele>513.7</ele></trkpt>
            <trkpt lat="51.69033" lon="11.034517"><ele>513.8</ele></trkpt>
            <trkpt lat="51.690119" lon="11.034942"><ele>514</ele></trkpt>
            <trkpt lat="51.689613" lon="11.035896"><ele>518</ele></trkpt>
            <trkpt lat="51.689206" lon="11.036534"><ele>518</ele></trkpt>
            <trkpt lat="51.689099" lon="11.036792"><ele>521</ele></trkpt>
            <trkpt lat="51.689042" lon="11.036892"><ele>521</ele></trkpt>
            <trkpt lat="51.689227" lon="11.037352"><ele>521</ele></trkpt>
            <trkpt lat="51.689159" lon="11.037447"><ele>521</ele></trkpt>
            <trkpt lat="51.689111" lon="11.037456"><ele>521</ele></trkpt>
            <trkpt lat="51.68912" lon="11.037617"><ele>522</ele></trkpt>
            <trkpt lat="51.689267" lon="11.037948"><ele>522</ele></trkpt>
            <trkpt lat="51.689904" lon="11.039279"><ele>523</ele></trkpt>
            <trkpt lat="51.690145" lon="11.039753"><ele>524</ele></trkpt>
            <trkpt lat="51.690199" lon="11.039858"><ele>524</ele></trkpt>
            <trkpt lat="51.690785" lon="11.040989"><ele>525</ele></trkpt>
            <trkpt lat="51.689577" lon="11.042586"><ele>522.3</ele></trkpt>
            <trkpt lat="51.689324" lon="11.042942"><ele>521</ele></trkpt>
            <trkpt lat="51.689108" lon="11.04325"><ele>520</ele></trkpt>
            <trkpt lat="51.688829" lon="11.043676"><ele>524.8</ele></trkpt>
            <trkpt lat="51.688721" lon="11.043747"><ele>527</ele></trkpt>
            <trkpt lat="51.688812" lon="11.044007"><ele>527</ele></trkpt>
            <trkpt lat="51.688875" lon="11.044212"><ele>537</ele></trkpt>
            <trkpt lat="51.689039" lon="11.044965"><ele>543</ele></trkpt>
            <trkpt lat="51.689644" lon="11.04628"><ele>549.5</ele></trkpt>
            <trkpt lat="51.689834" lon="11.046614"><ele>549.6</ele></trkpt>
            <trkpt lat="51.689966" lon="11.047209"><ele>557</ele></trkpt>
            <trkpt lat="51.690045" lon="11.047837"><ele>557.8</ele></trkpt>
            <trkpt lat="51.690007" lon="11.048382"><ele>560.3</ele></trkpt>
            <trkpt lat="51.690012" lon="11.048826"><ele>562</ele></trkpt>
            <trkpt lat="51.690102" lon="11.050146"><ele>569.7</ele></trkpt>
            <trkpt lat="51.690102" lon="11.050727"><ele>571.1</ele></trkpt>
            <trkpt lat="51.690032" lon="11.051083"><ele>573.7</ele></trkpt>
            <trkpt lat="51.689796" lon="11.051598"><ele>574.6</ele></trkpt>
            <trkpt lat="51.689633" lon="11.052053"><ele>575.5</ele></trkpt>
            <trkpt lat="51.689425" lon="11.05423"><ele>582</ele></trkpt>
            <trkpt lat="51.68932" lon="11.055202"><ele>583.7</ele></trkpt>
            <trkpt lat="51.688913" lon="11.05616"><ele>585</ele></trkpt>
            <trkpt lat="51.688723" lon="11.056805"><ele>587</ele></trkpt>
            <trkpt lat="51.688551" lon="11.057245"><ele>587</ele></trkpt>
            <trkpt lat="51.688721" lon="11.058261"><ele>587.6</ele></trkpt>
            <trkpt lat="51.688796" lon="11.058929"><ele>588.1</ele></trkpt>
            <trkpt lat="51.688848" lon="11.059642"><ele>589.1</ele></trkpt>
            <trkpt lat="51.68878" lon="11.060824"><ele>589.6</ele></trkpt>
            <trkpt lat="51.688838" lon="11.061743"><ele>589.7</ele></trkpt>
            <trkpt lat="51.688847" lon="11.062358"><ele>590</ele></trkpt>
            <trkpt lat="51.688639" lon="11.062656"><ele>580.1</ele></trkpt>
            <trkpt lat="51.68851" lon="11.062944"><ele>579.6</ele></trkpt>
            <trkpt lat="51.688478" lon="11.063076"><ele>579.3</ele></trkpt>
            <trkpt lat="51.688452" lon="11.063199"><ele>578.9</ele></trkpt>
            <trkpt lat="51.688432" lon="11.063506"><ele>578.6</ele></trkpt>
            <trkpt lat="51.688436" lon="11.063924"><ele>578.8</ele></trkpt>
            <trkpt lat="51.688425" lon="11.06421"><ele>579</ele></trkpt>
            <trkpt lat="51.688403" lon="11.064359"><ele>572</ele></trkpt>
            <trkpt lat="51.688192" lon="11.064948"><ele>571</ele></trkpt>
            <trkpt lat="51.688095" lon="11.065229"><ele>563</ele></trkpt>
            <trkpt lat="51.687837" lon="11.065915"><ele>558.3</ele></trkpt>
            <trkpt lat="51.687135" lon="11.067926"><ele>557</ele></trkpt>
            <trkpt lat="51.686729" lon="11.069099"><ele>563.4</ele></trkpt>
            <trkpt lat="51.686579" lon="11.06938"><ele>563.3</ele></trkpt>
            <trkpt lat="51.686447" lon="11.069496"><ele>563.1</ele></trkpt>
            <trkpt lat="51.686199" lon="11.069663"><ele>563.6</ele></trkpt>
            <trkpt lat="51.685937" lon="11.069907"><ele>563.5</ele></trkpt>
            <trkpt lat="51.685678" lon="11.070255"><ele>563.3</ele></trkpt>
            <trkpt lat="51.685553" lon="11.070658"><ele>563.4</ele></trkpt>
            <trkpt lat="51.685531" lon="11.070824"><ele>563.4</ele></trkpt>
            <trkpt lat="51.685538" lon="11.07111"><ele>564</ele></trkpt>
            <trkpt lat="51.685649" lon="11.072194"><ele>565.3</ele></trkpt>
            <trkpt lat="51.68586" lon="11.073674"><ele>565.5</ele></trkpt>
            <trkpt lat="51.685877" lon="11.074115"><ele>565.3</ele></trkpt>
            <trkpt lat="51.685871" lon="11.074527"><ele>565.2</ele></trkpt>
            <trkpt lat="51.685833" lon="11.074928"><ele>566</ele></trkpt>
            <trkpt lat="51.685719" lon="11.075271"><ele>564.2</ele></trkpt>
            <trkpt lat="51.685446" lon="11.07588"><ele>564</ele></trkpt>
            <trkpt lat="51.685158" lon="11.076261"><ele>563.8</ele></trkpt>
            <trkpt lat="51.684904" lon="11.076519"><ele>560</ele></trkpt>
            <trkpt lat="51.684648" lon="11.076817"><ele>562</ele></trkpt>
            <trkpt lat="51.684301" lon="11.076964"><ele>562</ele></trkpt>
            <trkpt lat="51.684313" lon="11.077393"><ele>566.5</ele></trkpt>
            <trkpt lat="51.684397" lon="11.077957"><ele>567</ele></trkpt>
            <trkpt lat="51.684454" lon="11.078133"><ele>567</ele></trkpt>
            <trkpt lat="51.684557" lon="11.078317"><ele>566.9</ele></trkpt>
            <trkpt lat="51.684818" lon="11.078678"><ele>567.5</ele></trkpt>
            <trkpt lat="51.68487" lon="11.078868"><ele>567.7</ele></trkpt>
            <trkpt lat="51.684901" lon="11.079094"><ele>568.2</ele></trkpt>
            <trkpt lat="51.68491" lon="11.07928"><ele>568.6</ele></trkpt>
            <trkpt lat="51.68491" lon="11.079287"><ele>570.8</ele></trkpt>
            <trkpt lat="51.684897" lon="11.079521"><ele>573</ele></trkpt>
            <trkpt lat="51.684781" lon="11.079673"><ele>573</ele></trkpt>
            <trkpt lat="51.684787" lon="11.079984"><ele>578.3</ele></trkpt>
            <trkpt lat="51.684876" lon="11.080386"><ele>579</ele></trkpt>
            <trkpt lat="51.684961" lon="11.080668"><ele>579.3</ele></trkpt>
            <trkpt lat="51.685102" lon="11.081068"><ele>579.5</ele></trkpt>
            <trkpt lat="51.685171" lon="11.081203"><ele>579.1</ele></trkpt>
            <trkpt lat="51.685281" lon="11.081285"><ele>583</ele></trkpt>
            <trkpt lat="51.684792" lon="11.082883"><ele>574</ele></trkpt>
            <trkpt lat="51.684099" lon="11.085178"><ele>548</ele></trkpt>
            <trkpt lat="51.683161" lon="11.08825"><ele>527</ele></trkpt>
            <trkpt lat="51.683043" lon="11.088456"><ele>520</ele></trkpt>
            <trkpt lat="51.682935" lon="11.088718"><ele>514.4</ele></trkpt>
            <trkpt lat="51.682842" lon="11.089028"><ele>513.5</ele></trkpt>
            <trkpt lat="51.682788" lon="11.089327"><ele>508.5</ele></trkpt>
            <trkpt lat="51.682398" lon="11.090599"><ele>503</ele></trkpt>
            <trkpt lat="51.68241" lon="11.090712"><ele>503.7</ele></trkpt>
            <trkpt lat="51.682301" lon="11.091178"><ele>492</ele></trkpt>
            <trkpt lat="51.682454" lon="11.09143"><ele>496.2</ele></trkpt>
            <trkpt lat="51.682564" lon="11.091748"><ele>494.4</ele></trkpt>
            <trkpt lat="51.682861" lon="11.093705"><ele>487</ele></trkpt>
            <trkpt lat="51.682728" lon="11.093952"><ele>482.4</ele></trkpt>
            <trkpt lat="51.682565" lon="11.094329"><ele>482.3</ele></trkpt>
            <trkpt lat="51.682361" lon="11.094899"><ele>480.7</ele></trkpt>
            <trkpt lat="51.682269" lon="11.09526"><ele>480.4</ele></trkpt>
            <trkpt lat="51.682207" lon="11.095762"><ele>478.9</ele></trkpt>
            <trkpt lat="51.682151" lon="11.096509"><ele>476.2</ele></trkpt>
            <trkpt lat="51.682184" lon="11.096937"><ele>475.4</ele></trkpt>
            <trkpt lat="51.682476" lon="11.098194"><ele>470.4</ele></trkpt>
            <trkpt lat="51.682566" lon="11.09872"><ele>468.8</ele></trkpt>
            <trkpt lat="51.682599" lon="11.099079"><ele>467.3</ele></trkpt>
            <trkpt lat="51.682458" lon="11.100944"><ele>460.8</ele></trkpt>
            <trkpt lat="51.682472" lon="11.101388"><ele>452</ele></trkpt>
            <trkpt lat="51.682597" lon="11.101829"><ele>455</ele></trkpt>
            <trkpt lat="51.682803" lon="11.103181"><ele>454.1</ele></trkpt>
            <trkpt lat="51.682894" lon="11.104151"><ele>453.3</ele></trkpt>
            <trkpt lat="51.683038" lon="11.104963"><ele>451.3</ele></trkpt>
            <trkpt lat="51.683414" lon="11.106796"><ele>445.1</ele></trkpt>
            <trkpt lat="51.683456" lon="11.107111"><ele>443.4</ele></trkpt>
            <trkpt lat="51.683499" lon="11.107973"><ele>442.3</ele></trkpt>
            <trkpt lat="51.683569" lon="11.108272"><ele>442.2</ele></trkpt>
            <trkpt lat="51.683826" lon="11.108875"><ele>438</ele></trkpt>
            <trkpt lat="51.683996" lon="11.109136"><ele>438</ele></trkpt>
            <trkpt lat="51.684272" lon="11.109588"><ele>449</ele></trkpt>
            <trkpt lat="51.684277" lon="11.109654"><ele>448.7</ele></trkpt>
            <trkpt lat="51.684316" lon="11.109749"><ele>449</ele></trkpt>
            <trkpt lat="51.684424" lon="11.109936"><ele>449</ele></trkpt>
            <trkpt lat="51.684592" lon="11.11031"><ele>449.1</ele></trkpt>
            <trkpt lat="51.684612" lon="11.110383"><ele>449.2</ele></trkpt>
            <trkpt lat="51.684804" lon="11.111697"><ele>452</ele></trkpt>
            <trkpt lat="51.684831" lon="11.11188"><ele>452</ele></trkpt>
            <trkpt lat="51.684913" lon="11.112207"><ele>452</ele></trkpt>
            <trkpt lat="51.684959" lon="11.112266"><ele>452</ele></trkpt>
        </trkseg>
    </trk>
</gpx>
