<?xml version="1.0" encoding="UTF-8"?>
<gpx version="1.1" creator="HWN Route Compare (OpenRouteService)" xmlns="http://www.topografix.com/GPX/1/1">
    <metadata>
        <name>OpenRouteService – Tour F2</name>
    </metadata>
    <trk>
        <name>OpenRouteService – Tour F2</name>
        <trkseg>
            <trkpt lat="51.755997" lon="11.087347"><ele>141</ele></trkpt>
            <trkpt lat="51.75603" lon="11.087653"><ele>141</ele></trkpt>
            <trkpt lat="51.756066" lon="11.087827"><ele>141</ele></trkpt>
            <trkpt lat="51.755927" lon="11.087929"><ele>141</ele></trkpt>
            <trkpt lat="51.755419" lon="11.088344"><ele>138</ele></trkpt>
            <trkpt lat="51.755391" lon="11.088363"><ele>138</ele></trkpt>
            <trkpt lat="51.755203" lon="11.088019"><ele>139.2</ele></trkpt>
            <trkpt lat="51.755126" lon="11.087917"><ele>139.1</ele></trkpt>
            <trkpt lat="51.755059" lon="11.087916"><ele>138.8</ele></trkpt>
            <trkpt lat="51.754986" lon="11.087992"><ele>138.6</ele></trkpt>
            <trkpt lat="51.754881" lon="11.088154"><ele>138</ele></trkpt>
            <trkpt lat="51.754839" lon="11.088148"><ele>138</ele></trkpt>
            <trkpt lat="51.754674" lon="11.088219"><ele>138</ele></trkpt>
            <trkpt lat="51.754626" lon="11.088416"><ele>137.4</ele></trkpt>
            <trkpt lat="51.754586" lon="11.088481"><ele>137</ele></trkpt>
            <trkpt lat="51.754521" lon="11.088522"><ele>137</ele></trkpt>
            <trkpt lat="51.754532" lon="11.088761"><ele>137</ele></trkpt>
            <trkpt lat="51.754373" lon="11.088823"><ele>137</ele></trkpt>
            <trkpt lat="51.754324" lon="11.088881"><ele>137</ele></trkpt>
            <trkpt lat="51.75428" lon="11.088941"><ele>137</ele></trkpt>
            <trkpt lat="51.754243" lon="11.08887"><ele>137</ele></trkpt>
            <trkpt lat="51.754194" lon="11.088917"><ele>137</ele></trkpt>
            <trkpt lat="51.754076" lon="11.089007"><ele>138</ele></trkpt>
            <trkpt lat="51.753925" lon="11.089119"><ele>138</ele></trkpt>
            <trkpt lat="51.753749" lon="11.088967"><ele>138</ele></trkpt>
            <trkpt lat="51.753544" lon="11.088896"><ele>138</ele></trkpt>
            <trkpt lat="51.753519" lon="11.088755"><ele>138</ele></trkpt>
            <trkpt lat="51.753456" lon="11.088633"><ele>138</ele></trkpt>
            <trkpt lat="51.753253" lon="11.08827"><ele>139.1</ele></trkpt>
            <trkpt lat="51.753039" lon="11.087755"><ele>139.4</ele></trkpt>
            <trkpt lat="51.752921" lon="11.087561"><ele>139.5</ele></trkpt>
            <trkpt lat="51.752721" lon="11.087368"><ele>139.7</ele></trkpt>
            <trkpt lat="51.752281" lon="11.087039"><ele>140</ele></trkpt>
            <trkpt lat="51.751792" lon="11.086481"><ele>139.9</ele></trkpt>
            <trkpt lat="51.75169" lon="11.086404"><ele>140</ele></trkpt>
            <trkpt lat="51.751576" lon="11.086351"><ele>141</ele></trkpt>
            <trkpt lat="51.751463" lon="11.086298"><ele>141</ele></trkpt>
            <trkpt lat="51.751216" lon="11.086185"><ele>141</ele></trkpt>
            <trkpt lat="51.750734" lon="11.086023"><ele>141</ele></trkpt>
            <trkpt lat="51.750744" lon="11.085783"><ele>140</ele></trkpt>
            <trkpt lat="51.750453" lon="11.085752"><ele>140.3</ele></trkpt>
            <trkpt lat="51.750362" lon="11.085788"><ele>140.2</ele></trkpt>
            <trkpt lat="51.750294" lon="11.085843"><ele>140.3</ele></trkpt>
            <trkpt lat="51.750255" lon="11.085907"><ele>140.4</ele></trkpt>
            <trkpt lat="51.750151" lon="11.086247"><ele>141</ele></trkpt>
            <trkpt lat="51.750141" lon="11.086278"><ele>141</ele></trkpt>
            <trkpt lat="51.750062" lon="11.08633"><ele>141</ele></trkpt>
            <trkpt lat="51.749948" lon="11.086462"><ele>142</ele></trkpt>
            <trkpt lat="51.749889" lon="11.086518"><ele>142</ele></trkpt>
            <trkpt lat="51.749755" lon="11.086405"><ele>142</ele></trkpt>
            <trkpt lat="51.749656" lon="11.086379"><ele>142</ele></trkpt>
            <trkpt lat="51.749496" lon="11.08642"><ele>142</ele></trkpt>
            <trkpt lat="51.749448" lon="11.086533"><ele>142</ele></trkpt>
            <trkpt lat="51.74927" lon="11.086572"><ele>143.9</ele></trkpt>
            <trkpt lat="51.749097" lon="11.086665"><ele>144.3</ele></trkpt>
            <trkpt lat="51.748908" lon="11.08668"><ele>144.8</ele></trkpt>
            <trkpt lat="51.748853" lon="11.086721"><ele>148</ele></trkpt>
            <trkpt lat="51.748742" lon="11.086563"><ele>148.1</ele></trkpt>
            <trkpt lat="51.748599" lon="11.086463"><ele>148.5</ele></trkpt>
            <trkpt lat="51.748289" lon="11.086436"><ele>154</ele></trkpt>
            <trkpt lat="51.747898" lon="11.086407"><ele>154</ele></trkpt>
            <trkpt lat="51.747367" lon="11.086282"><ele>159</ele></trkpt>
            <trkpt lat="51.747165" lon="11.08626"><ele>159</ele></trkpt>
            <trkpt lat="51.746415" lon="11.086162"><ele>163</ele></trkpt>
            <trkpt lat="51.745977" lon="11.086108"><ele>163</ele></trkpt>
            <trkpt lat="51.745849" lon="11.086086"><ele>163</ele></trkpt>
            <trkpt lat="51.745831" lon="11.086082"><ele>164</ele></trkpt>
            <trkpt lat="51.745644" lon="11.086051"><ele>164</ele></trkpt>
            <trkpt lat="51.745504" lon="11.086024"><ele>164</ele></trkpt>
            <trkpt lat="51.745388" lon="11.086002"><ele>164</ele></trkpt>
            <trkpt lat="51.745311" lon="11.085992"><ele>164</ele></trkpt>
            <trkpt lat="51.745214" lon="11.085984"><ele>164</ele></trkpt>
            <trkpt lat="51.744883" lon="11.086007"><ele>166</ele></trkpt>
            <trkpt lat="51.744617" lon="11.086033"><ele>166</ele></trkpt>
            <trkpt lat="51.744495" lon="11.086041"><ele>166</ele></trkpt>
            <trkpt lat="51.744266" lon="11.08607"><ele>166</ele></trkpt>
            <trkpt lat="51.743868" lon="11.086139"><ele>169</ele></trkpt>
            <trkpt lat="51.743422" lon="11.086204"><ele>169</ele></trkpt>
            <trkpt lat="51.743314" lon="11.086184"><ele>169</ele></trkpt>
            <trkpt lat="51.743257" lon="11.086132"><ele>169</ele></trkpt>
            <trkpt lat="51.742847" lon="11.085739"><ele>169.7</ele></trkpt>
            <trkpt lat="51.742771" lon="11.085706"><ele>170</ele></trkpt>
            <trkpt lat="51.74252" lon="11.085712"><ele>170</ele></trkpt>
            <trkpt lat="51.742" lon="11.085641"><ele>171</ele></trkpt>
            <trkpt lat="51.741975" lon="11.085702"><ele>171</ele></trkpt>
            <trkpt lat="51.741966" lon="11.085778"><ele>171</ele></trkpt>
            <trkpt lat="51.741991" lon="11.085901"><ele>171</ele></trkpt>
            <trkpt lat="51.742037" lon="11.085976"><ele>171</ele></trkpt>
            <trkpt lat="51.741973" lon="11.086118"><ele>175.3</ele></trkpt>
            <trkpt lat="51.741748" lon="11.086313"><ele>175.4</ele></trkpt>
            <trkpt lat="51.741644" lon="11.086447"><ele>175.9</ele></trkpt>
            <trkpt lat="51.741419" lon="11.086661"><ele>176.7</ele></trkpt>
            <trkpt lat="51.741165" lon="11.08684"><ele>177.4</ele></trkpt>
            <trkpt lat="51.740966" lon="11.08689"><ele>177.6</ele></trkpt>
            <trkpt lat="51.740344" lon="11.08692"><ele>181</ele></trkpt>
            <trkpt lat="51.739958" lon="11.086801"><ele>182.3</ele></trkpt>
            <trkpt lat="51.739591" lon="11.08655"><ele>184.3</ele></trkpt>
            <trkpt lat="51.738991" lon="11.086337"><ele>186.4</ele></trkpt>
            <trkpt lat="51.738206" lon="11.086262"><ele>188.3</ele></trkpt>
            <trkpt lat="51.738069" lon="11.086204"><ele>188</ele></trkpt>
            <trkpt lat="51.737845" lon="11.086048"><ele>187.7</ele></trkpt>
            <trkpt lat="51.737389" lon="11.085832"><ele>186.9</ele></trkpt>
            <trkpt lat="51.737027" lon="11.085586"><ele>186.5</ele></trkpt>
            <trkpt lat="51.736828" lon="11.085347"><ele>187</ele></trkpt>
            <trkpt lat="51.736645" lon="11.085082"><ele>187</ele></trkpt>
            <trkpt lat="51.736616" lon="11.085061"><ele>186.9</ele></trkpt>
            <trkpt lat="51.736586" lon="11.085069"><ele>186.7</ele></trkpt>
            <trkpt lat="51.736321" lon="11.085225"><ele>186.6</ele></trkpt>
            <trkpt lat="51.735958" lon="11.08538"><ele>186.6</ele></trkpt>
            <trkpt lat="51.735016" lon="11.085546"><ele>187</ele></trkpt>
            <trkpt lat="51.73423" lon="11.085645"><ele>187.4</ele></trkpt>
            <trkpt lat="51.733972" lon="11.085626"><ele>188</ele></trkpt>
            <trkpt lat="51.733912" lon="11.085594"><ele>188</ele></trkpt>
            <trkpt lat="51.73388" lon="11.085621"><ele>187.2</ele></trkpt>
            <trkpt lat="51.733463" lon="11.08562"><ele>187.4</ele></trkpt>
            <trkpt lat="51.732999" lon="11.085505"><ele>186.9</ele></trkpt>
            <trkpt lat="51.732843" lon="11.085494"><ele>185</ele></trkpt>
            <trkpt lat="51.732565" lon="11.085558"><ele>185</ele></trkpt>
            <trkpt lat="51.732471" lon="11.08558"><ele>186</ele></trkpt>
            <trkpt lat="51.732376" lon="11.085657"><ele>186</ele></trkpt>
            <trkpt lat="51.732337" lon="11.085721"><ele>186</ele></trkpt>
            <trkpt lat="51.732107" lon="11.086399"><ele>190</ele></trkpt>
            <trkpt lat="51.731976" lon="11.086662"><ele>191.3</ele></trkpt>
            <trkpt lat="51.731882" lon="11.086753"><ele>195</ele></trkpt>
            <trkpt lat="51.731836" lon="11.086793"><ele>195</ele></trkpt>
            <trkpt lat="51.731778" lon="11.086846"><ele>195</ele></trkpt>
            <trkpt lat="51.731743" lon="11.086935"><ele>195</ele></trkpt>
            <trkpt lat="51.731722" lon="11.086877"><ele>211.1</ele></trkpt>
            <trkpt lat="51.731675" lon="11.086842"><ele>209.1</ele></trkpt>
            <trkpt lat="51.731573" lon="11.086831"><ele>212.2</ele></trkpt>
            <trkpt lat="51.731482" lon="11.086874"><ele>214.9</ele></trkpt>
            <trkpt lat="51.731425" lon="11.086955"><ele>217.3</ele></trkpt>
            <trkpt lat="51.731391" lon="11.087093"><ele>234</ele></trkpt>
            <trkpt lat="51.731258" lon="11.086806"><ele>226.4</ele></trkpt>
            <trkpt lat="51.731183" lon="11.08595"><ele>221</ele></trkpt>
            <trkpt lat="51.731102" lon="11.086101"><ele>221</ele></trkpt>
            <trkpt lat="51.73109" lon="11.086369"><ele>244.2</ele></trkpt>
            <trkpt lat="51.730987" lon="11.086757"><ele>245.3</ele></trkpt>
            <trkpt lat="51.730881" lon="11.08704"><ele>246.4</ele></trkpt>
            <trkpt lat="51.730834" lon="11.087067"><ele>247</ele></trkpt>
            <trkpt lat="51.730776" lon="11.08688"><ele>247.6</ele></trkpt>
            <trkpt lat="51.730757" lon="11.086751"><ele>247.5</ele></trkpt>
            <trkpt lat="51.730712" lon="11.086718"><ele>247.4</ele></trkpt>
            <trkpt lat="51.730679" lon="11.086782"><ele>247.2</ele></trkpt>
            <trkpt lat="51.730681" lon="11.086866"><ele>247.1</ele></trkpt>
            <trkpt lat="51.730605" lon="11.087064"><ele>246.8</ele></trkpt>
            <trkpt lat="51.730582" lon="11.087082"><ele>246.7</ele></trkpt>
            <trkpt lat="51.730539" lon="11.086998"><ele>246.5</ele></trkpt>
            <trkpt lat="51.730522" lon="11.086889"><ele>246.4</ele></trkpt>
            <trkpt lat="51.730503" lon="11.086873"><ele>246.2</ele></trkpt>
            <trkpt lat="51.730459" lon="11.087042"><ele>245.8</ele></trkpt>
            <trkpt lat="51.73042" lon="11.087335"><ele>250</ele></trkpt>
            <trkpt lat="51.730165" lon="11.087276"><ele>256.4</ele></trkpt>
            <trkpt lat="51.729886" lon="11.087397"><ele>258.3</ele></trkpt>
            <trkpt lat="51.729667" lon="11.087448"><ele>260</ele></trkpt>
            <trkpt lat="51.729329" lon="11.087442"><ele>270</ele></trkpt>
            <trkpt lat="51.729212" lon="11.087241"><ele>288.8</ele></trkpt>
            <trkpt lat="51.728973" lon="11.086246"><ele>299.3</ele></trkpt>
            <trkpt lat="51.728814" lon="11.085795"><ele>299.7</ele></trkpt>
            <trkpt lat="51.728611" lon="11.085371"><ele>306.1</ele></trkpt>
            <trkpt lat="51.728388" lon="11.084757"><ele>313.7</ele></trkpt>
            <trkpt lat="51.728246" lon="11.084486"><ele>318.9</ele></trkpt>
            <trkpt lat="51.727821" lon="11.083914"><ele>327.2</ele></trkpt>
            <trkpt lat="51.727631" lon="11.08344"><ele>333.6</ele></trkpt>
            <trkpt lat="51.727468" lon="11.082976"><ele>336.5</ele></trkpt>
            <trkpt lat="51.727223" lon="11.082392"><ele>337.3</ele></trkpt>
            <trkpt lat="51.727072" lon="11.081868"><ele>344</ele></trkpt>
            <trkpt lat="51.727018" lon="11.08174"><ele>344</ele></trkpt>
            <trkpt lat="51.726963" lon="11.081606"><ele>346</ele></trkpt>
            <trkpt lat="51.72689" lon="11.081602"><ele>346</ele></trkpt>
            <trkpt lat="51.726815" lon="11.081559"><ele>346</ele></trkpt>
            <trkpt lat="51.726734" lon="11.081476"><ele>346</ele></trkpt>
            <trkpt lat="51.726558" lon="11.080927"><ele>341</ele></trkpt>
            <trkpt lat="51.726497" lon="11.08077"><ele>345.5</ele></trkpt>
            <trkpt lat="51.726429" lon="11.080651"><ele>345.1</ele></trkpt>
            <trkpt lat="51.726383" lon="11.080588"><ele>346.1</ele></trkpt>
            <trkpt lat="51.726296" lon="11.080469"><ele>347</ele></trkpt>
            <trkpt lat="51.72594" lon="11.08014"><ele>348.2</ele></trkpt>
            <trkpt lat="51.725856" lon="11.079994"><ele>352</ele></trkpt>
            <trkpt lat="51.725876" lon="11.079733"><ele>352</ele></trkpt>
            <trkpt lat="51.725896" lon="11.079229"><ele>355.7</ele></trkpt>
            <trkpt lat="51.725951" lon="11.078874"><ele>356.1</ele></trkpt>
            <trkpt lat="51.726136" lon="11.078353"><ele>356.6</ele></trkpt>
            <trkpt lat="51.726196" lon="11.078133"><ele>356.6</ele></trkpt>
            <trkpt lat="51.726205" lon="11.077778"><ele>357.1</ele></trkpt>
            <trkpt lat="51.726225" lon="11.077629"><ele>357.6</ele></trkpt>
            <trkpt lat="51.726388" lon="11.077272"><ele>358</ele></trkpt>
            <trkpt lat="51.726488" lon="11.076815"><ele>356.5</ele></trkpt>
            <trkpt lat="51.726503" lon="11.076516"><ele>356.5</ele></trkpt>
            <trkpt lat="51.726491" lon="11.076323"><ele>356.3</ele></trkpt>
            <trkpt lat="51.726434" lon="11.075958"><ele>353.3</ele></trkpt>
            <trkpt lat="51.726431" lon="11.07581"><ele>352.9</ele></trkpt>
            <trkpt lat="51.726468" lon="11.075563"><ele>351.5</ele></trkpt>
            <trkpt lat="51.726654" lon="11.075053"><ele>342.2</ele></trkpt>
            <trkpt lat="51.726752" lon="11.0747"><ele>339.2</ele></trkpt>
            <trkpt lat="51.726855" lon="11.074032"><ele>335.8</ele></trkpt>
            <trkpt lat="51.726934" lon="11.073132"><ele>304</ele></trkpt>
            <trkpt lat="51.726938" lon="11.073083"><ele>304</ele></trkpt>
            <trkpt lat="51.726941" lon="11.072898"><ele>303.3</ele></trkpt>
            <trkpt lat="51.726915" lon="11.072659"><ele>303.2</ele></trkpt>
            <trkpt lat="51.726819" lon="11.072284"><ele>303.6</ele></trkpt>
            <trkpt lat="51.726748" lon="11.071806"><ele>305.6</ele></trkpt>
            <trkpt lat="51.72668" lon="11.071661"><ele>306.8</ele></trkpt>
            <trkpt lat="51.726387" lon="11.071297"><ele>307.2</ele></trkpt>
            <trkpt lat="51.726261" lon="11.071049"><ele>306.4</ele></trkpt>
            <trkpt lat="51.726157" lon="11.070768"><ele>309</ele></trkpt>
            <trkpt lat="51.7261" lon="11.070535"><ele>309</ele></trkpt>
            <trkpt lat="51.726091" lon="11.070329"><ele>309</ele></trkpt>
            <trkpt lat="51.726103" lon="11.070266"><ele>309</ele></trkpt>
            <trkpt lat="51.726131" lon="11.070211"><ele>309</ele></trkpt>
            <trkpt lat="51.726176" lon="11.070183"><ele>309</ele></trkpt>
            <trkpt lat="51.726174" lon="11.070103"><ele>312.3</ele></trkpt>
            <trkpt lat="51.726089" lon="11.069815"><ele>319</ele></trkpt>
            <trkpt lat="51.726115" lon="11.069726"><ele>319</ele></trkpt>
            <trkpt lat="51.726083" lon="11.069668"><ele>319</ele></trkpt>
            <trkpt lat="51.725914" lon="11.069356"><ele>331.5</ele></trkpt>
            <trkpt lat="51.725673" lon="11.068785"><ele>345</ele></trkpt>
            <trkpt lat="51.725608" lon="11.068601"><ele>350.8</ele></trkpt>
            <trkpt lat="51.725224" lon="11.067787"><ele>356</ele></trkpt>
            <trkpt lat="51.725072" lon="11.067426"><ele>357.6</ele></trkpt>
            <trkpt lat="51.724936" lon="11.067037"><ele>359</ele></trkpt>
            <trkpt lat="51.724731" lon="11.066571"><ele>360.1</ele></trkpt>
            <trkpt lat="51.72447" lon="11.065758"><ele>358.7</ele></trkpt>
            <trkpt lat="51.724402" lon="11.065459"><ele>358</ele></trkpt>
            <trkpt lat="51.724343" lon="11.065184"><ele>358</ele></trkpt>
            <trkpt lat="51.724369" lon="11.065064"><ele>376.9</ele></trkpt>
            <trkpt lat="51.724368" lon="11.064668"><ele>381.6</ele></trkpt>
            <trkpt lat="51.724396" lon="11.064491"><ele>383.8</ele></trkpt>
            <trkpt lat="51.724424" lon="11.06401"><ele>385.8</ele></trkpt>
            <trkpt lat="51.724573" lon="11.063584"><ele>387.1</ele></trkpt>
            <trkpt lat="51.724656" lon="11.063436"><ele>387.8</ele></trkpt>
            <trkpt lat="51.724683" lon="11.063349"><ele>388.6</ele></trkpt>
            <trkpt lat="51.724732" lon="11.063297"><ele>389.4</ele></trkpt>
            <trkpt lat="51.724916" lon="11.063212"><ele>390.9</ele></trkpt>
            <trkpt lat="51.7253" lon="11.063152"><ele>389.8</ele></trkpt>
            <trkpt lat="51.725354" lon="11.063161"><ele>405</ele></trkpt>
            <trkpt lat="51.725522" lon="11.063202"><ele>412.6</ele></trkpt>
            <trkpt lat="51.725609" lon="11.063187"><ele>413.3</ele></trkpt>
            <trkpt lat="51.725741" lon="11.063269"><ele>414.9</ele></trkpt>
            <trkpt lat="51.725843" lon="11.063286"><ele>415.8</ele></trkpt>
            <trkpt lat="51.725977" lon="11.063217"><ele>415.2</ele></trkpt>
            <trkpt lat="51.726046" lon="11.063126"><ele>414.9</ele></trkpt>
            <trkpt lat="51.72622" lon="11.062994"><ele>419</ele></trkpt>
            <trkpt lat="51.72625" lon="11.062798"><ele>419</ele></trkpt>
            <trkpt lat="51.726511" lon="11.062623"><ele>419</ele></trkpt>
            <trkpt lat="51.726744" lon="11.06258"><ele>421</ele></trkpt>
            <trkpt lat="51.726791" lon="11.062545"><ele>424</ele></trkpt>
            <trkpt lat="51.726946" lon="11.062598"><ele>421.6</ele></trkpt>
            <trkpt lat="51.727921" lon="11.062638"><ele>416</ele></trkpt>
            <trkpt lat="51.728029" lon="11.062787"><ele>414.4</ele></trkpt>
            <trkpt lat="51.728241" lon="11.063151"><ele>414.8</ele></trkpt>
            <trkpt lat="51.728367" lon="11.063301"><ele>410</ele></trkpt>
            <trkpt lat="51.728412" lon="11.0633"><ele>410</ele></trkpt>
            <trkpt lat="51.72845" lon="11.063245"><ele>410</ele></trkpt>
            <trkpt lat="51.728589" lon="11.062959"><ele>409.7</ele></trkpt>
            <trkpt lat="51.728749" lon="11.06284"><ele>409.8</ele></trkpt>
            <trkpt lat="51.728827" lon="11.062588"><ele>409.8</ele></trkpt>
            <trkpt lat="51.728854" lon="11.062451"><ele>409.7</ele></trkpt>
            <trkpt lat="51.728862" lon="11.062278"><ele>409.7</ele></trkpt>
            <trkpt lat="51.728858" lon="11.061897"><ele>409.7</ele></trkpt>
            <trkpt lat="51.728877" lon="11.061757"><ele>409.6</ele></trkpt>
            <trkpt lat="51.729004" lon="11.061229"><ele>409.6</ele></trkpt>
            <trkpt lat="51.729006" lon="11.060993"><ele>409.6</ele></trkpt>
            <trkpt lat="51.729046" lon="11.060628"><ele>409.6</ele></trkpt>
            <trkpt lat="51.729135" lon="11.060139"><ele>409.8</ele></trkpt>
            <trkpt lat="51.729307" lon="11.059552"><ele>407</ele></trkpt>
            <trkpt lat="51.72935" lon="11.059074"><ele>407.8</ele></trkpt>
            <trkpt lat="51.729353" lon="11.058601"><ele>407.8</ele></trkpt>
            <trkpt lat="51.729332" lon="11.058349"><ele>407.8</ele></trkpt>
            <trkpt lat="51.729275" lon="11.058113"><ele>407.8</ele></trkpt>
            <trkpt lat="51.729209" lon="11.057917"><ele>407.8</ele></trkpt>
            <trkpt lat="51.729184" lon="11.05776"><ele>407.9</ele></trkpt>
            <trkpt lat="51.729208" lon="11.057142"><ele>407.9</ele></trkpt>
            <trkpt lat="51.729215" lon="11.056945"><ele>408</ele></trkpt>
            <trkpt lat="51.729175" lon="11.056618"><ele>408</ele></trkpt>
            <trkpt lat="51.729219" lon="11.055891"><ele>408</ele></trkpt>
            <trkpt lat="51.729375" lon="11.055506"><ele>408</ele></trkpt>
            <trkpt lat="51.729463" lon="11.055351"><ele>408</ele></trkpt>
            <trkpt lat="51.729608" lon="11.055202"><ele>408</ele></trkpt>
            <trkpt lat="51.729814" lon="11.055198"><ele>408</ele></trkpt>
            <trkpt lat="51.72994" lon="11.055278"><ele>408</ele></trkpt>
            <trkpt lat="51.73015" lon="11.055448"><ele>404</ele></trkpt>
            <trkpt lat="51.730114" lon="11.05557"><ele>400.3</ele></trkpt>
            <trkpt lat="51.730137" lon="11.05574"><ele>400.2</ele></trkpt>
            <trkpt lat="51.730203" lon="11.055889"><ele>400.5</ele></trkpt>
            <trkpt lat="51.730749" lon="11.056656"><ele>399.1</ele></trkpt>
            <trkpt lat="51.731013" lon="11.05695"><ele>397.8</ele></trkpt>
            <trkpt lat="51.73114" lon="11.057165"><ele>396.2</ele></trkpt>
            <trkpt lat="51.731264" lon="11.057524"><ele>394.3</ele></trkpt>
            <trkpt lat="51.731388" lon="11.058078"><ele>388</ele></trkpt>
            <trkpt lat="51.731396" lon="11.05812"><ele>388</ele></trkpt>
            <trkpt lat="51.731548" lon="11.058532"><ele>381.6</ele></trkpt>
            <trkpt lat="51.731595" lon="11.058702"><ele>381.9</ele></trkpt>
            <trkpt lat="51.731629" lon="11.059045"><ele>381.1</ele></trkpt>
            <trkpt lat="51.731624" lon="11.059475"><ele>379.9</ele></trkpt>
            <trkpt lat="51.731534" lon="11.060486"><ele>377.7</ele></trkpt>
            <trkpt lat="51.73161" lon="11.060771"><ele>377.6</ele></trkpt>
            <trkpt lat="51.731673" lon="11.060923"><ele>374.6</ele></trkpt>
            <trkpt lat="51.731673" lon="11.061207"><ele>372.8</ele></trkpt>
            <trkpt lat="51.731713" lon="11.061464"><ele>369.7</ele></trkpt>
            <trkpt lat="51.731774" lon="11.061588"><ele>368.1</ele></trkpt>
            <trkpt lat="51.731787" lon="11.061795"><ele>364.1</ele></trkpt>
            <trkpt lat="51.731767" lon="11.061965"><ele>344</ele></trkpt>
            <trkpt lat="51.731782" lon="11.062577"><ele>338</ele></trkpt>
            <trkpt lat="51.731845" lon="11.062977"><ele>338</ele></trkpt>
            <trkpt lat="51.73185" lon="11.063336"><ele>337.3</ele></trkpt>
            <trkpt lat="51.731971" lon="11.063735"><ele>335.5</ele></trkpt>
            <trkpt lat="51.732012" lon="11.063985"><ele>335.8</ele></trkpt>
            <trkpt lat="51.732081" lon="11.064122"><ele>335.5</ele></trkpt>
            <trkpt lat="51.732163" lon="11.064183"><ele>336.3</ele></trkpt>
            <trkpt lat="51.732667" lon="11.064256"><ele>329.7</ele></trkpt>
            <trkpt lat="51.732918" lon="11.064351"><ele>325.7</ele></trkpt>
            <trkpt lat="51.73302" lon="11.06446"><ele>321.2</ele></trkpt>
            <trkpt lat="51.733148" lon="11.064646"><ele>316.9</ele></trkpt>
            <trkpt lat="51.733428" lon="11.064958"><ele>306.7</ele></trkpt>
            <trkpt lat="51.733498" lon="11.065085"><ele>305.1</ele></trkpt>
            <trkpt lat="51.733717" lon="11.06561"><ele>302.1</ele></trkpt>
            <trkpt lat="51.733808" lon="11.065763"><ele>299.6</ele></trkpt>
            <trkpt lat="51.73391" lon="11.065844"><ele>297.7</ele></trkpt>
            <trkpt lat="51.734039" lon="11.065793"><ele>296.6</ele></trkpt>
            <trkpt lat="51.734181" lon="11.065664"><ele>293.6</ele></trkpt>
            <trkpt lat="51.734268" lon="11.065642"><ele>291.2</ele></trkpt>
            <trkpt lat="51.734367" lon="11.065655"><ele>288.2</ele></trkpt>
            <trkpt lat="51.73469" lon="11.06594"><ele>285.8</ele></trkpt>
            <trkpt lat="51.735139" lon="11.06645"><ele>278.9</ele></trkpt>
            <trkpt lat="51.735375" lon="11.066861"><ele>273.1</ele></trkpt>
            <trkpt lat="51.735473" lon="11.067124"><ele>272.6</ele></trkpt>
            <trkpt lat="51.73581" lon="11.067581"><ele>279</ele></trkpt>
            <trkpt lat="51.736014" lon="11.067693"><ele>248</ele></trkpt>
            <trkpt lat="51.736513" lon="11.068177"><ele>248</ele></trkpt>
            <trkpt lat="51.736561" lon="11.068224"><ele>242.6</ele></trkpt>
            <trkpt lat="51.736752" lon="11.068731"><ele>239.5</ele></trkpt>
            <trkpt lat="51.737141" lon="11.069192"><ele>234.9</ele></trkpt>
            <trkpt lat="51.737944" lon="11.070364"><ele>220.3</ele></trkpt>
            <trkpt lat="51.738287" lon="11.07072"><ele>218.3</ele></trkpt>
            <trkpt lat="51.739243" lon="11.07091"><ele>209</ele></trkpt>
            <trkpt lat="51.739712" lon="11.070556"><ele>206</ele></trkpt>
            <trkpt lat="51.739777" lon="11.070507"><ele>206</ele></trkpt>
            <trkpt lat="51.739824" lon="11.070473"><ele>206</ele></trkpt>
            <trkpt lat="51.740213" lon="11.070202"><ele>202.7</ele></trkpt>
            <trkpt lat="51.740432" lon="11.070137"><ele>201</ele></trkpt>
            <trkpt lat="51.7407" lon="11.070348"><ele>197.3</ele></trkpt>
            <trkpt lat="51.74113" lon="11.070567"><ele>195.9</ele></trkpt>
            <trkpt lat="51.741918" lon="11.070711"><ele>191.4</ele></trkpt>
            <trkpt lat="51.742396" lon="11.070542"><ele>189.3</ele></trkpt>
            <trkpt lat="51.74262" lon="11.070549"><ele>180</ele></trkpt>
            <trkpt lat="51.742731" lon="11.070537"><ele>180</ele></trkpt>
            <trkpt lat="51.742756" lon="11.070563"><ele>180</ele></trkpt>
            <trkpt lat="51.742948" lon="11.070597"><ele>180.6</ele></trkpt>
            <trkpt lat="51.74312" lon="11.07067"><ele>180.5</ele></trkpt>
            <trkpt lat="51.743357" lon="11.070973"><ele>180.1</ele></trkpt>
            <trkpt lat="51.743557" lon="11.07129"><ele>179.8</ele></trkpt>
            <trkpt lat="51.743873" lon="11.071716"><ele>183</ele></trkpt>
            <trkpt lat="51.743969" lon="11.071793"><ele>183</ele></trkpt>
            <trkpt lat="51.744745" lon="11.072396"><ele>167.2</ele></trkpt>
            <trkpt lat="51.74516" lon="11.072796"><ele>165.6</ele></trkpt>
            <trkpt lat="51.74538" lon="11.07297"><ele>158</ele></trkpt>
            <trkpt lat="51.745743" lon="11.073616"><ele>158.3</ele></trkpt>
            <trkpt lat="51.745967" lon="11.073969"><ele>157.9</ele></trkpt>
            <trkpt lat="51.746219" lon="11.074436"><ele>160</ele></trkpt>
            <trkpt lat="51.746325" lon="11.074605"><ele>161.1</ele></trkpt>
            <trkpt lat="51.746395" lon="11.074758"><ele>161</ele></trkpt>
            <trkpt lat="51.746505" lon="11.075162"><ele>161.2</ele></trkpt>
            <trkpt lat="51.746636" lon="11.07619"><ele>162.7</ele></trkpt>
            <trkpt lat="51.746716" lon="11.076546"><ele>161</ele></trkpt>
            <trkpt lat="51.746797" lon="11.076906"><ele>163.2</ele></trkpt>
            <trkpt lat="51.74691" lon="11.077259"><ele>163.5</ele></trkpt>
            <trkpt lat="51.747153" lon="11.077934"><ele>164.2</ele></trkpt>
            <trkpt lat="51.747244" lon="11.078114"><ele>164.4</ele></trkpt>
            <trkpt lat="51.747555" lon="11.078388"><ele>164.3</ele></trkpt>
            <trkpt lat="51.747714" lon="11.078486"><ele>157</ele></trkpt>
            <trkpt lat="51.747856" lon="11.078463"><ele>157</ele></trkpt>
            <trkpt lat="51.748663" lon="11.08142"><ele>147</ele></trkpt>
            <trkpt lat="51.748743" lon="11.081591"><ele>147</ele></trkpt>
            <trkpt lat="51.750281" lon="11.083595"><ele>139</ele></trkpt>
            <trkpt lat="51.750549" lon="11.08395"><ele>139</ele></trkpt>
            <trkpt lat="51.750728" lon="11.084189"><ele>139</ele></trkpt>
            <trkpt lat="51.750818" lon="11.084225"><ele>139</ele></trkpt>
            <trkpt lat="51.751474" lon="11.083578"><ele>140</ele></trkpt>
            <trkpt lat="51.751594" lon="11.08346"><ele>140</ele></trkpt>
            <trkpt lat="51.751756" lon="11.083295"><ele>140</ele></trkpt>
            <trkpt lat="51.751799" lon="11.083359"><ele>139</ele></trkpt>
            <trkpt lat="51.751895" lon="11.083335"><ele>139.3</ele></trkpt>
            <trkpt lat="51.751988" lon="11.083263"><ele>140</ele></trkpt>
            <trkpt lat="51.752051" lon="11.083214"><ele>140</ele></trkpt>
            <trkpt lat="51.752406" lon="11.084478"><ele>139</ele></trkpt>
            <trkpt lat="51.752585" lon="11.085035"><ele>138</ele></trkpt>
            <trkpt lat="51.75369" lon="11.087366"><ele>138</ele></trkpt>
            <trkpt lat="51.754301" lon="11.088664"><ele>137</ele></trkpt>
            <trkpt lat="51.75441" lon="11.088578"><ele>137</ele></trkpt>
            <trkpt lat="51.754521" lon="11.088522"><ele>137</ele></trkpt>
            <trkpt lat="51.754586" lon="11.088481"><ele>137</ele></trkpt>
            <trkpt lat="51.754626" lon="11.088416"><ele>137.4</ele></trkpt>
            <trkpt lat="51.754674" lon="11.088219"><ele>138</ele></trkpt>
            <trkpt lat="51.754839" lon="11.088148"><ele>138</ele></trkpt>
            <trkpt lat="51.754881" lon="11.088154"><ele>138</ele></trkpt>
            <trkpt lat="51.754986" lon="11.087992"><ele>138.6</ele></trkpt>
            <trkpt lat="51.755059" lon="11.087916"><ele>138.8</ele></trkpt>
            <trkpt lat="51.755126" lon="11.087917"><ele>139.1</ele></trkpt>
            <trkpt lat="51.755203" lon="11.088019"><ele>139.2</ele></trkpt>
            <trkpt lat="51.755391" lon="11.088363"><ele>138</ele></trkpt>
            <trkpt lat="51.755419" lon="11.088344"><ele>138</ele></trkpt>
            <trkpt lat="51.755927" lon="11.087929"><ele>141</ele></trkpt>
            <trkpt lat="51.756066" lon="11.087827"><ele>141</ele></trkpt>
            <trkpt lat="51.75603" lon="11.087653"><ele>141</ele></trkpt>
            <trkpt lat="51.755997" lon="11.087347"><ele>141</ele></trkpt>
        </trkseg>
    </trk>
</gpx>
