<?xml version="1.0" encoding="UTF-8"?>
<gpx version="1.1" creator="HWN Route Compare (OpenRouteService)" xmlns="http://www.topografix.com/GPX/1/1">
    <metadata>
        <name>OpenRouteService – Tour F3</name>
    </metadata>
    <trk>
        <name>OpenRouteService – Tour F3</name>
        <trkseg>
            <trkpt lat="51.660913" lon="11.126283"><ele>368</ele></trkpt>
            <trkpt lat="51.660917" lon="11.126274"><ele>367.5</ele></trkpt>
            <trkpt lat="51.660962" lon="11.126217"><ele>373</ele></trkpt>
            <trkpt lat="51.660933" lon="11.126152"><ele>373</ele></trkpt>
            <trkpt lat="51.660861" lon="11.126092"><ele>373</ele></trkpt>
            <trkpt lat="51.660812" lon="11.126221"><ele>358.7</ele></trkpt>
            <trkpt lat="51.66078" lon="11.126271"><ele>359.6</ele></trkpt>
            <trkpt lat="51.660647" lon="11.12639"><ele>360.8</ele></trkpt>
            <trkpt lat="51.660593" lon="11.12654"><ele>362.3</ele></trkpt>
            <trkpt lat="51.66054" lon="11.12661"><ele>363.4</ele></trkpt>
            <trkpt lat="51.660498" lon="11.126639"><ele>363.9</ele></trkpt>
            <trkpt lat="51.660341" lon="11.126678"><ele>364.4</ele></trkpt>
            <trkpt lat="51.660251" lon="11.126677"><ele>364.2</ele></trkpt>
            <trkpt lat="51.660148" lon="11.126638"><ele>364.5</ele></trkpt>
            <trkpt lat="51.660107" lon="11.126659"><ele>365.1</ele></trkpt>
            <trkpt lat="51.660085" lon="11.126698"><ele>365.6</ele></trkpt>
            <trkpt lat="51.660024" lon="11.126945"><ele>365.9</ele></trkpt>
            <trkpt lat="51.659995" lon="11.127268"><ele>365.8</ele></trkpt>
            <trkpt lat="51.660017" lon="11.127856"><ele>365.9</ele></trkpt>
            <trkpt lat="51.660046" lon="11.128048"><ele>365.9</ele></trkpt>
            <trkpt lat="51.660054" lon="11.128386"><ele>366.7</ele></trkpt>
            <trkpt lat="51.660041" lon="11.128602"><ele>366.7</ele></trkpt>
            <trkpt lat="51.659979" lon="11.128889"><ele>379</ele></trkpt>
            <trkpt lat="51.659935" lon="11.128986"><ele>378.1</ele></trkpt>
            <trkpt lat="51.659872" lon="11.129026"><ele>378</ele></trkpt>
            <trkpt lat="51.659784" lon="11.129032"><ele>377.9</ele></trkpt>
            <trkpt lat="51.659715" lon="11.128991"><ele>377.5</ele></trkpt>
            <trkpt lat="51.659592" lon="11.12877"><ele>377.4</ele></trkpt>
            <trkpt lat="51.659233" lon="11.128336"><ele>373.8</ele></trkpt>
            <trkpt lat="51.659065" lon="11.128093"><ele>368.2</ele></trkpt>
            <trkpt lat="51.658955" lon="11.127989"><ele>365.7</ele></trkpt>
            <trkpt lat="51.658686" lon="11.127755"><ele>359.9</ele></trkpt>
            <trkpt lat="51.657884" lon="11.127397"><ele>356.3</ele></trkpt>
            <trkpt lat="51.65782" lon="11.127404"><ele>357.2</ele></trkpt>
            <trkpt lat="51.657719" lon="11.127458"><ele>357.5</ele></trkpt>
            <trkpt lat="51.657579" lon="11.127599"><ele>357.7</ele></trkpt>
            <trkpt lat="51.657504" lon="11.127811"><ele>356.8</ele></trkpt>
            <trkpt lat="51.657466" lon="11.127872"><ele>356.4</ele></trkpt>
            <trkpt lat="51.657325" lon="11.127797"><ele>356.5</ele></trkpt>
            <trkpt lat="51.657255" lon="11.127844"><ele>356.6</ele></trkpt>
            <trkpt lat="51.6572" lon="11.127919"><ele>356.7</ele></trkpt>
            <trkpt lat="51.657077" lon="11.127922"><ele>355</ele></trkpt>
            <trkpt lat="51.656899" lon="11.127925"><ele>355</ele></trkpt>
            <trkpt lat="51.656884" lon="11.127925"><ele>355</ele></trkpt>
            <trkpt lat="51.656771" lon="11.12802"><ele>367.8</ele></trkpt>
            <trkpt lat="51.656706" lon="11.128035"><ele>369</ele></trkpt>
            <trkpt lat="51.656479" lon="11.127984"><ele>370.5</ele></trkpt>
            <trkpt lat="51.65637" lon="11.12801"><ele>370.5</ele></trkpt>
            <trkpt lat="51.656105" lon="11.127902"><ele>372.8</ele></trkpt>
            <trkpt lat="51.655891" lon="11.127739"><ele>376.8</ele></trkpt>
            <trkpt lat="51.655667" lon="11.127506"><ele>377.9</ele></trkpt>
            <trkpt lat="51.655087" lon="11.126791"><ele>385</ele></trkpt>
            <trkpt lat="51.654984" lon="11.126725"><ele>386</ele></trkpt>
            <trkpt lat="51.654871" lon="11.12672"><ele>384.8</ele></trkpt>
            <trkpt lat="51.654743" lon="11.126591"><ele>390</ele></trkpt>
            <trkpt lat="51.65465" lon="11.1264"><ele>390</ele></trkpt>
            <trkpt lat="51.654619" lon="11.126287"><ele>390</ele></trkpt>
            <trkpt lat="51.654599" lon="11.126049"><ele>390</ele></trkpt>
            <trkpt lat="51.654575" lon="11.125749"><ele>375.4</ele></trkpt>
            <trkpt lat="51.654482" lon="11.12503"><ele>372.1</ele></trkpt>
            <trkpt lat="51.654438" lon="11.124425"><ele>370.9</ele></trkpt>
            <trkpt lat="51.65443" lon="11.123695"><ele>369.1</ele></trkpt>
            <trkpt lat="51.654444" lon="11.123441"><ele>362</ele></trkpt>
            <trkpt lat="51.654392" lon="11.123245"><ele>373.7</ele></trkpt>
            <trkpt lat="51.654278" lon="11.123151"><ele>375.3</ele></trkpt>
            <trkpt lat="51.654138" lon="11.123112"><ele>377.2</ele></trkpt>
            <trkpt lat="51.653912" lon="11.122985"><ele>384</ele></trkpt>
            <trkpt lat="51.653902" lon="11.122878"><ele>384</ele></trkpt>
            <trkpt lat="51.6543" lon="11.122494"><ele>367.2</ele></trkpt>
            <trkpt lat="51.654431" lon="11.122212"><ele>367.4</ele></trkpt>
            <trkpt lat="51.654462" lon="11.12197"><ele>367.6</ele></trkpt>
            <trkpt lat="51.654499" lon="11.121191"><ele>368.1</ele></trkpt>
            <trkpt lat="51.654652" lon="11.120224"><ele>365</ele></trkpt>
            <trkpt lat="51.654672" lon="11.120056"><ele>358.8</ele></trkpt>
            <trkpt lat="51.654765" lon="11.11963"><ele>357.6</ele></trkpt>
            <trkpt lat="51.654923" lon="11.119071"><ele>350</ele></trkpt>
            <trkpt lat="51.654907" lon="11.119033"><ele>344.2</ele></trkpt>
            <trkpt lat="51.65483" lon="11.118503"><ele>342.1</ele></trkpt>
            <trkpt lat="51.654744" lon="11.118199"><ele>341.2</ele></trkpt>
            <trkpt lat="51.654548" lon="11.117978"><ele>341.7</ele></trkpt>
            <trkpt lat="51.654494" lon="11.117891"><ele>342.2</ele></trkpt>
            <trkpt lat="51.654364" lon="11.117816"><ele>337</ele></trkpt>
            <trkpt lat="51.654281" lon="11.11788"><ele>336.6</ele></trkpt>
            <trkpt lat="51.654003" lon="11.117911"><ele>336.5</ele></trkpt>
            <trkpt lat="51.653862" lon="11.117977"><ele>336.4</ele></trkpt>
            <trkpt lat="51.653703" lon="11.1181"><ele>336</ele></trkpt>
            <trkpt lat="51.653518" lon="11.11819"><ele>336.3</ele></trkpt>
            <trkpt lat="51.653367" lon="11.118184"><ele>336.3</ele></trkpt>
            <trkpt lat="51.653156" lon="11.11812"><ele>336.4</ele></trkpt>
            <trkpt lat="51.652886" lon="11.117993"><ele>336.3</ele></trkpt>
            <trkpt lat="51.652682" lon="11.117866"><ele>336.2</ele></trkpt>
            <trkpt lat="51.652558" lon="11.117725"><ele>336</ele></trkpt>
            <trkpt lat="51.652486" lon="11.11761"><ele>333</ele></trkpt>
            <trkpt lat="51.652412" lon="11.117601"><ele>333</ele></trkpt>
            <trkpt lat="51.652412" lon="11.117538"><ele>333</ele></trkpt>
            <trkpt lat="51.652198" lon="11.117489"><ele>332.6</ele></trkpt>
            <trkpt lat="51.65189" lon="11.117486"><ele>332.7</ele></trkpt>
            <trkpt lat="51.651782" lon="11.117513"><ele>332.8</ele></trkpt>
            <trkpt lat="51.651673" lon="11.117585"><ele>333</ele></trkpt>
            <trkpt lat="51.651568" lon="11.117628"><ele>327.5</ele></trkpt>
            <trkpt lat="51.650813" lon="11.118282"><ele>325</ele></trkpt>
            <trkpt lat="51.650704" lon="11.118384"><ele>328.8</ele></trkpt>
            <trkpt lat="51.650383" lon="11.118572"><ele>329.6</ele></trkpt>
            <trkpt lat="51.650289" lon="11.118662"><ele>330.1</ele></trkpt>
            <trkpt lat="51.650196" lon="11.118681"><ele>330.6</ele></trkpt>
            <trkpt lat="51.65004" lon="11.118656"><ele>331.7</ele></trkpt>
            <trkpt lat="51.649963" lon="11.118611"><ele>332.4</ele></trkpt>
            <trkpt lat="51.649842" lon="11.118485"><ele>344</ele></trkpt>
            <trkpt lat="51.649895" lon="11.118634"><ele>336.7</ele></trkpt>
            <trkpt lat="51.650076" lon="11.118838"><ele>336.3</ele></trkpt>
            <trkpt lat="51.650151" lon="11.11887"><ele>336.9</ele></trkpt>
            <trkpt lat="51.650178" lon="11.118931"><ele>337.5</ele></trkpt>
            <trkpt lat="51.65019" lon="11.119015"><ele>338.2</ele></trkpt>
            <trkpt lat="51.650171" lon="11.119107"><ele>339</ele></trkpt>
            <trkpt lat="51.650085" lon="11.11929"><ele>339.8</ele></trkpt>
            <trkpt lat="51.650117" lon="11.11949"><ele>340</ele></trkpt>
            <trkpt lat="51.64998" lon="11.119951"><ele>357</ele></trkpt>
            <trkpt lat="51.649898" lon="11.120025"><ele>365.8</ele></trkpt>
            <trkpt lat="51.64984" lon="11.120034"><ele>371</ele></trkpt>
            <trkpt lat="51.649803" lon="11.120035"><ele>371</ele></trkpt>
            <trkpt lat="51.649735" lon="11.119971"><ele>357.1</ele></trkpt>
            <trkpt lat="51.649667" lon="11.119852"><ele>357.1</ele></trkpt>
            <trkpt lat="51.64964" lon="11.119708"><ele>357.1</ele></trkpt>
            <trkpt lat="51.649627" lon="11.119342"><ele>357.1</ele></trkpt>
            <trkpt lat="51.649611" lon="11.119249"><ele>357.1</ele></trkpt>
            <trkpt lat="51.649584" lon="11.119194"><ele>357.1</ele></trkpt>
            <trkpt lat="51.649528" lon="11.119403"><ele>357.1</ele></trkpt>
            <trkpt lat="51.649487" lon="11.119423"><ele>357.1</ele></trkpt>
            <trkpt lat="51.649393" lon="11.119306"><ele>357.2</ele></trkpt>
            <trkpt lat="51.649225" lon="11.118993"><ele>344</ele></trkpt>
            <trkpt lat="51.648766" lon="11.118245"><ele>356</ele></trkpt>
            <trkpt lat="51.648647" lon="11.118088"><ele>356</ele></trkpt>
            <trkpt lat="51.648577" lon="11.118075"><ele>356</ele></trkpt>
            <trkpt lat="51.648414" lon="11.117975"><ele>356</ele></trkpt>
            <trkpt lat="51.648278" lon="11.117821"><ele>367.7</ele></trkpt>
            <trkpt lat="51.647931" lon="11.117518"><ele>365.8</ele></trkpt>
            <trkpt lat="51.647704" lon="11.117217"><ele>364.8</ele></trkpt>
            <trkpt lat="51.647367" lon="11.11686"><ele>363.5</ele></trkpt>
            <trkpt lat="51.647124" lon="11.116566"><ele>361.2</ele></trkpt>
            <trkpt lat="51.646935" lon="11.11619"><ele>359.8</ele></trkpt>
            <trkpt lat="51.646801" lon="11.11574"><ele>358.6</ele></trkpt>
            <trkpt lat="51.646656" lon="11.115321"><ele>356.5</ele></trkpt>
            <trkpt lat="51.646459" lon="11.114908"><ele>340</ele></trkpt>
            <trkpt lat="51.646411" lon="11.114756"><ele>340</ele></trkpt>
            <trkpt lat="51.64636" lon="11.114714"><ele>340</ele></trkpt>
            <trkpt lat="51.646333" lon="11.114755"><ele>340</ele></trkpt>
            <trkpt lat="51.646325" lon="11.114767"><ele>340</ele></trkpt>
            <trkpt lat="51.646325" lon="11.114972"><ele>340</ele></trkpt>
            <trkpt lat="51.646336" lon="11.115234"><ele>354</ele></trkpt>
            <trkpt lat="51.646511" lon="11.116119"><ele>355.8</ele></trkpt>
            <trkpt lat="51.646557" lon="11.116303"><ele>356.5</ele></trkpt>
            <trkpt lat="51.646671" lon="11.116596"><ele>366</ele></trkpt>
            <trkpt lat="51.646652" lon="11.116645"><ele>350.5</ele></trkpt>
            <trkpt lat="51.646637" lon="11.117363"><ele>350.6</ele></trkpt>
            <trkpt lat="51.646595" lon="11.117356"><ele>350.6</ele></trkpt>
            <trkpt lat="51.646551" lon="11.117273"><ele>350.5</ele></trkpt>
            <trkpt lat="51.646534" lon="11.117203"><ele>350.5</ele></trkpt>
            <trkpt lat="51.646521" lon="11.117203"><ele>350.5</ele></trkpt>
            <trkpt lat="51.646533" lon="11.117726"><ele>350.6</ele></trkpt>
            <trkpt lat="51.646433" lon="11.118132"><ele>350.6</ele></trkpt>
            <trkpt lat="51.646409" lon="11.118149"><ele>350.5</ele></trkpt>
            <trkpt lat="51.646392" lon="11.118118"><ele>350.5</ele></trkpt>
            <trkpt lat="51.646363" lon="11.117713"><ele>350.4</ele></trkpt>
            <trkpt lat="51.646152" lon="11.116945"><ele>349.9</ele></trkpt>
            <trkpt lat="51.645997" lon="11.116806"><ele>349.8</ele></trkpt>
            <trkpt lat="51.645814" lon="11.116574"><ele>349.5</ele></trkpt>
            <trkpt lat="51.645677" lon="11.116498"><ele>349.4</ele></trkpt>
            <trkpt lat="51.645594" lon="11.116425"><ele>348.3</ele></trkpt>
            <trkpt lat="51.645427" lon="11.116104"><ele>347.9</ele></trkpt>
            <trkpt lat="51.645349" lon="11.115877"><ele>347.3</ele></trkpt>
            <trkpt lat="51.645297" lon="11.115566"><ele>346.8</ele></trkpt>
            <trkpt lat="51.64524" lon="11.115349"><ele>346.5</ele></trkpt>
            <trkpt lat="51.645214" lon="11.115097"><ele>346.1</ele></trkpt>
            <trkpt lat="51.645165" lon="11.114856"><ele>345.6</ele></trkpt>
            <trkpt lat="51.645163" lon="11.114328"><ele>343</ele></trkpt>
            <trkpt lat="51.645217" lon="11.113871"><ele>335</ele></trkpt>
            <trkpt lat="51.645212" lon="11.113871"><ele>335</ele></trkpt>
            <trkpt lat="51.645175" lon="11.113865"><ele>335</ele></trkpt>
            <trkpt lat="51.645164" lon="11.113863"><ele>335</ele></trkpt>
            <trkpt lat="51.645188" lon="11.1135"><ele>335</ele></trkpt>
            <trkpt lat="51.645553" lon="11.113256"><ele>332.6</ele></trkpt>
            <trkpt lat="51.645846" lon="11.113094"><ele>328</ele></trkpt>
            <trkpt lat="51.645856" lon="11.112912"><ele>328</ele></trkpt>
            <trkpt lat="51.645873" lon="11.112732"><ele>328</ele></trkpt>
            <trkpt lat="51.645927" lon="11.112596"><ele>328</ele></trkpt>
            <trkpt lat="51.645757" lon="11.112432"><ele>324</ele></trkpt>
            <trkpt lat="51.645672" lon="11.112311"><ele>325.8</ele></trkpt>
            <trkpt lat="51.64555" lon="11.112071"><ele>326.2</ele></trkpt>
            <trkpt lat="51.645087" lon="11.110829"><ele>331</ele></trkpt>
            <trkpt lat="51.644976" lon="11.110503"><ele>329.1</ele></trkpt>
            <trkpt lat="51.644876" lon="11.110092"><ele>328</ele></trkpt>
            <trkpt lat="51.644623" lon="11.108852"><ele>325</ele></trkpt>
            <trkpt lat="51.644594" lon="11.108679"><ele>325</ele></trkpt>
            <trkpt lat="51.644545" lon="11.108544"><ele>325</ele></trkpt>
            <trkpt lat="51.644485" lon="11.108449"><ele>325</ele></trkpt>
            <trkpt lat="51.644591" lon="11.108105"><ele>331</ele></trkpt>
            <trkpt lat="51.644685" lon="11.107784"><ele>331</ele></trkpt>
            <trkpt lat="51.644879" lon="11.107133"><ele>336</ele></trkpt>
            <trkpt lat="51.64486" lon="11.106968"><ele>336</ele></trkpt>
            <trkpt lat="51.644867" lon="11.106816"><ele>336</ele></trkpt>
            <trkpt lat="51.644874" lon="11.106669"><ele>336</ele></trkpt>
            <trkpt lat="51.644904" lon="11.106294"><ele>342</ele></trkpt>
            <trkpt lat="51.644956" lon="11.10408"><ele>385</ele></trkpt>
            <trkpt lat="51.644941" lon="11.103291"><ele>385</ele></trkpt>
            <trkpt lat="51.644822" lon="11.101094"><ele>397</ele></trkpt>
            <trkpt lat="51.644457" lon="11.100445"><ele>395</ele></trkpt>
            <trkpt lat="51.644335" lon="11.09966"><ele>399</ele></trkpt>
            <trkpt lat="51.644417" lon="11.098415"><ele>402.1</ele></trkpt>
            <trkpt lat="51.644405" lon="11.098148"><ele>404</ele></trkpt>
            <trkpt lat="51.644384" lon="11.097451"><ele>405</ele></trkpt>
            <trkpt lat="51.644322" lon="11.095537"><ele>403</ele></trkpt>
            <trkpt lat="51.644143" lon="11.095426"><ele>411</ele></trkpt>
            <trkpt lat="51.642191" lon="11.094218"><ele>412</ele></trkpt>
            <trkpt lat="51.641205" lon="11.093621"><ele>411</ele></trkpt>
            <trkpt lat="51.640268" lon="11.093035"><ele>404</ele></trkpt>
            <trkpt lat="51.638995" lon="11.092183"><ele>390</ele></trkpt>
            <trkpt lat="51.638772" lon="11.092099"><ele>390</ele></trkpt>
            <trkpt lat="51.638734" lon="11.091923"><ele>391.3</ele></trkpt>
            <trkpt lat="51.638736" lon="11.09161"><ele>394</ele></trkpt>
            <trkpt lat="51.638559" lon="11.090919"><ele>394.8</ele></trkpt>
            <trkpt lat="51.63852" lon="11.090484"><ele>395.1</ele></trkpt>
            <trkpt lat="51.638334" lon="11.089818"><ele>395.7</ele></trkpt>
            <trkpt lat="51.638269" lon="11.089732"><ele>395.4</ele></trkpt>
            <trkpt lat="51.637945" lon="11.089863"><ele>395</ele></trkpt>
            <trkpt lat="51.637845" lon="11.089833"><ele>395</ele></trkpt>
            <trkpt lat="51.637523" lon="11.089641"><ele>394.8</ele></trkpt>
            <trkpt lat="51.637262" lon="11.08937"><ele>394.2</ele></trkpt>
            <trkpt lat="51.637028" lon="11.089197"><ele>393.3</ele></trkpt>
            <trkpt lat="51.636959" lon="11.0891"><ele>393.1</ele></trkpt>
            <trkpt lat="51.636797" lon="11.088386"><ele>392.5</ele></trkpt>
            <trkpt lat="51.636517" lon="11.087266"><ele>397</ele></trkpt>
            <trkpt lat="51.635784" lon="11.087807"><ele>396</ele></trkpt>
            <trkpt lat="51.632776" lon="11.090034"><ele>402.3</ele></trkpt>
            <trkpt lat="51.632643" lon="11.090089"><ele>403</ele></trkpt>
            <trkpt lat="51.632561" lon="11.090294"><ele>404.6</ele></trkpt>
            <trkpt lat="51.632412" lon="11.090426"><ele>404.8</ele></trkpt>
            <trkpt lat="51.632292" lon="11.090637"><ele>405.3</ele></trkpt>
            <trkpt lat="51.632179" lon="11.090736"><ele>407</ele></trkpt>
            <trkpt lat="51.63211" lon="11.090797"><ele>403.3</ele></trkpt>
            <trkpt lat="51.632038" lon="11.090828"><ele>403.8</ele></trkpt>
            <trkpt lat="51.631566" lon="11.090777"><ele>393</ele></trkpt>
            <trkpt lat="51.631185" lon="11.09057"><ele>385.1</ele></trkpt>
            <trkpt lat="51.631099" lon="11.09057"><ele>385.7</ele></trkpt>
            <trkpt lat="51.630861" lon="11.090669"><ele>386.2</ele></trkpt>
            <trkpt lat="51.630734" lon="11.090655"><ele>384.5</ele></trkpt>
            <trkpt lat="51.630625" lon="11.090511"><ele>381.4</ele></trkpt>
            <trkpt lat="51.630546" lon="11.09046"><ele>380</ele></trkpt>
            <trkpt lat="51.630257" lon="11.09019"><ele>362</ele></trkpt>
            <trkpt lat="51.630095" lon="11.089979"><ele>366</ele></trkpt>
            <trkpt lat="51.630027" lon="11.089924"><ele>368</ele></trkpt>
            <trkpt lat="51.629736" lon="11.08956"><ele>359.3</ele></trkpt>
            <trkpt lat="51.629524" lon="11.089258"><ele>355</ele></trkpt>
            <trkpt lat="51.629453" lon="11.08913"><ele>361</ele></trkpt>
            <trkpt lat="51.629409" lon="11.089121"><ele>364</ele></trkpt>
            <trkpt lat="51.62935" lon="11.089157"><ele>358.8</ele></trkpt>
            <trkpt lat="51.629251" lon="11.089356"><ele>358</ele></trkpt>
            <trkpt lat="51.629166" lon="11.08944"><ele>349</ele></trkpt>
            <trkpt lat="51.629195" lon="11.089556"><ele>353</ele></trkpt>
            <trkpt lat="51.629187" lon="11.089706"><ele>355</ele></trkpt>
            <trkpt lat="51.62903" lon="11.090909"><ele>338</ele></trkpt>
            <trkpt lat="51.628969" lon="11.091167"><ele>338</ele></trkpt>
            <trkpt lat="51.628768" lon="11.091521"><ele>338</ele></trkpt>
            <trkpt lat="51.628654" lon="11.091697"><ele>338</ele></trkpt>
            <trkpt lat="51.628588" lon="11.091828"><ele>338</ele></trkpt>
            <trkpt lat="51.628534" lon="11.091802"><ele>338</ele></trkpt>
            <trkpt lat="51.628387" lon="11.091605"><ele>338</ele></trkpt>
            <trkpt lat="51.628321" lon="11.091558"><ele>343</ele></trkpt>
            <trkpt lat="51.62815" lon="11.091479"><ele>343</ele></trkpt>
            <trkpt lat="51.628081" lon="11.091478"><ele>343</ele></trkpt>
            <trkpt lat="51.627895" lon="11.091505"><ele>343</ele></trkpt>
            <trkpt lat="51.627783" lon="11.09148"><ele>343</ele></trkpt>
            <trkpt lat="51.627691" lon="11.091428"><ele>343</ele></trkpt>
            <trkpt lat="51.627626" lon="11.091535"><ele>343</ele></trkpt>
            <trkpt lat="51.627574" lon="11.091554"><ele>348.3</ele></trkpt>
            <trkpt lat="51.62715" lon="11.091575"><ele>349.4</ele></trkpt>
            <trkpt lat="51.626444" lon="11.091559"><ele>363</ele></trkpt>
            <trkpt lat="51.626193" lon="11.091543"><ele>363</ele></trkpt>
            <trkpt lat="51.626188" lon="11.091631"><ele>363</ele></trkpt>
            <trkpt lat="51.626093" lon="11.091999"><ele>369</ele></trkpt>
            <trkpt lat="51.625974" lon="11.09218"><ele>371</ele></trkpt>
            <trkpt lat="51.625551" lon="11.092472"><ele>382</ele></trkpt>
            <trkpt lat="51.625196" lon="11.092598"><ele>386</ele></trkpt>
            <trkpt lat="51.625097" lon="11.092707"><ele>392.5</ele></trkpt>
            <trkpt lat="51.624893" lon="11.092852"><ele>395.5</ele></trkpt>
            <trkpt lat="51.624642" lon="11.092992"><ele>395.8</ele></trkpt>
            <trkpt lat="51.624224" lon="11.093177"><ele>395.9</ele></trkpt>
            <trkpt lat="51.623677" lon="11.093321"><ele>400.3</ele></trkpt>
            <trkpt lat="51.623578" lon="11.093312"><ele>407</ele></trkpt>
            <trkpt lat="51.623533" lon="11.09329"><ele>407</ele></trkpt>
            <trkpt lat="51.622689" lon="11.092858"><ele>415.9</ele></trkpt>
            <trkpt lat="51.62249" lon="11.092816"><ele>416.2</ele></trkpt>
            <trkpt lat="51.622253" lon="11.092861"><ele>416.5</ele></trkpt>
            <trkpt lat="51.622137" lon="11.092934"><ele>418</ele></trkpt>
            <trkpt lat="51.621863" lon="11.093269"><ele>418.1</ele></trkpt>
            <trkpt lat="51.621625" lon="11.093456"><ele>419</ele></trkpt>
            <trkpt lat="51.621386" lon="11.093643"><ele>419</ele></trkpt>
            <trkpt lat="51.621046" lon="11.093947"><ele>419</ele></trkpt>
            <trkpt lat="51.620905" lon="11.094052"><ele>419.5</ele></trkpt>
            <trkpt lat="51.620825" lon="11.094081"><ele>419.5</ele></trkpt>
            <trkpt lat="51.62074" lon="11.094033"><ele>419.6</ele></trkpt>
            <trkpt lat="51.620628" lon="11.093887"><ele>419.7</ele></trkpt>
            <trkpt lat="51.620537" lon="11.093703"><ele>420</ele></trkpt>
            <trkpt lat="51.620392" lon="11.093655"><ele>422.7</ele></trkpt>
            <trkpt lat="51.620178" lon="11.093622"><ele>422.2</ele></trkpt>
            <trkpt lat="51.619755" lon="11.093586"><ele>428</ele></trkpt>
            <trkpt lat="51.619878" lon="11.093296"><ele>426</ele></trkpt>
            <trkpt lat="51.619862" lon="11.092608"><ele>426</ele></trkpt>
            <trkpt lat="51.619888" lon="11.090527"><ele>426.3</ele></trkpt>
            <trkpt lat="51.619944" lon="11.088423"><ele>427</ele></trkpt>
            <trkpt lat="51.619976" lon="11.088247"><ele>425</ele></trkpt>
            <trkpt lat="51.620099" lon="11.087561"><ele>432</ele></trkpt>
            <trkpt lat="51.619882" lon="11.086658"><ele>420</ele></trkpt>
            <trkpt lat="51.619838" lon="11.086627"><ele>420</ele></trkpt>
            <trkpt lat="51.619588" lon="11.086615"><ele>420</ele></trkpt>
            <trkpt lat="51.619332" lon="11.086522"><ele>407</ele></trkpt>
            <trkpt lat="51.618952" lon="11.086438"><ele>403.6</ele></trkpt>
            <trkpt lat="51.61876" lon="11.086173"><ele>401.3</ele></trkpt>
            <trkpt lat="51.618573" lon="11.085981"><ele>400.4</ele></trkpt>
            <trkpt lat="51.618317" lon="11.085522"><ele>396.5</ele></trkpt>
            <trkpt lat="51.618149" lon="11.085113"><ele>393.5</ele></trkpt>
            <trkpt lat="51.618089" lon="11.084865"><ele>392.8</ele></trkpt>
            <trkpt lat="51.618079" lon="11.084674"><ele>391</ele></trkpt>
            <trkpt lat="51.618109" lon="11.084224"><ele>388.5</ele></trkpt>
            <trkpt lat="51.618075" lon="11.083799"><ele>386</ele></trkpt>
            <trkpt lat="51.618131" lon="11.083449"><ele>386.3</ele></trkpt>
            <trkpt lat="51.618205" lon="11.083187"><ele>387</ele></trkpt>
            <trkpt lat="51.617935" lon="11.083027"><ele>387</ele></trkpt>
            <trkpt lat="51.617858" lon="11.082971"><ele>387</ele></trkpt>
            <trkpt lat="51.618042" lon="11.082515"><ele>387.3</ele></trkpt>
            <trkpt lat="51.61807" lon="11.082324"><ele>387.4</ele></trkpt>
            <trkpt lat="51.618092" lon="11.081746"><ele>388</ele></trkpt>
            <trkpt lat="51.617938" lon="11.081466"><ele>391</ele></trkpt>
            <trkpt lat="51.617943" lon="11.081337"><ele>392.6</ele></trkpt>
            <trkpt lat="51.617936" lon="11.081313"><ele>393.6</ele></trkpt>
            <trkpt lat="51.617943" lon="11.081337"><ele>392.6</ele></trkpt>
            <trkpt lat="51.617938" lon="11.081466"><ele>391</ele></trkpt>
            <trkpt lat="51.617822" lon="11.081286"><ele>393.7</ele></trkpt>
            <trkpt lat="51.617648" lon="11.081078"><ele>393.5</ele></trkpt>
            <trkpt lat="51.617149" lon="11.080552"><ele>395</ele></trkpt>
            <trkpt lat="51.617115" lon="11.080531"><ele>395</ele></trkpt>
            <trkpt lat="51.616706" lon="11.080339"><ele>395.3</ele></trkpt>
            <trkpt lat="51.616572" lon="11.080332"><ele>395.5</ele></trkpt>
            <trkpt lat="51.61652" lon="11.080275"><ele>396</ele></trkpt>
            <trkpt lat="51.616466" lon="11.0801"><ele>396</ele></trkpt>
            <trkpt lat="51.616419" lon="11.079882"><ele>402</ele></trkpt>
            <trkpt lat="51.616377" lon="11.079274"><ele>402.9</ele></trkpt>
            <trkpt lat="51.616314" lon="11.079004"><ele>403.2</ele></trkpt>
            <trkpt lat="51.616196" lon="11.078745"><ele>404</ele></trkpt>
            <trkpt lat="51.616068" lon="11.078568"><ele>404.2</ele></trkpt>
            <trkpt lat="51.615939" lon="11.077693"><ele>407.3</ele></trkpt>
            <trkpt lat="51.615932" lon="11.077345"><ele>408.1</ele></trkpt>
            <trkpt lat="51.61567" lon="11.075913"><ele>411.6</ele></trkpt>
            <trkpt lat="51.615686" lon="11.075847"><ele>416</ele></trkpt>
            <trkpt lat="51.615782" lon="11.075697"><ele>416.3</ele></trkpt>
            <trkpt lat="51.61584" lon="11.075476"><ele>415</ele></trkpt>
            <trkpt lat="51.615669" lon="11.075206"><ele>417.5</ele></trkpt>
            <trkpt lat="51.614338" lon="11.071501"><ele>429</ele></trkpt>
            <trkpt lat="51.614011" lon="11.071766"><ele>424</ele></trkpt>
            <trkpt lat="51.613726" lon="11.072254"><ele>423.4</ele></trkpt>
            <trkpt lat="51.613448" lon="11.072684"><ele>422.8</ele></trkpt>
            <trkpt lat="51.61309" lon="11.073463"><ele>423</ele></trkpt>
            <trkpt lat="51.613043" lon="11.073351"><ele>420.5</ele></trkpt>
            <trkpt lat="51.612943" lon="11.071856"><ele>417</ele></trkpt>
            <trkpt lat="51.612883" lon="11.071547"><ele>413.2</ele></trkpt>
            <trkpt lat="51.612438" lon="11.070106"><ele>411.8</ele></trkpt>
            <trkpt lat="51.612383" lon="11.069871"><ele>411.3</ele></trkpt>
            <trkpt lat="51.612265" lon="11.069131"><ele>409.1</ele></trkpt>
            <trkpt lat="51.612016" lon="11.06808"><ele>405.2</ele></trkpt>
            <trkpt lat="51.611897" lon="11.067469"><ele>403.9</ele></trkpt>
            <trkpt lat="51.611899" lon="11.067237"><ele>403</ele></trkpt>
            <trkpt lat="51.611987" lon="11.066831"><ele>402.1</ele></trkpt>
            <trkpt lat="51.611994" lon="11.066696"><ele>401.3</ele></trkpt>
            <trkpt lat="51.611959" lon="11.066368"><ele>400.7</ele></trkpt>
            <trkpt lat="51.611971" lon="11.066078"><ele>395</ele></trkpt>
            <trkpt lat="51.612067" lon="11.06548"><ele>391</ele></trkpt>
            <trkpt lat="51.612046" lon="11.065248"><ele>390.3</ele></trkpt>
            <trkpt lat="51.611996" lon="11.065092"><ele>390.4</ele></trkpt>
            <trkpt lat="51.611833" lon="11.064896"><ele>388</ele></trkpt>
            <trkpt lat="51.611821" lon="11.065096"><ele>389.5</ele></trkpt>
            <trkpt lat="51.611833" lon="11.064896"><ele>388</ele></trkpt>
            <trkpt lat="51.611996" lon="11.065092"><ele>390.4</ele></trkpt>
            <trkpt lat="51.612046" lon="11.065248"><ele>390.3</ele></trkpt>
            <trkpt lat="51.612067" lon="11.06548"><ele>391</ele></trkpt>
            <trkpt lat="51.611971" lon="11.066078"><ele>395</ele></trkpt>
            <trkpt lat="51.611959" lon="11.066368"><ele>400.7</ele></trkpt>
            <trkpt lat="51.611994" lon="11.066696"><ele>401.3</ele></trkpt>
            <trkpt lat="51.611987" lon="11.066831"><ele>402.1</ele></trkpt>
            <trkpt lat="51.611899" lon="11.067237"><ele>403</ele></trkpt>
            <trkpt lat="51.611897" lon="11.067469"><ele>403.9</ele></trkpt>
            <trkpt lat="51.612016" lon="11.06808"><ele>405.2</ele></trkpt>
            <trkpt lat="51.612265" lon="11.069131"><ele>409.1</ele></trkpt>
            <trkpt lat="51.612383" lon="11.069871"><ele>411.3</ele></trkpt>
            <trkpt lat="51.612438" lon="11.070106"><ele>411.8</ele></trkpt>
            <trkpt lat="51.612883" lon="11.071547"><ele>413.2</ele></trkpt>
            <trkpt lat="51.612943" lon="11.071856"><ele>417</ele></trkpt>
            <trkpt lat="51.613043" lon="11.073351"><ele>420.5</ele></trkpt>
            <trkpt lat="51.61309" lon="11.073463"><ele>423</ele></trkpt>
            <trkpt lat="51.613448" lon="11.072684"><ele>422.8</ele></trkpt>
            <trkpt lat="51.613726" lon="11.072254"><ele>423.4</ele></trkpt>
            <trkpt lat="51.614011" lon="11.071766"><ele>424</ele></trkpt>
            <trkpt lat="51.614338" lon="11.071501"><ele>429</ele></trkpt>
            <trkpt lat="51.615669" lon="11.075206"><ele>417.5</ele></trkpt>
            <trkpt lat="51.61584" lon="11.075476"><ele>415</ele></trkpt>
            <trkpt lat="51.615782" lon="11.075697"><ele>416.3</ele></trkpt>
            <trkpt lat="51.615686" lon="11.075847"><ele>416</ele></trkpt>
            <trkpt lat="51.61567" lon="11.075913"><ele>411.6</ele></trkpt>
            <trkpt lat="51.615932" lon="11.077345"><ele>408.1</ele></trkpt>
            <trkpt lat="51.615939" lon="11.077693"><ele>407.3</ele></trkpt>
            <trkpt lat="51.616068" lon="11.078568"><ele>404.2</ele></trkpt>
            <trkpt lat="51.616196" lon="11.078745"><ele>404</ele></trkpt>
            <trkpt lat="51.616314" lon="11.079004"><ele>403.2</ele></trkpt>
            <trkpt lat="51.616377" lon="11.079274"><ele>402.9</ele></trkpt>
            <trkpt lat="51.616419" lon="11.079882"><ele>402</ele></trkpt>
            <trkpt lat="51.616466" lon="11.0801"><ele>396</ele></trkpt>
            <trkpt lat="51.61652" lon="11.080275"><ele>396</ele></trkpt>
            <trkpt lat="51.616572" lon="11.080332"><ele>395.5</ele></trkpt>
            <trkpt lat="51.616706" lon="11.080339"><ele>395.3</ele></trkpt>
            <trkpt lat="51.617115" lon="11.080531"><ele>395</ele></trkpt>
            <trkpt lat="51.617149" lon="11.080552"><ele>395</ele></trkpt>
            <trkpt lat="51.617648" lon="11.081078"><ele>393.5</ele></trkpt>
            <trkpt lat="51.617822" lon="11.081286"><ele>393.7</ele></trkpt>
            <trkpt lat="51.617938" lon="11.081466"><ele>391</ele></trkpt>
            <trkpt lat="51.618092" lon="11.081746"><ele>388</ele></trkpt>
            <trkpt lat="51.61807" lon="11.082324"><ele>387.4</ele></trkpt>
            <trkpt lat="51.618042" lon="11.082515"><ele>387.3</ele></trkpt>
            <trkpt lat="51.617858" lon="11.082971"><ele>387</ele></trkpt>
            <trkpt lat="51.617935" lon="11.083027"><ele>387</ele></trkpt>
            <trkpt lat="51.618205" lon="11.083187"><ele>387</ele></trkpt>
            <trkpt lat="51.618131" lon="11.083449"><ele>386.3</ele></trkpt>
            <trkpt lat="51.618075" lon="11.083799"><ele>386</ele></trkpt>
            <trkpt lat="51.618109" lon="11.084224"><ele>388.5</ele></trkpt>
            <trkpt lat="51.618079" lon="11.084674"><ele>391</ele></trkpt>
            <trkpt lat="51.618089" lon="11.084865"><ele>392.8</ele></trkpt>
            <trkpt lat="51.618149" lon="11.085113"><ele>393.5</ele></trkpt>
            <trkpt lat="51.618317" lon="11.085522"><ele>396.5</ele></trkpt>
            <trkpt lat="51.618573" lon="11.085981"><ele>400.4</ele></trkpt>
            <trkpt lat="51.61876" lon="11.086173"><ele>401.3</ele></trkpt>
            <trkpt lat="51.618952" lon="11.086438"><ele>403.6</ele></trkpt>
            <trkpt lat="51.619332" lon="11.086522"><ele>407</ele></trkpt>
            <trkpt lat="51.619588" lon="11.086615"><ele>420</ele></trkpt>
            <trkpt lat="51.619838" lon="11.086627"><ele>420</ele></trkpt>
            <trkpt lat="51.619882" lon="11.086658"><ele>420</ele></trkpt>
            <trkpt lat="51.620099" lon="11.087561"><ele>432</ele></trkpt>
            <trkpt lat="51.619976" lon="11.088247"><ele>425</ele></trkpt>
            <trkpt lat="51.619944" lon="11.088423"><ele>427</ele></trkpt>
            <trkpt lat="51.619888" lon="11.090527"><ele>426.3</ele></trkpt>
            <trkpt lat="51.619862" lon="11.092608"><ele>426</ele></trkpt>
            <trkpt lat="51.619878" lon="11.093296"><ele>426</ele></trkpt>
            <trkpt lat="51.619755" lon="11.093586"><ele>428</ele></trkpt>
            <trkpt lat="51.620178" lon="11.093622"><ele>422.2</ele></trkpt>
            <trkpt lat="51.620392" lon="11.093655"><ele>422.7</ele></trkpt>
            <trkpt lat="51.620537" lon="11.093703"><ele>420</ele></trkpt>
            <trkpt lat="51.620628" lon="11.093887"><ele>419.7</ele></trkpt>
            <trkpt lat="51.62074" lon="11.094033"><ele>419.6</ele></trkpt>
            <trkpt lat="51.620825" lon="11.094081"><ele>419.5</ele></trkpt>
            <trkpt lat="51.620905" lon="11.094052"><ele>419.5</ele></trkpt>
            <trkpt lat="51.621046" lon="11.093947"><ele>419</ele></trkpt>
            <trkpt lat="51.621386" lon="11.093643"><ele>419</ele></trkpt>
            <trkpt lat="51.621625" lon="11.093456"><ele>419</ele></trkpt>
            <trkpt lat="51.621863" lon="11.093269"><ele>418.1</ele></trkpt>
            <trkpt lat="51.622137" lon="11.092934"><ele>418</ele></trkpt>
            <trkpt lat="51.622253" lon="11.092861"><ele>416.5</ele></trkpt>
            <trkpt lat="51.62249" lon="11.092816"><ele>416.2</ele></trkpt>
            <trkpt lat="51.622689" lon="11.092858"><ele>415.9</ele></trkpt>
            <trkpt lat="51.623533" lon="11.09329"><ele>407</ele></trkpt>
            <trkpt lat="51.623578" lon="11.093312"><ele>407</ele></trkpt>
            <trkpt lat="51.623677" lon="11.093321"><ele>400.3</ele></trkpt>
            <trkpt lat="51.624224" lon="11.093177"><ele>395.9</ele></trkpt>
            <trkpt lat="51.624642" lon="11.092992"><ele>395.8</ele></trkpt>
            <trkpt lat="51.624893" lon="11.092852"><ele>395.5</ele></trkpt>
            <trkpt lat="51.625097" lon="11.092707"><ele>392.5</ele></trkpt>
            <trkpt lat="51.625196" lon="11.092598"><ele>386</ele></trkpt>
            <trkpt lat="51.625551" lon="11.092472"><ele>382</ele></trkpt>
            <trkpt lat="51.625974" lon="11.09218"><ele>371</ele></trkpt>
            <trkpt lat="51.626093" lon="11.091999"><ele>369</ele></trkpt>
            <trkpt lat="51.626188" lon="11.091631"><ele>363</ele></trkpt>
            <trkpt lat="51.626193" lon="11.091543"><ele>363</ele></trkpt>
            <trkpt lat="51.626444" lon="11.091559"><ele>363</ele></trkpt>
            <trkpt lat="51.62715" lon="11.091575"><ele>349.4</ele></trkpt>
            <trkpt lat="51.627574" lon="11.091554"><ele>348.3</ele></trkpt>
            <trkpt lat="51.627626" lon="11.091535"><ele>343</ele></trkpt>
            <trkpt lat="51.627691" lon="11.091428"><ele>343</ele></trkpt>
            <trkpt lat="51.627783" lon="11.09148"><ele>343</ele></trkpt>
            <trkpt lat="51.627895" lon="11.091505"><ele>343</ele></trkpt>
            <trkpt lat="51.628081" lon="11.091478"><ele>343</ele></trkpt>
            <trkpt lat="51.62815" lon="11.091479"><ele>343</ele></trkpt>
            <trkpt lat="51.628321" lon="11.091558"><ele>343</ele></trkpt>
            <trkpt lat="51.628387" lon="11.091605"><ele>338</ele></trkpt>
            <trkpt lat="51.628534" lon="11.091802"><ele>338</ele></trkpt>
            <trkpt lat="51.628588" lon="11.091828"><ele>338</ele></trkpt>
            <trkpt lat="51.628654" lon="11.091697"><ele>338</ele></trkpt>
            <trkpt lat="51.628768" lon="11.091521"><ele>338</ele></trkpt>
            <trkpt lat="51.628969" lon="11.091167"><ele>338</ele></trkpt>
            <trkpt lat="51.62903" lon="11.090909"><ele>338</ele></trkpt>
            <trkpt lat="51.629187" lon="11.089706"><ele>355</ele></trkpt>
            <trkpt lat="51.629195" lon="11.089556"><ele>353</ele></trkpt>
            <trkpt lat="51.629166" lon="11.08944"><ele>349</ele></trkpt>
            <trkpt lat="51.629175" lon="11.089295"><ele>365.5</ele></trkpt>
            <trkpt lat="51.6292" lon="11.08922"><ele>366.5</ele></trkpt>
            <trkpt lat="51.629452" lon="11.0887"><ele>371.9</ele></trkpt>
            <trkpt lat="51.629526" lon="11.08848"><ele>372.5</ele></trkpt>
            <trkpt lat="51.629629" lon="11.088245"><ele>373.1</ele></trkpt>
            <trkpt lat="51.629769" lon="11.087643"><ele>372.9</ele></trkpt>
            <trkpt lat="51.629842" lon="11.087426"><ele>374.7</ele></trkpt>
            <trkpt lat="51.629931" lon="11.087229"><ele>375.4</ele></trkpt>
            <trkpt lat="51.629965" lon="11.087019"><ele>375.2</ele></trkpt>
            <trkpt lat="51.629958" lon="11.086765"><ele>384</ele></trkpt>
            <trkpt lat="51.629998" lon="11.086409"><ele>382</ele></trkpt>
            <trkpt lat="51.629998" lon="11.085849"><ele>381</ele></trkpt>
            <trkpt lat="51.629783" lon="11.085669"><ele>379.6</ele></trkpt>
            <trkpt lat="51.629604" lon="11.085591"><ele>379</ele></trkpt>
            <trkpt lat="51.629669" lon="11.085497"><ele>368.8</ele></trkpt>
            <trkpt lat="51.629759" lon="11.085254"><ele>367.7</ele></trkpt>
            <trkpt lat="51.629811" lon="11.085007"><ele>367</ele></trkpt>
            <trkpt lat="51.629807" lon="11.084679"><ele>366.7</ele></trkpt>
            <trkpt lat="51.629768" lon="11.084368"><ele>366.6</ele></trkpt>
            <trkpt lat="51.629762" lon="11.084195"><ele>366.5</ele></trkpt>
            <trkpt lat="51.629786" lon="11.084105"><ele>367</ele></trkpt>
            <trkpt lat="51.629836" lon="11.084047"><ele>367.5</ele></trkpt>
            <trkpt lat="51.630359" lon="11.083975"><ele>371.1</ele></trkpt>
            <trkpt lat="51.630597" lon="11.083898"><ele>372.7</ele></trkpt>
            <trkpt lat="51.631085" lon="11.083642"><ele>379</ele></trkpt>
            <trkpt lat="51.631187" lon="11.083614"><ele>380.2</ele></trkpt>
            <trkpt lat="51.631389" lon="11.083612"><ele>381.2</ele></trkpt>
            <trkpt lat="51.631803" lon="11.083818"><ele>382.5</ele></trkpt>
            <trkpt lat="51.631885" lon="11.083817"><ele>382.2</ele></trkpt>
            <trkpt lat="51.631953" lon="11.083788"><ele>382.3</ele></trkpt>
            <trkpt lat="51.632004" lon="11.083732"><ele>382</ele></trkpt>
            <trkpt lat="51.632047" lon="11.083635"><ele>381.6</ele></trkpt>
            <trkpt lat="51.632151" lon="11.083128"><ele>380.6</ele></trkpt>
            <trkpt lat="51.632174" lon="11.083065"><ele>380.7</ele></trkpt>
            <trkpt lat="51.632213" lon="11.083028"><ele>378</ele></trkpt>
            <trkpt lat="51.632197" lon="11.082946"><ele>376.8</ele></trkpt>
            <trkpt lat="51.632213" lon="11.083028"><ele>378</ele></trkpt>
            <trkpt lat="51.632315" lon="11.083048"><ele>389.4</ele></trkpt>
            <trkpt lat="51.63238" lon="11.083116"><ele>390.6</ele></trkpt>
            <trkpt lat="51.632664" lon="11.083742"><ele>393.2</ele></trkpt>
            <trkpt lat="51.632979" lon="11.084367"><ele>393.4</ele></trkpt>
            <trkpt lat="51.633099" lon="11.084568"><ele>392.6</ele></trkpt>
            <trkpt lat="51.63316" lon="11.084614"><ele>393.3</ele></trkpt>
            <trkpt lat="51.633198" lon="11.084611"><ele>401</ele></trkpt>
            <trkpt lat="51.633325" lon="11.084828"><ele>401</ele></trkpt>
            <trkpt lat="51.634407" lon="11.086138"><ele>411</ele></trkpt>
            <trkpt lat="51.63536" lon="11.087264"><ele>401.3</ele></trkpt>
            <trkpt lat="51.635784" lon="11.087807"><ele>396</ele></trkpt>
            <trkpt lat="51.636517" lon="11.087266"><ele>397</ele></trkpt>
            <trkpt lat="51.636797" lon="11.088386"><ele>392.5</ele></trkpt>
            <trkpt lat="51.636959" lon="11.0891"><ele>393.1</ele></trkpt>
            <trkpt lat="51.637028" lon="11.089197"><ele>393.3</ele></trkpt>
            <trkpt lat="51.637262" lon="11.08937"><ele>394.2</ele></trkpt>
            <trkpt lat="51.637523" lon="11.089641"><ele>394.8</ele></trkpt>
            <trkpt lat="51.637845" lon="11.089833"><ele>395</ele></trkpt>
            <trkpt lat="51.637945" lon="11.089863"><ele>395</ele></trkpt>
            <trkpt lat="51.638269" lon="11.089732"><ele>395.4</ele></trkpt>
            <trkpt lat="51.638334" lon="11.089818"><ele>395.7</ele></trkpt>
            <trkpt lat="51.63852" lon="11.090484"><ele>395.1</ele></trkpt>
            <trkpt lat="51.638559" lon="11.090919"><ele>394.8</ele></trkpt>
            <trkpt lat="51.638736" lon="11.09161"><ele>394</ele></trkpt>
            <trkpt lat="51.638734" lon="11.091923"><ele>391.3</ele></trkpt>
            <trkpt lat="51.638772" lon="11.092099"><ele>390</ele></trkpt>
            <trkpt lat="51.638995" lon="11.092183"><ele>390</ele></trkpt>
            <trkpt lat="51.640268" lon="11.093035"><ele>404</ele></trkpt>
            <trkpt lat="51.641205" lon="11.093621"><ele>411</ele></trkpt>
            <trkpt lat="51.642191" lon="11.094218"><ele>412</ele></trkpt>
            <trkpt lat="51.644143" lon="11.095426"><ele>411</ele></trkpt>
            <trkpt lat="51.644322" lon="11.095537"><ele>403</ele></trkpt>
            <trkpt lat="51.644384" lon="11.097451"><ele>405</ele></trkpt>
            <trkpt lat="51.644405" lon="11.098148"><ele>404</ele></trkpt>
            <trkpt lat="51.644417" lon="11.098415"><ele>402.1</ele></trkpt>
            <trkpt lat="51.644335" lon="11.09966"><ele>399</ele></trkpt>
            <trkpt lat="51.644457" lon="11.100445"><ele>395</ele></trkpt>
            <trkpt lat="51.644822" lon="11.101094"><ele>397</ele></trkpt>
            <trkpt lat="51.644941" lon="11.103291"><ele>385</ele></trkpt>
            <trkpt lat="51.644956" lon="11.10408"><ele>385</ele></trkpt>
            <trkpt lat="51.644904" lon="11.106294"><ele>342</ele></trkpt>
            <trkpt lat="51.644874" lon="11.106669"><ele>336</ele></trkpt>
            <trkpt lat="51.644867" lon="11.106816"><ele>336</ele></trkpt>
            <trkpt lat="51.64486" lon="11.106968"><ele>336</ele></trkpt>
            <trkpt lat="51.644879" lon="11.107133"><ele>336</ele></trkpt>
            <trkpt lat="51.644685" lon="11.107784"><ele>331</ele></trkpt>
            <trkpt lat="51.644591" lon="11.108105"><ele>331</ele></trkpt>
            <trkpt lat="51.644485" lon="11.108449"><ele>325</ele></trkpt>
            <trkpt lat="51.644545" lon="11.108544"><ele>325</ele></trkpt>
            <trkpt lat="51.644594" lon="11.108679"><ele>325</ele></trkpt>
            <trkpt lat="51.644623" lon="11.108852"><ele>325</ele></trkpt>
            <trkpt lat="51.644876" lon="11.110092"><ele>328</ele></trkpt>
            <trkpt lat="51.644976" lon="11.110503"><ele>329.1</ele></trkpt>
            <trkpt lat="51.645087" lon="11.110829"><ele>331</ele></trkpt>
            <trkpt lat="51.64555" lon="11.112071"><ele>326.2</ele></trkpt>
            <trkpt lat="51.645672" lon="11.112311"><ele>325.8</ele></trkpt>
            <trkpt lat="51.645757" lon="11.112432"><ele>324</ele></trkpt>
            <trkpt lat="51.645927" lon="11.112596"><ele>328</ele></trkpt>
            <trkpt lat="51.646123" lon="11.11271"><ele>328</ele></trkpt>
            <trkpt lat="51.646415" lon="11.112795"><ele>328</ele></trkpt>
            <trkpt lat="51.647136" lon="11.11296"><ele>331.1</ele></trkpt>
            <trkpt lat="51.647342" lon="11.113049"><ele>332</ele></trkpt>
            <trkpt lat="51.647413" lon="11.113097"><ele>332</ele></trkpt>
            <trkpt lat="51.647528" lon="11.113209"><ele>333.3</ele></trkpt>
            <trkpt lat="51.647576" lon="11.113289"><ele>334.7</ele></trkpt>
            <trkpt lat="51.647827" lon="11.113866"><ele>325</ele></trkpt>
            <trkpt lat="51.64791" lon="11.114061"><ele>325</ele></trkpt>
            <trkpt lat="51.647957" lon="11.114171"><ele>327</ele></trkpt>
            <trkpt lat="51.648119" lon="11.114548"><ele>327</ele></trkpt>
            <trkpt lat="51.64825" lon="11.114854"><ele>327</ele></trkpt>
            <trkpt lat="51.648356" lon="11.115108"><ele>317</ele></trkpt>
            <trkpt lat="51.648454" lon="11.115333"><ele>317</ele></trkpt>
            <trkpt lat="51.648507" lon="11.115455"><ele>317</ele></trkpt>
            <trkpt lat="51.64876" lon="11.116049"><ele>324</ele></trkpt>
            <trkpt lat="51.648864" lon="11.116293"><ele>324</ele></trkpt>
            <trkpt lat="51.648905" lon="11.116389"><ele>324</ele></trkpt>
            <trkpt lat="51.649156" lon="11.116982"><ele>332</ele></trkpt>
            <trkpt lat="51.649218" lon="11.117127"><ele>320</ele></trkpt>
            <trkpt lat="51.649309" lon="11.117341"><ele>320</ele></trkpt>
            <trkpt lat="51.649494" lon="11.117726"><ele>332</ele></trkpt>
            <trkpt lat="51.649571" lon="11.117833"><ele>332</ele></trkpt>
            <trkpt lat="51.649832" lon="11.118114"><ele>332</ele></trkpt>
            <trkpt lat="51.650001" lon="11.11824"><ele>328.1</ele></trkpt>
            <trkpt lat="51.650127" lon="11.118263"><ele>327.6</ele></trkpt>
            <trkpt lat="51.65021" lon="11.118253"><ele>327.4</ele></trkpt>
            <trkpt lat="51.650376" lon="11.118204"><ele>327.1</ele></trkpt>
            <trkpt lat="51.650524" lon="11.118129"><ele>326.9</ele></trkpt>
            <trkpt lat="51.650724" lon="11.117985"><ele>325</ele></trkpt>
            <trkpt lat="51.650764" lon="11.118126"><ele>325</ele></trkpt>
            <trkpt lat="51.650801" lon="11.118243"><ele>325</ele></trkpt>
            <trkpt lat="51.650813" lon="11.118282"><ele>325</ele></trkpt>
            <trkpt lat="51.651568" lon="11.117628"><ele>327.5</ele></trkpt>
            <trkpt lat="51.651673" lon="11.117585"><ele>333</ele></trkpt>
            <trkpt lat="51.651782" lon="11.117513"><ele>332.8</ele></trkpt>
            <trkpt lat="51.65189" lon="11.117486"><ele>332.7</ele></trkpt>
            <trkpt lat="51.652198" lon="11.117489"><ele>332.6</ele></trkpt>
            <trkpt lat="51.652412" lon="11.117538"><ele>333</ele></trkpt>
            <trkpt lat="51.652412" lon="11.117601"><ele>333</ele></trkpt>
            <trkpt lat="51.652486" lon="11.11761"><ele>333</ele></trkpt>
            <trkpt lat="51.652558" lon="11.117725"><ele>336</ele></trkpt>
            <trkpt lat="51.652682" lon="11.117866"><ele>336.2</ele></trkpt>
            <trkpt lat="51.652886" lon="11.117993"><ele>336.3</ele></trkpt>
            <trkpt lat="51.653156" lon="11.11812"><ele>336.4</ele></trkpt>
            <trkpt lat="51.653367" lon="11.118184"><ele>336.3</ele></trkpt>
            <trkpt lat="51.653518" lon="11.11819"><ele>336.3</ele></trkpt>
            <trkpt lat="51.653703" lon="11.1181"><ele>336</ele></trkpt>
            <trkpt lat="51.653862" lon="11.117977"><ele>336.4</ele></trkpt>
            <trkpt lat="51.654003" lon="11.117911"><ele>336.5</ele></trkpt>
            <trkpt lat="51.654281" lon="11.11788"><ele>336.6</ele></trkpt>
            <trkpt lat="51.654364" lon="11.117816"><ele>337</ele></trkpt>
            <trkpt lat="51.654494" lon="11.117891"><ele>342.2</ele></trkpt>
            <trkpt lat="51.654548" lon="11.117978"><ele>341.7</ele></trkpt>
            <trkpt lat="51.654744" lon="11.118199"><ele>341.2</ele></trkpt>
            <trkpt lat="51.65483" lon="11.118503"><ele>342.1</ele></trkpt>
            <trkpt lat="51.654907" lon="11.119033"><ele>344.2</ele></trkpt>
            <trkpt lat="51.654923" lon="11.119071"><ele>350</ele></trkpt>
            <trkpt lat="51.654765" lon="11.11963"><ele>357.6</ele></trkpt>
            <trkpt lat="51.654672" lon="11.120056"><ele>358.8</ele></trkpt>
            <trkpt lat="51.654652" lon="11.120224"><ele>365</ele></trkpt>
            <trkpt lat="51.654499" lon="11.121191"><ele>368.1</ele></trkpt>
            <trkpt lat="51.654462" lon="11.12197"><ele>367.6</ele></trkpt>
            <trkpt lat="51.654431" lon="11.122212"><ele>367.4</ele></trkpt>
            <trkpt lat="51.6543" lon="11.122494"><ele>367.2</ele></trkpt>
            <trkpt lat="51.653902" lon="11.122878"><ele>384</ele></trkpt>
            <trkpt lat="51.653912" lon="11.122985"><ele>384</ele></trkpt>
            <trkpt lat="51.654138" lon="11.123112"><ele>377.2</ele></trkpt>
            <trkpt lat="51.654278" lon="11.123151"><ele>375.3</ele></trkpt>
            <trkpt lat="51.654392" lon="11.123245"><ele>373.7</ele></trkpt>
            <trkpt lat="51.654444" lon="11.123441"><ele>362</ele></trkpt>
            <trkpt lat="51.65443" lon="11.123695"><ele>369.1</ele></trkpt>
            <trkpt lat="51.654438" lon="11.124425"><ele>370.9</ele></trkpt>
            <trkpt lat="51.654482" lon="11.12503"><ele>372.1</ele></trkpt>
            <trkpt lat="51.654575" lon="11.125749"><ele>375.4</ele></trkpt>
            <trkpt lat="51.654599" lon="11.126049"><ele>390</ele></trkpt>
            <trkpt lat="51.654619" lon="11.126287"><ele>390</ele></trkpt>
            <trkpt lat="51.65465" lon="11.1264"><ele>390</ele></trkpt>
            <trkpt lat="51.654743" lon="11.126591"><ele>390</ele></trkpt>
            <trkpt lat="51.654871" lon="11.12672"><ele>384.8</ele></trkpt>
            <trkpt lat="51.654984" lon="11.126725"><ele>386</ele></trkpt>
            <trkpt lat="51.655087" lon="11.126791"><ele>385</ele></trkpt>
            <trkpt lat="51.655667" lon="11.127506"><ele>377.9</ele></trkpt>
            <trkpt lat="51.655891" lon="11.127739"><ele>376.8</ele></trkpt>
            <trkpt lat="51.656105" lon="11.127902"><ele>372.8</ele></trkpt>
            <trkpt lat="51.65637" lon="11.12801"><ele>370.5</ele></trkpt>
            <trkpt lat="51.656479" lon="11.127984"><ele>370.5</ele></trkpt>
            <trkpt lat="51.656706" lon="11.128035"><ele>369</ele></trkpt>
            <trkpt lat="51.656771" lon="11.12802"><ele>367.8</ele></trkpt>
            <trkpt lat="51.656884" lon="11.127925"><ele>355</ele></trkpt>
            <trkpt lat="51.656899" lon="11.127925"><ele>355</ele></trkpt>
            <trkpt lat="51.657077" lon="11.127922"><ele>355</ele></trkpt>
            <trkpt lat="51.6572" lon="11.127919"><ele>356.7</ele></trkpt>
            <trkpt lat="51.657255" lon="11.127844"><ele>356.6</ele></trkpt>
            <trkpt lat="51.657325" lon="11.127797"><ele>356.5</ele></trkpt>
            <trkpt lat="51.657466" lon="11.127872"><ele>356.4</ele></trkpt>
            <trkpt lat="51.657504" lon="11.127811"><ele>356.8</ele></trkpt>
            <trkpt lat="51.657579" lon="11.127599"><ele>357.7</ele></trkpt>
            <trkpt lat="51.657719" lon="11.127458"><ele>357.5</ele></trkpt>
            <trkpt lat="51.65782" lon="11.127404"><ele>357.2</ele></trkpt>
            <trkpt lat="51.657884" lon="11.127397"><ele>356.3</ele></trkpt>
            <trkpt lat="51.658686" lon="11.127755"><ele>359.9</ele></trkpt>
            <trkpt lat="51.658955" lon="11.127989"><ele>365.7</ele></trkpt>
            <trkpt lat="51.659065" lon="11.128093"><ele>368.2</ele></trkpt>
            <trkpt lat="51.659233" lon="11.128336"><ele>373.8</ele></trkpt>
            <trkpt lat="51.659592" lon="11.12877"><ele>377.4</ele></trkpt>
            <trkpt lat="51.659715" lon="11.128991"><ele>377.5</ele></trkpt>
            <trkpt lat="51.659784" lon="11.129032"><ele>377.9</ele></trkpt>
            <trkpt lat="51.659872" lon="11.129026"><ele>378</ele></trkpt>
            <trkpt lat="51.659935" lon="11.128986"><ele>378.1</ele></trkpt>
            <trkpt lat="51.659979" lon="11.128889"><ele>379</ele></trkpt>
            <trkpt lat="51.660041" lon="11.128602"><ele>366.7</ele></trkpt>
            <trkpt lat="51.660054" lon="11.128386"><ele>366.7</ele></trkpt>
            <trkpt lat="51.660046" lon="11.128048"><ele>365.9</ele></trkpt>
            <trkpt lat="51.660017" lon="11.127856"><ele>365.9</ele></trkpt>
            <trkpt lat="51.659995" lon="11.127268"><ele>365.8</ele></trkpt>
            <trkpt lat="51.660024" lon="11.126945"><ele>365.9</ele></trkpt>
            <trkpt lat="51.660085" lon="11.126698"><ele>365.6</ele></trkpt>
            <trkpt lat="51.660107" lon="11.126659"><ele>365.1</ele></trkpt>
            <trkpt lat="51.660148" lon="11.126638"><ele>364.5</ele></trkpt>
            <trkpt lat="51.660251" lon="11.126677"><ele>364.2</ele></trkpt>
            <trkpt lat="51.660341" lon="11.126678"><ele>364.4</ele></trkpt>
            <trkpt lat="51.660498" lon="11.126639"><ele>363.9</ele></trkpt>
            <trkpt lat="51.66054" lon="11.12661"><ele>363.4</ele></trkpt>
            <trkpt lat="51.660593" lon="11.12654"><ele>362.3</ele></trkpt>
            <trkpt lat="51.660647" lon="11.12639"><ele>360.8</ele></trkpt>
            <trkpt lat="51.66078" lon="11.126271"><ele>359.6</ele></trkpt>
            <trkpt lat="51.660812" lon="11.126221"><ele>358.7</ele></trkpt>
            <trkpt lat="51.660861" lon="11.126092"><ele>373</ele></trkpt>
            <trkpt lat="51.660933" lon="11.126152"><ele>373</ele></trkpt>
            <trkpt lat="51.660962" lon="11.126217"><ele>373</ele></trkpt>
            <trkpt lat="51.660917" lon="11.126274"><ele>367.5</ele></trkpt>
            <trkpt lat="51.660913" lon="11.126283"><ele>368</ele></trkpt>
        </trkseg>
    </trk>
</gpx>
