<?xml version="1.0" encoding="UTF-8"?>
<gpx version="1.1" creator="HWN Route Compare (OpenRouteService)" xmlns="http://www.topografix.com/GPX/1/1">
    <metadata>
        <name>OpenRouteService – Tour F4</name>
    </metadata>
    <trk>
        <name>OpenRouteService – Tour F4</name>
        <trkseg>
            <trkpt lat="51.716093" lon="11.210098"><ele>283.6</ele></trkpt>
            <trkpt lat="51.716236" lon="11.210163"><ele>283.6</ele></trkpt>
            <trkpt lat="51.71631" lon="11.21021"><ele>283.6</ele></trkpt>
            <trkpt lat="51.71668" lon="11.210585"><ele>283.7</ele></trkpt>
            <trkpt lat="51.716894" lon="11.210716"><ele>282.7</ele></trkpt>
            <trkpt lat="51.717033" lon="11.210844"><ele>282.3</ele></trkpt>
            <trkpt lat="51.717349" lon="11.211198"><ele>280.4</ele></trkpt>
            <trkpt lat="51.717536" lon="11.211497"><ele>279.7</ele></trkpt>
            <trkpt lat="51.71783" lon="11.211891"><ele>278.7</ele></trkpt>
            <trkpt lat="51.717929" lon="11.21205"><ele>278.8</ele></trkpt>
            <trkpt lat="51.7181" lon="11.212248"><ele>278.2</ele></trkpt>
            <trkpt lat="51.718219" lon="11.212339"><ele>278.2</ele></trkpt>
            <trkpt lat="51.718283" lon="11.212453"><ele>277.9</ele></trkpt>
            <trkpt lat="51.718329" lon="11.21265"><ele>273</ele></trkpt>
            <trkpt lat="51.718479" lon="11.212347"><ele>281.4</ele></trkpt>
            <trkpt lat="51.718562" lon="11.211759"><ele>283</ele></trkpt>
            <trkpt lat="51.71866" lon="11.212137"><ele>281.1</ele></trkpt>
            <trkpt lat="51.718853" lon="11.212674"><ele>280.5</ele></trkpt>
            <trkpt lat="51.719053" lon="11.212944"><ele>280.3</ele></trkpt>
            <trkpt lat="51.719383" lon="11.213318"><ele>280.3</ele></trkpt>
            <trkpt lat="51.719655" lon="11.213518"><ele>279.4</ele></trkpt>
            <trkpt lat="51.719908" lon="11.213781"><ele>276</ele></trkpt>
            <trkpt lat="51.720581" lon="11.212062"><ele>276.1</ele></trkpt>
            <trkpt lat="51.72106" lon="11.21076"><ele>274.1</ele></trkpt>
            <trkpt lat="51.721298" lon="11.210212"><ele>272</ele></trkpt>
            <trkpt lat="51.721758" lon="11.208844"><ele>270</ele></trkpt>
            <trkpt lat="51.7219" lon="11.208288"><ele>271</ele></trkpt>
            <trkpt lat="51.721966" lon="11.208056"><ele>271</ele></trkpt>
            <trkpt lat="51.722005" lon="11.207914"><ele>271</ele></trkpt>
            <trkpt lat="51.722023" lon="11.207857"><ele>271</ele></trkpt>
            <trkpt lat="51.722303" lon="11.206854"><ele>271</ele></trkpt>
            <trkpt lat="51.723192" lon="11.202916"><ele>265.6</ele></trkpt>
            <trkpt lat="51.723386" lon="11.202154"><ele>253</ele></trkpt>
            <trkpt lat="51.723786" lon="11.200911"><ele>254</ele></trkpt>
            <trkpt lat="51.723242" lon="11.200185"><ele>262.6</ele></trkpt>
            <trkpt lat="51.722864" lon="11.199791"><ele>262.7</ele></trkpt>
            <trkpt lat="51.722674" lon="11.199537"><ele>263.5</ele></trkpt>
            <trkpt lat="51.7225" lon="11.198957"><ele>265.8</ele></trkpt>
            <trkpt lat="51.722429" lon="11.198514"><ele>266.6</ele></trkpt>
            <trkpt lat="51.722038" lon="11.197581"><ele>269.5</ele></trkpt>
            <trkpt lat="51.721864" lon="11.19725"><ele>271.6</ele></trkpt>
            <trkpt lat="51.721615" lon="11.196911"><ele>272</ele></trkpt>
            <trkpt lat="51.7209" lon="11.196028"><ele>277.9</ele></trkpt>
            <trkpt lat="51.720321" lon="11.195458"><ele>283.2</ele></trkpt>
            <trkpt lat="51.719936" lon="11.194887"><ele>283.8</ele></trkpt>
            <trkpt lat="51.719434" lon="11.194382"><ele>286</ele></trkpt>
            <trkpt lat="51.719331" lon="11.193923"><ele>297.4</ele></trkpt>
            <trkpt lat="51.719343" lon="11.193718"><ele>299.8</ele></trkpt>
            <trkpt lat="51.719324" lon="11.193174"><ele>301.9</ele></trkpt>
            <trkpt lat="51.719293" lon="11.192877"><ele>302</ele></trkpt>
            <trkpt lat="51.719161" lon="11.192264"><ele>303.6</ele></trkpt>
            <trkpt lat="51.719139" lon="11.191588"><ele>307.2</ele></trkpt>
            <trkpt lat="51.718915" lon="11.190684"><ele>317</ele></trkpt>
            <trkpt lat="51.718261" lon="11.189717"><ele>319.9</ele></trkpt>
            <trkpt lat="51.717966" lon="11.189102"><ele>321.7</ele></trkpt>
            <trkpt lat="51.717823" lon="11.18865"><ele>321.9</ele></trkpt>
            <trkpt lat="51.717733" lon="11.188254"><ele>322.8</ele></trkpt>
            <trkpt lat="51.717694" lon="11.187975"><ele>322.6</ele></trkpt>
            <trkpt lat="51.717587" lon="11.18769"><ele>324</ele></trkpt>
            <trkpt lat="51.717208" lon="11.187445"><ele>323.6</ele></trkpt>
            <trkpt lat="51.716694" lon="11.18691"><ele>323.6</ele></trkpt>
            <trkpt lat="51.716461" lon="11.186567"><ele>323.3</ele></trkpt>
            <trkpt lat="51.716367" lon="11.18636"><ele>323.1</ele></trkpt>
            <trkpt lat="51.716119" lon="11.185574"><ele>323.4</ele></trkpt>
            <trkpt lat="51.716092" lon="11.185274"><ele>323.3</ele></trkpt>
            <trkpt lat="51.71616" lon="11.184046"><ele>324.3</ele></trkpt>
            <trkpt lat="51.716069" lon="11.183494"><ele>327</ele></trkpt>
            <trkpt lat="51.716022" lon="11.183136"><ele>326.3</ele></trkpt>
            <trkpt lat="51.715986" lon="11.182975"><ele>326</ele></trkpt>
            <trkpt lat="51.715924" lon="11.182856"><ele>326.1</ele></trkpt>
            <trkpt lat="51.715731" lon="11.182655"><ele>325.9</ele></trkpt>
            <trkpt lat="51.715206" lon="11.182192"><ele>326.4</ele></trkpt>
            <trkpt lat="51.714729" lon="11.181806"><ele>326</ele></trkpt>
            <trkpt lat="51.714668" lon="11.181724"><ele>323</ele></trkpt>
            <trkpt lat="51.714531" lon="11.181459"><ele>325.5</ele></trkpt>
            <trkpt lat="51.71406" lon="11.181002"><ele>326.2</ele></trkpt>
            <trkpt lat="51.713975" lon="11.180883"><ele>325.9</ele></trkpt>
            <trkpt lat="51.713912" lon="11.180713"><ele>326</ele></trkpt>
            <trkpt lat="51.713895" lon="11.180581"><ele>326.1</ele></trkpt>
            <trkpt lat="51.713902" lon="11.180316"><ele>326.3</ele></trkpt>
            <trkpt lat="51.713875" lon="11.180222"><ele>326.4</ele></trkpt>
            <trkpt lat="51.713801" lon="11.180125"><ele>326.5</ele></trkpt>
            <trkpt lat="51.713523" lon="11.179902"><ele>327.6</ele></trkpt>
            <trkpt lat="51.713445" lon="11.179791"><ele>328</ele></trkpt>
            <trkpt lat="51.713413" lon="11.17969"><ele>328.5</ele></trkpt>
            <trkpt lat="51.713406" lon="11.179592"><ele>328.8</ele></trkpt>
            <trkpt lat="51.713423" lon="11.179479"><ele>333</ele></trkpt>
            <trkpt lat="51.713457" lon="11.17949"><ele>333</ele></trkpt>
            <trkpt lat="51.713423" lon="11.179479"><ele>333</ele></trkpt>
            <trkpt lat="51.713432" lon="11.179339"><ele>334.5</ele></trkpt>
            <trkpt lat="51.713385" lon="11.178451"><ele>335.6</ele></trkpt>
            <trkpt lat="51.713409" lon="11.178145"><ele>334</ele></trkpt>
            <trkpt lat="51.713374" lon="11.178083"><ele>334.9</ele></trkpt>
            <trkpt lat="51.713308" lon="11.178052"><ele>335</ele></trkpt>
            <trkpt lat="51.713041" lon="11.178076"><ele>335.5</ele></trkpt>
            <trkpt lat="51.712922" lon="11.178048"><ele>335.5</ele></trkpt>
            <trkpt lat="51.712211" lon="11.177634"><ele>335.6</ele></trkpt>
            <trkpt lat="51.711871" lon="11.177466"><ele>338</ele></trkpt>
            <trkpt lat="51.71174" lon="11.177375"><ele>338</ele></trkpt>
            <trkpt lat="51.71161" lon="11.177175"><ele>341.6</ele></trkpt>
            <trkpt lat="51.711391" lon="11.176713"><ele>342.4</ele></trkpt>
            <trkpt lat="51.711062" lon="11.17596"><ele>343.1</ele></trkpt>
            <trkpt lat="51.710946" lon="11.175614"><ele>344.1</ele></trkpt>
            <trkpt lat="51.71087" lon="11.17523"><ele>345.4</ele></trkpt>
            <trkpt lat="51.710753" lon="11.174267"><ele>346</ele></trkpt>
            <trkpt lat="51.710724" lon="11.173768"><ele>350.4</ele></trkpt>
            <trkpt lat="51.710575" lon="11.17313"><ele>351.1</ele></trkpt>
            <trkpt lat="51.710374" lon="11.172615"><ele>351.9</ele></trkpt>
            <trkpt lat="51.710106" lon="11.172072"><ele>353</ele></trkpt>
            <trkpt lat="51.709744" lon="11.171534"><ele>353.8</ele></trkpt>
            <trkpt lat="51.70959" lon="11.171338"><ele>354.1</ele></trkpt>
            <trkpt lat="51.709456" lon="11.171093"><ele>354</ele></trkpt>
            <trkpt lat="51.709265" lon="11.170815"><ele>354.3</ele></trkpt>
            <trkpt lat="51.709009" lon="11.170596"><ele>354.7</ele></trkpt>
            <trkpt lat="51.70893" lon="11.170477"><ele>355</ele></trkpt>
            <trkpt lat="51.708511" lon="11.169293"><ele>357</ele></trkpt>
            <trkpt lat="51.708437" lon="11.168807"><ele>360.8</ele></trkpt>
            <trkpt lat="51.70822" lon="11.167028"><ele>363.8</ele></trkpt>
            <trkpt lat="51.708207" lon="11.166366"><ele>364.9</ele></trkpt>
            <trkpt lat="51.708259" lon="11.166156"><ele>366</ele></trkpt>
            <trkpt lat="51.708598" lon="11.165378"><ele>366.9</ele></trkpt>
            <trkpt lat="51.708645" lon="11.165168"><ele>368</ele></trkpt>
            <trkpt lat="51.708797" lon="11.164429"><ele>371.4</ele></trkpt>
            <trkpt lat="51.708847" lon="11.163712"><ele>371.5</ele></trkpt>
            <trkpt lat="51.708865" lon="11.162927"><ele>372.4</ele></trkpt>
            <trkpt lat="51.708896" lon="11.162773"><ele>372.7</ele></trkpt>
            <trkpt lat="51.708928" lon="11.162696"><ele>375</ele></trkpt>
            <trkpt lat="51.708717" lon="11.162508"><ele>375</ele></trkpt>
            <trkpt lat="51.709071" lon="11.161031"><ele>377.7</ele></trkpt>
            <trkpt lat="51.709145" lon="11.160862"><ele>377.8</ele></trkpt>
            <trkpt lat="51.709242" lon="11.160799"><ele>377.9</ele></trkpt>
            <trkpt lat="51.70955" lon="11.160899"><ele>377.8</ele></trkpt>
            <trkpt lat="51.709729" lon="11.160909"><ele>377.9</ele></trkpt>
            <trkpt lat="51.709859" lon="11.160852"><ele>377.8</ele></trkpt>
            <trkpt lat="51.710823" lon="11.160026"><ele>376.3</ele></trkpt>
            <trkpt lat="51.711252" lon="11.159557"><ele>374</ele></trkpt>
            <trkpt lat="51.71146" lon="11.159713"><ele>369.8</ele></trkpt>
            <trkpt lat="51.711567" lon="11.15982"><ele>369.3</ele></trkpt>
            <trkpt lat="51.711654" lon="11.160081"><ele>369.5</ele></trkpt>
            <trkpt lat="51.71203" lon="11.160899"><ele>365.3</ele></trkpt>
            <trkpt lat="51.712206" lon="11.161534"><ele>361.4</ele></trkpt>
            <trkpt lat="51.712369" lon="11.162024"><ele>352.2</ele></trkpt>
            <trkpt lat="51.713076" lon="11.163234"><ele>342.2</ele></trkpt>
            <trkpt lat="51.71344" lon="11.16361"><ele>339.3</ele></trkpt>
            <trkpt lat="51.713563" lon="11.163927"><ele>339.4</ele></trkpt>
            <trkpt lat="51.713874" lon="11.164113"><ele>338</ele></trkpt>
            <trkpt lat="51.714308" lon="11.164299"><ele>335.2</ele></trkpt>
            <trkpt lat="51.7146" lon="11.164544"><ele>334.1</ele></trkpt>
            <trkpt lat="51.71501" lon="11.16516"><ele>325.9</ele></trkpt>
            <trkpt lat="51.715427" lon="11.165684"><ele>320</ele></trkpt>
            <trkpt lat="51.715738" lon="11.165963"><ele>317.6</ele></trkpt>
            <trkpt lat="51.716169" lon="11.166172"><ele>316.4</ele></trkpt>
            <trkpt lat="51.716623" lon="11.16622"><ele>313.4</ele></trkpt>
            <trkpt lat="51.716903" lon="11.166204"><ele>311.3</ele></trkpt>
            <trkpt lat="51.717122" lon="11.166238"><ele>308.5</ele></trkpt>
            <trkpt lat="51.717429" lon="11.16633"><ele>308.2</ele></trkpt>
            <trkpt lat="51.717911" lon="11.166375"><ele>304.1</ele></trkpt>
            <trkpt lat="51.718193" lon="11.166472"><ele>302.7</ele></trkpt>
            <trkpt lat="51.718406" lon="11.166498"><ele>300.8</ele></trkpt>
            <trkpt lat="51.718623" lon="11.166437"><ele>299.8</ele></trkpt>
            <trkpt lat="51.719002" lon="11.16627"><ele>297.3</ele></trkpt>
            <trkpt lat="51.719226" lon="11.165983"><ele>294.3</ele></trkpt>
            <trkpt lat="51.719311" lon="11.165794"><ele>293</ele></trkpt>
            <trkpt lat="51.719659" lon="11.164768"><ele>286.3</ele></trkpt>
            <trkpt lat="51.719787" lon="11.164493"><ele>285.5</ele></trkpt>
            <trkpt lat="51.719943" lon="11.164246"><ele>284.7</ele></trkpt>
            <trkpt lat="51.720323" lon="11.163883"><ele>270</ele></trkpt>
            <trkpt lat="51.720469" lon="11.163683"><ele>270</ele></trkpt>
            <trkpt lat="51.720467" lon="11.163634"><ele>266.9</ele></trkpt>
            <trkpt lat="51.720626" lon="11.163232"><ele>266.9</ele></trkpt>
            <trkpt lat="51.720669" lon="11.163078"><ele>266.6</ele></trkpt>
            <trkpt lat="51.720693" lon="11.162869"><ele>266.3</ele></trkpt>
            <trkpt lat="51.720659" lon="11.162652"><ele>266.1</ele></trkpt>
            <trkpt lat="51.720578" lon="11.162367"><ele>259</ele></trkpt>
            <trkpt lat="51.720419" lon="11.1617"><ele>259</ele></trkpt>
            <trkpt lat="51.720457" lon="11.161587"><ele>262</ele></trkpt>
            <trkpt lat="51.720495" lon="11.161396"><ele>262</ele></trkpt>
            <trkpt lat="51.720545" lon="11.16126"><ele>262</ele></trkpt>
            <trkpt lat="51.720566" lon="11.161212"><ele>262</ele></trkpt>
            <trkpt lat="51.72062" lon="11.161203"><ele>263.3</ele></trkpt>
            <trkpt lat="51.720803" lon="11.161344"><ele>263</ele></trkpt>
            <trkpt lat="51.720859" lon="11.161326"><ele>266</ele></trkpt>
            <trkpt lat="51.720885" lon="11.161313"><ele>266</ele></trkpt>
            <trkpt lat="51.721097" lon="11.161325"><ele>268.1</ele></trkpt>
            <trkpt lat="51.721258" lon="11.161259"><ele>267.8</ele></trkpt>
            <trkpt lat="51.721551" lon="11.160828"><ele>268.3</ele></trkpt>
            <trkpt lat="51.721634" lon="11.160773"><ele>269.1</ele></trkpt>
            <trkpt lat="51.721948" lon="11.160484"><ele>269.3</ele></trkpt>
            <trkpt lat="51.72203" lon="11.160389"><ele>269.5</ele></trkpt>
            <trkpt lat="51.722063" lon="11.160277"><ele>272</ele></trkpt>
            <trkpt lat="51.722087" lon="11.159917"><ele>276</ele></trkpt>
            <trkpt lat="51.721979" lon="11.160213"><ele>273.6</ele></trkpt>
            <trkpt lat="51.721905" lon="11.160283"><ele>273.9</ele></trkpt>
            <trkpt lat="51.721782" lon="11.160342"><ele>274.1</ele></trkpt>
            <trkpt lat="51.721662" lon="11.160324"><ele>278</ele></trkpt>
            <trkpt lat="51.72147" lon="11.160247"><ele>277.4</ele></trkpt>
            <trkpt lat="51.721388" lon="11.160248"><ele>277.4</ele></trkpt>
            <trkpt lat="51.721319" lon="11.16031"><ele>277.5</ele></trkpt>
            <trkpt lat="51.721195" lon="11.16051"><ele>277.5</ele></trkpt>
            <trkpt lat="51.721104" lon="11.160614"><ele>277.5</ele></trkpt>
            <trkpt lat="51.721056" lon="11.160624"><ele>277.6</ele></trkpt>
            <trkpt lat="51.721006" lon="11.160583"><ele>277.6</ele></trkpt>
            <trkpt lat="51.720955" lon="11.160489"><ele>277.6</ele></trkpt>
            <trkpt lat="51.720615" lon="11.15942"><ele>276.8</ele></trkpt>
            <trkpt lat="51.720513" lon="11.159232"><ele>276.9</ele></trkpt>
            <trkpt lat="51.720293" lon="11.158344"><ele>276.8</ele></trkpt>
            <trkpt lat="51.720143" lon="11.157482"><ele>282.5</ele></trkpt>
            <trkpt lat="51.719939" lon="11.156701"><ele>286.5</ele></trkpt>
            <trkpt lat="51.719851" lon="11.156277"><ele>287.2</ele></trkpt>
            <trkpt lat="51.719796" lon="11.155875"><ele>287.8</ele></trkpt>
            <trkpt lat="51.719524" lon="11.154436"><ele>293.4</ele></trkpt>
            <trkpt lat="51.719359" lon="11.153812"><ele>297.8</ele></trkpt>
            <trkpt lat="51.719357" lon="11.153381"><ele>298.6</ele></trkpt>
            <trkpt lat="51.719344" lon="11.153264"><ele>301.1</ele></trkpt>
            <trkpt lat="51.719132" lon="11.152967"><ele>294</ele></trkpt>
            <trkpt lat="51.718943" lon="11.152811"><ele>298.5</ele></trkpt>
            <trkpt lat="51.718878" lon="11.152725"><ele>298</ele></trkpt>
            <trkpt lat="51.718571" lon="11.152284"><ele>299.6</ele></trkpt>
            <trkpt lat="51.718516" lon="11.152134"><ele>300.2</ele></trkpt>
            <trkpt lat="51.718385" lon="11.151405"><ele>303.2</ele></trkpt>
            <trkpt lat="51.718157" lon="11.150439"><ele>309.3</ele></trkpt>
            <trkpt lat="51.718121" lon="11.150013"><ele>309.2</ele></trkpt>
            <trkpt lat="51.718107" lon="11.149338"><ele>310.2</ele></trkpt>
            <trkpt lat="51.718121" lon="11.148974"><ele>322</ele></trkpt>
            <trkpt lat="51.717835" lon="11.147156"><ele>333</ele></trkpt>
            <trkpt lat="51.717662" lon="11.146442"><ele>336</ele></trkpt>
            <trkpt lat="51.717433" lon="11.145806"><ele>336.3</ele></trkpt>
            <trkpt lat="51.717363" lon="11.145146"><ele>336.3</ele></trkpt>
            <trkpt lat="51.717305" lon="11.144861"><ele>337.4</ele></trkpt>
            <trkpt lat="51.717309" lon="11.144106"><ele>338.1</ele></trkpt>
            <trkpt lat="51.71716" lon="11.14281"><ele>339.6</ele></trkpt>
            <trkpt lat="51.716997" lon="11.142158"><ele>339.8</ele></trkpt>
            <trkpt lat="51.716266" lon="11.140198"><ele>343</ele></trkpt>
            <trkpt lat="51.716185" lon="11.140132"><ele>342.9</ele></trkpt>
            <trkpt lat="51.716099" lon="11.140023"><ele>342.8</ele></trkpt>
            <trkpt lat="51.715962" lon="11.139748"><ele>343.5</ele></trkpt>
            <trkpt lat="51.71595" lon="11.13936"><ele>348</ele></trkpt>
            <trkpt lat="51.716007" lon="11.139192"><ele>350.3</ele></trkpt>
            <trkpt lat="51.716041" lon="11.138989"><ele>351.3</ele></trkpt>
            <trkpt lat="51.716191" lon="11.137812"><ele>352.7</ele></trkpt>
            <trkpt lat="51.716483" lon="11.136996"><ele>354.4</ele></trkpt>
            <trkpt lat="51.716568" lon="11.136472"><ele>356</ele></trkpt>
            <trkpt lat="51.716568" lon="11.136308"><ele>356.4</ele></trkpt>
            <trkpt lat="51.716505" lon="11.135668"><ele>356.5</ele></trkpt>
            <trkpt lat="51.716496" lon="11.135174"><ele>357</ele></trkpt>
            <trkpt lat="51.716501" lon="11.13482"><ele>354</ele></trkpt>
            <trkpt lat="51.716509" lon="11.134645"><ele>353.1</ele></trkpt>
            <trkpt lat="51.716637" lon="11.133989"><ele>353</ele></trkpt>
            <trkpt lat="51.716649" lon="11.133858"><ele>351</ele></trkpt>
            <trkpt lat="51.716863" lon="11.133185"><ele>341.4</ele></trkpt>
            <trkpt lat="51.716956" lon="11.132839"><ele>341.1</ele></trkpt>
            <trkpt lat="51.7171" lon="11.132503"><ele>340.6</ele></trkpt>
            <trkpt lat="51.717215" lon="11.132389"><ele>339.3</ele></trkpt>
            <trkpt lat="51.717324" lon="11.132342"><ele>338.2</ele></trkpt>
            <trkpt lat="51.717403" lon="11.132356"><ele>327</ele></trkpt>
            <trkpt lat="51.717407" lon="11.132082"><ele>329.3</ele></trkpt>
            <trkpt lat="51.71744" lon="11.131902"><ele>329</ele></trkpt>
            <trkpt lat="51.717503" lon="11.131706"><ele>330</ele></trkpt>
            <trkpt lat="51.717536" lon="11.131675"><ele>336</ele></trkpt>
            <trkpt lat="51.717545" lon="11.131316"><ele>325</ele></trkpt>
            <trkpt lat="51.717567" lon="11.131121"><ele>325</ele></trkpt>
            <trkpt lat="51.717595" lon="11.130984"><ele>325</ele></trkpt>
            <trkpt lat="51.717644" lon="11.130857"><ele>319.5</ele></trkpt>
            <trkpt lat="51.717687" lon="11.130745"><ele>314</ele></trkpt>
            <trkpt lat="51.717686" lon="11.130619"><ele>309.9</ele></trkpt>
            <trkpt lat="51.717733" lon="11.130358"><ele>310.6</ele></trkpt>
            <trkpt lat="51.7177" lon="11.130196"><ele>310.9</ele></trkpt>
            <trkpt lat="51.717744" lon="11.130022"><ele>311.2</ele></trkpt>
            <trkpt lat="51.717743" lon="11.129867"><ele>310.2</ele></trkpt>
            <trkpt lat="51.717788" lon="11.129767"><ele>309.2</ele></trkpt>
            <trkpt lat="51.717832" lon="11.1296"><ele>308.4</ele></trkpt>
            <trkpt lat="51.717983" lon="11.129293"><ele>300</ele></trkpt>
            <trkpt lat="51.718184" lon="11.128845"><ele>285.9</ele></trkpt>
            <trkpt lat="51.718347" lon="11.12856"><ele>284.5</ele></trkpt>
            <trkpt lat="51.71855" lon="11.128284"><ele>272</ele></trkpt>
            <trkpt lat="51.718666" lon="11.127939"><ele>272</ele></trkpt>
            <trkpt lat="51.718603" lon="11.127693"><ele>272</ele></trkpt>
            <trkpt lat="51.718607" lon="11.127508"><ele>272</ele></trkpt>
            <trkpt lat="51.718772" lon="11.127488"><ele>265</ele></trkpt>
            <trkpt lat="51.719153" lon="11.127265"><ele>266.8</ele></trkpt>
            <trkpt lat="51.71927" lon="11.127222"><ele>272</ele></trkpt>
            <trkpt lat="51.719509" lon="11.12727"><ele>272</ele></trkpt>
            <trkpt lat="51.719872" lon="11.127457"><ele>272</ele></trkpt>
            <trkpt lat="51.719979" lon="11.127463"><ele>272</ele></trkpt>
            <trkpt lat="51.720135" lon="11.127427"><ele>277.6</ele></trkpt>
            <trkpt lat="51.720165" lon="11.127356"><ele>277.3</ele></trkpt>
            <trkpt lat="51.720136" lon="11.127036"><ele>279</ele></trkpt>
            <trkpt lat="51.72015" lon="11.126831"><ele>298.6</ele></trkpt>
            <trkpt lat="51.720322" lon="11.126119"><ele>305.7</ele></trkpt>
            <trkpt lat="51.720263" lon="11.125932"><ele>308.4</ele></trkpt>
            <trkpt lat="51.720323" lon="11.12562"><ele>309.3</ele></trkpt>
            <trkpt lat="51.720504" lon="11.125306"><ele>309.3</ele></trkpt>
            <trkpt lat="51.720557" lon="11.125055"><ele>309.2</ele></trkpt>
            <trkpt lat="51.720636" lon="11.12484"><ele>311.5</ele></trkpt>
            <trkpt lat="51.720737" lon="11.124646"><ele>312</ele></trkpt>
            <trkpt lat="51.720804" lon="11.124147"><ele>311.8</ele></trkpt>
            <trkpt lat="51.72085" lon="11.124029"><ele>320</ele></trkpt>
            <trkpt lat="51.720618" lon="11.124043"><ele>321.3</ele></trkpt>
            <trkpt lat="51.720276" lon="11.124241"><ele>318</ele></trkpt>
            <trkpt lat="51.72012" lon="11.124207"><ele>325.9</ele></trkpt>
            <trkpt lat="51.719983" lon="11.124123"><ele>326.9</ele></trkpt>
            <trkpt lat="51.719776" lon="11.123924"><ele>329.3</ele></trkpt>
            <trkpt lat="51.719589" lon="11.123903"><ele>329.5</ele></trkpt>
            <trkpt lat="51.719486" lon="11.123819"><ele>330.6</ele></trkpt>
            <trkpt lat="51.719388" lon="11.123635"><ele>330.9</ele></trkpt>
            <trkpt lat="51.719217" lon="11.12301"><ele>334.2</ele></trkpt>
            <trkpt lat="51.719087" lon="11.1223"><ele>337.1</ele></trkpt>
            <trkpt lat="51.719074" lon="11.122077"><ele>337</ele></trkpt>
            <trkpt lat="51.719153" lon="11.120869"><ele>350</ele></trkpt>
            <trkpt lat="51.719079" lon="11.12052"><ele>356.9</ele></trkpt>
            <trkpt lat="51.71901" lon="11.120322"><ele>360</ele></trkpt>
            <trkpt lat="51.718866" lon="11.120011"><ele>357.6</ele></trkpt>
            <trkpt lat="51.718717" lon="11.119796"><ele>357.2</ele></trkpt>
            <trkpt lat="51.718635" lon="11.119632"><ele>357.9</ele></trkpt>
            <trkpt lat="51.718483" lon="11.11916"><ele>359.2</ele></trkpt>
            <trkpt lat="51.718313" lon="11.118867"><ele>360.9</ele></trkpt>
            <trkpt lat="51.717952" lon="11.118359"><ele>361.4</ele></trkpt>
            <trkpt lat="51.717657" lon="11.118018"><ele>362.4</ele></trkpt>
            <trkpt lat="51.717573" lon="11.117669"><ele>362.3</ele></trkpt>
            <trkpt lat="51.717519" lon="11.117239"><ele>361.9</ele></trkpt>
            <trkpt lat="51.717412" lon="11.11675"><ele>355</ele></trkpt>
            <trkpt lat="51.717313" lon="11.116442"><ele>357.9</ele></trkpt>
            <trkpt lat="51.7172" lon="11.115853"><ele>358.1</ele></trkpt>
            <trkpt lat="51.717068" lon="11.1146"><ele>362</ele></trkpt>
            <trkpt lat="51.717045" lon="11.114385"><ele>367</ele></trkpt>
            <trkpt lat="51.716977" lon="11.114063"><ele>366.9</ele></trkpt>
            <trkpt lat="51.716962" lon="11.113757"><ele>366.4</ele></trkpt>
            <trkpt lat="51.716961" lon="11.113225"><ele>366.8</ele></trkpt>
            <trkpt lat="51.716912" lon="11.112922"><ele>366.5</ele></trkpt>
            <trkpt lat="51.716822" lon="11.112701"><ele>366.6</ele></trkpt>
            <trkpt lat="51.716666" lon="11.1124"><ele>367.8</ele></trkpt>
            <trkpt lat="51.716545" lon="11.112092"><ele>370.3</ele></trkpt>
            <trkpt lat="51.716313" lon="11.11141"><ele>372.3</ele></trkpt>
            <trkpt lat="51.716152" lon="11.110881"><ele>374.3</ele></trkpt>
            <trkpt lat="51.715972" lon="11.110147"><ele>383</ele></trkpt>
            <trkpt lat="51.71597" lon="11.109957"><ele>386</ele></trkpt>
            <trkpt lat="51.716038" lon="11.109614"><ele>386.7</ele></trkpt>
            <trkpt lat="51.716087" lon="11.109496"><ele>386.7</ele></trkpt>
            <trkpt lat="51.716276" lon="11.109319"><ele>386.9</ele></trkpt>
            <trkpt lat="51.716579" lon="11.108841"><ele>388</ele></trkpt>
            <trkpt lat="51.716617" lon="11.108715"><ele>390</ele></trkpt>
            <trkpt lat="51.716638" lon="11.108518"><ele>387.3</ele></trkpt>
            <trkpt lat="51.716713" lon="11.107584"><ele>384.2</ele></trkpt>
            <trkpt lat="51.716732" lon="11.107213"><ele>382.9</ele></trkpt>
            <trkpt lat="51.716731" lon="11.106754"><ele>382.2</ele></trkpt>
            <trkpt lat="51.716713" lon="11.106519"><ele>380</ele></trkpt>
            <trkpt lat="51.716688" lon="11.106394"><ele>380.3</ele></trkpt>
            <trkpt lat="51.716464" lon="11.105585"><ele>378.7</ele></trkpt>
            <trkpt lat="51.716425" lon="11.10549"><ele>375.9</ele></trkpt>
            <trkpt lat="51.716392" lon="11.105411"><ele>373</ele></trkpt>
            <trkpt lat="51.716427" lon="11.105337"><ele>366.4</ele></trkpt>
            <trkpt lat="51.71648" lon="11.105083"><ele>368.4</ele></trkpt>
            <trkpt lat="51.716473" lon="11.104954"><ele>350</ele></trkpt>
            <trkpt lat="51.716713" lon="11.105123"><ele>363</ele></trkpt>
            <trkpt lat="51.716878" lon="11.105277"><ele>360.7</ele></trkpt>
            <trkpt lat="51.717103" lon="11.105368"><ele>360.8</ele></trkpt>
            <trkpt lat="51.717464" lon="11.105471"><ele>361</ele></trkpt>
            <trkpt lat="51.717625" lon="11.10555"><ele>360</ele></trkpt>
            <trkpt lat="51.717709" lon="11.105652"><ele>359.6</ele></trkpt>
            <trkpt lat="51.717761" lon="11.105891"><ele>359.5</ele></trkpt>
            <trkpt lat="51.717893" lon="11.107489"><ele>360.8</ele></trkpt>
            <trkpt lat="51.717985" lon="11.107654"><ele>366</ele></trkpt>
            <trkpt lat="51.717703" lon="11.108062"><ele>364.1</ele></trkpt>
            <trkpt lat="51.717612" lon="11.108366"><ele>366</ele></trkpt>
            <trkpt lat="51.717617" lon="11.108606"><ele>367.9</ele></trkpt>
            <trkpt lat="51.717941" lon="11.108879"><ele>368.3</ele></trkpt>
            <trkpt lat="51.718062" lon="11.109101"><ele>368.8</ele></trkpt>
            <trkpt lat="51.718082" lon="11.109467"><ele>369.4</ele></trkpt>
            <trkpt lat="51.71747" lon="11.110208"><ele>371.8</ele></trkpt>
            <trkpt lat="51.71745" lon="11.110691"><ele>381</ele></trkpt>
            <trkpt lat="51.717959" lon="11.111364"><ele>360</ele></trkpt>
            <trkpt lat="51.718161" lon="11.111651"><ele>344.4</ele></trkpt>
            <trkpt lat="51.718416" lon="11.111913"><ele>341.3</ele></trkpt>
            <trkpt lat="51.718546" lon="11.111986"><ele>342.7</ele></trkpt>
            <trkpt lat="51.718978" lon="11.112047"><ele>334</ele></trkpt>
            <trkpt lat="51.719404" lon="11.112042"><ele>319.5</ele></trkpt>
            <trkpt lat="51.719493" lon="11.112211"><ele>317.8</ele></trkpt>
            <trkpt lat="51.719351" lon="11.112557"><ele>315.3</ele></trkpt>
            <trkpt lat="51.719052" lon="11.112815"><ele>317</ele></trkpt>
            <trkpt lat="51.719042" lon="11.113038"><ele>337</ele></trkpt>
            <trkpt lat="51.719191" lon="11.113094"><ele>306.3</ele></trkpt>
            <trkpt lat="51.719317" lon="11.113083"><ele>304.2</ele></trkpt>
            <trkpt lat="51.71957" lon="11.11318"><ele>302.5</ele></trkpt>
            <trkpt lat="51.719942" lon="11.113255"><ele>295.5</ele></trkpt>
            <trkpt lat="51.720538" lon="11.113328"><ele>287.9</ele></trkpt>
            <trkpt lat="51.720793" lon="11.113242"><ele>285.1</ele></trkpt>
            <trkpt lat="51.720999" lon="11.113222"><ele>279.3</ele></trkpt>
            <trkpt lat="51.721247" lon="11.113159"><ele>262</ele></trkpt>
            <trkpt lat="51.72133" lon="11.113142"><ele>262</ele></trkpt>
            <trkpt lat="51.721514" lon="11.113108"><ele>262</ele></trkpt>
            <trkpt lat="51.721527" lon="11.113129"><ele>262</ele></trkpt>
            <trkpt lat="51.721563" lon="11.113355"><ele>268</ele></trkpt>
            <trkpt lat="51.721567" lon="11.113655"><ele>268</ele></trkpt>
            <trkpt lat="51.7216" lon="11.113784"><ele>268</ele></trkpt>
            <trkpt lat="51.721624" lon="11.11386"><ele>268</ele></trkpt>
            <trkpt lat="51.721643" lon="11.113907"><ele>268</ele></trkpt>
            <trkpt lat="51.721765" lon="11.114098"><ele>261</ele></trkpt>
            <trkpt lat="51.721902" lon="11.114199"><ele>260</ele></trkpt>
            <trkpt lat="51.722178" lon="11.114373"><ele>260</ele></trkpt>
            <trkpt lat="51.722467" lon="11.114442"><ele>258.7</ele></trkpt>
            <trkpt lat="51.722619" lon="11.114646"><ele>257.9</ele></trkpt>
            <trkpt lat="51.722892" lon="11.114825"><ele>255</ele></trkpt>
            <trkpt lat="51.723078" lon="11.114941"><ele>254.7</ele></trkpt>
            <trkpt lat="51.723177" lon="11.115038"><ele>254</ele></trkpt>
            <trkpt lat="51.723434" lon="11.115412"><ele>250</ele></trkpt>
            <trkpt lat="51.72397" lon="11.115811"><ele>250</ele></trkpt>
            <trkpt lat="51.724046" lon="11.115859"><ele>261</ele></trkpt>
            <trkpt lat="51.724084" lon="11.115883"><ele>261</ele></trkpt>
            <trkpt lat="51.724197" lon="11.115932"><ele>250</ele></trkpt>
            <trkpt lat="51.724455" lon="11.11609"><ele>250</ele></trkpt>
            <trkpt lat="51.724533" lon="11.116151"><ele>250</ele></trkpt>
            <trkpt lat="51.724656" lon="11.116231"><ele>250</ele></trkpt>
            <trkpt lat="51.724555" lon="11.116428"><ele>250</ele></trkpt>
            <trkpt lat="51.724538" lon="11.116414"><ele>250</ele></trkpt>
            <trkpt lat="51.724506" lon="11.116446"><ele>253</ele></trkpt>
            <trkpt lat="51.724466" lon="11.116716"><ele>253.8</ele></trkpt>
            <trkpt lat="51.724474" lon="11.11688"><ele>256</ele></trkpt>
            <trkpt lat="51.72427" lon="11.116952"><ele>281.5</ele></trkpt>
            <trkpt lat="51.724131" lon="11.117069"><ele>287</ele></trkpt>
            <trkpt lat="51.724044" lon="11.117188"><ele>287.9</ele></trkpt>
            <trkpt lat="51.723917" lon="11.117298"><ele>288.9</ele></trkpt>
            <trkpt lat="51.723716" lon="11.117621"><ele>290</ele></trkpt>
            <trkpt lat="51.723564" lon="11.117739"><ele>290.1</ele></trkpt>
            <trkpt lat="51.723391" lon="11.117795"><ele>290.3</ele></trkpt>
            <trkpt lat="51.723204" lon="11.117977"><ele>292.9</ele></trkpt>
            <trkpt lat="51.723169" lon="11.118181"><ele>293.1</ele></trkpt>
            <trkpt lat="51.723368" lon="11.118403"><ele>293.7</ele></trkpt>
            <trkpt lat="51.723534" lon="11.118758"><ele>293.1</ele></trkpt>
            <trkpt lat="51.723732" lon="11.119077"><ele>292.7</ele></trkpt>
            <trkpt lat="51.723797" lon="11.119121"><ele>302</ele></trkpt>
            <trkpt lat="51.723793" lon="11.119173"><ele>302.8</ele></trkpt>
            <trkpt lat="51.723797" lon="11.119121"><ele>302</ele></trkpt>
            <trkpt lat="51.723732" lon="11.119077"><ele>292.7</ele></trkpt>
            <trkpt lat="51.723534" lon="11.118758"><ele>293.1</ele></trkpt>
            <trkpt lat="51.723368" lon="11.118403"><ele>293.7</ele></trkpt>
            <trkpt lat="51.723169" lon="11.118181"><ele>293.1</ele></trkpt>
            <trkpt lat="51.723204" lon="11.117977"><ele>292.9</ele></trkpt>
            <trkpt lat="51.723391" lon="11.117795"><ele>290.3</ele></trkpt>
            <trkpt lat="51.723564" lon="11.117739"><ele>290.1</ele></trkpt>
            <trkpt lat="51.723716" lon="11.117621"><ele>290</ele></trkpt>
            <trkpt lat="51.723917" lon="11.117298"><ele>288.9</ele></trkpt>
            <trkpt lat="51.724044" lon="11.117188"><ele>287.9</ele></trkpt>
            <trkpt lat="51.724131" lon="11.117069"><ele>287</ele></trkpt>
            <trkpt lat="51.72427" lon="11.116952"><ele>281.5</ele></trkpt>
            <trkpt lat="51.724474" lon="11.11688"><ele>256</ele></trkpt>
            <trkpt lat="51.724572" lon="11.117064"><ele>256</ele></trkpt>
            <trkpt lat="51.724713" lon="11.117262"><ele>256</ele></trkpt>
            <trkpt lat="51.725053" lon="11.117654"><ele>249.3</ele></trkpt>
            <trkpt lat="51.725279" lon="11.117719"><ele>246</ele></trkpt>
            <trkpt lat="51.725348" lon="11.117778"><ele>246</ele></trkpt>
            <trkpt lat="51.725479" lon="11.118365"><ele>260</ele></trkpt>
            <trkpt lat="51.725523" lon="11.1186"><ele>260</ele></trkpt>
            <trkpt lat="51.725541" lon="11.119098"><ele>260</ele></trkpt>
            <trkpt lat="51.725566" lon="11.119415"><ele>262.3</ele></trkpt>
            <trkpt lat="51.725555" lon="11.119807"><ele>263</ele></trkpt>
            <trkpt lat="51.725433" lon="11.120181"><ele>267</ele></trkpt>
            <trkpt lat="51.725321" lon="11.120518"><ele>270.3</ele></trkpt>
            <trkpt lat="51.725237" lon="11.120834"><ele>270.8</ele></trkpt>
            <trkpt lat="51.724966" lon="11.121578"><ele>273.4</ele></trkpt>
            <trkpt lat="51.724871" lon="11.121935"><ele>275</ele></trkpt>
            <trkpt lat="51.724802" lon="11.122448"><ele>275</ele></trkpt>
            <trkpt lat="51.724972" lon="11.122995"><ele>263</ele></trkpt>
            <trkpt lat="51.72502" lon="11.123026"><ele>247</ele></trkpt>
            <trkpt lat="51.724916" lon="11.123497"><ele>255</ele></trkpt>
            <trkpt lat="51.724892" lon="11.123699"><ele>255</ele></trkpt>
            <trkpt lat="51.724878" lon="11.124298"><ele>249</ele></trkpt>
            <trkpt lat="51.724865" lon="11.125132"><ele>243</ele></trkpt>
            <trkpt lat="51.724844" lon="11.125897"><ele>242</ele></trkpt>
            <trkpt lat="51.724819" lon="11.126819"><ele>241</ele></trkpt>
            <trkpt lat="51.724713" lon="11.129272"><ele>227.8</ele></trkpt>
            <trkpt lat="51.724726" lon="11.129625"><ele>227.7</ele></trkpt>
            <trkpt lat="51.724869" lon="11.13126"><ele>224.9</ele></trkpt>
            <trkpt lat="51.724928" lon="11.131389"><ele>221</ele></trkpt>
            <trkpt lat="51.724826" lon="11.131618"><ele>221.5</ele></trkpt>
            <trkpt lat="51.724673" lon="11.131885"><ele>221.8</ele></trkpt>
            <trkpt lat="51.724621" lon="11.131938"><ele>222</ele></trkpt>
            <trkpt lat="51.724398" lon="11.132077"><ele>222.2</ele></trkpt>
            <trkpt lat="51.724256" lon="11.132208"><ele>222.8</ele></trkpt>
            <trkpt lat="51.724212" lon="11.132304"><ele>223.1</ele></trkpt>
            <trkpt lat="51.724117" lon="11.132621"><ele>232</ele></trkpt>
            <trkpt lat="51.724283" lon="11.132819"><ele>218</ele></trkpt>
            <trkpt lat="51.724497" lon="11.133066"><ele>217.7</ele></trkpt>
            <trkpt lat="51.724606" lon="11.133243"><ele>217.8</ele></trkpt>
            <trkpt lat="51.724651" lon="11.13337"><ele>217.7</ele></trkpt>
            <trkpt lat="51.724732" lon="11.133793"><ele>217</ele></trkpt>
            <trkpt lat="51.724717" lon="11.133886"><ele>216.6</ele></trkpt>
            <trkpt lat="51.724559" lon="11.134227"><ele>216.6</ele></trkpt>
            <trkpt lat="51.724494" lon="11.134419"><ele>216.5</ele></trkpt>
            <trkpt lat="51.724481" lon="11.13462"><ele>216.4</ele></trkpt>
            <trkpt lat="51.724543" lon="11.134853"><ele>216</ele></trkpt>
            <trkpt lat="51.724593" lon="11.134982"><ele>215.6</ele></trkpt>
            <trkpt lat="51.724607" lon="11.13508"><ele>215</ele></trkpt>
            <trkpt lat="51.724815" lon="11.135092"><ele>215</ele></trkpt>
            <trkpt lat="51.724815" lon="11.135172"><ele>215</ele></trkpt>
            <trkpt lat="51.724907" lon="11.135536"><ele>215</ele></trkpt>
            <trkpt lat="51.724912" lon="11.135749"><ele>215.6</ele></trkpt>
            <trkpt lat="51.724816" lon="11.136846"><ele>215.8</ele></trkpt>
            <trkpt lat="51.724813" lon="11.137043"><ele>217</ele></trkpt>
            <trkpt lat="51.724966" lon="11.137715"><ele>219</ele></trkpt>
            <trkpt lat="51.725101" lon="11.138152"><ele>212</ele></trkpt>
            <trkpt lat="51.725079" lon="11.13868"><ele>215.8</ele></trkpt>
            <trkpt lat="51.724996" lon="11.139136"><ele>216.3</ele></trkpt>
            <trkpt lat="51.724961" lon="11.139243"><ele>225</ele></trkpt>
            <trkpt lat="51.72471" lon="11.139553"><ele>225</ele></trkpt>
            <trkpt lat="51.724581" lon="11.139797"><ele>225</ele></trkpt>
            <trkpt lat="51.724542" lon="11.140325"><ele>229</ele></trkpt>
            <trkpt lat="51.724533" lon="11.140775"><ele>229.6</ele></trkpt>
            <trkpt lat="51.724574" lon="11.141152"><ele>229.9</ele></trkpt>
            <trkpt lat="51.724571" lon="11.141239"><ele>230</ele></trkpt>
            <trkpt lat="51.72454" lon="11.141331"><ele>231</ele></trkpt>
            <trkpt lat="51.724668" lon="11.141592"><ele>231.8</ele></trkpt>
            <trkpt lat="51.724709" lon="11.141719"><ele>231.9</ele></trkpt>
            <trkpt lat="51.724802" lon="11.142277"><ele>233</ele></trkpt>
            <trkpt lat="51.724833" lon="11.14243"><ele>233</ele></trkpt>
            <trkpt lat="51.724978" lon="11.142993"><ele>230.9</ele></trkpt>
            <trkpt lat="51.725058" lon="11.143443"><ele>227</ele></trkpt>
            <trkpt lat="51.725102" lon="11.143628"><ele>227</ele></trkpt>
            <trkpt lat="51.725046" lon="11.143736"><ele>227</ele></trkpt>
            <trkpt lat="51.725032" lon="11.143803"><ele>227</ele></trkpt>
            <trkpt lat="51.724997" lon="11.144181"><ele>236</ele></trkpt>
            <trkpt lat="51.724913" lon="11.145176"><ele>235</ele></trkpt>
            <trkpt lat="51.724892" lon="11.145421"><ele>235</ele></trkpt>
            <trkpt lat="51.724864" lon="11.145722"><ele>235</ele></trkpt>
            <trkpt lat="51.724812" lon="11.146308"><ele>235</ele></trkpt>
            <trkpt lat="51.724774" lon="11.146786"><ele>235</ele></trkpt>
            <trkpt lat="51.724674" lon="11.148367"><ele>235.6</ele></trkpt>
            <trkpt lat="51.724654" lon="11.148913"><ele>235.4</ele></trkpt>
            <trkpt lat="51.724607" lon="11.15279"><ele>235</ele></trkpt>
            <trkpt lat="51.724586" lon="11.157171"><ele>234</ele></trkpt>
            <trkpt lat="51.724582" lon="11.158052"><ele>233</ele></trkpt>
            <trkpt lat="51.724588" lon="11.158705"><ele>232.4</ele></trkpt>
            <trkpt lat="51.724612" lon="11.159231"><ele>232</ele></trkpt>
            <trkpt lat="51.724655" lon="11.159926"><ele>232</ele></trkpt>
            <trkpt lat="51.724658" lon="11.159983"><ele>232</ele></trkpt>
            <trkpt lat="51.724637" lon="11.160564"><ele>232</ele></trkpt>
            <trkpt lat="51.724641" lon="11.160778"><ele>232</ele></trkpt>
            <trkpt lat="51.724653" lon="11.160896"><ele>238</ele></trkpt>
            <trkpt lat="51.7248" lon="11.161091"><ele>238</ele></trkpt>
            <trkpt lat="51.725014" lon="11.161354"><ele>236</ele></trkpt>
            <trkpt lat="51.725293" lon="11.161849"><ele>250.8</ele></trkpt>
            <trkpt lat="51.725575" lon="11.162575"><ele>252</ele></trkpt>
            <trkpt lat="51.72581" lon="11.163663"><ele>272</ele></trkpt>
            <trkpt lat="51.726253" lon="11.167125"><ele>269.8</ele></trkpt>
            <trkpt lat="51.726315" lon="11.168508"><ele>271.8</ele></trkpt>
            <trkpt lat="51.726396" lon="11.16908"><ele>274.3</ele></trkpt>
            <trkpt lat="51.726422" lon="11.170227"><ele>277.8</ele></trkpt>
            <trkpt lat="51.726488" lon="11.170969"><ele>287</ele></trkpt>
            <trkpt lat="51.726541" lon="11.17143"><ele>288.7</ele></trkpt>
            <trkpt lat="51.726565" lon="11.172105"><ele>292</ele></trkpt>
            <trkpt lat="51.726662" lon="11.173121"><ele>288.6</ele></trkpt>
            <trkpt lat="51.726698" lon="11.174123"><ele>284.8</ele></trkpt>
            <trkpt lat="51.726773" lon="11.174802"><ele>281.8</ele></trkpt>
            <trkpt lat="51.726777" lon="11.175564"><ele>279</ele></trkpt>
            <trkpt lat="51.726787" lon="11.176507"><ele>281</ele></trkpt>
            <trkpt lat="51.726761" lon="11.1774"><ele>281.4</ele></trkpt>
            <trkpt lat="51.726682" lon="11.178446"><ele>282.5</ele></trkpt>
            <trkpt lat="51.726512" lon="11.180048"><ele>287</ele></trkpt>
            <trkpt lat="51.726124" lon="11.183466"><ele>272.3</ele></trkpt>
            <trkpt lat="51.725845" lon="11.184892"><ele>269</ele></trkpt>
            <trkpt lat="51.725788" lon="11.185663"><ele>270</ele></trkpt>
            <trkpt lat="51.725657" lon="11.18716"><ele>258.8</ele></trkpt>
            <trkpt lat="51.725566" lon="11.188512"><ele>253.4</ele></trkpt>
            <trkpt lat="51.725524" lon="11.188847"><ele>252.8</ele></trkpt>
            <trkpt lat="51.725506" lon="11.189515"><ele>252</ele></trkpt>
            <trkpt lat="51.725334" lon="11.18982"><ele>252</ele></trkpt>
            <trkpt lat="51.725506" lon="11.191297"><ele>256.8</ele></trkpt>
            <trkpt lat="51.725562" lon="11.191543"><ele>260</ele></trkpt>
            <trkpt lat="51.725732" lon="11.192296"><ele>266</ele></trkpt>
            <trkpt lat="51.725815" lon="11.192666"><ele>265.9</ele></trkpt>
            <trkpt lat="51.72577" lon="11.193649"><ele>265.8</ele></trkpt>
            <trkpt lat="51.725579" lon="11.195163"><ele>264</ele></trkpt>
            <trkpt lat="51.725244" lon="11.196676"><ele>260.3</ele></trkpt>
            <trkpt lat="51.724627" lon="11.198548"><ele>260.8</ele></trkpt>
            <trkpt lat="51.724256" lon="11.199503"><ele>261.4</ele></trkpt>
            <trkpt lat="51.723984" lon="11.200292"><ele>255</ele></trkpt>
            <trkpt lat="51.723786" lon="11.200911"><ele>254</ele></trkpt>
            <trkpt lat="51.723386" lon="11.202154"><ele>253</ele></trkpt>
            <trkpt lat="51.723192" lon="11.202916"><ele>265.6</ele></trkpt>
            <trkpt lat="51.722303" lon="11.206854"><ele>271</ele></trkpt>
            <trkpt lat="51.722023" lon="11.207857"><ele>271</ele></trkpt>
            <trkpt lat="51.722005" lon="11.207914"><ele>271</ele></trkpt>
            <trkpt lat="51.721966" lon="11.208056"><ele>271</ele></trkpt>
            <trkpt lat="51.7219" lon="11.208288"><ele>271</ele></trkpt>
            <trkpt lat="51.721758" lon="11.208844"><ele>270</ele></trkpt>
            <trkpt lat="51.721298" lon="11.210212"><ele>272</ele></trkpt>
            <trkpt lat="51.72106" lon="11.21076"><ele>274.1</ele></trkpt>
            <trkpt lat="51.720581" lon="11.212062"><ele>276.1</ele></trkpt>
            <trkpt lat="51.719908" lon="11.213781"><ele>276</ele></trkpt>
            <trkpt lat="51.719655" lon="11.213518"><ele>279.4</ele></trkpt>
            <trkpt lat="51.719383" lon="11.213318"><ele>280.3</ele></trkpt>
            <trkpt lat="51.719053" lon="11.212944"><ele>280.3</ele></trkpt>
            <trkpt lat="51.718853" lon="11.212674"><ele>280.5</ele></trkpt>
            <trkpt lat="51.71866" lon="11.212137"><ele>281.1</ele></trkpt>
            <trkpt lat="51.718562" lon="11.211759"><ele>283</ele></trkpt>
            <trkpt lat="51.718479" lon="11.212347"><ele>281.4</ele></trkpt>
            <trkpt lat="51.718329" lon="11.21265"><ele>273</ele></trkpt>
            <trkpt lat="51.718283" lon="11.212453"><ele>277.9</ele></trkpt>
            <trkpt lat="51.718219" lon="11.212339"><ele>278.2</ele></trkpt>
            <trkpt lat="51.7181" lon="11.212248"><ele>278.2</ele></trkpt>
            <trkpt lat="51.717929" lon="11.21205"><ele>278.8</ele></trkpt>
            <trkpt lat="51.71783" lon="11.211891"><ele>278.7</ele></trkpt>
            <trkpt lat="51.717536" lon="11.211497"><ele>279.7</ele></trkpt>
            <trkpt lat="51.717349" lon="11.211198"><ele>280.4</ele></trkpt>
            <trkpt lat="51.717033" lon="11.210844"><ele>282.3</ele></trkpt>
            <trkpt lat="51.716894" lon="11.210716"><ele>282.7</ele></trkpt>
            <trkpt lat="51.71668" lon="11.210585"><ele>283.7</ele></trkpt>
            <trkpt lat="51.71631" lon="11.21021"><ele>283.6</ele></trkpt>
            <trkpt lat="51.716236" lon="11.210163"><ele>283.6</ele></trkpt>
            <trkpt lat="51.716093" lon="11.210098"><ele>283.6</ele></trkpt>
        </trkseg>
    </trk>
</gpx>
