<?xml version="1.0" encoding="UTF-8"?>
<gpx version="1.1" creator="HWN Route Compare (OpenRouteService)" xmlns="http://www.topografix.com/GPX/1/1">
    <metadata>
        <name>OpenRouteService – Tour F5</name>
    </metadata>
    <trk>
        <name>OpenRouteService – Tour F5</name>
        <trkseg>
            <trkpt lat="51.67909" lon="11.232547"><ele>220</ele></trkpt>
            <trkpt lat="51.678978" lon="11.23284"><ele>220</ele></trkpt>
            <trkpt lat="51.678965" lon="11.23134"><ele>220.3</ele></trkpt>
            <trkpt lat="51.678811" lon="11.228865"><ele>220.4</ele></trkpt>
            <trkpt lat="51.678775" lon="11.22864"><ele>220.7</ele></trkpt>
            <trkpt lat="51.678428" lon="11.227327"><ele>218</ele></trkpt>
            <trkpt lat="51.678112" lon="11.226129"><ele>224.8</ele></trkpt>
            <trkpt lat="51.678062" lon="11.225986"><ele>224.9</ele></trkpt>
            <trkpt lat="51.67799" lon="11.225852"><ele>224.9</ele></trkpt>
            <trkpt lat="51.677389" lon="11.224944"><ele>232</ele></trkpt>
            <trkpt lat="51.676842" lon="11.224011"><ele>233.4</ele></trkpt>
            <trkpt lat="51.67621" lon="11.223115"><ele>234.3</ele></trkpt>
            <trkpt lat="51.675936" lon="11.222561"><ele>235</ele></trkpt>
            <trkpt lat="51.675635" lon="11.221969"><ele>233.6</ele></trkpt>
            <trkpt lat="51.675574" lon="11.221891"><ele>233.5</ele></trkpt>
            <trkpt lat="51.675453" lon="11.221821"><ele>233</ele></trkpt>
            <trkpt lat="51.675355" lon="11.221788"><ele>233</ele></trkpt>
            <trkpt lat="51.67515" lon="11.221695"><ele>232.3</ele></trkpt>
            <trkpt lat="51.675006" lon="11.221503"><ele>231</ele></trkpt>
            <trkpt lat="51.674945" lon="11.221408"><ele>253</ele></trkpt>
            <trkpt lat="51.674875" lon="11.221239"><ele>254.3</ele></trkpt>
            <trkpt lat="51.674807" lon="11.221002"><ele>255.2</ele></trkpt>
            <trkpt lat="51.674742" lon="11.22071"><ele>255.1</ele></trkpt>
            <trkpt lat="51.674693" lon="11.220367"><ele>254.8</ele></trkpt>
            <trkpt lat="51.674668" lon="11.21998"><ele>254.7</ele></trkpt>
            <trkpt lat="51.674676" lon="11.219271"><ele>255.7</ele></trkpt>
            <trkpt lat="51.674743" lon="11.218829"><ele>254.3</ele></trkpt>
            <trkpt lat="51.674773" lon="11.218317"><ele>251</ele></trkpt>
            <trkpt lat="51.674759" lon="11.21804"><ele>251</ele></trkpt>
            <trkpt lat="51.674721" lon="11.217568"><ele>245.8</ele></trkpt>
            <trkpt lat="51.674721" lon="11.217175"><ele>246.7</ele></trkpt>
            <trkpt lat="51.674807" lon="11.21684"><ele>247.4</ele></trkpt>
            <trkpt lat="51.675052" lon="11.216177"><ele>245.7</ele></trkpt>
            <trkpt lat="51.675222" lon="11.215622"><ele>233</ele></trkpt>
            <trkpt lat="51.67525" lon="11.215525"><ele>233</ele></trkpt>
            <trkpt lat="51.67529" lon="11.215422"><ele>233</ele></trkpt>
            <trkpt lat="51.675367" lon="11.215134"><ele>232.6</ele></trkpt>
            <trkpt lat="51.675375" lon="11.214989"><ele>232.6</ele></trkpt>
            <trkpt lat="51.675219" lon="11.213614"><ele>232</ele></trkpt>
            <trkpt lat="51.675124" lon="11.213008"><ele>245.5</ele></trkpt>
            <trkpt lat="51.675085" lon="11.212855"><ele>246.6</ele></trkpt>
            <trkpt lat="51.674952" lon="11.212605"><ele>246.2</ele></trkpt>
            <trkpt lat="51.674628" lon="11.212188"><ele>246.6</ele></trkpt>
            <trkpt lat="51.674278" lon="11.211775"><ele>248.2</ele></trkpt>
            <trkpt lat="51.673795" lon="11.21128"><ele>248</ele></trkpt>
            <trkpt lat="51.673438" lon="11.210965"><ele>248.6</ele></trkpt>
            <trkpt lat="51.673044" lon="11.21071"><ele>247.6</ele></trkpt>
            <trkpt lat="51.672692" lon="11.210554"><ele>247.1</ele></trkpt>
            <trkpt lat="51.672552" lon="11.210439"><ele>246.7</ele></trkpt>
            <trkpt lat="51.672386" lon="11.210229"><ele>244.6</ele></trkpt>
            <trkpt lat="51.672229" lon="11.209972"><ele>242.6</ele></trkpt>
            <trkpt lat="51.672123" lon="11.209742"><ele>242</ele></trkpt>
            <trkpt lat="51.671938" lon="11.209229"><ele>241</ele></trkpt>
            <trkpt lat="51.67183" lon="11.20888"><ele>240.1</ele></trkpt>
            <trkpt lat="51.671772" lon="11.208415"><ele>239.4</ele></trkpt>
            <trkpt lat="51.671736" lon="11.207914"><ele>240</ele></trkpt>
            <trkpt lat="51.671745" lon="11.207532"><ele>240.2</ele></trkpt>
            <trkpt lat="51.671806" lon="11.207023"><ele>238</ele></trkpt>
            <trkpt lat="51.671963" lon="11.205479"><ele>235.2</ele></trkpt>
            <trkpt lat="51.672291" lon="11.200836"><ele>232.8</ele></trkpt>
            <trkpt lat="51.67236" lon="11.200362"><ele>232.7</ele></trkpt>
            <trkpt lat="51.672713" lon="11.198865"><ele>234.7</ele></trkpt>
            <trkpt lat="51.673473" lon="11.195131"><ele>243</ele></trkpt>
            <trkpt lat="51.674027" lon="11.192375"><ele>242.7</ele></trkpt>
            <trkpt lat="51.674155" lon="11.191937"><ele>242.2</ele></trkpt>
            <trkpt lat="51.67425" lon="11.191731"><ele>245</ele></trkpt>
            <trkpt lat="51.673997" lon="11.1917"><ele>242.4</ele></trkpt>
            <trkpt lat="51.673816" lon="11.191712"><ele>242.2</ele></trkpt>
            <trkpt lat="51.673699" lon="11.191686"><ele>242</ele></trkpt>
            <trkpt lat="51.673585" lon="11.191619"><ele>243</ele></trkpt>
            <trkpt lat="51.673448" lon="11.191523"><ele>243</ele></trkpt>
            <trkpt lat="51.672997" lon="11.191237"><ele>254.3</ele></trkpt>
            <trkpt lat="51.672882" lon="11.191124"><ele>258</ele></trkpt>
            <trkpt lat="51.672832" lon="11.190902"><ele>257.7</ele></trkpt>
            <trkpt lat="51.672742" lon="11.190645"><ele>257.6</ele></trkpt>
            <trkpt lat="51.672613" lon="11.19038"><ele>257</ele></trkpt>
            <trkpt lat="51.672417" lon="11.190143"><ele>271.4</ele></trkpt>
            <trkpt lat="51.672278" lon="11.189937"><ele>272.1</ele></trkpt>
            <trkpt lat="51.672126" lon="11.189643"><ele>273.1</ele></trkpt>
            <trkpt lat="51.671894" lon="11.189374"><ele>273.5</ele></trkpt>
            <trkpt lat="51.671472" lon="11.189182"><ele>277.1</ele></trkpt>
            <trkpt lat="51.671377" lon="11.189115"><ele>278.4</ele></trkpt>
            <trkpt lat="51.671066" lon="11.18872"><ele>279.8</ele></trkpt>
            <trkpt lat="51.670953" lon="11.188645"><ele>279.8</ele></trkpt>
            <trkpt lat="51.670786" lon="11.188582"><ele>281.2</ele></trkpt>
            <trkpt lat="51.670607" lon="11.188552"><ele>283.3</ele></trkpt>
            <trkpt lat="51.669334" lon="11.188635"><ele>289.6</ele></trkpt>
            <trkpt lat="51.66908" lon="11.188609"><ele>290.3</ele></trkpt>
            <trkpt lat="51.668855" lon="11.188663"><ele>291</ele></trkpt>
            <trkpt lat="51.668655" lon="11.188772"><ele>291.3</ele></trkpt>
            <trkpt lat="51.668522" lon="11.188873"><ele>292</ele></trkpt>
            <trkpt lat="51.668226" lon="11.189222"><ele>324.6</ele></trkpt>
            <trkpt lat="51.668037" lon="11.189407"><ele>326.4</ele></trkpt>
            <trkpt lat="51.667619" lon="11.190008"><ele>330.5</ele></trkpt>
            <trkpt lat="51.667531" lon="11.190212"><ele>331.4</ele></trkpt>
            <trkpt lat="51.667332" lon="11.190932"><ele>341.4</ele></trkpt>
            <trkpt lat="51.667204" lon="11.191252"><ele>344.5</ele></trkpt>
            <trkpt lat="51.666969" lon="11.191695"><ele>347.7</ele></trkpt>
            <trkpt lat="51.666783" lon="11.192381"><ele>352.1</ele></trkpt>
            <trkpt lat="51.666657" lon="11.192746"><ele>353.2</ele></trkpt>
            <trkpt lat="51.666548" lon="11.19299"><ele>354.3</ele></trkpt>
            <trkpt lat="51.666427" lon="11.193192"><ele>355.4</ele></trkpt>
            <trkpt lat="51.666304" lon="11.193333"><ele>355.9</ele></trkpt>
            <trkpt lat="51.666128" lon="11.193498"><ele>356.5</ele></trkpt>
            <trkpt lat="51.665951" lon="11.193617"><ele>357.2</ele></trkpt>
            <trkpt lat="51.665805" lon="11.193767"><ele>358.6</ele></trkpt>
            <trkpt lat="51.665719" lon="11.193885"><ele>360.8</ele></trkpt>
            <trkpt lat="51.665645" lon="11.194039"><ele>361.7</ele></trkpt>
            <trkpt lat="51.665582" lon="11.194218"><ele>362.5</ele></trkpt>
            <trkpt lat="51.665529" lon="11.194518"><ele>363.3</ele></trkpt>
            <trkpt lat="51.665507" lon="11.194902"><ele>364.2</ele></trkpt>
            <trkpt lat="51.665533" lon="11.195855"><ele>363</ele></trkpt>
            <trkpt lat="51.665604" lon="11.195801"><ele>355.9</ele></trkpt>
            <trkpt lat="51.665695" lon="11.195639"><ele>355.2</ele></trkpt>
            <trkpt lat="51.665739" lon="11.195441"><ele>354.5</ele></trkpt>
            <trkpt lat="51.665756" lon="11.195266"><ele>353.2</ele></trkpt>
            <trkpt lat="51.665934" lon="11.19481"><ele>351.4</ele></trkpt>
            <trkpt lat="51.665949" lon="11.194749"><ele>351.4</ele></trkpt>
            <trkpt lat="51.665944" lon="11.194675"><ele>351.5</ele></trkpt>
            <trkpt lat="51.665986" lon="11.194611"><ele>351.1</ele></trkpt>
            <trkpt lat="51.666092" lon="11.194519"><ele>350.7</ele></trkpt>
            <trkpt lat="51.666476" lon="11.194364"><ele>350.9</ele></trkpt>
            <trkpt lat="51.66687" lon="11.194083"><ele>352.3</ele></trkpt>
            <trkpt lat="51.667109" lon="11.193796"><ele>353</ele></trkpt>
            <trkpt lat="51.667267" lon="11.193646"><ele>354.2</ele></trkpt>
            <trkpt lat="51.667328" lon="11.193553"><ele>354.9</ele></trkpt>
            <trkpt lat="51.667471" lon="11.193524"><ele>357</ele></trkpt>
            <trkpt lat="51.667552" lon="11.193449"><ele>358.5</ele></trkpt>
            <trkpt lat="51.667633" lon="11.193429"><ele>358.5</ele></trkpt>
            <trkpt lat="51.667769" lon="11.193507"><ele>357.4</ele></trkpt>
            <trkpt lat="51.667795" lon="11.193659"><ele>367</ele></trkpt>
            <trkpt lat="51.667885" lon="11.193587"><ele>363.6</ele></trkpt>
            <trkpt lat="51.668009" lon="11.193408"><ele>364.4</ele></trkpt>
            <trkpt lat="51.668091" lon="11.193205"><ele>358.7</ele></trkpt>
            <trkpt lat="51.668009" lon="11.193408"><ele>364.4</ele></trkpt>
            <trkpt lat="51.667885" lon="11.193587"><ele>363.6</ele></trkpt>
            <trkpt lat="51.667795" lon="11.193659"><ele>367</ele></trkpt>
            <trkpt lat="51.667769" lon="11.193507"><ele>357.4</ele></trkpt>
            <trkpt lat="51.667633" lon="11.193429"><ele>358.5</ele></trkpt>
            <trkpt lat="51.667552" lon="11.193449"><ele>358.5</ele></trkpt>
            <trkpt lat="51.667471" lon="11.193524"><ele>357</ele></trkpt>
            <trkpt lat="51.667328" lon="11.193553"><ele>354.9</ele></trkpt>
            <trkpt lat="51.667267" lon="11.193646"><ele>354.2</ele></trkpt>
            <trkpt lat="51.667109" lon="11.193796"><ele>353</ele></trkpt>
            <trkpt lat="51.66687" lon="11.194083"><ele>352.3</ele></trkpt>
            <trkpt lat="51.666476" lon="11.194364"><ele>350.9</ele></trkpt>
            <trkpt lat="51.666092" lon="11.194519"><ele>350.7</ele></trkpt>
            <trkpt lat="51.665986" lon="11.194611"><ele>351.1</ele></trkpt>
            <trkpt lat="51.665944" lon="11.194675"><ele>351.5</ele></trkpt>
            <trkpt lat="51.665949" lon="11.194749"><ele>351.4</ele></trkpt>
            <trkpt lat="51.665934" lon="11.19481"><ele>351.4</ele></trkpt>
            <trkpt lat="51.665756" lon="11.195266"><ele>353.2</ele></trkpt>
            <trkpt lat="51.665739" lon="11.195441"><ele>354.5</ele></trkpt>
            <trkpt lat="51.665695" lon="11.195639"><ele>355.2</ele></trkpt>
            <trkpt lat="51.665604" lon="11.195801"><ele>355.9</ele></trkpt>
            <trkpt lat="51.665533" lon="11.195855"><ele>363</ele></trkpt>
            <trkpt lat="51.665507" lon="11.194902"><ele>364.2</ele></trkpt>
            <trkpt lat="51.665529" lon="11.194518"><ele>363.3</ele></trkpt>
            <trkpt lat="51.665582" lon="11.194218"><ele>362.5</ele></trkpt>
            <trkpt lat="51.665645" lon="11.194039"><ele>361.7</ele></trkpt>
            <trkpt lat="51.665719" lon="11.193885"><ele>360.8</ele></trkpt>
            <trkpt lat="51.665805" lon="11.193767"><ele>358.6</ele></trkpt>
            <trkpt lat="51.665951" lon="11.193617"><ele>357.2</ele></trkpt>
            <trkpt lat="51.666128" lon="11.193498"><ele>356.5</ele></trkpt>
            <trkpt lat="51.666304" lon="11.193333"><ele>355.9</ele></trkpt>
            <trkpt lat="51.666427" lon="11.193192"><ele>355.4</ele></trkpt>
            <trkpt lat="51.666548" lon="11.19299"><ele>354.3</ele></trkpt>
            <trkpt lat="51.666657" lon="11.192746"><ele>353.2</ele></trkpt>
            <trkpt lat="51.666783" lon="11.192381"><ele>352.1</ele></trkpt>
            <trkpt lat="51.666969" lon="11.191695"><ele>347.7</ele></trkpt>
            <trkpt lat="51.667204" lon="11.191252"><ele>344.5</ele></trkpt>
            <trkpt lat="51.667332" lon="11.190932"><ele>341.4</ele></trkpt>
            <trkpt lat="51.667531" lon="11.190212"><ele>331.4</ele></trkpt>
            <trkpt lat="51.667619" lon="11.190008"><ele>330.5</ele></trkpt>
            <trkpt lat="51.668037" lon="11.189407"><ele>326.4</ele></trkpt>
            <trkpt lat="51.668226" lon="11.189222"><ele>324.6</ele></trkpt>
            <trkpt lat="51.668522" lon="11.188873"><ele>292</ele></trkpt>
            <trkpt lat="51.668655" lon="11.188772"><ele>291.3</ele></trkpt>
            <trkpt lat="51.668855" lon="11.188663"><ele>291</ele></trkpt>
            <trkpt lat="51.66908" lon="11.188609"><ele>290.3</ele></trkpt>
            <trkpt lat="51.669334" lon="11.188635"><ele>289.6</ele></trkpt>
            <trkpt lat="51.670607" lon="11.188552"><ele>283.3</ele></trkpt>
            <trkpt lat="51.670786" lon="11.188582"><ele>281.2</ele></trkpt>
            <trkpt lat="51.670953" lon="11.188645"><ele>279.8</ele></trkpt>
            <trkpt lat="51.671066" lon="11.18872"><ele>279.8</ele></trkpt>
            <trkpt lat="51.671377" lon="11.189115"><ele>278.4</ele></trkpt>
            <trkpt lat="51.671472" lon="11.189182"><ele>277.1</ele></trkpt>
            <trkpt lat="51.671894" lon="11.189374"><ele>273.5</ele></trkpt>
            <trkpt lat="51.672126" lon="11.189643"><ele>273.1</ele></trkpt>
            <trkpt lat="51.672278" lon="11.189937"><ele>272.1</ele></trkpt>
            <trkpt lat="51.672417" lon="11.190143"><ele>271.4</ele></trkpt>
            <trkpt lat="51.672613" lon="11.19038"><ele>257</ele></trkpt>
            <trkpt lat="51.67257" lon="11.190244"><ele>267.8</ele></trkpt>
            <trkpt lat="51.672539" lon="11.190065"><ele>270.8</ele></trkpt>
            <trkpt lat="51.672534" lon="11.189924"><ele>272.1</ele></trkpt>
            <trkpt lat="51.672547" lon="11.18985"><ele>272.3</ele></trkpt>
            <trkpt lat="51.672632" lon="11.189639"><ele>274.4</ele></trkpt>
            <trkpt lat="51.672754" lon="11.189413"><ele>277.6</ele></trkpt>
            <trkpt lat="51.672963" lon="11.188901"><ele>280.7</ele></trkpt>
            <trkpt lat="51.673084" lon="11.188547"><ele>279.7</ele></trkpt>
            <trkpt lat="51.673255" lon="11.187933"><ele>283.4</ele></trkpt>
            <trkpt lat="51.673282" lon="11.1877"><ele>282.4</ele></trkpt>
            <trkpt lat="51.673287" lon="11.18715"><ele>279</ele></trkpt>
            <trkpt lat="51.673333" lon="11.186877"><ele>277.2</ele></trkpt>
            <trkpt lat="51.673493" lon="11.186268"><ele>275.8</ele></trkpt>
            <trkpt lat="51.673589" lon="11.185714"><ele>275.3</ele></trkpt>
            <trkpt lat="51.673629" lon="11.185181"><ele>274.9</ele></trkpt>
            <trkpt lat="51.673633" lon="11.18481"><ele>272</ele></trkpt>
            <trkpt lat="51.67361" lon="11.184561"><ele>273.8</ele></trkpt>
            <trkpt lat="51.673571" lon="11.184421"><ele>273.2</ele></trkpt>
            <trkpt lat="51.673493" lon="11.184263"><ele>273.2</ele></trkpt>
            <trkpt lat="51.673484" lon="11.184144"><ele>273</ele></trkpt>
            <trkpt lat="51.673495" lon="11.184056"><ele>272.9</ele></trkpt>
            <trkpt lat="51.673551" lon="11.183945"><ele>272.6</ele></trkpt>
            <trkpt lat="51.673811" lon="11.18379"><ele>272.3</ele></trkpt>
            <trkpt lat="51.67391" lon="11.183654"><ele>272.3</ele></trkpt>
            <trkpt lat="51.674009" lon="11.183441"><ele>272.3</ele></trkpt>
            <trkpt lat="51.674069" lon="11.183232"><ele>272.2</ele></trkpt>
            <trkpt lat="51.674094" lon="11.18306"><ele>272</ele></trkpt>
            <trkpt lat="51.674106" lon="11.182772"><ele>271.6</ele></trkpt>
            <trkpt lat="51.674174" lon="11.182538"><ele>271.6</ele></trkpt>
            <trkpt lat="51.674239" lon="11.182095"><ele>272.8</ele></trkpt>
            <trkpt lat="51.674544" lon="11.180957"><ele>276.7</ele></trkpt>
            <trkpt lat="51.674699" lon="11.180735"><ele>280.1</ele></trkpt>
            <trkpt lat="51.674788" lon="11.180503"><ele>280.8</ele></trkpt>
            <trkpt lat="51.674826" lon="11.180292"><ele>281.8</ele></trkpt>
            <trkpt lat="51.674864" lon="11.179812"><ele>286.3</ele></trkpt>
            <trkpt lat="51.67491" lon="11.178691"><ele>294.5</ele></trkpt>
            <trkpt lat="51.674914" lon="11.177809"><ele>299.9</ele></trkpt>
            <trkpt lat="51.674822" lon="11.176866"><ele>311</ele></trkpt>
            <trkpt lat="51.674728" lon="11.176317"><ele>293</ele></trkpt>
            <trkpt lat="51.67462" lon="11.175806"><ele>285.5</ele></trkpt>
            <trkpt lat="51.674537" lon="11.174898"><ele>284.7</ele></trkpt>
            <trkpt lat="51.674484" lon="11.174604"><ele>282.4</ele></trkpt>
            <trkpt lat="51.674364" lon="11.174208"><ele>281.9</ele></trkpt>
            <trkpt lat="51.674142" lon="11.173649"><ele>281.9</ele></trkpt>
            <trkpt lat="51.673703" lon="11.172982"><ele>281.2</ele></trkpt>
            <trkpt lat="51.673453" lon="11.172511"><ele>280.4</ele></trkpt>
            <trkpt lat="51.673086" lon="11.171526"><ele>280</ele></trkpt>
            <trkpt lat="51.673062" lon="11.171333"><ele>279</ele></trkpt>
            <trkpt lat="51.672945" lon="11.171014"><ele>277.2</ele></trkpt>
            <trkpt lat="51.672497" lon="11.170035"><ele>269</ele></trkpt>
            <trkpt lat="51.67215" lon="11.169357"><ele>262.6</ele></trkpt>
            <trkpt lat="51.672019" lon="11.169194"><ele>260.8</ele></trkpt>
            <trkpt lat="51.671869" lon="11.169074"><ele>258.5</ele></trkpt>
            <trkpt lat="51.671457" lon="11.168884"><ele>258.9</ele></trkpt>
            <trkpt lat="51.671386" lon="11.168874"><ele>259.6</ele></trkpt>
            <trkpt lat="51.671331" lon="11.168892"><ele>252</ele></trkpt>
            <trkpt lat="51.671206" lon="11.168987"><ele>263.2</ele></trkpt>
            <trkpt lat="51.671096" lon="11.16914"><ele>263.7</ele></trkpt>
            <trkpt lat="51.67106" lon="11.16936"><ele>263.7</ele></trkpt>
            <trkpt lat="51.67103" lon="11.16943"><ele>263.4</ele></trkpt>
            <trkpt lat="51.670977" lon="11.169478"><ele>262.9</ele></trkpt>
            <trkpt lat="51.6706" lon="11.169568"><ele>262.9</ele></trkpt>
            <trkpt lat="51.670464" lon="11.169652"><ele>263</ele></trkpt>
            <trkpt lat="51.670325" lon="11.169786"><ele>263.8</ele></trkpt>
            <trkpt lat="51.669954" lon="11.169986"><ele>265.7</ele></trkpt>
            <trkpt lat="51.66944" lon="11.170185"><ele>267.9</ele></trkpt>
            <trkpt lat="51.669334" lon="11.170197"><ele>267.8</ele></trkpt>
            <trkpt lat="51.669103" lon="11.170162"><ele>268.6</ele></trkpt>
            <trkpt lat="51.668854" lon="11.170018"><ele>268.3</ele></trkpt>
            <trkpt lat="51.668702" lon="11.169879"><ele>265.7</ele></trkpt>
            <trkpt lat="51.668365" lon="11.169738"><ele>265.4</ele></trkpt>
            <trkpt lat="51.66809" lon="11.169541"><ele>265.3</ele></trkpt>
            <trkpt lat="51.667935" lon="11.169461"><ele>265.1</ele></trkpt>
            <trkpt lat="51.667686" lon="11.169438"><ele>264.6</ele></trkpt>
            <trkpt lat="51.667598" lon="11.169395"><ele>264.4</ele></trkpt>
            <trkpt lat="51.667513" lon="11.169238"><ele>263.8</ele></trkpt>
            <trkpt lat="51.667496" lon="11.169042"><ele>263.4</ele></trkpt>
            <trkpt lat="51.667534" lon="11.168854"><ele>263.2</ele></trkpt>
            <trkpt lat="51.667583" lon="11.168758"><ele>263.2</ele></trkpt>
            <trkpt lat="51.667767" lon="11.168578"><ele>263.3</ele></trkpt>
            <trkpt lat="51.667961" lon="11.168329"><ele>263.4</ele></trkpt>
            <trkpt lat="51.668055" lon="11.168116"><ele>263.6</ele></trkpt>
            <trkpt lat="51.668146" lon="11.167725"><ele>261</ele></trkpt>
            <trkpt lat="51.668334" lon="11.166607"><ele>259.4</ele></trkpt>
            <trkpt lat="51.668395" lon="11.166351"><ele>259.2</ele></trkpt>
            <trkpt lat="51.668461" lon="11.166181"><ele>258</ele></trkpt>
            <trkpt lat="51.668566" lon="11.165912"><ele>258.5</ele></trkpt>
            <trkpt lat="51.668579" lon="11.165813"><ele>259.2</ele></trkpt>
            <trkpt lat="51.668566" lon="11.165912"><ele>258.5</ele></trkpt>
            <trkpt lat="51.668461" lon="11.166181"><ele>258</ele></trkpt>
            <trkpt lat="51.668395" lon="11.166351"><ele>259.2</ele></trkpt>
            <trkpt lat="51.668334" lon="11.166607"><ele>259.4</ele></trkpt>
            <trkpt lat="51.668146" lon="11.167725"><ele>261</ele></trkpt>
            <trkpt lat="51.668055" lon="11.168116"><ele>263.6</ele></trkpt>
            <trkpt lat="51.667961" lon="11.168329"><ele>263.4</ele></trkpt>
            <trkpt lat="51.667767" lon="11.168578"><ele>263.3</ele></trkpt>
            <trkpt lat="51.667583" lon="11.168758"><ele>263.2</ele></trkpt>
            <trkpt lat="51.667534" lon="11.168854"><ele>263.2</ele></trkpt>
            <trkpt lat="51.667496" lon="11.169042"><ele>263.4</ele></trkpt>
            <trkpt lat="51.667513" lon="11.169238"><ele>263.8</ele></trkpt>
            <trkpt lat="51.667598" lon="11.169395"><ele>264.4</ele></trkpt>
            <trkpt lat="51.667686" lon="11.169438"><ele>264.6</ele></trkpt>
            <trkpt lat="51.667935" lon="11.169461"><ele>265.1</ele></trkpt>
            <trkpt lat="51.66809" lon="11.169541"><ele>265.3</ele></trkpt>
            <trkpt lat="51.668365" lon="11.169738"><ele>265.4</ele></trkpt>
            <trkpt lat="51.668702" lon="11.169879"><ele>265.7</ele></trkpt>
            <trkpt lat="51.668854" lon="11.170018"><ele>268.3</ele></trkpt>
            <trkpt lat="51.669103" lon="11.170162"><ele>268.6</ele></trkpt>
            <trkpt lat="51.669334" lon="11.170197"><ele>267.8</ele></trkpt>
            <trkpt lat="51.66944" lon="11.170185"><ele>267.9</ele></trkpt>
            <trkpt lat="51.669954" lon="11.169986"><ele>265.7</ele></trkpt>
            <trkpt lat="51.670325" lon="11.169786"><ele>263.8</ele></trkpt>
            <trkpt lat="51.670464" lon="11.169652"><ele>263</ele></trkpt>
            <trkpt lat="51.6706" lon="11.169568"><ele>262.9</ele></trkpt>
            <trkpt lat="51.670977" lon="11.169478"><ele>262.9</ele></trkpt>
            <trkpt lat="51.67103" lon="11.16943"><ele>263.4</ele></trkpt>
            <trkpt lat="51.67106" lon="11.16936"><ele>263.7</ele></trkpt>
            <trkpt lat="51.671096" lon="11.16914"><ele>263.7</ele></trkpt>
            <trkpt lat="51.671206" lon="11.168987"><ele>263.2</ele></trkpt>
            <trkpt lat="51.671331" lon="11.168892"><ele>252</ele></trkpt>
            <trkpt lat="51.671386" lon="11.168874"><ele>259.6</ele></trkpt>
            <trkpt lat="51.671457" lon="11.168884"><ele>258.9</ele></trkpt>
            <trkpt lat="51.671869" lon="11.169074"><ele>258.5</ele></trkpt>
            <trkpt lat="51.672019" lon="11.169194"><ele>260.8</ele></trkpt>
            <trkpt lat="51.67215" lon="11.169357"><ele>262.6</ele></trkpt>
            <trkpt lat="51.672497" lon="11.170035"><ele>269</ele></trkpt>
            <trkpt lat="51.672945" lon="11.171014"><ele>277.2</ele></trkpt>
            <trkpt lat="51.673062" lon="11.171333"><ele>279</ele></trkpt>
            <trkpt lat="51.673086" lon="11.171526"><ele>280</ele></trkpt>
            <trkpt lat="51.673453" lon="11.172511"><ele>280.4</ele></trkpt>
            <trkpt lat="51.673703" lon="11.172982"><ele>281.2</ele></trkpt>
            <trkpt lat="51.674142" lon="11.173649"><ele>281.9</ele></trkpt>
            <trkpt lat="51.674364" lon="11.174208"><ele>281.9</ele></trkpt>
            <trkpt lat="51.674484" lon="11.174604"><ele>282.4</ele></trkpt>
            <trkpt lat="51.674537" lon="11.174898"><ele>284.7</ele></trkpt>
            <trkpt lat="51.67462" lon="11.175806"><ele>285.5</ele></trkpt>
            <trkpt lat="51.674728" lon="11.176317"><ele>293</ele></trkpt>
            <trkpt lat="51.674822" lon="11.176866"><ele>311</ele></trkpt>
            <trkpt lat="51.674914" lon="11.177809"><ele>299.9</ele></trkpt>
            <trkpt lat="51.67491" lon="11.178691"><ele>294.5</ele></trkpt>
            <trkpt lat="51.674864" lon="11.179812"><ele>286.3</ele></trkpt>
            <trkpt lat="51.674826" lon="11.180292"><ele>281.8</ele></trkpt>
            <trkpt lat="51.674788" lon="11.180503"><ele>280.8</ele></trkpt>
            <trkpt lat="51.674699" lon="11.180735"><ele>280.1</ele></trkpt>
            <trkpt lat="51.674544" lon="11.180957"><ele>276.7</ele></trkpt>
            <trkpt lat="51.674239" lon="11.182095"><ele>272.8</ele></trkpt>
            <trkpt lat="51.674174" lon="11.182538"><ele>271.6</ele></trkpt>
            <trkpt lat="51.674106" lon="11.182772"><ele>271.6</ele></trkpt>
            <trkpt lat="51.674094" lon="11.18306"><ele>272</ele></trkpt>
            <trkpt lat="51.674069" lon="11.183232"><ele>272.2</ele></trkpt>
            <trkpt lat="51.674009" lon="11.183441"><ele>272.3</ele></trkpt>
            <trkpt lat="51.67391" lon="11.183654"><ele>272.3</ele></trkpt>
            <trkpt lat="51.673811" lon="11.18379"><ele>272.3</ele></trkpt>
            <trkpt lat="51.673551" lon="11.183945"><ele>272.6</ele></trkpt>
            <trkpt lat="51.673495" lon="11.184056"><ele>272.9</ele></trkpt>
            <trkpt lat="51.673484" lon="11.184144"><ele>273</ele></trkpt>
            <trkpt lat="51.673493" lon="11.184263"><ele>273.2</ele></trkpt>
            <trkpt lat="51.673571" lon="11.184421"><ele>273.2</ele></trkpt>
            <trkpt lat="51.67361" lon="11.184561"><ele>273.8</ele></trkpt>
            <trkpt lat="51.673633" lon="11.18481"><ele>272</ele></trkpt>
            <trkpt lat="51.673629" lon="11.185181"><ele>274.9</ele></trkpt>
            <trkpt lat="51.673589" lon="11.185714"><ele>275.3</ele></trkpt>
            <trkpt lat="51.673493" lon="11.186268"><ele>275.8</ele></trkpt>
            <trkpt lat="51.673333" lon="11.186877"><ele>277.2</ele></trkpt>
            <trkpt lat="51.673287" lon="11.18715"><ele>279</ele></trkpt>
            <trkpt lat="51.673282" lon="11.1877"><ele>282.4</ele></trkpt>
            <trkpt lat="51.673255" lon="11.187933"><ele>283.4</ele></trkpt>
            <trkpt lat="51.673084" lon="11.188547"><ele>279.7</ele></trkpt>
            <trkpt lat="51.672963" lon="11.188901"><ele>280.7</ele></trkpt>
            <trkpt lat="51.672754" lon="11.189413"><ele>277.6</ele></trkpt>
            <trkpt lat="51.672632" lon="11.189639"><ele>274.4</ele></trkpt>
            <trkpt lat="51.672547" lon="11.18985"><ele>272.3</ele></trkpt>
            <trkpt lat="51.672534" lon="11.189924"><ele>272.1</ele></trkpt>
            <trkpt lat="51.672539" lon="11.190065"><ele>270.8</ele></trkpt>
            <trkpt lat="51.67257" lon="11.190244"><ele>267.8</ele></trkpt>
            <trkpt lat="51.672613" lon="11.19038"><ele>257</ele></trkpt>
            <trkpt lat="51.672742" lon="11.190645"><ele>257.6</ele></trkpt>
            <trkpt lat="51.672832" lon="11.190902"><ele>257.7</ele></trkpt>
            <trkpt lat="51.672882" lon="11.191124"><ele>258</ele></trkpt>
            <trkpt lat="51.672997" lon="11.191237"><ele>254.3</ele></trkpt>
            <trkpt lat="51.673448" lon="11.191523"><ele>243</ele></trkpt>
            <trkpt lat="51.673585" lon="11.191619"><ele>243</ele></trkpt>
            <trkpt lat="51.673699" lon="11.191686"><ele>242</ele></trkpt>
            <trkpt lat="51.673816" lon="11.191712"><ele>242.2</ele></trkpt>
            <trkpt lat="51.673997" lon="11.1917"><ele>242.4</ele></trkpt>
            <trkpt lat="51.67425" lon="11.191731"><ele>245</ele></trkpt>
            <trkpt lat="51.67434" lon="11.191616"><ele>242.9</ele></trkpt>
            <trkpt lat="51.674424" lon="11.191425"><ele>242.7</ele></trkpt>
            <trkpt lat="51.674469" lon="11.191182"><ele>242</ele></trkpt>
            <trkpt lat="51.674571" lon="11.190598"><ele>239</ele></trkpt>
            <trkpt lat="51.674634" lon="11.190318"><ele>240.1</ele></trkpt>
            <trkpt lat="51.674779" lon="11.18999"><ele>239.7</ele></trkpt>
            <trkpt lat="51.674866" lon="11.189851"><ele>239.4</ele></trkpt>
            <trkpt lat="51.675086" lon="11.189635"><ele>240</ele></trkpt>
            <trkpt lat="51.675163" lon="11.189533"><ele>245</ele></trkpt>
            <trkpt lat="51.675245" lon="11.189328"><ele>244.3</ele></trkpt>
            <trkpt lat="51.675345" lon="11.188956"><ele>242</ele></trkpt>
            <trkpt lat="51.675562" lon="11.189054"><ele>252.6</ele></trkpt>
            <trkpt lat="51.675692" lon="11.189036"><ele>252.6</ele></trkpt>
            <trkpt lat="51.675797" lon="11.188985"><ele>252.7</ele></trkpt>
            <trkpt lat="51.675902" lon="11.188914"><ele>253.1</ele></trkpt>
            <trkpt lat="51.676054" lon="11.188752"><ele>255.8</ele></trkpt>
            <trkpt lat="51.676463" lon="11.188275"><ele>259.1</ele></trkpt>
            <trkpt lat="51.676598" lon="11.188166"><ele>258.9</ele></trkpt>
            <trkpt lat="51.676785" lon="11.188072"><ele>263.2</ele></trkpt>
            <trkpt lat="51.676933" lon="11.187956"><ele>265.1</ele></trkpt>
            <trkpt lat="51.67709" lon="11.187782"><ele>269.3</ele></trkpt>
            <trkpt lat="51.677163" lon="11.187656"><ele>270.7</ele></trkpt>
            <trkpt lat="51.677352" lon="11.187057"><ele>274.8</ele></trkpt>
            <trkpt lat="51.677471" lon="11.186839"><ele>276.5</ele></trkpt>
            <trkpt lat="51.677887" lon="11.186349"><ele>286</ele></trkpt>
            <trkpt lat="51.67801" lon="11.18616"><ele>288.8</ele></trkpt>
            <trkpt lat="51.678157" lon="11.185776"><ele>294.8</ele></trkpt>
            <trkpt lat="51.678365" lon="11.184795"><ele>300.1</ele></trkpt>
            <trkpt lat="51.678422" lon="11.184603"><ele>301.1</ele></trkpt>
            <trkpt lat="51.678529" lon="11.184387"><ele>302.2</ele></trkpt>
            <trkpt lat="51.678636" lon="11.184222"><ele>303</ele></trkpt>
            <trkpt lat="51.678863" lon="11.183933"><ele>303.8</ele></trkpt>
            <trkpt lat="51.679009" lon="11.183786"><ele>304.5</ele></trkpt>
            <trkpt lat="51.679103" lon="11.183735"><ele>304.9</ele></trkpt>
            <trkpt lat="51.679404" lon="11.183685"><ele>304.9</ele></trkpt>
            <trkpt lat="51.679586" lon="11.183699"><ele>305.1</ele></trkpt>
            <trkpt lat="51.679694" lon="11.183725"><ele>305.1</ele></trkpt>
            <trkpt lat="51.679801" lon="11.183784"><ele>304.9</ele></trkpt>
            <trkpt lat="51.679965" lon="11.183908"><ele>305</ele></trkpt>
            <trkpt lat="51.680081" lon="11.184017"><ele>305.5</ele></trkpt>
            <trkpt lat="51.680195" lon="11.184202"><ele>305.6</ele></trkpt>
            <trkpt lat="51.680467" lon="11.184792"><ele>305.5</ele></trkpt>
            <trkpt lat="51.681013" lon="11.185567"><ele>311</ele></trkpt>
            <trkpt lat="51.681189" lon="11.185733"><ele>312.2</ele></trkpt>
            <trkpt lat="51.681459" lon="11.185906"><ele>313.6</ele></trkpt>
            <trkpt lat="51.681675" lon="11.186076"><ele>315.2</ele></trkpt>
            <trkpt lat="51.681825" lon="11.18615"><ele>316.3</ele></trkpt>
            <trkpt lat="51.682026" lon="11.18621"><ele>317</ele></trkpt>
            <trkpt lat="51.682173" lon="11.186203"><ele>317.6</ele></trkpt>
            <trkpt lat="51.68232" lon="11.18615"><ele>319</ele></trkpt>
            <trkpt lat="51.68282" lon="11.185797"><ele>321.8</ele></trkpt>
            <trkpt lat="51.683353" lon="11.185277"><ele>322.9</ele></trkpt>
            <trkpt lat="51.68349" lon="11.185179"><ele>323.1</ele></trkpt>
            <trkpt lat="51.683575" lon="11.18515"><ele>323.6</ele></trkpt>
            <trkpt lat="51.683959" lon="11.185174"><ele>325.1</ele></trkpt>
            <trkpt lat="51.684283" lon="11.185142"><ele>325.5</ele></trkpt>
            <trkpt lat="51.684678" lon="11.185026"><ele>326.1</ele></trkpt>
            <trkpt lat="51.684842" lon="11.184952"><ele>328.2</ele></trkpt>
            <trkpt lat="51.684943" lon="11.184866"><ele>330</ele></trkpt>
            <trkpt lat="51.685115" lon="11.184616"><ele>336</ele></trkpt>
            <trkpt lat="51.685252" lon="11.184399"><ele>336</ele></trkpt>
            <trkpt lat="51.685729" lon="11.183658"><ele>341.5</ele></trkpt>
            <trkpt lat="51.685808" lon="11.183484"><ele>341.3</ele></trkpt>
            <trkpt lat="51.685946" lon="11.183046"><ele>341.6</ele></trkpt>
            <trkpt lat="51.68603" lon="11.182859"><ele>341.6</ele></trkpt>
            <trkpt lat="51.6861" lon="11.182769"><ele>341.6</ele></trkpt>
            <trkpt lat="51.686172" lon="11.18273"><ele>342.2</ele></trkpt>
            <trkpt lat="51.686279" lon="11.182745"><ele>342.4</ele></trkpt>
            <trkpt lat="51.686622" lon="11.183055"><ele>342.8</ele></trkpt>
            <trkpt lat="51.686818" lon="11.183144"><ele>343.8</ele></trkpt>
            <trkpt lat="51.687174" lon="11.183177"><ele>344.8</ele></trkpt>
            <trkpt lat="51.687498" lon="11.183113"><ele>345.8</ele></trkpt>
            <trkpt lat="51.687609" lon="11.183068"><ele>346.4</ele></trkpt>
            <trkpt lat="51.687751" lon="11.182966"><ele>347</ele></trkpt>
            <trkpt lat="51.687913" lon="11.1828"><ele>347</ele></trkpt>
            <trkpt lat="51.687996" lon="11.182747"><ele>347.3</ele></trkpt>
            <trkpt lat="51.68807" lon="11.182741"><ele>347.2</ele></trkpt>
            <trkpt lat="51.688132" lon="11.182768"><ele>347.2</ele></trkpt>
            <trkpt lat="51.688248" lon="11.182869"><ele>347.2</ele></trkpt>
            <trkpt lat="51.688592" lon="11.183408"><ele>347.5</ele></trkpt>
            <trkpt lat="51.688795" lon="11.183805"><ele>347.6</ele></trkpt>
            <trkpt lat="51.688868" lon="11.183883"><ele>348</ele></trkpt>
            <trkpt lat="51.688892" lon="11.183892"><ele>351.4</ele></trkpt>
            <trkpt lat="51.688928" lon="11.183863"><ele>351.3</ele></trkpt>
            <trkpt lat="51.688976" lon="11.183758"><ele>351</ele></trkpt>
            <trkpt lat="51.688978" lon="11.183678"><ele>350.8</ele></trkpt>
            <trkpt lat="51.688921" lon="11.183356"><ele>350.5</ele></trkpt>
            <trkpt lat="51.688901" lon="11.183078"><ele>350.5</ele></trkpt>
            <trkpt lat="51.688912" lon="11.182911"><ele>350.5</ele></trkpt>
            <trkpt lat="51.688959" lon="11.182774"><ele>350.5</ele></trkpt>
            <trkpt lat="51.689089" lon="11.182694"><ele>350.8</ele></trkpt>
            <trkpt lat="51.689252" lon="11.182662"><ele>351.5</ele></trkpt>
            <trkpt lat="51.689482" lon="11.182698"><ele>352.9</ele></trkpt>
            <trkpt lat="51.689735" lon="11.18292"><ele>353.9</ele></trkpt>
            <trkpt lat="51.689892" lon="11.182984"><ele>354.6</ele></trkpt>
            <trkpt lat="51.69032" lon="11.183012"><ele>359.5</ele></trkpt>
            <trkpt lat="51.690424" lon="11.183059"><ele>360.8</ele></trkpt>
            <trkpt lat="51.690646" lon="11.183263"><ele>361.3</ele></trkpt>
            <trkpt lat="51.690899" lon="11.18338"><ele>362.9</ele></trkpt>
            <trkpt lat="51.691011" lon="11.183392"><ele>363.1</ele></trkpt>
            <trkpt lat="51.691123" lon="11.183365"><ele>363.9</ele></trkpt>
            <trkpt lat="51.691205" lon="11.183295"><ele>364.3</ele></trkpt>
            <trkpt lat="51.691266" lon="11.183181"><ele>370</ele></trkpt>
            <trkpt lat="51.69132" lon="11.182731"><ele>371.3</ele></trkpt>
            <trkpt lat="51.691332" lon="11.182389"><ele>374</ele></trkpt>
            <trkpt lat="51.691375" lon="11.182554"><ele>376.5</ele></trkpt>
            <trkpt lat="51.691332" lon="11.182389"><ele>374</ele></trkpt>
            <trkpt lat="51.69132" lon="11.182731"><ele>371.3</ele></trkpt>
            <trkpt lat="51.691266" lon="11.183181"><ele>370</ele></trkpt>
            <trkpt lat="51.691284" lon="11.184122"><ele>368</ele></trkpt>
            <trkpt lat="51.691303" lon="11.184435"><ele>368.1</ele></trkpt>
            <trkpt lat="51.691485" lon="11.185377"><ele>368.3</ele></trkpt>
            <trkpt lat="51.691555" lon="11.185902"><ele>368.9</ele></trkpt>
            <trkpt lat="51.691555" lon="11.186091"><ele>369.6</ele></trkpt>
            <trkpt lat="51.691526" lon="11.186467"><ele>369.8</ele></trkpt>
            <trkpt lat="51.691404" lon="11.187031"><ele>370.3</ele></trkpt>
            <trkpt lat="51.691307" lon="11.187306"><ele>370.7</ele></trkpt>
            <trkpt lat="51.691168" lon="11.187493"><ele>371</ele></trkpt>
            <trkpt lat="51.691035" lon="11.187627"><ele>371.3</ele></trkpt>
            <trkpt lat="51.690798" lon="11.187817"><ele>372</ele></trkpt>
            <trkpt lat="51.690704" lon="11.187741"><ele>372</ele></trkpt>
            <trkpt lat="51.69008" lon="11.187452"><ele>371.8</ele></trkpt>
            <trkpt lat="51.689927" lon="11.187535"><ele>371.9</ele></trkpt>
            <trkpt lat="51.689645" lon="11.187606"><ele>372</ele></trkpt>
            <trkpt lat="51.689471" lon="11.187612"><ele>372.1</ele></trkpt>
            <trkpt lat="51.689379" lon="11.187672"><ele>372.2</ele></trkpt>
            <trkpt lat="51.689238" lon="11.187786"><ele>372.2</ele></trkpt>
            <trkpt lat="51.689088" lon="11.187974"><ele>372.3</ele></trkpt>
            <trkpt lat="51.688895" lon="11.188147"><ele>372.4</ele></trkpt>
            <trkpt lat="51.688812" lon="11.188294"><ele>373</ele></trkpt>
            <trkpt lat="51.688781" lon="11.188402"><ele>374.6</ele></trkpt>
            <trkpt lat="51.688504" lon="11.188815"><ele>374.8</ele></trkpt>
            <trkpt lat="51.688416" lon="11.189022"><ele>374.9</ele></trkpt>
            <trkpt lat="51.688297" lon="11.189463"><ele>374.7</ele></trkpt>
            <trkpt lat="51.688243" lon="11.189963"><ele>374.4</ele></trkpt>
            <trkpt lat="51.68786" lon="11.192829"><ele>374</ele></trkpt>
            <trkpt lat="51.687845" lon="11.193193"><ele>374</ele></trkpt>
            <trkpt lat="51.687705" lon="11.194095"><ele>372.8</ele></trkpt>
            <trkpt lat="51.687506" lon="11.195941"><ele>371</ele></trkpt>
            <trkpt lat="51.687449" lon="11.196297"><ele>370</ele></trkpt>
            <trkpt lat="51.68737" lon="11.19699"><ele>368</ele></trkpt>
            <trkpt lat="51.68707" lon="11.199485"><ele>367.1</ele></trkpt>
            <trkpt lat="51.686988" lon="11.200278"><ele>367</ele></trkpt>
            <trkpt lat="51.686825" lon="11.201359"><ele>368.7</ele></trkpt>
            <trkpt lat="51.686535" lon="11.203661"><ele>377.3</ele></trkpt>
            <trkpt lat="51.686415" lon="11.204503"><ele>379</ele></trkpt>
            <trkpt lat="51.686135" lon="11.204451"><ele>378.7</ele></trkpt>
            <trkpt lat="51.68556" lon="11.204271"><ele>378</ele></trkpt>
            <trkpt lat="51.685517" lon="11.20441"><ele>378.8</ele></trkpt>
            <trkpt lat="51.685279" lon="11.204932"><ele>379</ele></trkpt>
            <trkpt lat="51.685196" lon="11.205237"><ele>379.1</ele></trkpt>
            <trkpt lat="51.685107" lon="11.205706"><ele>379.1</ele></trkpt>
            <trkpt lat="51.685031" lon="11.206005"><ele>381</ele></trkpt>
            <trkpt lat="51.685043" lon="11.206316"><ele>381.5</ele></trkpt>
            <trkpt lat="51.685103" lon="11.206973"><ele>383</ele></trkpt>
            <trkpt lat="51.685" lon="11.207157"><ele>384</ele></trkpt>
            <trkpt lat="51.684654" lon="11.207821"><ele>388</ele></trkpt>
            <trkpt lat="51.684515" lon="11.208989"><ele>391</ele></trkpt>
            <trkpt lat="51.684482" lon="11.209583"><ele>388.6</ele></trkpt>
            <trkpt lat="51.684419" lon="11.210337"><ele>387</ele></trkpt>
            <trkpt lat="51.684357" lon="11.211211"><ele>381.9</ele></trkpt>
            <trkpt lat="51.6843" lon="11.211479"><ele>380.8</ele></trkpt>
            <trkpt lat="51.684019" lon="11.211932"><ele>379.5</ele></trkpt>
            <trkpt lat="51.683912" lon="11.212302"><ele>378.3</ele></trkpt>
            <trkpt lat="51.683828" lon="11.21273"><ele>375.8</ele></trkpt>
            <trkpt lat="51.683764" lon="11.21346"><ele>373.5</ele></trkpt>
            <trkpt lat="51.683708" lon="11.2137"><ele>373.1</ele></trkpt>
            <trkpt lat="51.683479" lon="11.214504"><ele>366.7</ele></trkpt>
            <trkpt lat="51.683282" lon="11.214949"><ele>365.9</ele></trkpt>
            <trkpt lat="51.682939" lon="11.216053"><ele>352.3</ele></trkpt>
            <trkpt lat="51.682799" lon="11.216314"><ele>347.5</ele></trkpt>
            <trkpt lat="51.682353" lon="11.216809"><ele>339.3</ele></trkpt>
            <trkpt lat="51.682008" lon="11.217145"><ele>335.3</ele></trkpt>
            <trkpt lat="51.681755" lon="11.21758"><ele>328.6</ele></trkpt>
            <trkpt lat="51.681698" lon="11.217746"><ele>327.5</ele></trkpt>
            <trkpt lat="51.681635" lon="11.217973"><ele>327.7</ele></trkpt>
            <trkpt lat="51.681535" lon="11.218474"><ele>325.3</ele></trkpt>
            <trkpt lat="51.681521" lon="11.21862"><ele>324</ele></trkpt>
            <trkpt lat="51.681628" lon="11.219353"><ele>322</ele></trkpt>
            <trkpt lat="51.681613" lon="11.219526"><ele>323.1</ele></trkpt>
            <trkpt lat="51.68158" lon="11.219662"><ele>309</ele></trkpt>
            <trkpt lat="51.681482" lon="11.21978"><ele>309</ele></trkpt>
            <trkpt lat="51.681252" lon="11.219855"><ele>309</ele></trkpt>
            <trkpt lat="51.680839" lon="11.220191"><ele>287.7</ele></trkpt>
            <trkpt lat="51.680624" lon="11.220303"><ele>285.7</ele></trkpt>
            <trkpt lat="51.68033" lon="11.220517"><ele>284</ele></trkpt>
            <trkpt lat="51.680083" lon="11.220754"><ele>282.3</ele></trkpt>
            <trkpt lat="51.679761" lon="11.221113"><ele>277.9</ele></trkpt>
            <trkpt lat="51.679569" lon="11.221512"><ele>274.8</ele></trkpt>
            <trkpt lat="51.679493" lon="11.221753"><ele>271.9</ele></trkpt>
            <trkpt lat="51.679442" lon="11.222001"><ele>271.7</ele></trkpt>
            <trkpt lat="51.679435" lon="11.222244"><ele>268.7</ele></trkpt>
            <trkpt lat="51.679587" lon="11.223457"><ele>259</ele></trkpt>
            <trkpt lat="51.679609" lon="11.223886"><ele>255.5</ele></trkpt>
            <trkpt lat="51.67967" lon="11.224193"><ele>251.5</ele></trkpt>
            <trkpt lat="51.679625" lon="11.224445"><ele>248.6</ele></trkpt>
            <trkpt lat="51.679563" lon="11.224686"><ele>248</ele></trkpt>
            <trkpt lat="51.679425" lon="11.225124"><ele>235</ele></trkpt>
            <trkpt lat="51.679581" lon="11.225678"><ele>239.3</ele></trkpt>
            <trkpt lat="51.680077" lon="11.225903"><ele>248</ele></trkpt>
            <trkpt lat="51.6796" lon="11.226769"><ele>227.5</ele></trkpt>
            <trkpt lat="51.678769" lon="11.227131"><ele>220</ele></trkpt>
            <trkpt lat="51.678428" lon="11.227327"><ele>218</ele></trkpt>
            <trkpt lat="51.678775" lon="11.22864"><ele>220.7</ele></trkpt>
            <trkpt lat="51.678811" lon="11.228865"><ele>220.4</ele></trkpt>
            <trkpt lat="51.678965" lon="11.23134"><ele>220.3</ele></trkpt>
            <trkpt lat="51.678978" lon="11.23284"><ele>220</ele></trkpt>
            <trkpt lat="51.67909" lon="11.232547"><ele>220</ele></trkpt>
        </trkseg>
    </trk>
</gpx>
