<?xml version="1.0" encoding="UTF-8"?>
<gpx version="1.1" creator="HWN Route Compare (OpenRouteService)" xmlns="http://www.topografix.com/GPX/1/1">
    <metadata>
        <name>OpenRouteService – Tour F6</name>
    </metadata>
    <trk>
        <name>OpenRouteService – Tour F6</name>
        <trkseg>
            <trkpt lat="51.714054" lon="11.347836"><ele>208</ele></trkpt>
            <trkpt lat="51.71415" lon="11.347682"><ele>208</ele></trkpt>
            <trkpt lat="51.714145" lon="11.347557"><ele>218.4</ele></trkpt>
            <trkpt lat="51.714255" lon="11.347133"><ele>219</ele></trkpt>
            <trkpt lat="51.714302" lon="11.347028"><ele>219.2</ele></trkpt>
            <trkpt lat="51.714352" lon="11.347027"><ele>219.4</ele></trkpt>
            <trkpt lat="51.71442" lon="11.347074"><ele>219.6</ele></trkpt>
            <trkpt lat="51.714644" lon="11.347367"><ele>219.9</ele></trkpt>
            <trkpt lat="51.71475" lon="11.34755"><ele>220.2</ele></trkpt>
            <trkpt lat="51.714934" lon="11.348009"><ele>225</ele></trkpt>
            <trkpt lat="51.714921" lon="11.34841"><ele>227.2</ele></trkpt>
            <trkpt lat="51.714876" lon="11.348602"><ele>227.4</ele></trkpt>
            <trkpt lat="51.714808" lon="11.34877"><ele>227.7</ele></trkpt>
            <trkpt lat="51.71468" lon="11.348984"><ele>229</ele></trkpt>
            <trkpt lat="51.71438" lon="11.349258"><ele>222.7</ele></trkpt>
            <trkpt lat="51.714122" lon="11.34943"><ele>221.1</ele></trkpt>
            <trkpt lat="51.713865" lon="11.349553"><ele>219.8</ele></trkpt>
            <trkpt lat="51.713606" lon="11.349646"><ele>212</ele></trkpt>
            <trkpt lat="51.7135" lon="11.349604"><ele>212</ele></trkpt>
            <trkpt lat="51.713415" lon="11.349365"><ele>208.9</ele></trkpt>
            <trkpt lat="51.713293" lon="11.348582"><ele>208.1</ele></trkpt>
            <trkpt lat="51.713262" lon="11.347958"><ele>205</ele></trkpt>
            <trkpt lat="51.713141" lon="11.347926"><ele>205</ele></trkpt>
            <trkpt lat="51.7131" lon="11.347916"><ele>205</ele></trkpt>
            <trkpt lat="51.713144" lon="11.347775"><ele>205</ele></trkpt>
            <trkpt lat="51.713187" lon="11.347522"><ele>205</ele></trkpt>
            <trkpt lat="51.713209" lon="11.347216"><ele>205</ele></trkpt>
            <trkpt lat="51.713175" lon="11.347003"><ele>205</ele></trkpt>
            <trkpt lat="51.713107" lon="11.346893"><ele>205</ele></trkpt>
            <trkpt lat="51.713039" lon="11.346798"><ele>205</ele></trkpt>
            <trkpt lat="51.71301" lon="11.346697"><ele>205</ele></trkpt>
            <trkpt lat="51.713047" lon="11.346346"><ele>205</ele></trkpt>
            <trkpt lat="51.712871" lon="11.34599"><ele>205</ele></trkpt>
            <trkpt lat="51.712808" lon="11.345632"><ele>205.9</ele></trkpt>
            <trkpt lat="51.712775" lon="11.345143"><ele>206.1</ele></trkpt>
            <trkpt lat="51.712849" lon="11.344572"><ele>206.9</ele></trkpt>
            <trkpt lat="51.712913" lon="11.344303"><ele>207.2</ele></trkpt>
            <trkpt lat="51.712982" lon="11.343871"><ele>207.6</ele></trkpt>
            <trkpt lat="51.713091" lon="11.342683"><ele>209.7</ele></trkpt>
            <trkpt lat="51.713128" lon="11.341684"><ele>211</ele></trkpt>
            <trkpt lat="51.713408" lon="11.340281"><ele>212.1</ele></trkpt>
            <trkpt lat="51.713445" lon="11.339823"><ele>212.8</ele></trkpt>
            <trkpt lat="51.713471" lon="11.339031"><ele>213.5</ele></trkpt>
            <trkpt lat="51.713468" lon="11.337866"><ele>214</ele></trkpt>
            <trkpt lat="51.713519" lon="11.337241"><ele>214.7</ele></trkpt>
            <trkpt lat="51.713534" lon="11.336796"><ele>215.5</ele></trkpt>
            <trkpt lat="51.71347" lon="11.335838"><ele>216.1</ele></trkpt>
            <trkpt lat="51.713355" lon="11.335055"><ele>216.7</ele></trkpt>
            <trkpt lat="51.713362" lon="11.334919"><ele>217.1</ele></trkpt>
            <trkpt lat="51.713753" lon="11.332299"><ele>221</ele></trkpt>
            <trkpt lat="51.713778" lon="11.331934"><ele>221</ele></trkpt>
            <trkpt lat="51.713778" lon="11.331676"><ele>221</ele></trkpt>
            <trkpt lat="51.713605" lon="11.328529"><ele>219.5</ele></trkpt>
            <trkpt lat="51.713457" lon="11.324505"><ele>212</ele></trkpt>
            <trkpt lat="51.713468" lon="11.323789"><ele>211</ele></trkpt>
            <trkpt lat="51.713574" lon="11.320155"><ele>206.5</ele></trkpt>
            <trkpt lat="51.713606" lon="11.319711"><ele>206.4</ele></trkpt>
            <trkpt lat="51.713604" lon="11.319404"><ele>206.1</ele></trkpt>
            <trkpt lat="51.713534" lon="11.318545"><ele>206.2</ele></trkpt>
            <trkpt lat="51.713515" lon="11.318125"><ele>206.2</ele></trkpt>
            <trkpt lat="51.713502" lon="11.317419"><ele>205.3</ele></trkpt>
            <trkpt lat="51.713518" lon="11.315032"><ele>202.1</ele></trkpt>
            <trkpt lat="51.713474" lon="11.314538"><ele>203.6</ele></trkpt>
            <trkpt lat="51.713117" lon="11.312592"><ele>204.4</ele></trkpt>
            <trkpt lat="51.713061" lon="11.312392"><ele>204.1</ele></trkpt>
            <trkpt lat="51.712958" lon="11.312138"><ele>204.1</ele></trkpt>
            <trkpt lat="51.712882" lon="11.311988"><ele>204.2</ele></trkpt>
            <trkpt lat="51.712837" lon="11.311953"><ele>204</ele></trkpt>
            <trkpt lat="51.712703" lon="11.310925"><ele>201</ele></trkpt>
            <trkpt lat="51.712412" lon="11.308323"><ele>191.4</ele></trkpt>
            <trkpt lat="51.712402" lon="11.307534"><ele>191.2</ele></trkpt>
            <trkpt lat="51.71242" lon="11.307018"><ele>189</ele></trkpt>
            <trkpt lat="51.712441" lon="11.306347"><ele>186</ele></trkpt>
            <trkpt lat="51.712048" lon="11.306189"><ele>186</ele></trkpt>
            <trkpt lat="51.710405" lon="11.305529"><ele>191.3</ele></trkpt>
            <trkpt lat="51.710236" lon="11.30543"><ele>191.4</ele></trkpt>
            <trkpt lat="51.71008" lon="11.305278"><ele>191.5</ele></trkpt>
            <trkpt lat="51.709953" lon="11.30509"><ele>192</ele></trkpt>
            <trkpt lat="51.709861" lon="11.304898"><ele>192.1</ele></trkpt>
            <trkpt lat="51.709673" lon="11.304427"><ele>193</ele></trkpt>
            <trkpt lat="51.709025" lon="11.302841"><ele>189</ele></trkpt>
            <trkpt lat="51.708827" lon="11.302356"><ele>187</ele></trkpt>
            <trkpt lat="51.70853" lon="11.301641"><ele>184</ele></trkpt>
            <trkpt lat="51.708241" lon="11.300909"><ele>187</ele></trkpt>
            <trkpt lat="51.708104" lon="11.300573"><ele>187</ele></trkpt>
            <trkpt lat="51.708177" lon="11.300499"><ele>187</ele></trkpt>
            <trkpt lat="51.708316" lon="11.300343"><ele>182.8</ele></trkpt>
            <trkpt lat="51.708441" lon="11.300164"><ele>182</ele></trkpt>
            <trkpt lat="51.708475" lon="11.29994"><ele>182</ele></trkpt>
            <trkpt lat="51.708455" lon="11.29963"><ele>179</ele></trkpt>
            <trkpt lat="51.708389" lon="11.299619"><ele>178.6</ele></trkpt>
            <trkpt lat="51.708097" lon="11.298498"><ele>178.4</ele></trkpt>
            <trkpt lat="51.707964" lon="11.298252"><ele>177</ele></trkpt>
            <trkpt lat="51.707672" lon="11.29777"><ele>177.4</ele></trkpt>
            <trkpt lat="51.707144" lon="11.297251"><ele>177.2</ele></trkpt>
            <trkpt lat="51.707008" lon="11.297095"><ele>177.2</ele></trkpt>
            <trkpt lat="51.706885" lon="11.296907"><ele>177.3</ele></trkpt>
            <trkpt lat="51.706807" lon="11.296728"><ele>177.3</ele></trkpt>
            <trkpt lat="51.706732" lon="11.296431"><ele>177.3</ele></trkpt>
            <trkpt lat="51.706627" lon="11.296098"><ele>177</ele></trkpt>
            <trkpt lat="51.706353" lon="11.29566"><ele>177</ele></trkpt>
            <trkpt lat="51.704938" lon="11.293225"><ele>179</ele></trkpt>
            <trkpt lat="51.705641" lon="11.292634"><ele>180</ele></trkpt>
            <trkpt lat="51.705743" lon="11.292562"><ele>180</ele></trkpt>
            <trkpt lat="51.705872" lon="11.292493"><ele>179</ele></trkpt>
            <trkpt lat="51.706502" lon="11.292169"><ele>179</ele></trkpt>
            <trkpt lat="51.706535" lon="11.292129"><ele>179</ele></trkpt>
            <trkpt lat="51.70676" lon="11.291649"><ele>179</ele></trkpt>
            <trkpt lat="51.706955" lon="11.291164"><ele>179</ele></trkpt>
            <trkpt lat="51.706506" lon="11.290854"><ele>179</ele></trkpt>
            <trkpt lat="51.706362" lon="11.290669"><ele>179</ele></trkpt>
            <trkpt lat="51.706196" lon="11.29039"><ele>179</ele></trkpt>
            <trkpt lat="51.705925" lon="11.289937"><ele>182.5</ele></trkpt>
            <trkpt lat="51.705625" lon="11.288644"><ele>183</ele></trkpt>
            <trkpt lat="51.705631" lon="11.288611"><ele>185</ele></trkpt>
            <trkpt lat="51.70565" lon="11.288435"><ele>185</ele></trkpt>
            <trkpt lat="51.70505" lon="11.287994"><ele>190</ele></trkpt>
            <trkpt lat="51.70488" lon="11.287871"><ele>192.1</ele></trkpt>
            <trkpt lat="51.704791" lon="11.287769"><ele>192.6</ele></trkpt>
            <trkpt lat="51.704602" lon="11.287491"><ele>193.1</ele></trkpt>
            <trkpt lat="51.70415" lon="11.286739"><ele>193.1</ele></trkpt>
            <trkpt lat="51.704031" lon="11.286593"><ele>199</ele></trkpt>
            <trkpt lat="51.70398" lon="11.28654"><ele>199</ele></trkpt>
            <trkpt lat="51.70349" lon="11.286123"><ele>199</ele></trkpt>
            <trkpt lat="51.703219" lon="11.285878"><ele>201.5</ele></trkpt>
            <trkpt lat="51.702959" lon="11.285551"><ele>201.9</ele></trkpt>
            <trkpt lat="51.702663" lon="11.285314"><ele>204</ele></trkpt>
            <trkpt lat="51.702055" lon="11.284956"><ele>210</ele></trkpt>
            <trkpt lat="51.701924" lon="11.28493"><ele>210</ele></trkpt>
            <trkpt lat="51.701907" lon="11.284826"><ele>209.6</ele></trkpt>
            <trkpt lat="51.701871" lon="11.284771"><ele>209.7</ele></trkpt>
            <trkpt lat="51.70066" lon="11.283478"><ele>208.2</ele></trkpt>
            <trkpt lat="51.701871" lon="11.284771"><ele>209.7</ele></trkpt>
            <trkpt lat="51.701907" lon="11.284826"><ele>209.6</ele></trkpt>
            <trkpt lat="51.701924" lon="11.28493"><ele>210</ele></trkpt>
            <trkpt lat="51.702055" lon="11.284956"><ele>210</ele></trkpt>
            <trkpt lat="51.702663" lon="11.285314"><ele>204</ele></trkpt>
            <trkpt lat="51.702959" lon="11.285551"><ele>201.9</ele></trkpt>
            <trkpt lat="51.703219" lon="11.285878"><ele>201.5</ele></trkpt>
            <trkpt lat="51.70349" lon="11.286123"><ele>199</ele></trkpt>
            <trkpt lat="51.70398" lon="11.28654"><ele>199</ele></trkpt>
            <trkpt lat="51.704017" lon="11.286311"><ele>199</ele></trkpt>
            <trkpt lat="51.704023" lon="11.286134"><ele>199</ele></trkpt>
            <trkpt lat="51.703936" lon="11.285258"><ele>205.5</ele></trkpt>
            <trkpt lat="51.703905" lon="11.284805"><ele>205.9</ele></trkpt>
            <trkpt lat="51.70391" lon="11.283599"><ele>208</ele></trkpt>
            <trkpt lat="51.703877" lon="11.283289"><ele>209</ele></trkpt>
            <trkpt lat="51.703843" lon="11.282314"><ele>209</ele></trkpt>
            <trkpt lat="51.703886" lon="11.281723"><ele>213.5</ele></trkpt>
            <trkpt lat="51.703945" lon="11.281383"><ele>213.7</ele></trkpt>
            <trkpt lat="51.703951" lon="11.281187"><ele>213.8</ele></trkpt>
            <trkpt lat="51.703924" lon="11.280965"><ele>213.9</ele></trkpt>
            <trkpt lat="51.703749" lon="11.280407"><ele>215</ele></trkpt>
            <trkpt lat="51.703645" lon="11.279925"><ele>223</ele></trkpt>
            <trkpt lat="51.703607" lon="11.279586"><ele>223</ele></trkpt>
            <trkpt lat="51.703533" lon="11.278401"><ele>226.8</ele></trkpt>
            <trkpt lat="51.703697" lon="11.277785"><ele>227.4</ele></trkpt>
            <trkpt lat="51.703715" lon="11.277205"><ele>228.9</ele></trkpt>
            <trkpt lat="51.703658" lon="11.276966"><ele>234</ele></trkpt>
            <trkpt lat="51.70355" lon="11.276685"><ele>237.8</ele></trkpt>
            <trkpt lat="51.703472" lon="11.276343"><ele>237.8</ele></trkpt>
            <trkpt lat="51.703427" lon="11.27488"><ele>243.9</ele></trkpt>
            <trkpt lat="51.703321" lon="11.273104"><ele>250</ele></trkpt>
            <trkpt lat="51.703379" lon="11.272731"><ele>251</ele></trkpt>
            <trkpt lat="51.703569" lon="11.271251"><ele>255.6</ele></trkpt>
            <trkpt lat="51.703557" lon="11.270824"><ele>255.8</ele></trkpt>
            <trkpt lat="51.703571" lon="11.270425"><ele>256.6</ele></trkpt>
            <trkpt lat="51.703535" lon="11.270099"><ele>256.7</ele></trkpt>
            <trkpt lat="51.703396" lon="11.269614"><ele>257</ele></trkpt>
            <trkpt lat="51.703278" lon="11.269124"><ele>261.2</ele></trkpt>
            <trkpt lat="51.703145" lon="11.26873"><ele>261.3</ele></trkpt>
            <trkpt lat="51.702977" lon="11.268407"><ele>261.4</ele></trkpt>
            <trkpt lat="51.702951" lon="11.268322"><ele>261.6</ele></trkpt>
            <trkpt lat="51.703028" lon="11.267794"><ele>263</ele></trkpt>
            <trkpt lat="51.70304" lon="11.267665"><ele>263</ele></trkpt>
            <trkpt lat="51.703202" lon="11.266866"><ele>263</ele></trkpt>
            <trkpt lat="51.703226" lon="11.266644"><ele>272.8</ele></trkpt>
            <trkpt lat="51.703185" lon="11.266472"><ele>273.3</ele></trkpt>
            <trkpt lat="51.703113" lon="11.266298"><ele>273</ele></trkpt>
            <trkpt lat="51.702974" lon="11.266065"><ele>273.6</ele></trkpt>
            <trkpt lat="51.702823" lon="11.265527"><ele>275.4</ele></trkpt>
            <trkpt lat="51.702713" lon="11.265276"><ele>276.4</ele></trkpt>
            <trkpt lat="51.70256" lon="11.265126"><ele>276.4</ele></trkpt>
            <trkpt lat="51.702285" lon="11.264916"><ele>280.6</ele></trkpt>
            <trkpt lat="51.702058" lon="11.264626"><ele>283.5</ele></trkpt>
            <trkpt lat="51.701932" lon="11.264503"><ele>285.5</ele></trkpt>
            <trkpt lat="51.701802" lon="11.26443"><ele>287.4</ele></trkpt>
            <trkpt lat="51.701663" lon="11.26431"><ele>289.1</ele></trkpt>
            <trkpt lat="51.701287" lon="11.263579"><ele>292.6</ele></trkpt>
            <trkpt lat="51.701207" lon="11.263377"><ele>293.3</ele></trkpt>
            <trkpt lat="51.701108" lon="11.263042"><ele>294.3</ele></trkpt>
            <trkpt lat="51.701007" lon="11.262808"><ele>295.5</ele></trkpt>
            <trkpt lat="51.700768" lon="11.262463"><ele>302</ele></trkpt>
            <trkpt lat="51.700916" lon="11.262036"><ele>302.7</ele></trkpt>
            <trkpt lat="51.70107" lon="11.261656"><ele>302.8</ele></trkpt>
            <trkpt lat="51.701487" lon="11.260784"><ele>304</ele></trkpt>
            <trkpt lat="51.701879" lon="11.260024"><ele>296</ele></trkpt>
            <trkpt lat="51.702101" lon="11.259645"><ele>293.7</ele></trkpt>
            <trkpt lat="51.702215" lon="11.259382"><ele>294</ele></trkpt>
            <trkpt lat="51.702525" lon="11.258382"><ele>294</ele></trkpt>
            <trkpt lat="51.702599" lon="11.258282"><ele>293</ele></trkpt>
            <trkpt lat="51.702651" lon="11.258252"><ele>292.6</ele></trkpt>
            <trkpt lat="51.702898" lon="11.258267"><ele>288</ele></trkpt>
            <trkpt lat="51.703101" lon="11.258227"><ele>288.5</ele></trkpt>
            <trkpt lat="51.703235" lon="11.258147"><ele>288.4</ele></trkpt>
            <trkpt lat="51.703671" lon="11.257697"><ele>290</ele></trkpt>
            <trkpt lat="51.703899" lon="11.257383"><ele>291</ele></trkpt>
            <trkpt lat="51.704637" lon="11.256744"><ele>287.9</ele></trkpt>
            <trkpt lat="51.704757" lon="11.256688"><ele>287.6</ele></trkpt>
            <trkpt lat="51.705008" lon="11.256629"><ele>285</ele></trkpt>
            <trkpt lat="51.705403" lon="11.256652"><ele>284</ele></trkpt>
            <trkpt lat="51.705611" lon="11.256622"><ele>284.2</ele></trkpt>
            <trkpt lat="51.705739" lon="11.256574"><ele>284.3</ele></trkpt>
            <trkpt lat="51.705841" lon="11.256499"><ele>279</ele></trkpt>
            <trkpt lat="51.706678" lon="11.255634"><ele>276.3</ele></trkpt>
            <trkpt lat="51.706994" lon="11.255414"><ele>275.9</ele></trkpt>
            <trkpt lat="51.707106" lon="11.255278"><ele>273</ele></trkpt>
            <trkpt lat="51.707137" lon="11.255362"><ele>273</ele></trkpt>
            <trkpt lat="51.707237" lon="11.255455"><ele>270.9</ele></trkpt>
            <trkpt lat="51.707369" lon="11.255518"><ele>270.8</ele></trkpt>
            <trkpt lat="51.7074" lon="11.255532"><ele>270.7</ele></trkpt>
            <trkpt lat="51.707475" lon="11.25565"><ele>270.4</ele></trkpt>
            <trkpt lat="51.707482" lon="11.255873"><ele>269.8</ele></trkpt>
            <trkpt lat="51.707491" lon="11.255922"><ele>269.7</ele></trkpt>
            <trkpt lat="51.707534" lon="11.255963"><ele>260</ele></trkpt>
            <trkpt lat="51.707841" lon="11.256"><ele>256.9</ele></trkpt>
            <trkpt lat="51.708382" lon="11.255914"><ele>255.9</ele></trkpt>
            <trkpt lat="51.708563" lon="11.255878"><ele>255.9</ele></trkpt>
            <trkpt lat="51.709574" lon="11.255534"><ele>256.2</ele></trkpt>
            <trkpt lat="51.709798" lon="11.255483"><ele>256.6</ele></trkpt>
            <trkpt lat="51.710254" lon="11.255462"><ele>259</ele></trkpt>
            <trkpt lat="51.710822" lon="11.255502"><ele>259.6</ele></trkpt>
            <trkpt lat="51.711205" lon="11.255482"><ele>261</ele></trkpt>
            <trkpt lat="51.712528" lon="11.25552"><ele>261.5</ele></trkpt>
            <trkpt lat="51.7128" lon="11.255562"><ele>262</ele></trkpt>
            <trkpt lat="51.713367" lon="11.255694"><ele>254</ele></trkpt>
            <trkpt lat="51.713327" lon="11.255791"><ele>262</ele></trkpt>
            <trkpt lat="51.713282" lon="11.2559"><ele>256.8</ele></trkpt>
            <trkpt lat="51.713265" lon="11.256644"><ele>255</ele></trkpt>
            <trkpt lat="51.713483" lon="11.25678"><ele>254.6</ele></trkpt>
            <trkpt lat="51.713599" lon="11.256878"><ele>255.5</ele></trkpt>
            <trkpt lat="51.713708" lon="11.257026"><ele>256.4</ele></trkpt>
            <trkpt lat="51.713841" lon="11.25712"><ele>256.8</ele></trkpt>
            <trkpt lat="51.71393" lon="11.257263"><ele>257.1</ele></trkpt>
            <trkpt lat="51.71407" lon="11.257417"><ele>257.5</ele></trkpt>
            <trkpt lat="51.714166" lon="11.257583"><ele>257.9</ele></trkpt>
            <trkpt lat="51.714274" lon="11.257835"><ele>258.2</ele></trkpt>
            <trkpt lat="51.714296" lon="11.257981"><ele>258.2</ele></trkpt>
            <trkpt lat="51.714261" lon="11.258416"><ele>258.9</ele></trkpt>
            <trkpt lat="51.714291" lon="11.258601"><ele>258.7</ele></trkpt>
            <trkpt lat="51.714296" lon="11.258756"><ele>265</ele></trkpt>
            <trkpt lat="51.714246" lon="11.258773"><ele>258.8</ele></trkpt>
            <trkpt lat="51.714296" lon="11.258756"><ele>265</ele></trkpt>
            <trkpt lat="51.714291" lon="11.258601"><ele>258.7</ele></trkpt>
            <trkpt lat="51.714261" lon="11.258416"><ele>258.9</ele></trkpt>
            <trkpt lat="51.714296" lon="11.257981"><ele>258.2</ele></trkpt>
            <trkpt lat="51.714274" lon="11.257835"><ele>258.2</ele></trkpt>
            <trkpt lat="51.714166" lon="11.257583"><ele>257.9</ele></trkpt>
            <trkpt lat="51.71407" lon="11.257417"><ele>257.5</ele></trkpt>
            <trkpt lat="51.71393" lon="11.257263"><ele>257.1</ele></trkpt>
            <trkpt lat="51.713841" lon="11.25712"><ele>256.8</ele></trkpt>
            <trkpt lat="51.713708" lon="11.257026"><ele>256.4</ele></trkpt>
            <trkpt lat="51.713599" lon="11.256878"><ele>255.5</ele></trkpt>
            <trkpt lat="51.713483" lon="11.25678"><ele>254.6</ele></trkpt>
            <trkpt lat="51.713265" lon="11.256644"><ele>255</ele></trkpt>
            <trkpt lat="51.713282" lon="11.2559"><ele>256.8</ele></trkpt>
            <trkpt lat="51.713327" lon="11.255791"><ele>262</ele></trkpt>
            <trkpt lat="51.713367" lon="11.255694"><ele>254</ele></trkpt>
            <trkpt lat="51.7128" lon="11.255562"><ele>262</ele></trkpt>
            <trkpt lat="51.712528" lon="11.25552"><ele>261.5</ele></trkpt>
            <trkpt lat="51.711205" lon="11.255482"><ele>261</ele></trkpt>
            <trkpt lat="51.710822" lon="11.255502"><ele>259.6</ele></trkpt>
            <trkpt lat="51.710254" lon="11.255462"><ele>259</ele></trkpt>
            <trkpt lat="51.709798" lon="11.255483"><ele>256.6</ele></trkpt>
            <trkpt lat="51.709574" lon="11.255534"><ele>256.2</ele></trkpt>
            <trkpt lat="51.708563" lon="11.255878"><ele>255.9</ele></trkpt>
            <trkpt lat="51.708382" lon="11.255914"><ele>255.9</ele></trkpt>
            <trkpt lat="51.707841" lon="11.256"><ele>256.9</ele></trkpt>
            <trkpt lat="51.707534" lon="11.255963"><ele>260</ele></trkpt>
            <trkpt lat="51.707491" lon="11.255922"><ele>269.7</ele></trkpt>
            <trkpt lat="51.707482" lon="11.255873"><ele>269.8</ele></trkpt>
            <trkpt lat="51.707475" lon="11.25565"><ele>270.4</ele></trkpt>
            <trkpt lat="51.7074" lon="11.255532"><ele>270.7</ele></trkpt>
            <trkpt lat="51.707237" lon="11.255455"><ele>270.9</ele></trkpt>
            <trkpt lat="51.707137" lon="11.255362"><ele>273</ele></trkpt>
            <trkpt lat="51.707106" lon="11.255278"><ele>273</ele></trkpt>
            <trkpt lat="51.706994" lon="11.255414"><ele>275.9</ele></trkpt>
            <trkpt lat="51.706678" lon="11.255634"><ele>276.3</ele></trkpt>
            <trkpt lat="51.705841" lon="11.256499"><ele>279</ele></trkpt>
            <trkpt lat="51.705739" lon="11.256574"><ele>284.3</ele></trkpt>
            <trkpt lat="51.705611" lon="11.256622"><ele>284.2</ele></trkpt>
            <trkpt lat="51.705403" lon="11.256652"><ele>284</ele></trkpt>
            <trkpt lat="51.705008" lon="11.256629"><ele>285</ele></trkpt>
            <trkpt lat="51.704757" lon="11.256688"><ele>287.6</ele></trkpt>
            <trkpt lat="51.704637" lon="11.256744"><ele>287.9</ele></trkpt>
            <trkpt lat="51.703899" lon="11.257383"><ele>291</ele></trkpt>
            <trkpt lat="51.703671" lon="11.257697"><ele>290</ele></trkpt>
            <trkpt lat="51.703235" lon="11.258147"><ele>288.4</ele></trkpt>
            <trkpt lat="51.703101" lon="11.258227"><ele>288.5</ele></trkpt>
            <trkpt lat="51.702898" lon="11.258267"><ele>288</ele></trkpt>
            <trkpt lat="51.702651" lon="11.258252"><ele>292.6</ele></trkpt>
            <trkpt lat="51.702599" lon="11.258282"><ele>293</ele></trkpt>
            <trkpt lat="51.702525" lon="11.258382"><ele>294</ele></trkpt>
            <trkpt lat="51.702215" lon="11.259382"><ele>294</ele></trkpt>
            <trkpt lat="51.702101" lon="11.259645"><ele>293.7</ele></trkpt>
            <trkpt lat="51.701879" lon="11.260024"><ele>296</ele></trkpt>
            <trkpt lat="51.701487" lon="11.260784"><ele>304</ele></trkpt>
            <trkpt lat="51.70107" lon="11.261656"><ele>302.8</ele></trkpt>
            <trkpt lat="51.700916" lon="11.262036"><ele>302.7</ele></trkpt>
            <trkpt lat="51.700768" lon="11.262463"><ele>302</ele></trkpt>
            <trkpt lat="51.701007" lon="11.262808"><ele>295.5</ele></trkpt>
            <trkpt lat="51.701108" lon="11.263042"><ele>294.3</ele></trkpt>
            <trkpt lat="51.701207" lon="11.263377"><ele>293.3</ele></trkpt>
            <trkpt lat="51.701287" lon="11.263579"><ele>292.6</ele></trkpt>
            <trkpt lat="51.701663" lon="11.26431"><ele>289.1</ele></trkpt>
            <trkpt lat="51.701802" lon="11.26443"><ele>287.4</ele></trkpt>
            <trkpt lat="51.701932" lon="11.264503"><ele>285.5</ele></trkpt>
            <trkpt lat="51.702058" lon="11.264626"><ele>283.5</ele></trkpt>
            <trkpt lat="51.702285" lon="11.264916"><ele>280.6</ele></trkpt>
            <trkpt lat="51.70256" lon="11.265126"><ele>276.4</ele></trkpt>
            <trkpt lat="51.702713" lon="11.265276"><ele>276.4</ele></trkpt>
            <trkpt lat="51.702823" lon="11.265527"><ele>275.4</ele></trkpt>
            <trkpt lat="51.702974" lon="11.266065"><ele>273.6</ele></trkpt>
            <trkpt lat="51.703113" lon="11.266298"><ele>273</ele></trkpt>
            <trkpt lat="51.703185" lon="11.266472"><ele>273.3</ele></trkpt>
            <trkpt lat="51.703226" lon="11.266644"><ele>272.8</ele></trkpt>
            <trkpt lat="51.703202" lon="11.266866"><ele>263</ele></trkpt>
            <trkpt lat="51.70304" lon="11.267665"><ele>263</ele></trkpt>
            <trkpt lat="51.703028" lon="11.267794"><ele>263</ele></trkpt>
            <trkpt lat="51.702951" lon="11.268322"><ele>261.6</ele></trkpt>
            <trkpt lat="51.702977" lon="11.268407"><ele>261.4</ele></trkpt>
            <trkpt lat="51.703145" lon="11.26873"><ele>261.3</ele></trkpt>
            <trkpt lat="51.703278" lon="11.269124"><ele>261.2</ele></trkpt>
            <trkpt lat="51.703396" lon="11.269614"><ele>257</ele></trkpt>
            <trkpt lat="51.703535" lon="11.270099"><ele>256.7</ele></trkpt>
            <trkpt lat="51.703571" lon="11.270425"><ele>256.6</ele></trkpt>
            <trkpt lat="51.703557" lon="11.270824"><ele>255.8</ele></trkpt>
            <trkpt lat="51.703569" lon="11.271251"><ele>255.6</ele></trkpt>
            <trkpt lat="51.703379" lon="11.272731"><ele>251</ele></trkpt>
            <trkpt lat="51.703321" lon="11.273104"><ele>250</ele></trkpt>
            <trkpt lat="51.703427" lon="11.27488"><ele>243.9</ele></trkpt>
            <trkpt lat="51.703472" lon="11.276343"><ele>237.8</ele></trkpt>
            <trkpt lat="51.70355" lon="11.276685"><ele>237.8</ele></trkpt>
            <trkpt lat="51.703658" lon="11.276966"><ele>234</ele></trkpt>
            <trkpt lat="51.703715" lon="11.277205"><ele>228.9</ele></trkpt>
            <trkpt lat="51.703697" lon="11.277785"><ele>227.4</ele></trkpt>
            <trkpt lat="51.703533" lon="11.278401"><ele>226.8</ele></trkpt>
            <trkpt lat="51.703607" lon="11.279586"><ele>223</ele></trkpt>
            <trkpt lat="51.703645" lon="11.279925"><ele>223</ele></trkpt>
            <trkpt lat="51.703749" lon="11.280407"><ele>215</ele></trkpt>
            <trkpt lat="51.703924" lon="11.280965"><ele>213.9</ele></trkpt>
            <trkpt lat="51.703951" lon="11.281187"><ele>213.8</ele></trkpt>
            <trkpt lat="51.703945" lon="11.281383"><ele>213.7</ele></trkpt>
            <trkpt lat="51.703886" lon="11.281723"><ele>213.5</ele></trkpt>
            <trkpt lat="51.703843" lon="11.282314"><ele>209</ele></trkpt>
            <trkpt lat="51.703877" lon="11.283289"><ele>209</ele></trkpt>
            <trkpt lat="51.70391" lon="11.283599"><ele>208</ele></trkpt>
            <trkpt lat="51.703905" lon="11.284805"><ele>205.9</ele></trkpt>
            <trkpt lat="51.703936" lon="11.285258"><ele>205.5</ele></trkpt>
            <trkpt lat="51.704023" lon="11.286134"><ele>199</ele></trkpt>
            <trkpt lat="51.704017" lon="11.286311"><ele>199</ele></trkpt>
            <trkpt lat="51.70398" lon="11.28654"><ele>199</ele></trkpt>
            <trkpt lat="51.704031" lon="11.286593"><ele>199</ele></trkpt>
            <trkpt lat="51.70415" lon="11.286739"><ele>193.1</ele></trkpt>
            <trkpt lat="51.704602" lon="11.287491"><ele>193.1</ele></trkpt>
            <trkpt lat="51.704791" lon="11.287769"><ele>192.6</ele></trkpt>
            <trkpt lat="51.70488" lon="11.287871"><ele>192.1</ele></trkpt>
            <trkpt lat="51.70505" lon="11.287994"><ele>190</ele></trkpt>
            <trkpt lat="51.70565" lon="11.288435"><ele>185</ele></trkpt>
            <trkpt lat="51.705631" lon="11.288611"><ele>185</ele></trkpt>
            <trkpt lat="51.705625" lon="11.288644"><ele>183</ele></trkpt>
            <trkpt lat="51.705925" lon="11.289937"><ele>182.5</ele></trkpt>
            <trkpt lat="51.706196" lon="11.29039"><ele>179</ele></trkpt>
            <trkpt lat="51.706362" lon="11.290669"><ele>179</ele></trkpt>
            <trkpt lat="51.706506" lon="11.290854"><ele>179</ele></trkpt>
            <trkpt lat="51.706955" lon="11.291164"><ele>179</ele></trkpt>
            <trkpt lat="51.70676" lon="11.291649"><ele>179</ele></trkpt>
            <trkpt lat="51.706535" lon="11.292129"><ele>179</ele></trkpt>
            <trkpt lat="51.706502" lon="11.292169"><ele>179</ele></trkpt>
            <trkpt lat="51.705872" lon="11.292493"><ele>179</ele></trkpt>
            <trkpt lat="51.705743" lon="11.292562"><ele>180</ele></trkpt>
            <trkpt lat="51.705641" lon="11.292634"><ele>180</ele></trkpt>
            <trkpt lat="51.704938" lon="11.293225"><ele>179</ele></trkpt>
            <trkpt lat="51.706353" lon="11.29566"><ele>177</ele></trkpt>
            <trkpt lat="51.706627" lon="11.296098"><ele>177</ele></trkpt>
            <trkpt lat="51.706732" lon="11.296431"><ele>177.3</ele></trkpt>
            <trkpt lat="51.706807" lon="11.296728"><ele>177.3</ele></trkpt>
            <trkpt lat="51.706885" lon="11.296907"><ele>177.3</ele></trkpt>
            <trkpt lat="51.707008" lon="11.297095"><ele>177.2</ele></trkpt>
            <trkpt lat="51.707144" lon="11.297251"><ele>177.2</ele></trkpt>
            <trkpt lat="51.707672" lon="11.29777"><ele>177.4</ele></trkpt>
            <trkpt lat="51.707964" lon="11.298252"><ele>177</ele></trkpt>
            <trkpt lat="51.708097" lon="11.298498"><ele>178.4</ele></trkpt>
            <trkpt lat="51.708389" lon="11.299619"><ele>178.6</ele></trkpt>
            <trkpt lat="51.708455" lon="11.29963"><ele>179</ele></trkpt>
            <trkpt lat="51.708475" lon="11.29994"><ele>182</ele></trkpt>
            <trkpt lat="51.708441" lon="11.300164"><ele>182</ele></trkpt>
            <trkpt lat="51.708316" lon="11.300343"><ele>182.8</ele></trkpt>
            <trkpt lat="51.708177" lon="11.300499"><ele>187</ele></trkpt>
            <trkpt lat="51.708104" lon="11.300573"><ele>187</ele></trkpt>
            <trkpt lat="51.708241" lon="11.300909"><ele>187</ele></trkpt>
            <trkpt lat="51.70853" lon="11.301641"><ele>184</ele></trkpt>
            <trkpt lat="51.708827" lon="11.302356"><ele>187</ele></trkpt>
            <trkpt lat="51.709025" lon="11.302841"><ele>189</ele></trkpt>
            <trkpt lat="51.709673" lon="11.304427"><ele>193</ele></trkpt>
            <trkpt lat="51.709861" lon="11.304898"><ele>192.1</ele></trkpt>
            <trkpt lat="51.709953" lon="11.30509"><ele>192</ele></trkpt>
            <trkpt lat="51.71008" lon="11.305278"><ele>191.5</ele></trkpt>
            <trkpt lat="51.710236" lon="11.30543"><ele>191.4</ele></trkpt>
            <trkpt lat="51.710405" lon="11.305529"><ele>191.3</ele></trkpt>
            <trkpt lat="51.712048" lon="11.306189"><ele>186</ele></trkpt>
            <trkpt lat="51.712441" lon="11.306347"><ele>186</ele></trkpt>
            <trkpt lat="51.71242" lon="11.307018"><ele>189</ele></trkpt>
            <trkpt lat="51.712402" lon="11.307534"><ele>191.2</ele></trkpt>
            <trkpt lat="51.712412" lon="11.308323"><ele>191.4</ele></trkpt>
            <trkpt lat="51.712703" lon="11.310925"><ele>201</ele></trkpt>
            <trkpt lat="51.712837" lon="11.311953"><ele>204</ele></trkpt>
            <trkpt lat="51.712882" lon="11.311988"><ele>204.2</ele></trkpt>
            <trkpt lat="51.712958" lon="11.312138"><ele>204.1</ele></trkpt>
            <trkpt lat="51.713061" lon="11.312392"><ele>204.1</ele></trkpt>
            <trkpt lat="51.713117" lon="11.312592"><ele>204.4</ele></trkpt>
            <trkpt lat="51.713474" lon="11.314538"><ele>203.6</ele></trkpt>
            <trkpt lat="51.713518" lon="11.315032"><ele>202.1</ele></trkpt>
            <trkpt lat="51.713502" lon="11.317419"><ele>205.3</ele></trkpt>
            <trkpt lat="51.713515" lon="11.318125"><ele>206.2</ele></trkpt>
            <trkpt lat="51.713534" lon="11.318545"><ele>206.2</ele></trkpt>
            <trkpt lat="51.713604" lon="11.319404"><ele>206.1</ele></trkpt>
            <trkpt lat="51.713606" lon="11.319711"><ele>206.4</ele></trkpt>
            <trkpt lat="51.713574" lon="11.320155"><ele>206.5</ele></trkpt>
            <trkpt lat="51.713468" lon="11.323789"><ele>211</ele></trkpt>
            <trkpt lat="51.713457" lon="11.324505"><ele>212</ele></trkpt>
            <trkpt lat="51.713605" lon="11.328529"><ele>219.5</ele></trkpt>
            <trkpt lat="51.713778" lon="11.331676"><ele>221</ele></trkpt>
            <trkpt lat="51.713778" lon="11.331934"><ele>221</ele></trkpt>
            <trkpt lat="51.713753" lon="11.332299"><ele>221</ele></trkpt>
            <trkpt lat="51.713362" lon="11.334919"><ele>217.1</ele></trkpt>
            <trkpt lat="51.713355" lon="11.335055"><ele>216.7</ele></trkpt>
            <trkpt lat="51.71347" lon="11.335838"><ele>216.1</ele></trkpt>
            <trkpt lat="51.713534" lon="11.336796"><ele>215.5</ele></trkpt>
            <trkpt lat="51.713519" lon="11.337241"><ele>214.7</ele></trkpt>
            <trkpt lat="51.713468" lon="11.337866"><ele>214</ele></trkpt>
            <trkpt lat="51.713471" lon="11.339031"><ele>213.5</ele></trkpt>
            <trkpt lat="51.713445" lon="11.339823"><ele>212.8</ele></trkpt>
            <trkpt lat="51.713408" lon="11.340281"><ele>212.1</ele></trkpt>
            <trkpt lat="51.713128" lon="11.341684"><ele>211</ele></trkpt>
            <trkpt lat="51.713091" lon="11.342683"><ele>209.7</ele></trkpt>
            <trkpt lat="51.712982" lon="11.343871"><ele>207.6</ele></trkpt>
            <trkpt lat="51.712913" lon="11.344303"><ele>207.2</ele></trkpt>
            <trkpt lat="51.712849" lon="11.344572"><ele>206.9</ele></trkpt>
            <trkpt lat="51.712775" lon="11.345143"><ele>206.1</ele></trkpt>
            <trkpt lat="51.712808" lon="11.345632"><ele>205.9</ele></trkpt>
            <trkpt lat="51.712871" lon="11.34599"><ele>205</ele></trkpt>
            <trkpt lat="51.713047" lon="11.346346"><ele>205</ele></trkpt>
            <trkpt lat="51.71301" lon="11.346697"><ele>205</ele></trkpt>
            <trkpt lat="51.713039" lon="11.346798"><ele>205</ele></trkpt>
            <trkpt lat="51.713107" lon="11.346893"><ele>205</ele></trkpt>
            <trkpt lat="51.713175" lon="11.347003"><ele>205</ele></trkpt>
            <trkpt lat="51.713209" lon="11.347216"><ele>205</ele></trkpt>
            <trkpt lat="51.713187" lon="11.347522"><ele>205</ele></trkpt>
            <trkpt lat="51.713144" lon="11.347775"><ele>205</ele></trkpt>
            <trkpt lat="51.7131" lon="11.347916"><ele>205</ele></trkpt>
            <trkpt lat="51.713141" lon="11.347926"><ele>205</ele></trkpt>
            <trkpt lat="51.713262" lon="11.347958"><ele>205</ele></trkpt>
            <trkpt lat="51.713293" lon="11.348582"><ele>208.1</ele></trkpt>
            <trkpt lat="51.713415" lon="11.349365"><ele>208.9</ele></trkpt>
            <trkpt lat="51.7135" lon="11.349604"><ele>212</ele></trkpt>
            <trkpt lat="51.713606" lon="11.349646"><ele>212</ele></trkpt>
            <trkpt lat="51.713865" lon="11.349553"><ele>219.8</ele></trkpt>
            <trkpt lat="51.714122" lon="11.34943"><ele>221.1</ele></trkpt>
            <trkpt lat="51.71438" lon="11.349258"><ele>222.7</ele></trkpt>
            <trkpt lat="51.71468" lon="11.348984"><ele>229</ele></trkpt>
            <trkpt lat="51.714808" lon="11.34877"><ele>227.7</ele></trkpt>
            <trkpt lat="51.714876" lon="11.348602"><ele>227.4</ele></trkpt>
            <trkpt lat="51.714921" lon="11.34841"><ele>227.2</ele></trkpt>
            <trkpt lat="51.714934" lon="11.348009"><ele>225</ele></trkpt>
            <trkpt lat="51.71475" lon="11.34755"><ele>220.2</ele></trkpt>
            <trkpt lat="51.714644" lon="11.347367"><ele>219.9</ele></trkpt>
            <trkpt lat="51.71442" lon="11.347074"><ele>219.6</ele></trkpt>
            <trkpt lat="51.714352" lon="11.347027"><ele>219.4</ele></trkpt>
            <trkpt lat="51.714302" lon="11.347028"><ele>219.2</ele></trkpt>
            <trkpt lat="51.714255" lon="11.347133"><ele>219</ele></trkpt>
            <trkpt lat="51.714145" lon="11.347557"><ele>218.4</ele></trkpt>
            <trkpt lat="51.71415" lon="11.347682"><ele>208</ele></trkpt>
            <trkpt lat="51.714054" lon="11.347836"><ele>208</ele></trkpt>
        </trkseg>
    </trk>
</gpx>
