<?xml version="1.0" encoding="UTF-8"?>
<gpx version="1.1" creator="HWN Route Compare (OpenRouteService)" xmlns="http://www.topografix.com/GPX/1/1">
    <metadata>
        <name>OpenRouteService – Tour F7</name>
    </metadata>
    <trk>
        <name>OpenRouteService – Tour F7</name>
        <trkseg>
            <trkpt lat="51.661991" lon="11.341662"><ele>266.5</ele></trkpt>
            <trkpt lat="51.661937" lon="11.341643"><ele>262</ele></trkpt>
            <trkpt lat="51.661921" lon="11.3415"><ele>260.5</ele></trkpt>
            <trkpt lat="51.661857" lon="11.341288"><ele>260.9</ele></trkpt>
            <trkpt lat="51.661612" lon="11.340733"><ele>255</ele></trkpt>
            <trkpt lat="51.66151" lon="11.340518"><ele>255</ele></trkpt>
            <trkpt lat="51.663651" lon="11.338214"><ele>243.8</ele></trkpt>
            <trkpt lat="51.663824" lon="11.33789"><ele>242.2</ele></trkpt>
            <trkpt lat="51.663898" lon="11.337665"><ele>242.2</ele></trkpt>
            <trkpt lat="51.66397" lon="11.337274"><ele>241.5</ele></trkpt>
            <trkpt lat="51.664075" lon="11.336479"><ele>240.9</ele></trkpt>
            <trkpt lat="51.664346" lon="11.335556"><ele>238.6</ele></trkpt>
            <trkpt lat="51.664422" lon="11.335395"><ele>238.3</ele></trkpt>
            <trkpt lat="51.664484" lon="11.335315"><ele>238</ele></trkpt>
            <trkpt lat="51.664587" lon="11.335246"><ele>237.1</ele></trkpt>
            <trkpt lat="51.664684" lon="11.335216"><ele>236.9</ele></trkpt>
            <trkpt lat="51.664753" lon="11.335244"><ele>235</ele></trkpt>
            <trkpt lat="51.664873" lon="11.335346"><ele>230.7</ele></trkpt>
            <trkpt lat="51.665165" lon="11.335914"><ele>228.7</ele></trkpt>
            <trkpt lat="51.665234" lon="11.335991"><ele>220</ele></trkpt>
            <trkpt lat="51.665323" lon="11.335996"><ele>220</ele></trkpt>
            <trkpt lat="51.665472" lon="11.335919"><ele>220</ele></trkpt>
            <trkpt lat="51.665652" lon="11.335426"><ele>221.4</ele></trkpt>
            <trkpt lat="51.665755" lon="11.33525"><ele>221.4</ele></trkpt>
            <trkpt lat="51.666077" lon="11.334908"><ele>221.6</ele></trkpt>
            <trkpt lat="51.666197" lon="11.334736"><ele>221.7</ele></trkpt>
            <trkpt lat="51.666226" lon="11.334681"><ele>221.8</ele></trkpt>
            <trkpt lat="51.666247" lon="11.334524"><ele>223</ele></trkpt>
            <trkpt lat="51.665745" lon="11.334012"><ele>222</ele></trkpt>
            <trkpt lat="51.66568" lon="11.333887"><ele>221.9</ele></trkpt>
            <trkpt lat="51.665635" lon="11.333726"><ele>221.8</ele></trkpt>
            <trkpt lat="51.665413" lon="11.331449"><ele>223.1</ele></trkpt>
            <trkpt lat="51.665277" lon="11.330212"><ele>224.3</ele></trkpt>
            <trkpt lat="51.665261" lon="11.329787"><ele>224.4</ele></trkpt>
            <trkpt lat="51.665263" lon="11.329288"><ele>224.9</ele></trkpt>
            <trkpt lat="51.665085" lon="11.327242"><ele>227</ele></trkpt>
            <trkpt lat="51.664731" lon="11.323561"><ele>227.5</ele></trkpt>
            <trkpt lat="51.664335" lon="11.32042"><ele>230.6</ele></trkpt>
            <trkpt lat="51.664225" lon="11.319948"><ele>231.2</ele></trkpt>
            <trkpt lat="51.664001" lon="11.319185"><ele>232.3</ele></trkpt>
            <trkpt lat="51.663201" lon="11.316923"><ele>234.6</ele></trkpt>
            <trkpt lat="51.66309" lon="11.316431"><ele>235.3</ele></trkpt>
            <trkpt lat="51.662935" lon="11.315573"><ele>235.6</ele></trkpt>
            <trkpt lat="51.662806" lon="11.31457"><ele>235.7</ele></trkpt>
            <trkpt lat="51.662765" lon="11.313996"><ele>236.5</ele></trkpt>
            <trkpt lat="51.662756" lon="11.313653"><ele>238</ele></trkpt>
            <trkpt lat="51.662833" lon="11.313533"><ele>239.3</ele></trkpt>
            <trkpt lat="51.662934" lon="11.31328"><ele>239.5</ele></trkpt>
            <trkpt lat="51.663038" lon="11.313078"><ele>239.6</ele></trkpt>
            <trkpt lat="51.663235" lon="11.312789"><ele>239.8</ele></trkpt>
            <trkpt lat="51.663409" lon="11.312679"><ele>240.1</ele></trkpt>
            <trkpt lat="51.663692" lon="11.312442"><ele>240.1</ele></trkpt>
            <trkpt lat="51.663891" lon="11.312177"><ele>240.6</ele></trkpt>
            <trkpt lat="51.664548" lon="11.310738"><ele>241.8</ele></trkpt>
            <trkpt lat="51.664615" lon="11.310455"><ele>240</ele></trkpt>
            <trkpt lat="51.664831" lon="11.309813"><ele>243.6</ele></trkpt>
            <trkpt lat="51.664857" lon="11.309595"><ele>243.7</ele></trkpt>
            <trkpt lat="51.664825" lon="11.309322"><ele>243.7</ele></trkpt>
            <trkpt lat="51.664739" lon="11.308941"><ele>244.2</ele></trkpt>
            <trkpt lat="51.66458" lon="11.308575"><ele>245.4</ele></trkpt>
            <trkpt lat="51.664341" lon="11.308165"><ele>248</ele></trkpt>
            <trkpt lat="51.663743" lon="11.307269"><ele>253</ele></trkpt>
            <trkpt lat="51.66345" lon="11.306735"><ele>253</ele></trkpt>
            <trkpt lat="51.663331" lon="11.30639"><ele>252.3</ele></trkpt>
            <trkpt lat="51.66345" lon="11.306735"><ele>253</ele></trkpt>
            <trkpt lat="51.66352" lon="11.30672"><ele>253.8</ele></trkpt>
            <trkpt lat="51.663694" lon="11.306947"><ele>254.5</ele></trkpt>
            <trkpt lat="51.663751" lon="11.307062"><ele>254.8</ele></trkpt>
            <trkpt lat="51.664814" lon="11.307984"><ele>257.4</ele></trkpt>
            <trkpt lat="51.664944" lon="11.308165"><ele>258.3</ele></trkpt>
            <trkpt lat="51.665078" lon="11.308414"><ele>258.3</ele></trkpt>
            <trkpt lat="51.665141" lon="11.308484"><ele>258.2</ele></trkpt>
            <trkpt lat="51.665506" lon="11.308683"><ele>259</ele></trkpt>
            <trkpt lat="51.665578" lon="11.308639"><ele>261</ele></trkpt>
            <trkpt lat="51.665659" lon="11.308633"><ele>261.5</ele></trkpt>
            <trkpt lat="51.666153" lon="11.308732"><ele>267</ele></trkpt>
            <trkpt lat="51.666605" lon="11.308868"><ele>267</ele></trkpt>
            <trkpt lat="51.667211" lon="11.308981"><ele>264.3</ele></trkpt>
            <trkpt lat="51.66745" lon="11.308979"><ele>264.6</ele></trkpt>
            <trkpt lat="51.667725" lon="11.308953"><ele>264.9</ele></trkpt>
            <trkpt lat="51.667959" lon="11.308775"><ele>264.6</ele></trkpt>
            <trkpt lat="51.668043" lon="11.308792"><ele>265</ele></trkpt>
            <trkpt lat="51.668113" lon="11.308916"><ele>265</ele></trkpt>
            <trkpt lat="51.668144" lon="11.308928"><ele>265</ele></trkpt>
            <trkpt lat="51.668197" lon="11.308873"><ele>267</ele></trkpt>
            <trkpt lat="51.668277" lon="11.308661"><ele>267.1</ele></trkpt>
            <trkpt lat="51.668505" lon="11.308316"><ele>268</ele></trkpt>
            <trkpt lat="51.66934" lon="11.307389"><ele>270</ele></trkpt>
            <trkpt lat="51.669508" lon="11.307085"><ele>271</ele></trkpt>
            <trkpt lat="51.66973" lon="11.306578"><ele>275.9</ele></trkpt>
            <trkpt lat="51.669999" lon="11.306045"><ele>276.8</ele></trkpt>
            <trkpt lat="51.670207" lon="11.305867"><ele>278.5</ele></trkpt>
            <trkpt lat="51.67049" lon="11.3055"><ele>279.4</ele></trkpt>
            <trkpt lat="51.670618" lon="11.305235"><ele>280.4</ele></trkpt>
            <trkpt lat="51.670777" lon="11.304995"><ele>281.6</ele></trkpt>
            <trkpt lat="51.670888" lon="11.304726"><ele>284</ele></trkpt>
            <trkpt lat="51.671014" lon="11.304591"><ele>293</ele></trkpt>
            <trkpt lat="51.67145" lon="11.304308"><ele>295.7</ele></trkpt>
            <trkpt lat="51.671712" lon="11.304052"><ele>296.5</ele></trkpt>
            <trkpt lat="51.671968" lon="11.303842"><ele>297.1</ele></trkpt>
            <trkpt lat="51.672516" lon="11.303654"><ele>297.6</ele></trkpt>
            <trkpt lat="51.672791" lon="11.303377"><ele>298.2</ele></trkpt>
            <trkpt lat="51.672936" lon="11.303177"><ele>298.7</ele></trkpt>
            <trkpt lat="51.673013" lon="11.302916"><ele>302</ele></trkpt>
            <trkpt lat="51.673164" lon="11.302068"><ele>307.1</ele></trkpt>
            <trkpt lat="51.673267" lon="11.301387"><ele>307.9</ele></trkpt>
            <trkpt lat="51.673319" lon="11.300683"><ele>308.9</ele></trkpt>
            <trkpt lat="51.673292" lon="11.300443"><ele>309.9</ele></trkpt>
            <trkpt lat="51.673256" lon="11.300311"><ele>310</ele></trkpt>
            <trkpt lat="51.673031" lon="11.299804"><ele>310.8</ele></trkpt>
            <trkpt lat="51.67294" lon="11.29929"><ele>313</ele></trkpt>
            <trkpt lat="51.673022" lon="11.298697"><ele>315.1</ele></trkpt>
            <trkpt lat="51.67299" lon="11.298423"><ele>315.2</ele></trkpt>
            <trkpt lat="51.67299" lon="11.298115"><ele>315.3</ele></trkpt>
            <trkpt lat="51.673051" lon="11.297865"><ele>315.4</ele></trkpt>
            <trkpt lat="51.673053" lon="11.297677"><ele>315.4</ele></trkpt>
            <trkpt lat="51.673032" lon="11.297421"><ele>315.5</ele></trkpt>
            <trkpt lat="51.673111" lon="11.296488"><ele>317</ele></trkpt>
            <trkpt lat="51.673317" lon="11.295389"><ele>316</ele></trkpt>
            <trkpt lat="51.673399" lon="11.295041"><ele>312</ele></trkpt>
            <trkpt lat="51.673596" lon="11.295094"><ele>312</ele></trkpt>
            <trkpt lat="51.673717" lon="11.295407"><ele>315.2</ele></trkpt>
            <trkpt lat="51.673891" lon="11.296301"><ele>314.9</ele></trkpt>
            <trkpt lat="51.67408" lon="11.296607"><ele>315.3</ele></trkpt>
            <trkpt lat="51.674237" lon="11.296673"><ele>315.6</ele></trkpt>
            <trkpt lat="51.674376" lon="11.296614"><ele>315.8</ele></trkpt>
            <trkpt lat="51.67453" lon="11.296442"><ele>316.1</ele></trkpt>
            <trkpt lat="51.674627" lon="11.296379"><ele>317.4</ele></trkpt>
            <trkpt lat="51.674831" lon="11.296469"><ele>317.9</ele></trkpt>
            <trkpt lat="51.675004" lon="11.296466"><ele>319.3</ele></trkpt>
            <trkpt lat="51.675868" lon="11.296148"><ele>331.2</ele></trkpt>
            <trkpt lat="51.676399" lon="11.29618"><ele>337.2</ele></trkpt>
            <trkpt lat="51.676809" lon="11.296342"><ele>339.6</ele></trkpt>
            <trkpt lat="51.677209" lon="11.296293"><ele>339.8</ele></trkpt>
            <trkpt lat="51.677633" lon="11.296425"><ele>340.6</ele></trkpt>
            <trkpt lat="51.677911" lon="11.296468"><ele>342</ele></trkpt>
            <trkpt lat="51.677987" lon="11.296606"><ele>342</ele></trkpt>
            <trkpt lat="51.678045" lon="11.296479"><ele>343</ele></trkpt>
            <trkpt lat="51.678063" lon="11.295988"><ele>344</ele></trkpt>
            <trkpt lat="51.678048" lon="11.295509"><ele>344.1</ele></trkpt>
            <trkpt lat="51.678152" lon="11.293162"><ele>353.5</ele></trkpt>
            <trkpt lat="51.678305" lon="11.292346"><ele>354</ele></trkpt>
            <trkpt lat="51.678315" lon="11.291902"><ele>354.4</ele></trkpt>
            <trkpt lat="51.678365" lon="11.291562"><ele>355.4</ele></trkpt>
            <trkpt lat="51.678445" lon="11.2914"><ele>355</ele></trkpt>
            <trkpt lat="51.678311" lon="11.291107"><ele>359</ele></trkpt>
            <trkpt lat="51.678328" lon="11.290847"><ele>359.3</ele></trkpt>
            <trkpt lat="51.678395" lon="11.290269"><ele>359.7</ele></trkpt>
            <trkpt lat="51.678266" lon="11.289438"><ele>360</ele></trkpt>
            <trkpt lat="51.678262" lon="11.28885"><ele>361</ele></trkpt>
            <trkpt lat="51.678254" lon="11.288546"><ele>361.5</ele></trkpt>
            <trkpt lat="51.678192" lon="11.288291"><ele>361.6</ele></trkpt>
            <trkpt lat="51.678041" lon="11.288011"><ele>362</ele></trkpt>
            <trkpt lat="51.678063" lon="11.287515"><ele>361.6</ele></trkpt>
            <trkpt lat="51.678012" lon="11.287026"><ele>361.5</ele></trkpt>
            <trkpt lat="51.677998" lon="11.286644"><ele>361.3</ele></trkpt>
            <trkpt lat="51.677928" lon="11.286402"><ele>361.3</ele></trkpt>
            <trkpt lat="51.677921" lon="11.286297"><ele>361.4</ele></trkpt>
            <trkpt lat="51.677964" lon="11.286099"><ele>361</ele></trkpt>
            <trkpt lat="51.678001" lon="11.285788"><ele>355.9</ele></trkpt>
            <trkpt lat="51.678072" lon="11.285426"><ele>355.4</ele></trkpt>
            <trkpt lat="51.678018" lon="11.284932"><ele>354.9</ele></trkpt>
            <trkpt lat="51.678067" lon="11.284708"><ele>355</ele></trkpt>
            <trkpt lat="51.678044" lon="11.284391"><ele>355.2</ele></trkpt>
            <trkpt lat="51.67806" lon="11.284145"><ele>350</ele></trkpt>
            <trkpt lat="51.677737" lon="11.283605"><ele>350</ele></trkpt>
            <trkpt lat="51.677705" lon="11.283555"><ele>350</ele></trkpt>
            <trkpt lat="51.677644" lon="11.283445"><ele>350</ele></trkpt>
            <trkpt lat="51.677103" lon="11.282501"><ele>352</ele></trkpt>
            <trkpt lat="51.67595" lon="11.280393"><ele>367</ele></trkpt>
            <trkpt lat="51.676643" lon="11.279438"><ele>356.2</ele></trkpt>
            <trkpt lat="51.676734" lon="11.279343"><ele>353.9</ele></trkpt>
            <trkpt lat="51.676842" lon="11.279301"><ele>353.3</ele></trkpt>
            <trkpt lat="51.677018" lon="11.279365"><ele>352.6</ele></trkpt>
            <trkpt lat="51.67772" lon="11.279893"><ele>350.8</ele></trkpt>
            <trkpt lat="51.677975" lon="11.280027"><ele>344</ele></trkpt>
            <trkpt lat="51.678216" lon="11.280088"><ele>339</ele></trkpt>
            <trkpt lat="51.678644" lon="11.280044"><ele>338.6</ele></trkpt>
            <trkpt lat="51.678974" lon="11.279896"><ele>338.7</ele></trkpt>
            <trkpt lat="51.679254" lon="11.279707"><ele>335</ele></trkpt>
            <trkpt lat="51.679228" lon="11.279405"><ele>333.2</ele></trkpt>
            <trkpt lat="51.679233" lon="11.279214"><ele>333.2</ele></trkpt>
            <trkpt lat="51.679338" lon="11.278194"><ele>332.2</ele></trkpt>
            <trkpt lat="51.679344" lon="11.277994"><ele>332.2</ele></trkpt>
            <trkpt lat="51.679316" lon="11.277117"><ele>331.4</ele></trkpt>
            <trkpt lat="51.679321" lon="11.276866"><ele>331</ele></trkpt>
            <trkpt lat="51.679369" lon="11.276253"><ele>326</ele></trkpt>
            <trkpt lat="51.679493" lon="11.274997"><ele>318.3</ele></trkpt>
            <trkpt lat="51.679565" lon="11.274467"><ele>317.8</ele></trkpt>
            <trkpt lat="51.679673" lon="11.274069"><ele>316.6</ele></trkpt>
            <trkpt lat="51.679685" lon="11.273862"><ele>316.5</ele></trkpt>
            <trkpt lat="51.67955" lon="11.272641"><ele>313</ele></trkpt>
            <trkpt lat="51.679615" lon="11.27241"><ele>309.5</ele></trkpt>
            <trkpt lat="51.679884" lon="11.271686"><ele>308.4</ele></trkpt>
            <trkpt lat="51.680344" lon="11.270585"><ele>306.5</ele></trkpt>
            <trkpt lat="51.680445" lon="11.270233"><ele>305.8</ele></trkpt>
            <trkpt lat="51.680676" lon="11.269301"><ele>303.8</ele></trkpt>
            <trkpt lat="51.680819" lon="11.268832"><ele>303.8</ele></trkpt>
            <trkpt lat="51.681021" lon="11.267721"><ele>302.7</ele></trkpt>
            <trkpt lat="51.681084" lon="11.267601"><ele>302.7</ele></trkpt>
            <trkpt lat="51.681141" lon="11.267578"><ele>302.6</ele></trkpt>
            <trkpt lat="51.681217" lon="11.267589"><ele>302.5</ele></trkpt>
            <trkpt lat="51.681386" lon="11.267672"><ele>302</ele></trkpt>
            <trkpt lat="51.681498" lon="11.267479"><ele>298.3</ele></trkpt>
            <trkpt lat="51.681544" lon="11.267347"><ele>296</ele></trkpt>
            <trkpt lat="51.681606" lon="11.266887"><ele>304.1</ele></trkpt>
            <trkpt lat="51.68171" lon="11.266361"><ele>322</ele></trkpt>
            <trkpt lat="51.681747" lon="11.266186"><ele>322</ele></trkpt>
            <trkpt lat="51.681796" lon="11.265948"><ele>322</ele></trkpt>
            <trkpt lat="51.681747" lon="11.266186"><ele>322</ele></trkpt>
            <trkpt lat="51.681799" lon="11.2663"><ele>322</ele></trkpt>
            <trkpt lat="51.681803" lon="11.267244"><ele>316.4</ele></trkpt>
            <trkpt lat="51.68182" lon="11.267507"><ele>315.6</ele></trkpt>
            <trkpt lat="51.681829" lon="11.268364"><ele>314.5</ele></trkpt>
            <trkpt lat="51.68187" lon="11.268616"><ele>313.6</ele></trkpt>
            <trkpt lat="51.68204" lon="11.269043"><ele>308.8</ele></trkpt>
            <trkpt lat="51.682194" lon="11.269229"><ele>307.2</ele></trkpt>
            <trkpt lat="51.682293" lon="11.269433"><ele>306.3</ele></trkpt>
            <trkpt lat="51.682303" lon="11.269548"><ele>305.6</ele></trkpt>
            <trkpt lat="51.682249" lon="11.270092"><ele>303</ele></trkpt>
            <trkpt lat="51.682239" lon="11.270365"><ele>300.9</ele></trkpt>
            <trkpt lat="51.682245" lon="11.270519"><ele>299.9</ele></trkpt>
            <trkpt lat="51.682297" lon="11.27067"><ele>299</ele></trkpt>
            <trkpt lat="51.682339" lon="11.27072"><ele>297.8</ele></trkpt>
            <trkpt lat="51.682604" lon="11.270754"><ele>291.4</ele></trkpt>
            <trkpt lat="51.682806" lon="11.270817"><ele>288.5</ele></trkpt>
            <trkpt lat="51.68288" lon="11.270864"><ele>288</ele></trkpt>
            <trkpt lat="51.683161" lon="11.271305"><ele>284.6</ele></trkpt>
            <trkpt lat="51.683233" lon="11.271374"><ele>282.4</ele></trkpt>
            <trkpt lat="51.683728" lon="11.271628"><ele>276</ele></trkpt>
            <trkpt lat="51.683786" lon="11.27162"><ele>277.2</ele></trkpt>
            <trkpt lat="51.683867" lon="11.27156"><ele>277.5</ele></trkpt>
            <trkpt lat="51.684058" lon="11.271236"><ele>259</ele></trkpt>
            <trkpt lat="51.684173" lon="11.27114"><ele>243.7</ele></trkpt>
            <trkpt lat="51.684393" lon="11.271024"><ele>236</ele></trkpt>
            <trkpt lat="51.684507" lon="11.271019"><ele>232.2</ele></trkpt>
            <trkpt lat="51.68472" lon="11.271086"><ele>231.3</ele></trkpt>
            <trkpt lat="51.68501" lon="11.27129"><ele>227.1</ele></trkpt>
            <trkpt lat="51.685267" lon="11.271573"><ele>225.6</ele></trkpt>
            <trkpt lat="51.68567" lon="11.272043"><ele>223.6</ele></trkpt>
            <trkpt lat="51.686055" lon="11.272529"><ele>220.9</ele></trkpt>
            <trkpt lat="51.686293" lon="11.273118"><ele>220.9</ele></trkpt>
            <trkpt lat="51.686454" lon="11.273317"><ele>220.8</ele></trkpt>
            <trkpt lat="51.686681" lon="11.273447"><ele>220.4</ele></trkpt>
            <trkpt lat="51.686987" lon="11.273455"><ele>219</ele></trkpt>
            <trkpt lat="51.687353" lon="11.273488"><ele>217</ele></trkpt>
            <trkpt lat="51.687455" lon="11.273534"><ele>216.6</ele></trkpt>
            <trkpt lat="51.687531" lon="11.273597"><ele>210</ele></trkpt>
            <trkpt lat="51.687861" lon="11.274607"><ele>217</ele></trkpt>
            <trkpt lat="51.688097" lon="11.275382"><ele>224</ele></trkpt>
            <trkpt lat="51.688155" lon="11.275575"><ele>224</ele></trkpt>
            <trkpt lat="51.688309" lon="11.275409"><ele>224</ele></trkpt>
            <trkpt lat="51.688423" lon="11.275285"><ele>203</ele></trkpt>
            <trkpt lat="51.688608" lon="11.275082"><ele>203</ele></trkpt>
            <trkpt lat="51.688678" lon="11.275018"><ele>203</ele></trkpt>
            <trkpt lat="51.688798" lon="11.274914"><ele>205</ele></trkpt>
            <trkpt lat="51.688858" lon="11.274903"><ele>205</ele></trkpt>
            <trkpt lat="51.688993" lon="11.274971"><ele>205</ele></trkpt>
            <trkpt lat="51.689063" lon="11.274855"><ele>205</ele></trkpt>
            <trkpt lat="51.689162" lon="11.274551"><ele>205</ele></trkpt>
            <trkpt lat="51.689137" lon="11.274319"><ele>218.1</ele></trkpt>
            <trkpt lat="51.689145" lon="11.274129"><ele>217.8</ele></trkpt>
            <trkpt lat="51.689187" lon="11.273868"><ele>220.8</ele></trkpt>
            <trkpt lat="51.689325" lon="11.273599"><ele>221</ele></trkpt>
            <trkpt lat="51.68968" lon="11.273106"><ele>227.6</ele></trkpt>
            <trkpt lat="51.689794" lon="11.273003"><ele>228.1</ele></trkpt>
            <trkpt lat="51.689985" lon="11.272925"><ele>231.7</ele></trkpt>
            <trkpt lat="51.690127" lon="11.272832"><ele>239.5</ele></trkpt>
            <trkpt lat="51.690268" lon="11.272658"><ele>250.6</ele></trkpt>
            <trkpt lat="51.690639" lon="11.271806"><ele>267.1</ele></trkpt>
            <trkpt lat="51.690779" lon="11.271333"><ele>280.8</ele></trkpt>
            <trkpt lat="51.690846" lon="11.270978"><ele>291.6</ele></trkpt>
            <trkpt lat="51.69103" lon="11.27033"><ele>300.3</ele></trkpt>
            <trkpt lat="51.691199" lon="11.270013"><ele>301.8</ele></trkpt>
            <trkpt lat="51.691251" lon="11.269687"><ele>306.1</ele></trkpt>
            <trkpt lat="51.691219" lon="11.269449"><ele>306.5</ele></trkpt>
            <trkpt lat="51.691201" lon="11.26912"><ele>310.8</ele></trkpt>
            <trkpt lat="51.691217" lon="11.268935"><ele>312.3</ele></trkpt>
            <trkpt lat="51.691295" lon="11.268751"><ele>314</ele></trkpt>
            <trkpt lat="51.691631" lon="11.268212"><ele>315.3</ele></trkpt>
            <trkpt lat="51.692162" lon="11.267417"><ele>325</ele></trkpt>
            <trkpt lat="51.692165" lon="11.267345"><ele>326.5</ele></trkpt>
            <trkpt lat="51.692131" lon="11.267104"><ele>327.1</ele></trkpt>
            <trkpt lat="51.692109" lon="11.265833"><ele>329.2</ele></trkpt>
            <trkpt lat="51.692084" lon="11.265508"><ele>329.2</ele></trkpt>
            <trkpt lat="51.69174" lon="11.264213"><ele>331.3</ele></trkpt>
            <trkpt lat="51.691691" lon="11.264075"><ele>331.3</ele></trkpt>
            <trkpt lat="51.691628" lon="11.263979"><ele>330.9</ele></trkpt>
            <trkpt lat="51.691503" lon="11.263928"><ele>330.8</ele></trkpt>
            <trkpt lat="51.691003" lon="11.263938"><ele>331</ele></trkpt>
            <trkpt lat="51.690907" lon="11.263888"><ele>332</ele></trkpt>
            <trkpt lat="51.690702" lon="11.261987"><ele>334</ele></trkpt>
            <trkpt lat="51.690696" lon="11.261929"><ele>334</ele></trkpt>
            <trkpt lat="51.690276" lon="11.258379"><ele>342</ele></trkpt>
            <trkpt lat="51.69024" lon="11.258092"><ele>341</ele></trkpt>
            <trkpt lat="51.690054" lon="11.25646"><ele>334.7</ele></trkpt>
            <trkpt lat="51.689988" lon="11.256233"><ele>334.8</ele></trkpt>
            <trkpt lat="51.689845" lon="11.25589"><ele>334</ele></trkpt>
            <trkpt lat="51.689717" lon="11.255514"><ele>334.5</ele></trkpt>
            <trkpt lat="51.689641" lon="11.255388"><ele>334.6</ele></trkpt>
            <trkpt lat="51.689267" lon="11.25489"><ele>334.9</ele></trkpt>
            <trkpt lat="51.689168" lon="11.254715"><ele>334.3</ele></trkpt>
            <trkpt lat="51.689007" lon="11.254349"><ele>334</ele></trkpt>
            <trkpt lat="51.688957" lon="11.254094"><ele>339</ele></trkpt>
            <trkpt lat="51.688732" lon="11.254076"><ele>339</ele></trkpt>
            <trkpt lat="51.688586" lon="11.254031"><ele>339</ele></trkpt>
            <trkpt lat="51.688467" lon="11.254004"><ele>328.2</ele></trkpt>
            <trkpt lat="51.688142" lon="11.253828"><ele>326.6</ele></trkpt>
            <trkpt lat="51.687689" lon="11.253707"><ele>326</ele></trkpt>
            <trkpt lat="51.687351" lon="11.25346"><ele>325.7</ele></trkpt>
            <trkpt lat="51.687227" lon="11.253342"><ele>324.5</ele></trkpt>
            <trkpt lat="51.687114" lon="11.2533"><ele>314</ele></trkpt>
            <trkpt lat="51.686933" lon="11.253298"><ele>315.1</ele></trkpt>
            <trkpt lat="51.686779" lon="11.253359"><ele>316</ele></trkpt>
            <trkpt lat="51.686354" lon="11.253789"><ele>316.1</ele></trkpt>
            <trkpt lat="51.68619" lon="11.253904"><ele>315.8</ele></trkpt>
            <trkpt lat="51.686063" lon="11.253942"><ele>313</ele></trkpt>
            <trkpt lat="51.685988" lon="11.253964"><ele>313</ele></trkpt>
            <trkpt lat="51.685832" lon="11.254091"><ele>285.7</ele></trkpt>
            <trkpt lat="51.685707" lon="11.254124"><ele>283.5</ele></trkpt>
            <trkpt lat="51.685563" lon="11.254269"><ele>281.7</ele></trkpt>
            <trkpt lat="51.685466" lon="11.254428"><ele>280.1</ele></trkpt>
            <trkpt lat="51.685466" lon="11.254428"><ele>276.1</ele></trkpt>
            <trkpt lat="51.685466" lon="11.254428"><ele>280.1</ele></trkpt>
            <trkpt lat="51.685563" lon="11.254269"><ele>281.7</ele></trkpt>
            <trkpt lat="51.685707" lon="11.254124"><ele>283.5</ele></trkpt>
            <trkpt lat="51.685832" lon="11.254091"><ele>285.7</ele></trkpt>
            <trkpt lat="51.685988" lon="11.253964"><ele>313</ele></trkpt>
            <trkpt lat="51.686063" lon="11.253942"><ele>313</ele></trkpt>
            <trkpt lat="51.68619" lon="11.253904"><ele>315.8</ele></trkpt>
            <trkpt lat="51.686354" lon="11.253789"><ele>316.1</ele></trkpt>
            <trkpt lat="51.686779" lon="11.253359"><ele>316</ele></trkpt>
            <trkpt lat="51.686933" lon="11.253298"><ele>315.1</ele></trkpt>
            <trkpt lat="51.687114" lon="11.2533"><ele>314</ele></trkpt>
            <trkpt lat="51.687227" lon="11.253342"><ele>324.5</ele></trkpt>
            <trkpt lat="51.687351" lon="11.25346"><ele>325.7</ele></trkpt>
            <trkpt lat="51.687689" lon="11.253707"><ele>326</ele></trkpt>
            <trkpt lat="51.688142" lon="11.253828"><ele>326.6</ele></trkpt>
            <trkpt lat="51.688467" lon="11.254004"><ele>328.2</ele></trkpt>
            <trkpt lat="51.688586" lon="11.254031"><ele>339</ele></trkpt>
            <trkpt lat="51.688732" lon="11.254076"><ele>339</ele></trkpt>
            <trkpt lat="51.688957" lon="11.254094"><ele>339</ele></trkpt>
            <trkpt lat="51.689007" lon="11.254349"><ele>334</ele></trkpt>
            <trkpt lat="51.689168" lon="11.254715"><ele>334.3</ele></trkpt>
            <trkpt lat="51.689267" lon="11.25489"><ele>334.9</ele></trkpt>
            <trkpt lat="51.689641" lon="11.255388"><ele>334.6</ele></trkpt>
            <trkpt lat="51.689717" lon="11.255514"><ele>334.5</ele></trkpt>
            <trkpt lat="51.689845" lon="11.25589"><ele>334</ele></trkpt>
            <trkpt lat="51.689988" lon="11.256233"><ele>334.8</ele></trkpt>
            <trkpt lat="51.690054" lon="11.25646"><ele>334.7</ele></trkpt>
            <trkpt lat="51.69024" lon="11.258092"><ele>341</ele></trkpt>
            <trkpt lat="51.690276" lon="11.258379"><ele>342</ele></trkpt>
            <trkpt lat="51.690696" lon="11.261929"><ele>334</ele></trkpt>
            <trkpt lat="51.690702" lon="11.261987"><ele>334</ele></trkpt>
            <trkpt lat="51.690907" lon="11.263888"><ele>332</ele></trkpt>
            <trkpt lat="51.691003" lon="11.263938"><ele>331</ele></trkpt>
            <trkpt lat="51.691503" lon="11.263928"><ele>330.8</ele></trkpt>
            <trkpt lat="51.691628" lon="11.263979"><ele>330.9</ele></trkpt>
            <trkpt lat="51.691691" lon="11.264075"><ele>331.3</ele></trkpt>
            <trkpt lat="51.69174" lon="11.264213"><ele>331.3</ele></trkpt>
            <trkpt lat="51.692084" lon="11.265508"><ele>329.2</ele></trkpt>
            <trkpt lat="51.692109" lon="11.265833"><ele>329.2</ele></trkpt>
            <trkpt lat="51.692131" lon="11.267104"><ele>327.1</ele></trkpt>
            <trkpt lat="51.692165" lon="11.267345"><ele>326.5</ele></trkpt>
            <trkpt lat="51.692162" lon="11.267417"><ele>325</ele></trkpt>
            <trkpt lat="51.692233" lon="11.267932"><ele>326.3</ele></trkpt>
            <trkpt lat="51.692831" lon="11.271232"><ele>333</ele></trkpt>
            <trkpt lat="51.693449" lon="11.274873"><ele>326</ele></trkpt>
            <trkpt lat="51.693549" lon="11.275784"><ele>321.4</ele></trkpt>
            <trkpt lat="51.693729" lon="11.275994"><ele>320.7</ele></trkpt>
            <trkpt lat="51.69405" lon="11.276811"><ele>316.8</ele></trkpt>
            <trkpt lat="51.694594" lon="11.277978"><ele>304</ele></trkpt>
            <trkpt lat="51.695506" lon="11.279865"><ele>276</ele></trkpt>
            <trkpt lat="51.696491" lon="11.280696"><ele>270</ele></trkpt>
            <trkpt lat="51.697311" lon="11.28151"><ele>242.9</ele></trkpt>
            <trkpt lat="51.697842" lon="11.282401"><ele>230.2</ele></trkpt>
            <trkpt lat="51.698082" lon="11.282624"><ele>216</ele></trkpt>
            <trkpt lat="51.698163" lon="11.283015"><ele>216</ele></trkpt>
            <trkpt lat="51.698749" lon="11.282683"><ele>213.3</ele></trkpt>
            <trkpt lat="51.698899" lon="11.282634"><ele>212</ele></trkpt>
            <trkpt lat="51.699102" lon="11.282649"><ele>211.5</ele></trkpt>
            <trkpt lat="51.699376" lon="11.28273"><ele>211</ele></trkpt>
            <trkpt lat="51.700403" lon="11.283253"><ele>208</ele></trkpt>
            <trkpt lat="51.700536" lon="11.283345"><ele>206.8</ele></trkpt>
            <trkpt lat="51.701871" lon="11.284771"><ele>209.7</ele></trkpt>
            <trkpt lat="51.701907" lon="11.284826"><ele>209.6</ele></trkpt>
            <trkpt lat="51.701924" lon="11.28493"><ele>210</ele></trkpt>
            <trkpt lat="51.701812" lon="11.284951"><ele>210</ele></trkpt>
            <trkpt lat="51.70157" lon="11.285059"><ele>196</ele></trkpt>
            <trkpt lat="51.701484" lon="11.28516"><ele>189</ele></trkpt>
            <trkpt lat="51.70147" lon="11.285179"><ele>189</ele></trkpt>
            <trkpt lat="51.701432" lon="11.285274"><ele>188.4</ele></trkpt>
            <trkpt lat="51.701388" lon="11.285518"><ele>188.3</ele></trkpt>
            <trkpt lat="51.701409" lon="11.286218"><ele>187</ele></trkpt>
            <trkpt lat="51.70142" lon="11.28674"><ele>184.3</ele></trkpt>
            <trkpt lat="51.701406" lon="11.286872"><ele>184.4</ele></trkpt>
            <trkpt lat="51.701335" lon="11.287068"><ele>184.5</ele></trkpt>
            <trkpt lat="51.70128" lon="11.287136"><ele>184.5</ele></trkpt>
            <trkpt lat="51.700809" lon="11.287397"><ele>183</ele></trkpt>
            <trkpt lat="51.700572" lon="11.287519"><ele>183</ele></trkpt>
            <trkpt lat="51.700206" lon="11.287697"><ele>183</ele></trkpt>
            <trkpt lat="51.69978" lon="11.287908"><ele>186</ele></trkpt>
            <trkpt lat="51.699542" lon="11.288021"><ele>186</ele></trkpt>
            <trkpt lat="51.699351" lon="11.288099"><ele>186</ele></trkpt>
            <trkpt lat="51.699369" lon="11.288301"><ele>187</ele></trkpt>
            <trkpt lat="51.699526" lon="11.288995"><ele>188</ele></trkpt>
            <trkpt lat="51.699619" lon="11.289312"><ele>194</ele></trkpt>
            <trkpt lat="51.699567" lon="11.289398"><ele>194</ele></trkpt>
            <trkpt lat="51.699542" lon="11.289478"><ele>194</ele></trkpt>
            <trkpt lat="51.699495" lon="11.289732"><ele>195.4</ele></trkpt>
            <trkpt lat="51.699448" lon="11.289839"><ele>195.7</ele></trkpt>
            <trkpt lat="51.699132" lon="11.290297"><ele>201</ele></trkpt>
            <trkpt lat="51.699034" lon="11.290427"><ele>201</ele></trkpt>
            <trkpt lat="51.698613" lon="11.290876"><ele>208</ele></trkpt>
            <trkpt lat="51.698323" lon="11.291147"><ele>223</ele></trkpt>
            <trkpt lat="51.697968" lon="11.291024"><ele>233</ele></trkpt>
            <trkpt lat="51.697635" lon="11.290826"><ele>234.3</ele></trkpt>
            <trkpt lat="51.69745" lon="11.290597"><ele>234.4</ele></trkpt>
            <trkpt lat="51.697343" lon="11.290285"><ele>234.5</ele></trkpt>
            <trkpt lat="51.69723" lon="11.29004"><ele>233.6</ele></trkpt>
            <trkpt lat="51.69711" lon="11.289984"><ele>235</ele></trkpt>
            <trkpt lat="51.69698" lon="11.290056"><ele>235.1</ele></trkpt>
            <trkpt lat="51.69673" lon="11.290627"><ele>236.4</ele></trkpt>
            <trkpt lat="51.696635" lon="11.290909"><ele>237.3</ele></trkpt>
            <trkpt lat="51.69656" lon="11.291622"><ele>241.9</ele></trkpt>
            <trkpt lat="51.696474" lon="11.291891"><ele>249.3</ele></trkpt>
            <trkpt lat="51.695746" lon="11.292579"><ele>267.5</ele></trkpt>
            <trkpt lat="51.695472" lon="11.293095"><ele>275.9</ele></trkpt>
            <trkpt lat="51.695067" lon="11.293451"><ele>288</ele></trkpt>
            <trkpt lat="51.694955" lon="11.293746"><ele>289.2</ele></trkpt>
            <trkpt lat="51.694516" lon="11.294333"><ele>296.2</ele></trkpt>
            <trkpt lat="51.694257" lon="11.29447"><ele>299.6</ele></trkpt>
            <trkpt lat="51.69414" lon="11.294598"><ele>301.3</ele></trkpt>
            <trkpt lat="51.693868" lon="11.295106"><ele>307</ele></trkpt>
            <trkpt lat="51.693671" lon="11.295346"><ele>307.9</ele></trkpt>
            <trkpt lat="51.693106" lon="11.29569"><ele>311.4</ele></trkpt>
            <trkpt lat="51.692975" lon="11.295914"><ele>312.5</ele></trkpt>
            <trkpt lat="51.692868" lon="11.296484"><ele>312.5</ele></trkpt>
            <trkpt lat="51.692738" lon="11.296883"><ele>313.3</ele></trkpt>
            <trkpt lat="51.692468" lon="11.297157"><ele>323</ele></trkpt>
            <trkpt lat="51.692435" lon="11.297127"><ele>324.5</ele></trkpt>
            <trkpt lat="51.692297" lon="11.29711"><ele>324.9</ele></trkpt>
            <trkpt lat="51.69129" lon="11.29744"><ele>325.2</ele></trkpt>
            <trkpt lat="51.691191" lon="11.297443"><ele>327</ele></trkpt>
            <trkpt lat="51.691108" lon="11.297464"><ele>327</ele></trkpt>
            <trkpt lat="51.690527" lon="11.297379"><ele>330</ele></trkpt>
            <trkpt lat="51.69026" lon="11.29725"><ele>331</ele></trkpt>
            <trkpt lat="51.690063" lon="11.297261"><ele>329.5</ele></trkpt>
            <trkpt lat="51.689469" lon="11.297379"><ele>328.4</ele></trkpt>
            <trkpt lat="51.689316" lon="11.297431"><ele>328.2</ele></trkpt>
            <trkpt lat="51.68839" lon="11.298271"><ele>327.2</ele></trkpt>
            <trkpt lat="51.688083" lon="11.29858"><ele>327.4</ele></trkpt>
            <trkpt lat="51.687724" lon="11.298902"><ele>328</ele></trkpt>
            <trkpt lat="51.687391" lon="11.299252"><ele>328.8</ele></trkpt>
            <trkpt lat="51.687132" lon="11.299476"><ele>328.8</ele></trkpt>
            <trkpt lat="51.686718" lon="11.299751"><ele>330</ele></trkpt>
            <trkpt lat="51.686542" lon="11.299967"><ele>335</ele></trkpt>
            <trkpt lat="51.68604" lon="11.30049"><ele>334</ele></trkpt>
            <trkpt lat="51.68583" lon="11.300675"><ele>334</ele></trkpt>
            <trkpt lat="51.685706" lon="11.300917"><ele>334</ele></trkpt>
            <trkpt lat="51.68569" lon="11.300964"><ele>334</ele></trkpt>
            <trkpt lat="51.685822" lon="11.301059"><ele>334</ele></trkpt>
            <trkpt lat="51.685515" lon="11.301491"><ele>334</ele></trkpt>
            <trkpt lat="51.685749" lon="11.30151"><ele>334.4</ele></trkpt>
            <trkpt lat="51.685948" lon="11.301621"><ele>334.3</ele></trkpt>
            <trkpt lat="51.686176" lon="11.301923"><ele>334.5</ele></trkpt>
            <trkpt lat="51.686237" lon="11.302044"><ele>335</ele></trkpt>
            <trkpt lat="51.686376" lon="11.302417"><ele>335</ele></trkpt>
            <trkpt lat="51.68609" lon="11.302668"><ele>333</ele></trkpt>
            <trkpt lat="51.685924" lon="11.302895"><ele>331</ele></trkpt>
            <trkpt lat="51.685761" lon="11.303181"><ele>330.6</ele></trkpt>
            <trkpt lat="51.685626" lon="11.30361"><ele>329</ele></trkpt>
            <trkpt lat="51.68558" lon="11.3036"><ele>329</ele></trkpt>
            <trkpt lat="51.685554" lon="11.303632"><ele>329</ele></trkpt>
            <trkpt lat="51.685544" lon="11.303681"><ele>329</ele></trkpt>
            <trkpt lat="51.685391" lon="11.303628"><ele>329</ele></trkpt>
            <trkpt lat="51.685189" lon="11.303636"><ele>329</ele></trkpt>
            <trkpt lat="51.685109" lon="11.303657"><ele>329</ele></trkpt>
            <trkpt lat="51.68497" lon="11.303756"><ele>329.9</ele></trkpt>
            <trkpt lat="51.684762" lon="11.303987"><ele>330.2</ele></trkpt>
            <trkpt lat="51.684625" lon="11.304171"><ele>330</ele></trkpt>
            <trkpt lat="51.684649" lon="11.304285"><ele>328.6</ele></trkpt>
            <trkpt lat="51.684628" lon="11.304582"><ele>328.1</ele></trkpt>
            <trkpt lat="51.684646" lon="11.30487"><ele>327.7</ele></trkpt>
            <trkpt lat="51.684695" lon="11.305141"><ele>327.5</ele></trkpt>
            <trkpt lat="51.684949" lon="11.305813"><ele>327.4</ele></trkpt>
            <trkpt lat="51.685146" lon="11.306139"><ele>327.3</ele></trkpt>
            <trkpt lat="51.685221" lon="11.306325"><ele>326.9</ele></trkpt>
            <trkpt lat="51.685278" lon="11.306567"><ele>325</ele></trkpt>
            <trkpt lat="51.685314" lon="11.306861"><ele>325</ele></trkpt>
            <trkpt lat="51.685279" lon="11.307188"><ele>325</ele></trkpt>
            <trkpt lat="51.685349" lon="11.307386"><ele>325</ele></trkpt>
            <trkpt lat="51.685393" lon="11.307683"><ele>325</ele></trkpt>
            <trkpt lat="51.685349" lon="11.307386"><ele>325</ele></trkpt>
            <trkpt lat="51.685279" lon="11.307188"><ele>325</ele></trkpt>
            <trkpt lat="51.685268" lon="11.307273"><ele>325</ele></trkpt>
            <trkpt lat="51.685032" lon="11.307201"><ele>325</ele></trkpt>
            <trkpt lat="51.684684" lon="11.307157"><ele>325</ele></trkpt>
            <trkpt lat="51.684162" lon="11.307142"><ele>322</ele></trkpt>
            <trkpt lat="51.683965" lon="11.306522"><ele>324.7</ele></trkpt>
            <trkpt lat="51.683776" lon="11.30623"><ele>326</ele></trkpt>
            <trkpt lat="51.683618" lon="11.306328"><ele>326</ele></trkpt>
            <trkpt lat="51.683383" lon="11.306358"><ele>319.3</ele></trkpt>
            <trkpt lat="51.68291" lon="11.306308"><ele>317.9</ele></trkpt>
            <trkpt lat="51.682566" lon="11.306337"><ele>317.3</ele></trkpt>
            <trkpt lat="51.6822" lon="11.306238"><ele>310</ele></trkpt>
            <trkpt lat="51.68181" lon="11.30624"><ele>310.3</ele></trkpt>
            <trkpt lat="51.68168" lon="11.306205"><ele>310.3</ele></trkpt>
            <trkpt lat="51.681293" lon="11.306211"><ele>309.9</ele></trkpt>
            <trkpt lat="51.680739" lon="11.30609"><ele>312</ele></trkpt>
            <trkpt lat="51.680678" lon="11.305839"><ele>313.7</ele></trkpt>
            <trkpt lat="51.680483" lon="11.305369"><ele>313.4</ele></trkpt>
            <trkpt lat="51.680323" lon="11.304872"><ele>314.3</ele></trkpt>
            <trkpt lat="51.680258" lon="11.304394"><ele>314.4</ele></trkpt>
            <trkpt lat="51.680178" lon="11.303975"><ele>316.1</ele></trkpt>
            <trkpt lat="51.679955" lon="11.303158"><ele>318.4</ele></trkpt>
            <trkpt lat="51.679713" lon="11.302389"><ele>323</ele></trkpt>
            <trkpt lat="51.67898" lon="11.299832"><ele>331</ele></trkpt>
            <trkpt lat="51.678118" lon="11.299933"><ele>329.8</ele></trkpt>
            <trkpt lat="51.6779" lon="11.299993"><ele>329</ele></trkpt>
            <trkpt lat="51.677877" lon="11.301709"><ele>328.9</ele></trkpt>
            <trkpt lat="51.677861" lon="11.301986"><ele>329</ele></trkpt>
            <trkpt lat="51.677858" lon="11.30219"><ele>329.7</ele></trkpt>
            <trkpt lat="51.678067" lon="11.305478"><ele>330</ele></trkpt>
            <trkpt lat="51.678057" lon="11.305775"><ele>330</ele></trkpt>
            <trkpt lat="51.678018" lon="11.305952"><ele>329.6</ele></trkpt>
            <trkpt lat="51.677932" lon="11.306131"><ele>329.5</ele></trkpt>
            <trkpt lat="51.677784" lon="11.306261"><ele>329.1</ele></trkpt>
            <trkpt lat="51.67752" lon="11.306404"><ele>328.3</ele></trkpt>
            <trkpt lat="51.677059" lon="11.30657"><ele>328.1</ele></trkpt>
            <trkpt lat="51.676965" lon="11.306638"><ele>328.1</ele></trkpt>
            <trkpt lat="51.676615" lon="11.307081"><ele>327.3</ele></trkpt>
            <trkpt lat="51.676531" lon="11.307146"><ele>327.2</ele></trkpt>
            <trkpt lat="51.676456" lon="11.307149"><ele>327.4</ele></trkpt>
            <trkpt lat="51.676261" lon="11.307029"><ele>326</ele></trkpt>
            <trkpt lat="51.676212" lon="11.307021"><ele>326</ele></trkpt>
            <trkpt lat="51.676119" lon="11.307052"><ele>326</ele></trkpt>
            <trkpt lat="51.676013" lon="11.307132"><ele>326</ele></trkpt>
            <trkpt lat="51.676069" lon="11.307497"><ele>325.1</ele></trkpt>
            <trkpt lat="51.676151" lon="11.307695"><ele>325.1</ele></trkpt>
            <trkpt lat="51.676258" lon="11.307834"><ele>324.9</ele></trkpt>
            <trkpt lat="51.676331" lon="11.307967"><ele>324.8</ele></trkpt>
            <trkpt lat="51.676395" lon="11.308126"><ele>324.8</ele></trkpt>
            <trkpt lat="51.676471" lon="11.308493"><ele>324.7</ele></trkpt>
            <trkpt lat="51.676576" lon="11.308864"><ele>324.7</ele></trkpt>
            <trkpt lat="51.676789" lon="11.309412"><ele>324.3</ele></trkpt>
            <trkpt lat="51.676814" lon="11.309503"><ele>324</ele></trkpt>
            <trkpt lat="51.676824" lon="11.309651"><ele>323.9</ele></trkpt>
            <trkpt lat="51.676755" lon="11.30986"><ele>323.5</ele></trkpt>
            <trkpt lat="51.67643" lon="11.31041"><ele>321.8</ele></trkpt>
            <trkpt lat="51.676318" lon="11.310787"><ele>321.1</ele></trkpt>
            <trkpt lat="51.676195" lon="11.311387"><ele>318.9</ele></trkpt>
            <trkpt lat="51.6762" lon="11.311617"><ele>317.9</ele></trkpt>
            <trkpt lat="51.676161" lon="11.312137"><ele>316</ele></trkpt>
            <trkpt lat="51.676116" lon="11.312304"><ele>316</ele></trkpt>
            <trkpt lat="51.676043" lon="11.312469"><ele>315.3</ele></trkpt>
            <trkpt lat="51.675835" lon="11.313227"><ele>313.1</ele></trkpt>
            <trkpt lat="51.675796" lon="11.313447"><ele>312.6</ele></trkpt>
            <trkpt lat="51.675785" lon="11.313858"><ele>311.6</ele></trkpt>
            <trkpt lat="51.675747" lon="11.31406"><ele>311.2</ele></trkpt>
            <trkpt lat="51.675647" lon="11.314368"><ele>309.9</ele></trkpt>
            <trkpt lat="51.675616" lon="11.314628"><ele>309.4</ele></trkpt>
            <trkpt lat="51.675573" lon="11.314791"><ele>309.3</ele></trkpt>
            <trkpt lat="51.675461" lon="11.31498"><ele>308</ele></trkpt>
            <trkpt lat="51.675273" lon="11.315429"><ele>306.4</ele></trkpt>
            <trkpt lat="51.675031" lon="11.315895"><ele>304.8</ele></trkpt>
            <trkpt lat="51.674877" lon="11.316081"><ele>303.8</ele></trkpt>
            <trkpt lat="51.674646" lon="11.316429"><ele>301.8</ele></trkpt>
            <trkpt lat="51.674521" lon="11.316713"><ele>296</ele></trkpt>
            <trkpt lat="51.674477" lon="11.316816"><ele>296</ele></trkpt>
            <trkpt lat="51.674269" lon="11.317153"><ele>290.2</ele></trkpt>
            <trkpt lat="51.674091" lon="11.317614"><ele>287</ele></trkpt>
            <trkpt lat="51.67387" lon="11.318574"><ele>283.6</ele></trkpt>
            <trkpt lat="51.673278" lon="11.320563"><ele>260</ele></trkpt>
            <trkpt lat="51.672794" lon="11.321879"><ele>255.2</ele></trkpt>
            <trkpt lat="51.672708" lon="11.322249"><ele>255.2</ele></trkpt>
            <trkpt lat="51.672553" lon="11.323051"><ele>254.2</ele></trkpt>
            <trkpt lat="51.672538" lon="11.323696"><ele>253.4</ele></trkpt>
            <trkpt lat="51.672524" lon="11.323796"><ele>252</ele></trkpt>
            <trkpt lat="51.67248" lon="11.323879"><ele>250</ele></trkpt>
            <trkpt lat="51.672378" lon="11.323954"><ele>249.7</ele></trkpt>
            <trkpt lat="51.672107" lon="11.324096"><ele>249.5</ele></trkpt>
            <trkpt lat="51.671953" lon="11.32424"><ele>249.6</ele></trkpt>
            <trkpt lat="51.671379" lon="11.32533"><ele>248.7</ele></trkpt>
            <trkpt lat="51.671201" lon="11.325425"><ele>247</ele></trkpt>
            <trkpt lat="51.670925" lon="11.326261"><ele>245.9</ele></trkpt>
            <trkpt lat="51.670795" lon="11.326589"><ele>245.4</ele></trkpt>
            <trkpt lat="51.670658" lon="11.326804"><ele>245.3</ele></trkpt>
            <trkpt lat="51.670436" lon="11.327084"><ele>245.5</ele></trkpt>
            <trkpt lat="51.67002" lon="11.327534"><ele>246</ele></trkpt>
            <trkpt lat="51.669836" lon="11.327685"><ele>245</ele></trkpt>
            <trkpt lat="51.669587" lon="11.327715"><ele>245.6</ele></trkpt>
            <trkpt lat="51.669446" lon="11.327675"><ele>245.6</ele></trkpt>
            <trkpt lat="51.66926" lon="11.327665"><ele>246.4</ele></trkpt>
            <trkpt lat="51.669063" lon="11.327748"><ele>246.6</ele></trkpt>
            <trkpt lat="51.668112" lon="11.328306"><ele>246.5</ele></trkpt>
            <trkpt lat="51.667333" lon="11.330409"><ele>240</ele></trkpt>
            <trkpt lat="51.666415" lon="11.333026"><ele>227</ele></trkpt>
            <trkpt lat="51.666247" lon="11.334524"><ele>223</ele></trkpt>
            <trkpt lat="51.666226" lon="11.334681"><ele>221.8</ele></trkpt>
            <trkpt lat="51.666197" lon="11.334736"><ele>221.7</ele></trkpt>
            <trkpt lat="51.666077" lon="11.334908"><ele>221.6</ele></trkpt>
            <trkpt lat="51.665755" lon="11.33525"><ele>221.4</ele></trkpt>
            <trkpt lat="51.665652" lon="11.335426"><ele>221.4</ele></trkpt>
            <trkpt lat="51.665472" lon="11.335919"><ele>220</ele></trkpt>
            <trkpt lat="51.665323" lon="11.335996"><ele>220</ele></trkpt>
            <trkpt lat="51.665234" lon="11.335991"><ele>220</ele></trkpt>
            <trkpt lat="51.665165" lon="11.335914"><ele>228.7</ele></trkpt>
            <trkpt lat="51.664873" lon="11.335346"><ele>230.7</ele></trkpt>
            <trkpt lat="51.664753" lon="11.335244"><ele>235</ele></trkpt>
            <trkpt lat="51.664684" lon="11.335216"><ele>236.9</ele></trkpt>
            <trkpt lat="51.664587" lon="11.335246"><ele>237.1</ele></trkpt>
            <trkpt lat="51.664484" lon="11.335315"><ele>238</ele></trkpt>
            <trkpt lat="51.664422" lon="11.335395"><ele>238.3</ele></trkpt>
            <trkpt lat="51.664346" lon="11.335556"><ele>238.6</ele></trkpt>
            <trkpt lat="51.664075" lon="11.336479"><ele>240.9</ele></trkpt>
            <trkpt lat="51.66397" lon="11.337274"><ele>241.5</ele></trkpt>
            <trkpt lat="51.663898" lon="11.337665"><ele>242.2</ele></trkpt>
            <trkpt lat="51.663824" lon="11.33789"><ele>242.2</ele></trkpt>
            <trkpt lat="51.663651" lon="11.338214"><ele>243.8</ele></trkpt>
            <trkpt lat="51.66151" lon="11.340518"><ele>255</ele></trkpt>
            <trkpt lat="51.661612" lon="11.340733"><ele>255</ele></trkpt>
            <trkpt lat="51.661857" lon="11.341288"><ele>260.9</ele></trkpt>
            <trkpt lat="51.661921" lon="11.3415"><ele>260.5</ele></trkpt>
            <trkpt lat="51.661937" lon="11.341643"><ele>262</ele></trkpt>
            <trkpt lat="51.661991" lon="11.341662"><ele>266.5</ele></trkpt>
        </trkseg>
    </trk>
</gpx>
