<?xml version="1.0" encoding="UTF-8"?>
<gpx version="1.1" creator="HWN Route Compare (OpenRouteService)" xmlns="http://www.topografix.com/GPX/1/1">
    <metadata>
        <name>OpenRouteService – Tour G2</name>
    </metadata>
    <trk>
        <name>OpenRouteService – Tour G2</name>
        <trkseg>
            <trkpt lat="51.556564" lon="10.825457"><ele>267.3</ele></trkpt>
            <trkpt lat="51.55656" lon="10.825605"><ele>268.7</ele></trkpt>
            <trkpt lat="51.556484" lon="10.82571"><ele>273</ele></trkpt>
            <trkpt lat="51.556497" lon="10.826262"><ele>275.9</ele></trkpt>
            <trkpt lat="51.55638" lon="10.827082"><ele>276.5</ele></trkpt>
            <trkpt lat="51.556358" lon="10.827353"><ele>276.4</ele></trkpt>
            <trkpt lat="51.556381" lon="10.828137"><ele>276.7</ele></trkpt>
            <trkpt lat="51.556311" lon="10.829172"><ele>278</ele></trkpt>
            <trkpt lat="51.556358" lon="10.829984"><ele>278.4</ele></trkpt>
            <trkpt lat="51.556403" lon="10.830279"><ele>280</ele></trkpt>
            <trkpt lat="51.556514" lon="10.830579"><ele>277.7</ele></trkpt>
            <trkpt lat="51.556585" lon="10.830873"><ele>277.4</ele></trkpt>
            <trkpt lat="51.556714" lon="10.831799"><ele>276.3</ele></trkpt>
            <trkpt lat="51.556849" lon="10.832483"><ele>274</ele></trkpt>
            <trkpt lat="51.556896" lon="10.832617"><ele>267.8</ele></trkpt>
            <trkpt lat="51.556956" lon="10.832691"><ele>268.7</ele></trkpt>
            <trkpt lat="51.557033" lon="10.832736"><ele>269.4</ele></trkpt>
            <trkpt lat="51.557713" lon="10.832907"><ele>254</ele></trkpt>
            <trkpt lat="51.558289" lon="10.833059"><ele>254</ele></trkpt>
            <trkpt lat="51.558438" lon="10.833102"><ele>252</ele></trkpt>
            <trkpt lat="51.558614" lon="10.83312"><ele>252</ele></trkpt>
            <trkpt lat="51.558709" lon="10.833111"><ele>252</ele></trkpt>
            <trkpt lat="51.559243" lon="10.833067"><ele>253</ele></trkpt>
            <trkpt lat="51.559296" lon="10.833064"><ele>253</ele></trkpt>
            <trkpt lat="51.559303" lon="10.833303"><ele>253</ele></trkpt>
            <trkpt lat="51.559307" lon="10.83346"><ele>254</ele></trkpt>
            <trkpt lat="51.55931" lon="10.833578"><ele>254</ele></trkpt>
            <trkpt lat="51.559285" lon="10.833668"><ele>254</ele></trkpt>
            <trkpt lat="51.559524" lon="10.833795"><ele>254</ele></trkpt>
            <trkpt lat="51.559555" lon="10.8343"><ele>255</ele></trkpt>
            <trkpt lat="51.55971" lon="10.834372"><ele>255</ele></trkpt>
            <trkpt lat="51.55972" lon="10.834376"><ele>255</ele></trkpt>
            <trkpt lat="51.559772" lon="10.834397"><ele>255</ele></trkpt>
            <trkpt lat="51.560528" lon="10.834562"><ele>257</ele></trkpt>
            <trkpt lat="51.560519" lon="10.835215"><ele>258</ele></trkpt>
            <trkpt lat="51.560679" lon="10.835201"><ele>258</ele></trkpt>
            <trkpt lat="51.561464" lon="10.835061"><ele>261</ele></trkpt>
            <trkpt lat="51.563097" lon="10.83476"><ele>268</ele></trkpt>
            <trkpt lat="51.563241" lon="10.834727"><ele>268</ele></trkpt>
            <trkpt lat="51.563371" lon="10.834706"><ele>272</ele></trkpt>
            <trkpt lat="51.563684" lon="10.834659"><ele>272</ele></trkpt>
            <trkpt lat="51.563943" lon="10.834633"><ele>272</ele></trkpt>
            <trkpt lat="51.564251" lon="10.834602"><ele>279</ele></trkpt>
            <trkpt lat="51.564688" lon="10.834538"><ele>279</ele></trkpt>
            <trkpt lat="51.565153" lon="10.834552"><ele>283</ele></trkpt>
            <trkpt lat="51.565294" lon="10.835095"><ele>282.3</ele></trkpt>
            <trkpt lat="51.565358" lon="10.835164"><ele>282.1</ele></trkpt>
            <trkpt lat="51.565932" lon="10.835525"><ele>281</ele></trkpt>
            <trkpt lat="51.566081" lon="10.835625"><ele>281</ele></trkpt>
            <trkpt lat="51.566332" lon="10.835931"><ele>299</ele></trkpt>
            <trkpt lat="51.566505" lon="10.836142"><ele>299</ele></trkpt>
            <trkpt lat="51.566572" lon="10.836246"><ele>298.3</ele></trkpt>
            <trkpt lat="51.566955" lon="10.836653"><ele>297.6</ele></trkpt>
            <trkpt lat="51.567542" lon="10.837212"><ele>299</ele></trkpt>
            <trkpt lat="51.567982" lon="10.837477"><ele>306</ele></trkpt>
            <trkpt lat="51.568323" lon="10.837637"><ele>324.3</ele></trkpt>
            <trkpt lat="51.56845" lon="10.837764"><ele>326.8</ele></trkpt>
            <trkpt lat="51.568596" lon="10.838089"><ele>339</ele></trkpt>
            <trkpt lat="51.568698" lon="10.838359"><ele>347.6</ele></trkpt>
            <trkpt lat="51.568792" lon="10.838534"><ele>348.4</ele></trkpt>
            <trkpt lat="51.568883" lon="10.838654"><ele>349.1</ele></trkpt>
            <trkpt lat="51.568941" lon="10.838811"><ele>349.7</ele></trkpt>
            <trkpt lat="51.569025" lon="10.838927"><ele>354</ele></trkpt>
            <trkpt lat="51.569075" lon="10.839132"><ele>362</ele></trkpt>
            <trkpt lat="51.569136" lon="10.839299"><ele>363</ele></trkpt>
            <trkpt lat="51.569371" lon="10.839732"><ele>374</ele></trkpt>
            <trkpt lat="51.569394" lon="10.840123"><ele>379</ele></trkpt>
            <trkpt lat="51.569381" lon="10.84048"><ele>382</ele></trkpt>
            <trkpt lat="51.56941" lon="10.840651"><ele>382</ele></trkpt>
            <trkpt lat="51.569451" lon="10.840712"><ele>382</ele></trkpt>
            <trkpt lat="51.569484" lon="10.840707"><ele>382</ele></trkpt>
            <trkpt lat="51.569519" lon="10.840667"><ele>382</ele></trkpt>
            <trkpt lat="51.569541" lon="10.840318"><ele>379.5</ele></trkpt>
            <trkpt lat="51.569646" lon="10.839594"><ele>374</ele></trkpt>
            <trkpt lat="51.569699" lon="10.838794"><ele>369</ele></trkpt>
            <trkpt lat="51.569753" lon="10.838438"><ele>367</ele></trkpt>
            <trkpt lat="51.569733" lon="10.838215"><ele>359.5</ele></trkpt>
            <trkpt lat="51.569782" lon="10.837605"><ele>359.6</ele></trkpt>
            <trkpt lat="51.569808" lon="10.837488"><ele>355.8</ele></trkpt>
            <trkpt lat="51.569782" lon="10.837605"><ele>359.6</ele></trkpt>
            <trkpt lat="51.569733" lon="10.838215"><ele>359.5</ele></trkpt>
            <trkpt lat="51.569753" lon="10.838438"><ele>367</ele></trkpt>
            <trkpt lat="51.569699" lon="10.838794"><ele>369</ele></trkpt>
            <trkpt lat="51.569646" lon="10.839594"><ele>374</ele></trkpt>
            <trkpt lat="51.569541" lon="10.840318"><ele>379.5</ele></trkpt>
            <trkpt lat="51.569519" lon="10.840667"><ele>382</ele></trkpt>
            <trkpt lat="51.569501" lon="10.840893"><ele>389</ele></trkpt>
            <trkpt lat="51.569518" lon="10.841034"><ele>392.1</ele></trkpt>
            <trkpt lat="51.569506" lon="10.84139"><ele>393.4</ele></trkpt>
            <trkpt lat="51.569446" lon="10.84184"><ele>394.7</ele></trkpt>
            <trkpt lat="51.569374" lon="10.842769"><ele>396.7</ele></trkpt>
            <trkpt lat="51.569237" lon="10.843795"><ele>400.9</ele></trkpt>
            <trkpt lat="51.569147" lon="10.844258"><ele>416</ele></trkpt>
            <trkpt lat="51.569099" lon="10.844596"><ele>412.3</ele></trkpt>
            <trkpt lat="51.569054" lon="10.845607"><ele>409.8</ele></trkpt>
            <trkpt lat="51.569002" lon="10.846157"><ele>409.1</ele></trkpt>
            <trkpt lat="51.568992" lon="10.846797"><ele>400</ele></trkpt>
            <trkpt lat="51.569011" lon="10.846981"><ele>400</ele></trkpt>
            <trkpt lat="51.569008" lon="10.847227"><ele>400</ele></trkpt>
            <trkpt lat="51.568957" lon="10.847779"><ele>400</ele></trkpt>
            <trkpt lat="51.568918" lon="10.848351"><ele>399.3</ele></trkpt>
            <trkpt lat="51.568919" lon="10.848641"><ele>399</ele></trkpt>
            <trkpt lat="51.568981" lon="10.849015"><ele>406.6</ele></trkpt>
            <trkpt lat="51.569049" lon="10.849272"><ele>410.1</ele></trkpt>
            <trkpt lat="51.569377" lon="10.850381"><ele>415.9</ele></trkpt>
            <trkpt lat="51.569599" lon="10.85093"><ele>419.9</ele></trkpt>
            <trkpt lat="51.569627" lon="10.851115"><ele>421.3</ele></trkpt>
            <trkpt lat="51.569621" lon="10.852022"><ele>424.4</ele></trkpt>
            <trkpt lat="51.569563" lon="10.852608"><ele>424.4</ele></trkpt>
            <trkpt lat="51.56948" lon="10.853003"><ele>424.2</ele></trkpt>
            <trkpt lat="51.56941" lon="10.853703"><ele>421.1</ele></trkpt>
            <trkpt lat="51.569427" lon="10.854361"><ele>417.9</ele></trkpt>
            <trkpt lat="51.569388" lon="10.854653"><ele>417.6</ele></trkpt>
            <trkpt lat="51.569385" lon="10.855321"><ele>415.7</ele></trkpt>
            <trkpt lat="51.569414" lon="10.855573"><ele>414.3</ele></trkpt>
            <trkpt lat="51.569455" lon="10.85586"><ele>413.5</ele></trkpt>
            <trkpt lat="51.569619" lon="10.856371"><ele>412.5</ele></trkpt>
            <trkpt lat="51.56997" lon="10.857282"><ele>410.9</ele></trkpt>
            <trkpt lat="51.57004" lon="10.857393"><ele>414</ele></trkpt>
            <trkpt lat="51.570244" lon="10.857885"><ele>413.8</ele></trkpt>
            <trkpt lat="51.570357" lon="10.858089"><ele>413.8</ele></trkpt>
            <trkpt lat="51.570755" lon="10.858569"><ele>413</ele></trkpt>
            <trkpt lat="51.571242" lon="10.859152"><ele>418.8</ele></trkpt>
            <trkpt lat="51.571327" lon="10.859228"><ele>418.9</ele></trkpt>
            <trkpt lat="51.571415" lon="10.859338"><ele>418.6</ele></trkpt>
            <trkpt lat="51.571471" lon="10.859463"><ele>421</ele></trkpt>
            <trkpt lat="51.571792" lon="10.860126"><ele>431.5</ele></trkpt>
            <trkpt lat="51.57202" lon="10.86067"><ele>435</ele></trkpt>
            <trkpt lat="51.572284" lon="10.861128"><ele>436</ele></trkpt>
            <trkpt lat="51.572578" lon="10.861303"><ele>439.3</ele></trkpt>
            <trkpt lat="51.572942" lon="10.86156"><ele>439.6</ele></trkpt>
            <trkpt lat="51.573079" lon="10.861722"><ele>439.7</ele></trkpt>
            <trkpt lat="51.573212" lon="10.861925"><ele>440.6</ele></trkpt>
            <trkpt lat="51.573368" lon="10.862051"><ele>441.7</ele></trkpt>
            <trkpt lat="51.573513" lon="10.862076"><ele>441.9</ele></trkpt>
            <trkpt lat="51.573656" lon="10.861947"><ele>441.5</ele></trkpt>
            <trkpt lat="51.573776" lon="10.861892"><ele>447</ele></trkpt>
            <trkpt lat="51.573906" lon="10.861754"><ele>448.5</ele></trkpt>
            <trkpt lat="51.574187" lon="10.861136"><ele>448.8</ele></trkpt>
            <trkpt lat="51.574515" lon="10.860867"><ele>448.8</ele></trkpt>
            <trkpt lat="51.574658" lon="10.860901"><ele>449</ele></trkpt>
            <trkpt lat="51.5748" lon="10.860862"><ele>449.4</ele></trkpt>
            <trkpt lat="51.575283" lon="10.861083"><ele>449.7</ele></trkpt>
            <trkpt lat="51.575441" lon="10.861093"><ele>449.9</ele></trkpt>
            <trkpt lat="51.575602" lon="10.861053"><ele>450</ele></trkpt>
            <trkpt lat="51.575914" lon="10.86088"><ele>450.6</ele></trkpt>
            <trkpt lat="51.576142" lon="10.860834"><ele>453</ele></trkpt>
            <trkpt lat="51.576243" lon="10.860874"><ele>452.9</ele></trkpt>
            <trkpt lat="51.576363" lon="10.861039"><ele>452.7</ele></trkpt>
            <trkpt lat="51.576394" lon="10.861214"><ele>452.7</ele></trkpt>
            <trkpt lat="51.576503" lon="10.86151"><ele>453</ele></trkpt>
            <trkpt lat="51.576604" lon="10.862075"><ele>454.2</ele></trkpt>
            <trkpt lat="51.576633" lon="10.862142"><ele>454.7</ele></trkpt>
            <trkpt lat="51.576746" lon="10.862297"><ele>455.2</ele></trkpt>
            <trkpt lat="51.576879" lon="10.862418"><ele>455.3</ele></trkpt>
            <trkpt lat="51.576952" lon="10.862424"><ele>455.1</ele></trkpt>
            <trkpt lat="51.577025" lon="10.862458"><ele>455.1</ele></trkpt>
            <trkpt lat="51.577093" lon="10.862538"><ele>454.9</ele></trkpt>
            <trkpt lat="51.577259" lon="10.862649"><ele>456.7</ele></trkpt>
            <trkpt lat="51.577731" lon="10.862738"><ele>457.8</ele></trkpt>
            <trkpt lat="51.577946" lon="10.86281"><ele>458.6</ele></trkpt>
            <trkpt lat="51.578085" lon="10.862914"><ele>459</ele></trkpt>
            <trkpt lat="51.57817" lon="10.862936"><ele>459</ele></trkpt>
            <trkpt lat="51.578298" lon="10.863034"><ele>459.5</ele></trkpt>
            <trkpt lat="51.57841" lon="10.863073"><ele>460.3</ele></trkpt>
            <trkpt lat="51.578837" lon="10.863464"><ele>455.6</ele></trkpt>
            <trkpt lat="51.578876" lon="10.863499"><ele>451</ele></trkpt>
            <trkpt lat="51.57891" lon="10.863522"><ele>451</ele></trkpt>
            <trkpt lat="51.579326" lon="10.863977"><ele>461.6</ele></trkpt>
            <trkpt lat="51.580041" lon="10.865043"><ele>459.1</ele></trkpt>
            <trkpt lat="51.580275" lon="10.865423"><ele>457.6</ele></trkpt>
            <trkpt lat="51.580492" lon="10.865873"><ele>455.9</ele></trkpt>
            <trkpt lat="51.580718" lon="10.866274"><ele>457.9</ele></trkpt>
            <trkpt lat="51.5809" lon="10.866569"><ele>459.6</ele></trkpt>
            <trkpt lat="51.581084" lon="10.866779"><ele>458.1</ele></trkpt>
            <trkpt lat="51.581342" lon="10.867"><ele>458.5</ele></trkpt>
            <trkpt lat="51.581615" lon="10.867194"><ele>459.5</ele></trkpt>
            <trkpt lat="51.581999" lon="10.867372"><ele>459.9</ele></trkpt>
            <trkpt lat="51.582458" lon="10.867635"><ele>462.7</ele></trkpt>
            <trkpt lat="51.582976" lon="10.868039"><ele>464.3</ele></trkpt>
            <trkpt lat="51.583174" lon="10.868144"><ele>465</ele></trkpt>
            <trkpt lat="51.583363" lon="10.868181"><ele>466</ele></trkpt>
            <trkpt lat="51.58365" lon="10.868104"><ele>466.1</ele></trkpt>
            <trkpt lat="51.583697" lon="10.8681"><ele>465.8</ele></trkpt>
            <trkpt lat="51.583745" lon="10.868129"><ele>469</ele></trkpt>
            <trkpt lat="51.583772" lon="10.86802"><ele>480.5</ele></trkpt>
            <trkpt lat="51.583882" lon="10.867846"><ele>484.6</ele></trkpt>
            <trkpt lat="51.583966" lon="10.867782"><ele>485.9</ele></trkpt>
            <trkpt lat="51.584315" lon="10.867625"><ele>489.4</ele></trkpt>
            <trkpt lat="51.584453" lon="10.867524"><ele>490.8</ele></trkpt>
            <trkpt lat="51.584563" lon="10.867477"><ele>492.5</ele></trkpt>
            <trkpt lat="51.584663" lon="10.867387"><ele>492.5</ele></trkpt>
            <trkpt lat="51.584798" lon="10.867098"><ele>493.1</ele></trkpt>
            <trkpt lat="51.584824" lon="10.86697"><ele>493.1</ele></trkpt>
            <trkpt lat="51.584869" lon="10.866392"><ele>495.2</ele></trkpt>
            <trkpt lat="51.584938" lon="10.866151"><ele>496.2</ele></trkpt>
            <trkpt lat="51.585002" lon="10.865789"><ele>495.7</ele></trkpt>
            <trkpt lat="51.585004" lon="10.865467"><ele>496.4</ele></trkpt>
            <trkpt lat="51.5849" lon="10.864971"><ele>504</ele></trkpt>
            <trkpt lat="51.584986" lon="10.864764"><ele>504</ele></trkpt>
            <trkpt lat="51.585095" lon="10.864849"><ele>504</ele></trkpt>
            <trkpt lat="51.585182" lon="10.864989"><ele>504.7</ele></trkpt>
            <trkpt lat="51.585261" lon="10.865071"><ele>506</ele></trkpt>
            <trkpt lat="51.585988" lon="10.86539"><ele>506</ele></trkpt>
            <trkpt lat="51.586281" lon="10.865476"><ele>507.9</ele></trkpt>
            <trkpt lat="51.587012" lon="10.865742"><ele>510.6</ele></trkpt>
            <trkpt lat="51.587118" lon="10.865768"><ele>511.1</ele></trkpt>
            <trkpt lat="51.587257" lon="10.865742"><ele>511.2</ele></trkpt>
            <trkpt lat="51.58739" lon="10.865622"><ele>511.8</ele></trkpt>
            <trkpt lat="51.587481" lon="10.865476"><ele>511.9</ele></trkpt>
            <trkpt lat="51.587747" lon="10.86436"><ele>514.2</ele></trkpt>
            <trkpt lat="51.587993" lon="10.863811"><ele>516.1</ele></trkpt>
            <trkpt lat="51.588169" lon="10.863553"><ele>517.4</ele></trkpt>
            <trkpt lat="51.588345" lon="10.863347"><ele>518.4</ele></trkpt>
            <trkpt lat="51.588489" lon="10.863193"><ele>518.4</ele></trkpt>
            <trkpt lat="51.588745" lon="10.863038"><ele>519</ele></trkpt>
            <trkpt lat="51.588963" lon="10.862969"><ele>518.9</ele></trkpt>
            <trkpt lat="51.589289" lon="10.862918"><ele>519.1</ele></trkpt>
            <trkpt lat="51.589769" lon="10.862798"><ele>519.2</ele></trkpt>
            <trkpt lat="51.589918" lon="10.862729"><ele>520</ele></trkpt>
            <trkpt lat="51.590168" lon="10.862549"><ele>521.5</ele></trkpt>
            <trkpt lat="51.590419" lon="10.8623"><ele>521.7</ele></trkpt>
            <trkpt lat="51.590792" lon="10.861845"><ele>522.4</ele></trkpt>
            <trkpt lat="51.591157" lon="10.861299"><ele>525</ele></trkpt>
            <trkpt lat="51.591432" lon="10.860684"><ele>527.9</ele></trkpt>
            <trkpt lat="51.592013" lon="10.859654"><ele>529.1</ele></trkpt>
            <trkpt lat="51.592253" lon="10.859303"><ele>530.3</ele></trkpt>
            <trkpt lat="51.592493" lon="10.85885"><ele>531.3</ele></trkpt>
            <trkpt lat="51.592755" lon="10.858309"><ele>531.8</ele></trkpt>
            <trkpt lat="51.593096" lon="10.857785"><ele>532.4</ele></trkpt>
            <trkpt lat="51.593332" lon="10.857301"><ele>536</ele></trkpt>
            <trkpt lat="51.593419" lon="10.857249"><ele>527.5</ele></trkpt>
            <trkpt lat="51.593913" lon="10.856529"><ele>523.9</ele></trkpt>
            <trkpt lat="51.594302" lon="10.855759"><ele>519.3</ele></trkpt>
            <trkpt lat="51.594388" lon="10.855372"><ele>513</ele></trkpt>
            <trkpt lat="51.594517" lon="10.855326"><ele>515.5</ele></trkpt>
            <trkpt lat="51.594926" lon="10.854989"><ele>515.6</ele></trkpt>
            <trkpt lat="51.595033" lon="10.85484"><ele>516.1</ele></trkpt>
            <trkpt lat="51.595196" lon="10.854541"><ele>516.5</ele></trkpt>
            <trkpt lat="51.595363" lon="10.854317"><ele>518.5</ele></trkpt>
            <trkpt lat="51.595666" lon="10.853981"><ele>520.6</ele></trkpt>
            <trkpt lat="51.596129" lon="10.852927"><ele>533</ele></trkpt>
            <trkpt lat="51.596446" lon="10.852048"><ele>538.3</ele></trkpt>
            <trkpt lat="51.596619" lon="10.851769"><ele>538</ele></trkpt>
            <trkpt lat="51.597005" lon="10.851313"><ele>543</ele></trkpt>
            <trkpt lat="51.5973" lon="10.849228"><ele>549</ele></trkpt>
            <trkpt lat="51.597191" lon="10.849151"><ele>549.3</ele></trkpt>
            <trkpt lat="51.596337" lon="10.848713"><ele>548.6</ele></trkpt>
            <trkpt lat="51.595927" lon="10.848551"><ele>548</ele></trkpt>
            <trkpt lat="51.595581" lon="10.848339"><ele>545.6</ele></trkpt>
            <trkpt lat="51.594556" lon="10.847836"><ele>544.6</ele></trkpt>
            <trkpt lat="51.594359" lon="10.847775"><ele>544.7</ele></trkpt>
            <trkpt lat="51.593614" lon="10.847842"><ele>538</ele></trkpt>
            <trkpt lat="51.593383" lon="10.847707"><ele>528.7</ele></trkpt>
            <trkpt lat="51.59309" lon="10.847467"><ele>524.3</ele></trkpt>
            <trkpt lat="51.591997" lon="10.847132"><ele>515.7</ele></trkpt>
            <trkpt lat="51.591639" lon="10.84684"><ele>514.5</ele></trkpt>
            <trkpt lat="51.591361" lon="10.846546"><ele>516</ele></trkpt>
            <trkpt lat="51.591275" lon="10.846493"><ele>516</ele></trkpt>
            <trkpt lat="51.591185" lon="10.846305"><ele>516</ele></trkpt>
            <trkpt lat="51.591111" lon="10.846226"><ele>516</ele></trkpt>
            <trkpt lat="51.591075" lon="10.846251"><ele>516</ele></trkpt>
            <trkpt lat="51.591058" lon="10.846298"><ele>516</ele></trkpt>
            <trkpt lat="51.591018" lon="10.84593"><ele>520.9</ele></trkpt>
            <trkpt lat="51.591072" lon="10.845257"><ele>521.3</ele></trkpt>
            <trkpt lat="51.591036" lon="10.845088"><ele>521.1</ele></trkpt>
            <trkpt lat="51.590698" lon="10.844233"><ele>523.4</ele></trkpt>
            <trkpt lat="51.590447" lon="10.844043"><ele>525.7</ele></trkpt>
            <trkpt lat="51.590336" lon="10.843925"><ele>526.5</ele></trkpt>
            <trkpt lat="51.590276" lon="10.843745"><ele>527.5</ele></trkpt>
            <trkpt lat="51.590192" lon="10.84328"><ele>529.4</ele></trkpt>
            <trkpt lat="51.590094" lon="10.842231"><ele>531.7</ele></trkpt>
            <trkpt lat="51.590104" lon="10.842103"><ele>531.7</ele></trkpt>
            <trkpt lat="51.590273" lon="10.841532"><ele>532.8</ele></trkpt>
            <trkpt lat="51.590337" lon="10.840706"><ele>538</ele></trkpt>
            <trkpt lat="51.590279" lon="10.840237"><ele>546.8</ele></trkpt>
            <trkpt lat="51.589984" lon="10.839226"><ele>549.2</ele></trkpt>
            <trkpt lat="51.589973" lon="10.83905"><ele>551.2</ele></trkpt>
            <trkpt lat="51.590019" lon="10.838691"><ele>553</ele></trkpt>
            <trkpt lat="51.59011" lon="10.838351"><ele>553.8</ele></trkpt>
            <trkpt lat="51.590267" lon="10.837593"><ele>557.5</ele></trkpt>
            <trkpt lat="51.590314" lon="10.837025"><ele>558</ele></trkpt>
            <trkpt lat="51.590316" lon="10.836861"><ele>557.3</ele></trkpt>
            <trkpt lat="51.5903" lon="10.836754"><ele>556.6</ele></trkpt>
            <trkpt lat="51.590259" lon="10.836641"><ele>556.1</ele></trkpt>
            <trkpt lat="51.58994" lon="10.836144"><ele>557.9</ele></trkpt>
            <trkpt lat="51.589794" lon="10.835865"><ele>559.1</ele></trkpt>
            <trkpt lat="51.589525" lon="10.835169"><ele>561.5</ele></trkpt>
            <trkpt lat="51.589473" lon="10.83509"><ele>562.3</ele></trkpt>
            <trkpt lat="51.58929" lon="10.835032"><ele>566</ele></trkpt>
            <trkpt lat="51.58922" lon="10.834961"><ele>576.5</ele></trkpt>
            <trkpt lat="51.589162" lon="10.834856"><ele>578.4</ele></trkpt>
            <trkpt lat="51.58913" lon="10.834698"><ele>588</ele></trkpt>
            <trkpt lat="51.589145" lon="10.83441"><ele>588</ele></trkpt>
            <trkpt lat="51.58913" lon="10.834357"><ele>587.4</ele></trkpt>
            <trkpt lat="51.589206" lon="10.834093"><ele>587</ele></trkpt>
            <trkpt lat="51.589226" lon="10.833967"><ele>586.6</ele></trkpt>
            <trkpt lat="51.589222" lon="10.833895"><ele>585.9</ele></trkpt>
            <trkpt lat="51.589194" lon="10.833866"><ele>585.1</ele></trkpt>
            <trkpt lat="51.589079" lon="10.83332"><ele>587.4</ele></trkpt>
            <trkpt lat="51.589054" lon="10.833117"><ele>588.7</ele></trkpt>
            <trkpt lat="51.589178" lon="10.8318"><ele>594.8</ele></trkpt>
            <trkpt lat="51.589182" lon="10.831561"><ele>598.6</ele></trkpt>
            <trkpt lat="51.589128" lon="10.831329"><ele>601.2</ele></trkpt>
            <trkpt lat="51.589112" lon="10.830826"><ele>602.7</ele></trkpt>
            <trkpt lat="51.58903" lon="10.830294"><ele>604</ele></trkpt>
            <trkpt lat="51.58898" lon="10.830092"><ele>604.3</ele></trkpt>
            <trkpt lat="51.588675" lon="10.829368"><ele>606.7</ele></trkpt>
            <trkpt lat="51.588583" lon="10.829187"><ele>606.9</ele></trkpt>
            <trkpt lat="51.588524" lon="10.829028"><ele>607</ele></trkpt>
            <trkpt lat="51.588482" lon="10.82885"><ele>607</ele></trkpt>
            <trkpt lat="51.588417" lon="10.828712"><ele>607</ele></trkpt>
            <trkpt lat="51.588331" lon="10.828429"><ele>607</ele></trkpt>
            <trkpt lat="51.588243" lon="10.828286"><ele>604.5</ele></trkpt>
            <trkpt lat="51.58819" lon="10.828126"><ele>604.6</ele></trkpt>
            <trkpt lat="51.588184" lon="10.82753"><ele>604</ele></trkpt>
            <trkpt lat="51.588153" lon="10.827083"><ele>601</ele></trkpt>
            <trkpt lat="51.588089" lon="10.827005"><ele>601</ele></trkpt>
            <trkpt lat="51.588153" lon="10.827083"><ele>601</ele></trkpt>
            <trkpt lat="51.588231" lon="10.827037"><ele>598.4</ele></trkpt>
            <trkpt lat="51.588449" lon="10.826747"><ele>598.7</ele></trkpt>
            <trkpt lat="51.588756" lon="10.826213"><ele>597.5</ele></trkpt>
            <trkpt lat="51.589036" lon="10.825804"><ele>597.6</ele></trkpt>
            <trkpt lat="51.589112" lon="10.82567"><ele>597.6</ele></trkpt>
            <trkpt lat="51.589165" lon="10.825506"><ele>597.3</ele></trkpt>
            <trkpt lat="51.589316" lon="10.825207"><ele>595.9</ele></trkpt>
            <trkpt lat="51.589508" lon="10.824951"><ele>593.4</ele></trkpt>
            <trkpt lat="51.58955" lon="10.824937"><ele>585</ele></trkpt>
            <trkpt lat="51.589686" lon="10.824636"><ele>577.9</ele></trkpt>
            <trkpt lat="51.58998" lon="10.824149"><ele>577.1</ele></trkpt>
            <trkpt lat="51.590064" lon="10.823977"><ele>575.7</ele></trkpt>
            <trkpt lat="51.590117" lon="10.823847"><ele>574.5</ele></trkpt>
            <trkpt lat="51.590228" lon="10.823481"><ele>572.6</ele></trkpt>
            <trkpt lat="51.590397" lon="10.822766"><ele>568.4</ele></trkpt>
            <trkpt lat="51.590539" lon="10.821798"><ele>562.8</ele></trkpt>
            <trkpt lat="51.59055" lon="10.821619"><ele>550</ele></trkpt>
            <trkpt lat="51.590814" lon="10.821381"><ele>548</ele></trkpt>
            <trkpt lat="51.591063" lon="10.8211"><ele>547.9</ele></trkpt>
            <trkpt lat="51.591258" lon="10.820846"><ele>547</ele></trkpt>
            <trkpt lat="51.591372" lon="10.820965"><ele>545.7</ele></trkpt>
            <trkpt lat="51.591607" lon="10.821048"><ele>546</ele></trkpt>
            <trkpt lat="51.591695" lon="10.820987"><ele>545.2</ele></trkpt>
            <trkpt lat="51.591836" lon="10.820811"><ele>545.1</ele></trkpt>
            <trkpt lat="51.592042" lon="10.820447"><ele>544.4</ele></trkpt>
            <trkpt lat="51.59235" lon="10.820029"><ele>543.8</ele></trkpt>
            <trkpt lat="51.59303" lon="10.818721"><ele>536.4</ele></trkpt>
            <trkpt lat="51.593233" lon="10.818221"><ele>534.1</ele></trkpt>
            <trkpt lat="51.593317" lon="10.817919"><ele>534</ele></trkpt>
            <trkpt lat="51.593501" lon="10.817426"><ele>527.8</ele></trkpt>
            <trkpt lat="51.593624" lon="10.816991"><ele>524.6</ele></trkpt>
            <trkpt lat="51.593701" lon="10.816604"><ele>521.6</ele></trkpt>
            <trkpt lat="51.593735" lon="10.816373"><ele>520.1</ele></trkpt>
            <trkpt lat="51.593677" lon="10.815755"><ele>513.2</ele></trkpt>
            <trkpt lat="51.593751" lon="10.814929"><ele>512</ele></trkpt>
            <trkpt lat="51.593858" lon="10.81442"><ele>511.4</ele></trkpt>
            <trkpt lat="51.594125" lon="10.813482"><ele>508.6</ele></trkpt>
            <trkpt lat="51.594228" lon="10.81317"><ele>505.4</ele></trkpt>
            <trkpt lat="51.594316" lon="10.812763"><ele>501.7</ele></trkpt>
            <trkpt lat="51.594363" lon="10.812277"><ele>498.6</ele></trkpt>
            <trkpt lat="51.594335" lon="10.811807"><ele>494.3</ele></trkpt>
            <trkpt lat="51.594347" lon="10.811662"><ele>494.8</ele></trkpt>
            <trkpt lat="51.594406" lon="10.811472"><ele>494.4</ele></trkpt>
            <trkpt lat="51.594446" lon="10.81127"><ele>491.7</ele></trkpt>
            <trkpt lat="51.594604" lon="10.810746"><ele>491.8</ele></trkpt>
            <trkpt lat="51.595032" lon="10.809764"><ele>488.6</ele></trkpt>
            <trkpt lat="51.595119" lon="10.80963"><ele>487.8</ele></trkpt>
            <trkpt lat="51.59525" lon="10.809529"><ele>486</ele></trkpt>
            <trkpt lat="51.595355" lon="10.809515"><ele>484</ele></trkpt>
            <trkpt lat="51.595442" lon="10.809531"><ele>483.4</ele></trkpt>
            <trkpt lat="51.595602" lon="10.809602"><ele>482.9</ele></trkpt>
            <trkpt lat="51.595932" lon="10.8098"><ele>477.9</ele></trkpt>
            <trkpt lat="51.596175" lon="10.809866"><ele>472.4</ele></trkpt>
            <trkpt lat="51.596359" lon="10.809887"><ele>452</ele></trkpt>
            <trkpt lat="51.596343" lon="10.809744"><ele>454</ele></trkpt>
            <trkpt lat="51.596268" lon="10.809585"><ele>454.4</ele></trkpt>
            <trkpt lat="51.59587" lon="10.809134"><ele>456</ele></trkpt>
            <trkpt lat="51.595838" lon="10.809057"><ele>456.2</ele></trkpt>
            <trkpt lat="51.595857" lon="10.808947"><ele>456.5</ele></trkpt>
            <trkpt lat="51.596067" lon="10.808534"><ele>457.4</ele></trkpt>
            <trkpt lat="51.596159" lon="10.808285"><ele>458.2</ele></trkpt>
            <trkpt lat="51.596261" lon="10.807766"><ele>460</ele></trkpt>
            <trkpt lat="51.596238" lon="10.807618"><ele>460.3</ele></trkpt>
            <trkpt lat="51.596159" lon="10.807458"><ele>460.7</ele></trkpt>
            <trkpt lat="51.595893" lon="10.807246"><ele>461.4</ele></trkpt>
            <trkpt lat="51.595854" lon="10.807094"><ele>461.7</ele></trkpt>
            <trkpt lat="51.59587" lon="10.806937"><ele>462.4</ele></trkpt>
            <trkpt lat="51.595909" lon="10.806819"><ele>462.7</ele></trkpt>
            <trkpt lat="51.596139" lon="10.80635"><ele>462.8</ele></trkpt>
            <trkpt lat="51.596355" lon="10.805978"><ele>462.3</ele></trkpt>
            <trkpt lat="51.596693" lon="10.805831"><ele>461.8</ele></trkpt>
            <trkpt lat="51.59681" lon="10.805739"><ele>462</ele></trkpt>
            <trkpt lat="51.596925" lon="10.805525"><ele>461.2</ele></trkpt>
            <trkpt lat="51.597008" lon="10.805315"><ele>462.1</ele></trkpt>
            <trkpt lat="51.597311" lon="10.804803"><ele>464.1</ele></trkpt>
            <trkpt lat="51.597414" lon="10.804491"><ele>465.5</ele></trkpt>
            <trkpt lat="51.597479" lon="10.804173"><ele>466.2</ele></trkpt>
            <trkpt lat="51.597514" lon="10.803883"><ele>467.3</ele></trkpt>
            <trkpt lat="51.597518" lon="10.80359"><ele>468.4</ele></trkpt>
            <trkpt lat="51.597485" lon="10.803298"><ele>471.1</ele></trkpt>
            <trkpt lat="51.597438" lon="10.803094"><ele>471.5</ele></trkpt>
            <trkpt lat="51.59727" lon="10.802606"><ele>473.6</ele></trkpt>
            <trkpt lat="51.597231" lon="10.802425"><ele>473.5</ele></trkpt>
            <trkpt lat="51.597224" lon="10.802143"><ele>475.5</ele></trkpt>
            <trkpt lat="51.597224" lon="10.801835"><ele>476.2</ele></trkpt>
            <trkpt lat="51.597272" lon="10.801244"><ele>477.2</ele></trkpt>
            <trkpt lat="51.59734" lon="10.800686"><ele>477.5</ele></trkpt>
            <trkpt lat="51.597469" lon="10.800131"><ele>476.5</ele></trkpt>
            <trkpt lat="51.597615" lon="10.799667"><ele>475.4</ele></trkpt>
            <trkpt lat="51.597706" lon="10.799536"><ele>475.4</ele></trkpt>
            <trkpt lat="51.597817" lon="10.799455"><ele>475.5</ele></trkpt>
            <trkpt lat="51.598014" lon="10.799385"><ele>475.3</ele></trkpt>
            <trkpt lat="51.598115" lon="10.79932"><ele>475.4</ele></trkpt>
            <trkpt lat="51.59831" lon="10.799171"><ele>475.2</ele></trkpt>
            <trkpt lat="51.59839" lon="10.799059"><ele>473</ele></trkpt>
            <trkpt lat="51.599045" lon="10.798091"><ele>479.6</ele></trkpt>
            <trkpt lat="51.599336" lon="10.797618"><ele>479.1</ele></trkpt>
            <trkpt lat="51.59964" lon="10.79693"><ele>482.8</ele></trkpt>
            <trkpt lat="51.599898" lon="10.796186"><ele>483.7</ele></trkpt>
            <trkpt lat="51.600545" lon="10.794949"><ele>481</ele></trkpt>
            <trkpt lat="51.600884" lon="10.794442"><ele>461.3</ele></trkpt>
            <trkpt lat="51.601021" lon="10.7941"><ele>461.5</ele></trkpt>
            <trkpt lat="51.601075" lon="10.793824"><ele>461.7</ele></trkpt>
            <trkpt lat="51.601088" lon="10.793147"><ele>460.4</ele></trkpt>
            <trkpt lat="51.601297" lon="10.792766"><ele>448</ele></trkpt>
            <trkpt lat="51.601351" lon="10.79264"><ele>441.6</ele></trkpt>
            <trkpt lat="51.601356" lon="10.792592"><ele>440.3</ele></trkpt>
            <trkpt lat="51.601375" lon="10.792423"><ele>439</ele></trkpt>
            <trkpt lat="51.601368" lon="10.792314"><ele>433</ele></trkpt>
            <trkpt lat="51.601347" lon="10.792227"><ele>433</ele></trkpt>
            <trkpt lat="51.601272" lon="10.792102"><ele>433</ele></trkpt>
            <trkpt lat="51.601183" lon="10.792019"><ele>426.1</ele></trkpt>
            <trkpt lat="51.6011" lon="10.791982"><ele>426.2</ele></trkpt>
            <trkpt lat="51.600786" lon="10.791947"><ele>425.8</ele></trkpt>
            <trkpt lat="51.600397" lon="10.791738"><ele>423.9</ele></trkpt>
            <trkpt lat="51.600274" lon="10.791727"><ele>423.5</ele></trkpt>
            <trkpt lat="51.600194" lon="10.79176"><ele>423.6</ele></trkpt>
            <trkpt lat="51.599903" lon="10.79197"><ele>422.6</ele></trkpt>
            <trkpt lat="51.599834" lon="10.791979"><ele>421.3</ele></trkpt>
            <trkpt lat="51.599769" lon="10.791955"><ele>420.7</ele></trkpt>
            <trkpt lat="51.599679" lon="10.791874"><ele>419.4</ele></trkpt>
            <trkpt lat="51.599383" lon="10.791499"><ele>416.4</ele></trkpt>
            <trkpt lat="51.599263" lon="10.791443"><ele>415</ele></trkpt>
            <trkpt lat="51.599114" lon="10.791411"><ele>413.2</ele></trkpt>
            <trkpt lat="51.598853" lon="10.791266"><ele>408.9</ele></trkpt>
            <trkpt lat="51.598635" lon="10.791109"><ele>406.4</ele></trkpt>
            <trkpt lat="51.598467" lon="10.790939"><ele>404</ele></trkpt>
            <trkpt lat="51.598366" lon="10.790866"><ele>403.1</ele></trkpt>
            <trkpt lat="51.598079" lon="10.79088"><ele>399.6</ele></trkpt>
            <trkpt lat="51.59783" lon="10.790949"><ele>397.4</ele></trkpt>
            <trkpt lat="51.597549" lon="10.791062"><ele>395.7</ele></trkpt>
            <trkpt lat="51.597367" lon="10.791069"><ele>393.8</ele></trkpt>
            <trkpt lat="51.597175" lon="10.791037"><ele>391.9</ele></trkpt>
            <trkpt lat="51.596806" lon="10.790866"><ele>387.1</ele></trkpt>
            <trkpt lat="51.596644" lon="10.790847"><ele>385.1</ele></trkpt>
            <trkpt lat="51.596174" lon="10.790898"><ele>381.8</ele></trkpt>
            <trkpt lat="51.595759" lon="10.791063"><ele>379.6</ele></trkpt>
            <trkpt lat="51.59567" lon="10.791161"><ele>378.7</ele></trkpt>
            <trkpt lat="51.595601" lon="10.791292"><ele>376.9</ele></trkpt>
            <trkpt lat="51.59538" lon="10.791567"><ele>370</ele></trkpt>
            <trkpt lat="51.594887" lon="10.791923"><ele>362.8</ele></trkpt>
            <trkpt lat="51.594473" lon="10.79233"><ele>360.7</ele></trkpt>
            <trkpt lat="51.594222" lon="10.792674"><ele>360.6</ele></trkpt>
            <trkpt lat="51.59415" lon="10.792834"><ele>359.4</ele></trkpt>
            <trkpt lat="51.594113" lon="10.793102"><ele>358.9</ele></trkpt>
            <trkpt lat="51.594106" lon="10.793457"><ele>357.4</ele></trkpt>
            <trkpt lat="51.594144" lon="10.793825"><ele>356.7</ele></trkpt>
            <trkpt lat="51.594137" lon="10.793937"><ele>356.6</ele></trkpt>
            <trkpt lat="51.594114" lon="10.794026"><ele>356.5</ele></trkpt>
            <trkpt lat="51.594072" lon="10.794127"><ele>356.4</ele></trkpt>
            <trkpt lat="51.594026" lon="10.794186"><ele>356.7</ele></trkpt>
            <trkpt lat="51.593673" lon="10.794531"><ele>356.7</ele></trkpt>
            <trkpt lat="51.593631" lon="10.794549"><ele>360</ele></trkpt>
            <trkpt lat="51.593741" lon="10.794697"><ele>370</ele></trkpt>
            <trkpt lat="51.594006" lon="10.795313"><ele>378.7</ele></trkpt>
            <trkpt lat="51.593997" lon="10.795379"><ele>380.3</ele></trkpt>
            <trkpt lat="51.593958" lon="10.795489"><ele>380.9</ele></trkpt>
            <trkpt lat="51.593945" lon="10.795592"><ele>383.6</ele></trkpt>
            <trkpt lat="51.59395" lon="10.795832"><ele>387</ele></trkpt>
            <trkpt lat="51.594011" lon="10.796151"><ele>399.5</ele></trkpt>
            <trkpt lat="51.594108" lon="10.796416"><ele>399.8</ele></trkpt>
            <trkpt lat="51.594175" lon="10.796533"><ele>400.1</ele></trkpt>
            <trkpt lat="51.594218" lon="10.796661"><ele>402.3</ele></trkpt>
            <trkpt lat="51.594243" lon="10.796804"><ele>403.5</ele></trkpt>
            <trkpt lat="51.594246" lon="10.797143"><ele>405.4</ele></trkpt>
            <trkpt lat="51.594307" lon="10.797472"><ele>408.4</ele></trkpt>
            <trkpt lat="51.59435" lon="10.797618"><ele>410.4</ele></trkpt>
            <trkpt lat="51.594356" lon="10.797759"><ele>411</ele></trkpt>
            <trkpt lat="51.59432" lon="10.798035"><ele>411.7</ele></trkpt>
            <trkpt lat="51.594297" lon="10.798088"><ele>411.1</ele></trkpt>
            <trkpt lat="51.59425" lon="10.798069"><ele>410.3</ele></trkpt>
            <trkpt lat="51.594186" lon="10.797995"><ele>409.7</ele></trkpt>
            <trkpt lat="51.593992" lon="10.797649"><ele>407.1</ele></trkpt>
            <trkpt lat="51.593922" lon="10.797488"><ele>405.6</ele></trkpt>
            <trkpt lat="51.593751" lon="10.797227"><ele>403.3</ele></trkpt>
            <trkpt lat="51.593453" lon="10.796922"><ele>400.2</ele></trkpt>
            <trkpt lat="51.593364" lon="10.796918"><ele>400.2</ele></trkpt>
            <trkpt lat="51.593288" lon="10.79696"><ele>400.6</ele></trkpt>
            <trkpt lat="51.593031" lon="10.797332"><ele>403.2</ele></trkpt>
            <trkpt lat="51.592821" lon="10.79758"><ele>402.6</ele></trkpt>
            <trkpt lat="51.592763" lon="10.797618"><ele>403.3</ele></trkpt>
            <trkpt lat="51.5927" lon="10.797623"><ele>403.9</ele></trkpt>
            <trkpt lat="51.592659" lon="10.797586"><ele>404.6</ele></trkpt>
            <trkpt lat="51.592572" lon="10.797375"><ele>403.8</ele></trkpt>
            <trkpt lat="51.592343" lon="10.796656"><ele>397.9</ele></trkpt>
            <trkpt lat="51.592251" lon="10.796616"><ele>401</ele></trkpt>
            <trkpt lat="51.592187" lon="10.796634"><ele>401.6</ele></trkpt>
            <trkpt lat="51.592151" lon="10.79668"><ele>404.2</ele></trkpt>
            <trkpt lat="51.592085" lon="10.796843"><ele>417.7</ele></trkpt>
            <trkpt lat="51.591851" lon="10.797876"><ele>420.6</ele></trkpt>
            <trkpt lat="51.591775" lon="10.798098"><ele>421.1</ele></trkpt>
            <trkpt lat="51.591589" lon="10.798503"><ele>429.5</ele></trkpt>
            <trkpt lat="51.591518" lon="10.798568"><ele>431.7</ele></trkpt>
            <trkpt lat="51.591433" lon="10.798582"><ele>432</ele></trkpt>
            <trkpt lat="51.591363" lon="10.798534"><ele>431.4</ele></trkpt>
            <trkpt lat="51.591311" lon="10.798378"><ele>430.9</ele></trkpt>
            <trkpt lat="51.591273" lon="10.79796"><ele>424.8</ele></trkpt>
            <trkpt lat="51.591173" lon="10.797384"><ele>428.6</ele></trkpt>
            <trkpt lat="51.591126" lon="10.797219"><ele>431.5</ele></trkpt>
            <trkpt lat="51.591065" lon="10.796783"><ele>433.1</ele></trkpt>
            <trkpt lat="51.590933" lon="10.796431"><ele>443.6</ele></trkpt>
            <trkpt lat="51.590809" lon="10.795935"><ele>445.3</ele></trkpt>
            <trkpt lat="51.590772" lon="10.795671"><ele>445.2</ele></trkpt>
            <trkpt lat="51.590785" lon="10.795479"><ele>443.8</ele></trkpt>
            <trkpt lat="51.590779" lon="10.795249"><ele>441.9</ele></trkpt>
            <trkpt lat="51.590798" lon="10.795053"><ele>439.4</ele></trkpt>
            <trkpt lat="51.590941" lon="10.794524"><ele>437.3</ele></trkpt>
            <trkpt lat="51.590944" lon="10.794404"><ele>438.1</ele></trkpt>
            <trkpt lat="51.590872" lon="10.794261"><ele>427</ele></trkpt>
            <trkpt lat="51.59063" lon="10.794009"><ele>458</ele></trkpt>
            <trkpt lat="51.590433" lon="10.793698"><ele>458.8</ele></trkpt>
            <trkpt lat="51.590276" lon="10.793"><ele>457.9</ele></trkpt>
            <trkpt lat="51.590211" lon="10.792776"><ele>457.4</ele></trkpt>
            <trkpt lat="51.590126" lon="10.792529"><ele>457.5</ele></trkpt>
            <trkpt lat="51.59002" lon="10.792293"><ele>457.9</ele></trkpt>
            <trkpt lat="51.589925" lon="10.792175"><ele>458.7</ele></trkpt>
            <trkpt lat="51.589713" lon="10.792051"><ele>457.9</ele></trkpt>
            <trkpt lat="51.589263" lon="10.791928"><ele>456.2</ele></trkpt>
            <trkpt lat="51.588942" lon="10.791892"><ele>459.7</ele></trkpt>
            <trkpt lat="51.588883" lon="10.791932"><ele>460.7</ele></trkpt>
            <trkpt lat="51.588836" lon="10.79202"><ele>461.5</ele></trkpt>
            <trkpt lat="51.588754" lon="10.792318"><ele>464</ele></trkpt>
            <trkpt lat="51.588682" lon="10.792737"><ele>482</ele></trkpt>
            <trkpt lat="51.588669" lon="10.793066"><ele>486</ele></trkpt>
            <trkpt lat="51.5887" lon="10.793487"><ele>488.6</ele></trkpt>
            <trkpt lat="51.588909" lon="10.794623"><ele>491.6</ele></trkpt>
            <trkpt lat="51.589067" lon="10.795363"><ele>497.5</ele></trkpt>
            <trkpt lat="51.589131" lon="10.795558"><ele>502</ele></trkpt>
            <trkpt lat="51.589104" lon="10.795775"><ele>501.5</ele></trkpt>
            <trkpt lat="51.589041" lon="10.795905"><ele>502</ele></trkpt>
            <trkpt lat="51.588692" lon="10.796144"><ele>502.9</ele></trkpt>
            <trkpt lat="51.588492" lon="10.79635"><ele>503.3</ele></trkpt>
            <trkpt lat="51.588256" lon="10.796736"><ele>501</ele></trkpt>
            <trkpt lat="51.588179" lon="10.796818"><ele>496</ele></trkpt>
            <trkpt lat="51.588309" lon="10.795842"><ele>478.2</ele></trkpt>
            <trkpt lat="51.588318" lon="10.79567"><ele>477.6</ele></trkpt>
            <trkpt lat="51.588264" lon="10.795382"><ele>478.1</ele></trkpt>
            <trkpt lat="51.587971" lon="10.794251"><ele>477.3</ele></trkpt>
            <trkpt lat="51.587897" lon="10.793867"><ele>477.2</ele></trkpt>
            <trkpt lat="51.587862" lon="10.793383"><ele>477.3</ele></trkpt>
            <trkpt lat="51.587826" lon="10.793152"><ele>477.4</ele></trkpt>
            <trkpt lat="51.58773" lon="10.792694"><ele>477</ele></trkpt>
            <trkpt lat="51.587704" lon="10.792573"><ele>477</ele></trkpt>
            <trkpt lat="51.587575" lon="10.792268"><ele>461.6</ele></trkpt>
            <trkpt lat="51.58738" lon="10.791962"><ele>445</ele></trkpt>
            <trkpt lat="51.587349" lon="10.791745"><ele>445</ele></trkpt>
            <trkpt lat="51.587342" lon="10.79169"><ele>445</ele></trkpt>
            <trkpt lat="51.587349" lon="10.791745"><ele>445</ele></trkpt>
            <trkpt lat="51.58738" lon="10.791962"><ele>445</ele></trkpt>
            <trkpt lat="51.587575" lon="10.792268"><ele>461.6</ele></trkpt>
            <trkpt lat="51.587704" lon="10.792573"><ele>477</ele></trkpt>
            <trkpt lat="51.58773" lon="10.792694"><ele>477</ele></trkpt>
            <trkpt lat="51.587826" lon="10.793152"><ele>477.4</ele></trkpt>
            <trkpt lat="51.587862" lon="10.793383"><ele>477.3</ele></trkpt>
            <trkpt lat="51.587897" lon="10.793867"><ele>477.2</ele></trkpt>
            <trkpt lat="51.587971" lon="10.794251"><ele>477.3</ele></trkpt>
            <trkpt lat="51.588264" lon="10.795382"><ele>478.1</ele></trkpt>
            <trkpt lat="51.588318" lon="10.79567"><ele>477.6</ele></trkpt>
            <trkpt lat="51.588309" lon="10.795842"><ele>478.2</ele></trkpt>
            <trkpt lat="51.588179" lon="10.796818"><ele>496</ele></trkpt>
            <trkpt lat="51.588163" lon="10.79693"><ele>496</ele></trkpt>
            <trkpt lat="51.58807" lon="10.79735"><ele>504.7</ele></trkpt>
            <trkpt lat="51.587799" lon="10.797976"><ele>506.2</ele></trkpt>
            <trkpt lat="51.587725" lon="10.7982"><ele>506.7</ele></trkpt>
            <trkpt lat="51.587619" lon="10.798667"><ele>508.7</ele></trkpt>
            <trkpt lat="51.587393" lon="10.799399"><ele>511.2</ele></trkpt>
            <trkpt lat="51.587283" lon="10.800029"><ele>511.4</ele></trkpt>
            <trkpt lat="51.587203" lon="10.800755"><ele>510</ele></trkpt>
            <trkpt lat="51.58711" lon="10.801809"><ele>516</ele></trkpt>
            <trkpt lat="51.587077" lon="10.802018"><ele>516</ele></trkpt>
            <trkpt lat="51.587007" lon="10.802056"><ele>514.8</ele></trkpt>
            <trkpt lat="51.586939" lon="10.80213"><ele>514.6</ele></trkpt>
            <trkpt lat="51.586794" lon="10.802352"><ele>514.2</ele></trkpt>
            <trkpt lat="51.58668" lon="10.802473"><ele>514</ele></trkpt>
            <trkpt lat="51.58635" lon="10.802743"><ele>511</ele></trkpt>
            <trkpt lat="51.586062" lon="10.803216"><ele>507.7</ele></trkpt>
            <trkpt lat="51.585979" lon="10.803457"><ele>506.4</ele></trkpt>
            <trkpt lat="51.58596" lon="10.803611"><ele>505.1</ele></trkpt>
            <trkpt lat="51.586031" lon="10.804289"><ele>494</ele></trkpt>
            <trkpt lat="51.586049" lon="10.805167"><ele>487.2</ele></trkpt>
            <trkpt lat="51.586045" lon="10.805453"><ele>483.8</ele></trkpt>
            <trkpt lat="51.585969" lon="10.806071"><ele>474.5</ele></trkpt>
            <trkpt lat="51.585925" lon="10.806163"><ele>470.9</ele></trkpt>
            <trkpt lat="51.585858" lon="10.806228"><ele>468</ele></trkpt>
            <trkpt lat="51.585761" lon="10.806245"><ele>464.4</ele></trkpt>
            <trkpt lat="51.585577" lon="10.806228"><ele>463</ele></trkpt>
            <trkpt lat="51.585484" lon="10.806303"><ele>461.9</ele></trkpt>
            <trkpt lat="51.585383" lon="10.806459"><ele>458.8</ele></trkpt>
            <trkpt lat="51.585056" lon="10.80718"><ele>448.9</ele></trkpt>
            <trkpt lat="51.584986" lon="10.807406"><ele>445.1</ele></trkpt>
            <trkpt lat="51.584954" lon="10.807615"><ele>444.9</ele></trkpt>
            <trkpt lat="51.58489" lon="10.808289"><ele>439</ele></trkpt>
            <trkpt lat="51.584884" lon="10.808508"><ele>439</ele></trkpt>
            <trkpt lat="51.584909" lon="10.808672"><ele>440.7</ele></trkpt>
            <trkpt lat="51.584982" lon="10.808864"><ele>420</ele></trkpt>
            <trkpt lat="51.585014" lon="10.808983"><ele>427.8</ele></trkpt>
            <trkpt lat="51.584989" lon="10.809129"><ele>422.1</ele></trkpt>
            <trkpt lat="51.584922" lon="10.80928"><ele>422.4</ele></trkpt>
            <trkpt lat="51.584831" lon="10.809433"><ele>422.7</ele></trkpt>
            <trkpt lat="51.584762" lon="10.809516"><ele>420</ele></trkpt>
            <trkpt lat="51.584821" lon="10.809717"><ele>420</ele></trkpt>
            <trkpt lat="51.585054" lon="10.810037"><ele>440.2</ele></trkpt>
            <trkpt lat="51.585274" lon="10.810525"><ele>436.9</ele></trkpt>
            <trkpt lat="51.585406" lon="10.810867"><ele>436.2</ele></trkpt>
            <trkpt lat="51.585573" lon="10.811861"><ele>438</ele></trkpt>
            <trkpt lat="51.585621" lon="10.812333"><ele>438.5</ele></trkpt>
            <trkpt lat="51.585572" lon="10.812774"><ele>439.8</ele></trkpt>
            <trkpt lat="51.585523" lon="10.813032"><ele>439.9</ele></trkpt>
            <trkpt lat="51.585437" lon="10.81329"><ele>443</ele></trkpt>
            <trkpt lat="51.585376" lon="10.812725"><ele>435.6</ele></trkpt>
            <trkpt lat="51.585207" lon="10.812041"><ele>434.7</ele></trkpt>
            <trkpt lat="51.585066" lon="10.811701"><ele>434.4</ele></trkpt>
            <trkpt lat="51.584724" lon="10.811175"><ele>431</ele></trkpt>
            <trkpt lat="51.584585" lon="10.811002"><ele>423</ele></trkpt>
            <trkpt lat="51.584633" lon="10.811211"><ele>424.4</ele></trkpt>
            <trkpt lat="51.584639" lon="10.811357"><ele>424.4</ele></trkpt>
            <trkpt lat="51.584617" lon="10.811456"><ele>424.3</ele></trkpt>
            <trkpt lat="51.584382" lon="10.811722"><ele>424.9</ele></trkpt>
            <trkpt lat="51.584256" lon="10.811834"><ele>425.2</ele></trkpt>
            <trkpt lat="51.583962" lon="10.811985"><ele>425.3</ele></trkpt>
            <trkpt lat="51.583587" lon="10.812121"><ele>425.4</ele></trkpt>
            <trkpt lat="51.583294" lon="10.812292"><ele>426.2</ele></trkpt>
            <trkpt lat="51.583215" lon="10.812286"><ele>426.4</ele></trkpt>
            <trkpt lat="51.583127" lon="10.812238"><ele>426.2</ele></trkpt>
            <trkpt lat="51.582852" lon="10.812037"><ele>425.7</ele></trkpt>
            <trkpt lat="51.582729" lon="10.811978"><ele>425</ele></trkpt>
            <trkpt lat="51.582282" lon="10.811834"><ele>412.5</ele></trkpt>
            <trkpt lat="51.581962" lon="10.811852"><ele>412.1</ele></trkpt>
            <trkpt lat="51.581548" lon="10.812084"><ele>409.8</ele></trkpt>
            <trkpt lat="51.581397" lon="10.812197"><ele>408.4</ele></trkpt>
            <trkpt lat="51.581308" lon="10.812342"><ele>406.1</ele></trkpt>
            <trkpt lat="51.581191" lon="10.812436"><ele>404</ele></trkpt>
            <trkpt lat="51.581061" lon="10.812506"><ele>402.9</ele></trkpt>
            <trkpt lat="51.580833" lon="10.812503"><ele>400.5</ele></trkpt>
            <trkpt lat="51.580635" lon="10.812576"><ele>398.9</ele></trkpt>
            <trkpt lat="51.580439" lon="10.812711"><ele>397.1</ele></trkpt>
            <trkpt lat="51.580279" lon="10.812865"><ele>396.6</ele></trkpt>
            <trkpt lat="51.579846" lon="10.8132"><ele>394</ele></trkpt>
            <trkpt lat="51.579708" lon="10.813358"><ele>393.3</ele></trkpt>
            <trkpt lat="51.579551" lon="10.813688"><ele>393</ele></trkpt>
            <trkpt lat="51.579482" lon="10.813922"><ele>393</ele></trkpt>
            <trkpt lat="51.579427" lon="10.814017"><ele>393</ele></trkpt>
            <trkpt lat="51.579418" lon="10.814077"><ele>393</ele></trkpt>
            <trkpt lat="51.579445" lon="10.814472"><ele>394</ele></trkpt>
            <trkpt lat="51.579487" lon="10.814847"><ele>386.7</ele></trkpt>
            <trkpt lat="51.579439" lon="10.814933"><ele>386.4</ele></trkpt>
            <trkpt lat="51.579274" lon="10.815036"><ele>385.2</ele></trkpt>
            <trkpt lat="51.579215" lon="10.815139"><ele>384.8</ele></trkpt>
            <trkpt lat="51.579167" lon="10.815534"><ele>380.9</ele></trkpt>
            <trkpt lat="51.57913" lon="10.815628"><ele>380.3</ele></trkpt>
            <trkpt lat="51.579028" lon="10.815628"><ele>380.6</ele></trkpt>
            <trkpt lat="51.578826" lon="10.815431"><ele>380.5</ele></trkpt>
            <trkpt lat="51.578746" lon="10.815416"><ele>380.8</ele></trkpt>
            <trkpt lat="51.578652" lon="10.815454"><ele>380.8</ele></trkpt>
            <trkpt lat="51.578564" lon="10.815528"><ele>381.1</ele></trkpt>
            <trkpt lat="51.578488" lon="10.81566"><ele>380.9</ele></trkpt>
            <trkpt lat="51.5784" lon="10.816072"><ele>378.8</ele></trkpt>
            <trkpt lat="51.578375" lon="10.81652"><ele>377.6</ele></trkpt>
            <trkpt lat="51.578332" lon="10.816781"><ele>376.4</ele></trkpt>
            <trkpt lat="51.578316" lon="10.817218"><ele>376.5</ele></trkpt>
            <trkpt lat="51.578341" lon="10.817459"><ele>376.2</ele></trkpt>
            <trkpt lat="51.578341" lon="10.817647"><ele>375.5</ele></trkpt>
            <trkpt lat="51.578303" lon="10.817954"><ele>374.2</ele></trkpt>
            <trkpt lat="51.578234" lon="10.818015"><ele>374.2</ele></trkpt>
            <trkpt lat="51.578111" lon="10.818032"><ele>373.7</ele></trkpt>
            <trkpt lat="51.577827" lon="10.817868"><ele>373.4</ele></trkpt>
            <trkpt lat="51.577724" lon="10.817846"><ele>373.3</ele></trkpt>
            <trkpt lat="51.57761" lon="10.817888"><ele>373.1</ele></trkpt>
            <trkpt lat="51.577513" lon="10.817963"><ele>373.1</ele></trkpt>
            <trkpt lat="51.577215" lon="10.818349"><ele>372.5</ele></trkpt>
            <trkpt lat="51.577092" lon="10.818538"><ele>371.6</ele></trkpt>
            <trkpt lat="51.576932" lon="10.818804"><ele>370.7</ele></trkpt>
            <trkpt lat="51.576729" lon="10.81943"><ele>369</ele></trkpt>
            <trkpt lat="51.576607" lon="10.82022"><ele>366.8</ele></trkpt>
            <trkpt lat="51.576543" lon="10.820469"><ele>366.8</ele></trkpt>
            <trkpt lat="51.576447" lon="10.820632"><ele>366.9</ele></trkpt>
            <trkpt lat="51.576321" lon="10.821058"><ele>365</ele></trkpt>
            <trkpt lat="51.576281" lon="10.82119"><ele>362.4</ele></trkpt>
            <trkpt lat="51.575688" lon="10.822114"><ele>360.3</ele></trkpt>
            <trkpt lat="51.575416" lon="10.822578"><ele>356</ele></trkpt>
            <trkpt lat="51.575191" lon="10.822827"><ele>352.5</ele></trkpt>
            <trkpt lat="51.574954" lon="10.823283"><ele>342</ele></trkpt>
            <trkpt lat="51.574802" lon="10.823655"><ele>344</ele></trkpt>
            <trkpt lat="51.574761" lon="10.82372"><ele>345</ele></trkpt>
            <trkpt lat="51.574576" lon="10.823699"><ele>345.1</ele></trkpt>
            <trkpt lat="51.574448" lon="10.82372"><ele>345.1</ele></trkpt>
            <trkpt lat="51.574293" lon="10.823803"><ele>345.1</ele></trkpt>
            <trkpt lat="51.574085" lon="10.823986"><ele>345.2</ele></trkpt>
            <trkpt lat="51.573988" lon="10.82416"><ele>345.3</ele></trkpt>
            <trkpt lat="51.57389" lon="10.824402"><ele>345.4</ele></trkpt>
            <trkpt lat="51.573819" lon="10.824681"><ele>346</ele></trkpt>
            <trkpt lat="51.573415" lon="10.8249"><ele>345.5</ele></trkpt>
            <trkpt lat="51.573279" lon="10.824938"><ele>345.4</ele></trkpt>
            <trkpt lat="51.573055" lon="10.824887"><ele>345.4</ele></trkpt>
            <trkpt lat="51.572799" lon="10.824912"><ele>345.3</ele></trkpt>
            <trkpt lat="51.572533" lon="10.825032"><ele>343</ele></trkpt>
            <trkpt lat="51.572328" lon="10.825152"><ele>339</ele></trkpt>
            <trkpt lat="51.572271" lon="10.825187"><ele>330.9</ele></trkpt>
            <trkpt lat="51.572089" lon="10.825221"><ele>331.8</ele></trkpt>
            <trkpt lat="51.571865" lon="10.825204"><ele>330.6</ele></trkpt>
            <trkpt lat="51.571614" lon="10.825084"><ele>327.3</ele></trkpt>
            <trkpt lat="51.571418" lon="10.82479"><ele>326.9</ele></trkpt>
            <trkpt lat="51.571292" lon="10.824411"><ele>326.6</ele></trkpt>
            <trkpt lat="51.571225" lon="10.824148"><ele>326.1</ele></trkpt>
            <trkpt lat="51.571052" lon="10.823811"><ele>321.8</ele></trkpt>
            <trkpt lat="51.570733" lon="10.823678"><ele>307</ele></trkpt>
            <trkpt lat="51.57059" lon="10.823735"><ele>302.8</ele></trkpt>
            <trkpt lat="51.570008" lon="10.823779"><ele>300.9</ele></trkpt>
            <trkpt lat="51.56996" lon="10.823824"><ele>300.5</ele></trkpt>
            <trkpt lat="51.56993" lon="10.823907"><ele>300.5</ele></trkpt>
            <trkpt lat="51.569871" lon="10.824466"><ele>299.9</ele></trkpt>
            <trkpt lat="51.569885" lon="10.825121"><ele>299.4</ele></trkpt>
            <trkpt lat="51.569848" lon="10.826263"><ele>297.7</ele></trkpt>
            <trkpt lat="51.56983" lon="10.826434"><ele>297.6</ele></trkpt>
            <trkpt lat="51.569787" lon="10.826597"><ele>297.6</ele></trkpt>
            <trkpt lat="51.569621" lon="10.826866"><ele>294</ele></trkpt>
            <trkpt lat="51.569543" lon="10.826999"><ele>294</ele></trkpt>
            <trkpt lat="51.569619" lon="10.827299"><ele>294</ele></trkpt>
            <trkpt lat="51.56965" lon="10.827399"><ele>294</ele></trkpt>
            <trkpt lat="51.569627" lon="10.827642"><ele>292.4</ele></trkpt>
            <trkpt lat="51.569595" lon="10.82774"><ele>292.5</ele></trkpt>
            <trkpt lat="51.569459" lon="10.827936"><ele>292</ele></trkpt>
            <trkpt lat="51.569246" lon="10.828233"><ele>292</ele></trkpt>
            <trkpt lat="51.56916" lon="10.828502"><ele>288</ele></trkpt>
            <trkpt lat="51.56914" lon="10.828563"><ele>288</ele></trkpt>
            <trkpt lat="51.568897" lon="10.829068"><ele>288</ele></trkpt>
            <trkpt lat="51.56882" lon="10.829132"><ele>289.6</ele></trkpt>
            <trkpt lat="51.568708" lon="10.829305"><ele>289.5</ele></trkpt>
            <trkpt lat="51.5685" lon="10.829497"><ele>289.5</ele></trkpt>
            <trkpt lat="51.568339" lon="10.829618"><ele>289.5</ele></trkpt>
            <trkpt lat="51.568265" lon="10.829649"><ele>289.8</ele></trkpt>
            <trkpt lat="51.568137" lon="10.829622"><ele>289.9</ele></trkpt>
            <trkpt lat="51.567884" lon="10.829436"><ele>290</ele></trkpt>
            <trkpt lat="51.567809" lon="10.829431"><ele>290.3</ele></trkpt>
            <trkpt lat="51.567736" lon="10.829498"><ele>290.3</ele></trkpt>
            <trkpt lat="51.567424" lon="10.830292"><ele>291.7</ele></trkpt>
            <trkpt lat="51.567323" lon="10.830644"><ele>292.4</ele></trkpt>
            <trkpt lat="51.567104" lon="10.831236"><ele>293.6</ele></trkpt>
            <trkpt lat="51.56696" lon="10.831751"><ele>294.1</ele></trkpt>
            <trkpt lat="51.566539" lon="10.832935"><ele>293.8</ele></trkpt>
            <trkpt lat="51.566434" lon="10.833326"><ele>289</ele></trkpt>
            <trkpt lat="51.566315" lon="10.8334"><ele>285.8</ele></trkpt>
            <trkpt lat="51.566039" lon="10.833446"><ele>285.6</ele></trkpt>
            <trkpt lat="51.565538" lon="10.833679"><ele>283</ele></trkpt>
            <trkpt lat="51.565238" lon="10.833702"><ele>283</ele></trkpt>
            <trkpt lat="51.565168" lon="10.833708"><ele>281.2</ele></trkpt>
            <trkpt lat="51.565035" lon="10.833915"><ele>280.9</ele></trkpt>
            <trkpt lat="51.564884" lon="10.834254"><ele>280.6</ele></trkpt>
            <trkpt lat="51.564838" lon="10.834306"><ele>279</ele></trkpt>
            <trkpt lat="51.564688" lon="10.834538"><ele>279</ele></trkpt>
            <trkpt lat="51.564251" lon="10.834602"><ele>279</ele></trkpt>
            <trkpt lat="51.563943" lon="10.834633"><ele>272</ele></trkpt>
            <trkpt lat="51.563684" lon="10.834659"><ele>272</ele></trkpt>
            <trkpt lat="51.563371" lon="10.834706"><ele>272</ele></trkpt>
            <trkpt lat="51.563241" lon="10.834727"><ele>268</ele></trkpt>
            <trkpt lat="51.563097" lon="10.83476"><ele>268</ele></trkpt>
            <trkpt lat="51.561464" lon="10.835061"><ele>261</ele></trkpt>
            <trkpt lat="51.560679" lon="10.835201"><ele>258</ele></trkpt>
            <trkpt lat="51.560519" lon="10.835215"><ele>258</ele></trkpt>
            <trkpt lat="51.560528" lon="10.834562"><ele>257</ele></trkpt>
            <trkpt lat="51.559772" lon="10.834397"><ele>255</ele></trkpt>
            <trkpt lat="51.55972" lon="10.834376"><ele>255</ele></trkpt>
            <trkpt lat="51.55971" lon="10.834372"><ele>255</ele></trkpt>
            <trkpt lat="51.559555" lon="10.8343"><ele>255</ele></trkpt>
            <trkpt lat="51.559524" lon="10.833795"><ele>254</ele></trkpt>
            <trkpt lat="51.559285" lon="10.833668"><ele>254</ele></trkpt>
            <trkpt lat="51.55931" lon="10.833578"><ele>254</ele></trkpt>
            <trkpt lat="51.559307" lon="10.83346"><ele>254</ele></trkpt>
            <trkpt lat="51.559303" lon="10.833303"><ele>253</ele></trkpt>
            <trkpt lat="51.559296" lon="10.833064"><ele>253</ele></trkpt>
            <trkpt lat="51.559243" lon="10.833067"><ele>253</ele></trkpt>
            <trkpt lat="51.558709" lon="10.833111"><ele>252</ele></trkpt>
            <trkpt lat="51.558614" lon="10.83312"><ele>252</ele></trkpt>
            <trkpt lat="51.558438" lon="10.833102"><ele>252</ele></trkpt>
            <trkpt lat="51.558289" lon="10.833059"><ele>254</ele></trkpt>
            <trkpt lat="51.557713" lon="10.832907"><ele>254</ele></trkpt>
            <trkpt lat="51.557033" lon="10.832736"><ele>269.4</ele></trkpt>
            <trkpt lat="51.556956" lon="10.832691"><ele>268.7</ele></trkpt>
            <trkpt lat="51.556896" lon="10.832617"><ele>267.8</ele></trkpt>
            <trkpt lat="51.556849" lon="10.832483"><ele>274</ele></trkpt>
            <trkpt lat="51.556714" lon="10.831799"><ele>276.3</ele></trkpt>
            <trkpt lat="51.556585" lon="10.830873"><ele>277.4</ele></trkpt>
            <trkpt lat="51.556514" lon="10.830579"><ele>277.7</ele></trkpt>
            <trkpt lat="51.556403" lon="10.830279"><ele>280</ele></trkpt>
            <trkpt lat="51.556358" lon="10.829984"><ele>278.4</ele></trkpt>
            <trkpt lat="51.556311" lon="10.829172"><ele>278</ele></trkpt>
            <trkpt lat="51.556381" lon="10.828137"><ele>276.7</ele></trkpt>
            <trkpt lat="51.556358" lon="10.827353"><ele>276.4</ele></trkpt>
            <trkpt lat="51.55638" lon="10.827082"><ele>276.5</ele></trkpt>
            <trkpt lat="51.556497" lon="10.826262"><ele>275.9</ele></trkpt>
            <trkpt lat="51.556484" lon="10.82571"><ele>273</ele></trkpt>
            <trkpt lat="51.55656" lon="10.825605"><ele>268.7</ele></trkpt>
            <trkpt lat="51.556564" lon="10.825457"><ele>267.3</ele></trkpt>
        </trkseg>
    </trk>
</gpx>
