<?xml version="1.0" encoding="UTF-8"?>
<gpx version="1.1" creator="HWN Route Compare (OpenRouteService)" xmlns="http://www.topografix.com/GPX/1/1">
    <metadata>
        <name>OpenRouteService – Tour G2a</name>
    </metadata>
    <trk>
        <name>OpenRouteService – Tour G2a</name>
        <trkseg>
            <trkpt lat="51.556564" lon="10.825457"><ele>267.3</ele></trkpt>
            <trkpt lat="51.55656" lon="10.825605"><ele>268.7</ele></trkpt>
            <trkpt lat="51.556484" lon="10.82571"><ele>273</ele></trkpt>
            <trkpt lat="51.556497" lon="10.826262"><ele>275.9</ele></trkpt>
            <trkpt lat="51.55638" lon="10.827082"><ele>276.5</ele></trkpt>
            <trkpt lat="51.556358" lon="10.827353"><ele>276.4</ele></trkpt>
            <trkpt lat="51.556381" lon="10.828137"><ele>276.7</ele></trkpt>
            <trkpt lat="51.556311" lon="10.829172"><ele>278</ele></trkpt>
            <trkpt lat="51.556358" lon="10.829984"><ele>278.4</ele></trkpt>
            <trkpt lat="51.556403" lon="10.830279"><ele>280</ele></trkpt>
            <trkpt lat="51.556514" lon="10.830579"><ele>277.7</ele></trkpt>
            <trkpt lat="51.556585" lon="10.830873"><ele>277.4</ele></trkpt>
            <trkpt lat="51.556714" lon="10.831799"><ele>276.3</ele></trkpt>
            <trkpt lat="51.556849" lon="10.832483"><ele>274</ele></trkpt>
            <trkpt lat="51.556896" lon="10.832617"><ele>267.8</ele></trkpt>
            <trkpt lat="51.556956" lon="10.832691"><ele>268.7</ele></trkpt>
            <trkpt lat="51.557033" lon="10.832736"><ele>269.4</ele></trkpt>
            <trkpt lat="51.557713" lon="10.832907"><ele>254</ele></trkpt>
            <trkpt lat="51.558289" lon="10.833059"><ele>254</ele></trkpt>
            <trkpt lat="51.558438" lon="10.833102"><ele>252</ele></trkpt>
            <trkpt lat="51.558614" lon="10.83312"><ele>252</ele></trkpt>
            <trkpt lat="51.558709" lon="10.833111"><ele>252</ele></trkpt>
            <trkpt lat="51.559243" lon="10.833067"><ele>253</ele></trkpt>
            <trkpt lat="51.559296" lon="10.833064"><ele>253</ele></trkpt>
            <trkpt lat="51.559303" lon="10.833303"><ele>253</ele></trkpt>
            <trkpt lat="51.559307" lon="10.83346"><ele>254</ele></trkpt>
            <trkpt lat="51.55931" lon="10.833578"><ele>254</ele></trkpt>
            <trkpt lat="51.559285" lon="10.833668"><ele>254</ele></trkpt>
            <trkpt lat="51.559524" lon="10.833795"><ele>254</ele></trkpt>
            <trkpt lat="51.559555" lon="10.8343"><ele>255</ele></trkpt>
            <trkpt lat="51.55971" lon="10.834372"><ele>255</ele></trkpt>
            <trkpt lat="51.55972" lon="10.834376"><ele>255</ele></trkpt>
            <trkpt lat="51.559772" lon="10.834397"><ele>255</ele></trkpt>
            <trkpt lat="51.560528" lon="10.834562"><ele>257</ele></trkpt>
            <trkpt lat="51.560519" lon="10.835215"><ele>258</ele></trkpt>
            <trkpt lat="51.560679" lon="10.835201"><ele>258</ele></trkpt>
            <trkpt lat="51.561464" lon="10.835061"><ele>261</ele></trkpt>
            <trkpt lat="51.563097" lon="10.83476"><ele>268</ele></trkpt>
            <trkpt lat="51.563241" lon="10.834727"><ele>268</ele></trkpt>
            <trkpt lat="51.563371" lon="10.834706"><ele>272</ele></trkpt>
            <trkpt lat="51.563684" lon="10.834659"><ele>272</ele></trkpt>
            <trkpt lat="51.563943" lon="10.834633"><ele>272</ele></trkpt>
            <trkpt lat="51.564251" lon="10.834602"><ele>279</ele></trkpt>
            <trkpt lat="51.564688" lon="10.834538"><ele>279</ele></trkpt>
            <trkpt lat="51.565153" lon="10.834552"><ele>283</ele></trkpt>
            <trkpt lat="51.565294" lon="10.835095"><ele>282.3</ele></trkpt>
            <trkpt lat="51.565358" lon="10.835164"><ele>282.1</ele></trkpt>
            <trkpt lat="51.565932" lon="10.835525"><ele>281</ele></trkpt>
            <trkpt lat="51.566081" lon="10.835625"><ele>281</ele></trkpt>
            <trkpt lat="51.566332" lon="10.835931"><ele>299</ele></trkpt>
            <trkpt lat="51.566505" lon="10.836142"><ele>299</ele></trkpt>
            <trkpt lat="51.566572" lon="10.836246"><ele>298.3</ele></trkpt>
            <trkpt lat="51.566955" lon="10.836653"><ele>297.6</ele></trkpt>
            <trkpt lat="51.567542" lon="10.837212"><ele>299</ele></trkpt>
            <trkpt lat="51.567982" lon="10.837477"><ele>306</ele></trkpt>
            <trkpt lat="51.568323" lon="10.837637"><ele>324.3</ele></trkpt>
            <trkpt lat="51.56845" lon="10.837764"><ele>326.8</ele></trkpt>
            <trkpt lat="51.568596" lon="10.838089"><ele>339</ele></trkpt>
            <trkpt lat="51.568698" lon="10.838359"><ele>347.6</ele></trkpt>
            <trkpt lat="51.568792" lon="10.838534"><ele>348.4</ele></trkpt>
            <trkpt lat="51.568883" lon="10.838654"><ele>349.1</ele></trkpt>
            <trkpt lat="51.568941" lon="10.838811"><ele>349.7</ele></trkpt>
            <trkpt lat="51.569025" lon="10.838927"><ele>354</ele></trkpt>
            <trkpt lat="51.569075" lon="10.839132"><ele>362</ele></trkpt>
            <trkpt lat="51.569136" lon="10.839299"><ele>363</ele></trkpt>
            <trkpt lat="51.569371" lon="10.839732"><ele>374</ele></trkpt>
            <trkpt lat="51.569394" lon="10.840123"><ele>379</ele></trkpt>
            <trkpt lat="51.569381" lon="10.84048"><ele>382</ele></trkpt>
            <trkpt lat="51.56941" lon="10.840651"><ele>382</ele></trkpt>
            <trkpt lat="51.569451" lon="10.840712"><ele>382</ele></trkpt>
            <trkpt lat="51.569484" lon="10.840707"><ele>382</ele></trkpt>
            <trkpt lat="51.569519" lon="10.840667"><ele>382</ele></trkpt>
            <trkpt lat="51.569541" lon="10.840318"><ele>379.5</ele></trkpt>
            <trkpt lat="51.569646" lon="10.839594"><ele>374</ele></trkpt>
            <trkpt lat="51.569699" lon="10.838794"><ele>369</ele></trkpt>
            <trkpt lat="51.569753" lon="10.838438"><ele>367</ele></trkpt>
            <trkpt lat="51.569733" lon="10.838215"><ele>359.5</ele></trkpt>
            <trkpt lat="51.569782" lon="10.837605"><ele>359.6</ele></trkpt>
            <trkpt lat="51.569808" lon="10.837488"><ele>355.8</ele></trkpt>
            <trkpt lat="51.569782" lon="10.837605"><ele>359.6</ele></trkpt>
            <trkpt lat="51.569733" lon="10.838215"><ele>359.5</ele></trkpt>
            <trkpt lat="51.569753" lon="10.838438"><ele>367</ele></trkpt>
            <trkpt lat="51.569699" lon="10.838794"><ele>369</ele></trkpt>
            <trkpt lat="51.569646" lon="10.839594"><ele>374</ele></trkpt>
            <trkpt lat="51.569541" lon="10.840318"><ele>379.5</ele></trkpt>
            <trkpt lat="51.569519" lon="10.840667"><ele>382</ele></trkpt>
            <trkpt lat="51.569501" lon="10.840893"><ele>389</ele></trkpt>
            <trkpt lat="51.569518" lon="10.841034"><ele>392.1</ele></trkpt>
            <trkpt lat="51.569506" lon="10.84139"><ele>393.4</ele></trkpt>
            <trkpt lat="51.569446" lon="10.84184"><ele>394.7</ele></trkpt>
            <trkpt lat="51.569374" lon="10.842769"><ele>396.7</ele></trkpt>
            <trkpt lat="51.569237" lon="10.843795"><ele>400.9</ele></trkpt>
            <trkpt lat="51.569147" lon="10.844258"><ele>416</ele></trkpt>
            <trkpt lat="51.569099" lon="10.844596"><ele>412.3</ele></trkpt>
            <trkpt lat="51.569054" lon="10.845607"><ele>409.8</ele></trkpt>
            <trkpt lat="51.569002" lon="10.846157"><ele>409.1</ele></trkpt>
            <trkpt lat="51.568992" lon="10.846797"><ele>400</ele></trkpt>
            <trkpt lat="51.569011" lon="10.846981"><ele>400</ele></trkpt>
            <trkpt lat="51.569008" lon="10.847227"><ele>400</ele></trkpt>
            <trkpt lat="51.568957" lon="10.847779"><ele>400</ele></trkpt>
            <trkpt lat="51.568918" lon="10.848351"><ele>399.3</ele></trkpt>
            <trkpt lat="51.568919" lon="10.848641"><ele>399</ele></trkpt>
            <trkpt lat="51.568981" lon="10.849015"><ele>406.6</ele></trkpt>
            <trkpt lat="51.569049" lon="10.849272"><ele>410.1</ele></trkpt>
            <trkpt lat="51.569377" lon="10.850381"><ele>415.9</ele></trkpt>
            <trkpt lat="51.569599" lon="10.85093"><ele>419.9</ele></trkpt>
            <trkpt lat="51.569627" lon="10.851115"><ele>421.3</ele></trkpt>
            <trkpt lat="51.569621" lon="10.852022"><ele>424.4</ele></trkpt>
            <trkpt lat="51.569563" lon="10.852608"><ele>424.4</ele></trkpt>
            <trkpt lat="51.56948" lon="10.853003"><ele>424.2</ele></trkpt>
            <trkpt lat="51.56941" lon="10.853703"><ele>421.1</ele></trkpt>
            <trkpt lat="51.569427" lon="10.854361"><ele>417.9</ele></trkpt>
            <trkpt lat="51.569388" lon="10.854653"><ele>417.6</ele></trkpt>
            <trkpt lat="51.569385" lon="10.855321"><ele>415.7</ele></trkpt>
            <trkpt lat="51.569414" lon="10.855573"><ele>414.3</ele></trkpt>
            <trkpt lat="51.569455" lon="10.85586"><ele>413.5</ele></trkpt>
            <trkpt lat="51.569619" lon="10.856371"><ele>412.5</ele></trkpt>
            <trkpt lat="51.56997" lon="10.857282"><ele>410.9</ele></trkpt>
            <trkpt lat="51.57004" lon="10.857393"><ele>414</ele></trkpt>
            <trkpt lat="51.570244" lon="10.857885"><ele>413.8</ele></trkpt>
            <trkpt lat="51.570357" lon="10.858089"><ele>413.8</ele></trkpt>
            <trkpt lat="51.570755" lon="10.858569"><ele>413</ele></trkpt>
            <trkpt lat="51.571242" lon="10.859152"><ele>418.8</ele></trkpt>
            <trkpt lat="51.571327" lon="10.859228"><ele>418.9</ele></trkpt>
            <trkpt lat="51.571415" lon="10.859338"><ele>418.6</ele></trkpt>
            <trkpt lat="51.571471" lon="10.859463"><ele>421</ele></trkpt>
            <trkpt lat="51.571792" lon="10.860126"><ele>431.5</ele></trkpt>
            <trkpt lat="51.57202" lon="10.86067"><ele>435</ele></trkpt>
            <trkpt lat="51.572284" lon="10.861128"><ele>436</ele></trkpt>
            <trkpt lat="51.572578" lon="10.861303"><ele>439.3</ele></trkpt>
            <trkpt lat="51.572942" lon="10.86156"><ele>439.6</ele></trkpt>
            <trkpt lat="51.573079" lon="10.861722"><ele>439.7</ele></trkpt>
            <trkpt lat="51.573212" lon="10.861925"><ele>440.6</ele></trkpt>
            <trkpt lat="51.573368" lon="10.862051"><ele>441.7</ele></trkpt>
            <trkpt lat="51.573513" lon="10.862076"><ele>441.9</ele></trkpt>
            <trkpt lat="51.573656" lon="10.861947"><ele>441.5</ele></trkpt>
            <trkpt lat="51.573776" lon="10.861892"><ele>447</ele></trkpt>
            <trkpt lat="51.573906" lon="10.861754"><ele>448.5</ele></trkpt>
            <trkpt lat="51.574187" lon="10.861136"><ele>448.8</ele></trkpt>
            <trkpt lat="51.574515" lon="10.860867"><ele>448.8</ele></trkpt>
            <trkpt lat="51.574658" lon="10.860901"><ele>449</ele></trkpt>
            <trkpt lat="51.5748" lon="10.860862"><ele>449.4</ele></trkpt>
            <trkpt lat="51.575283" lon="10.861083"><ele>449.7</ele></trkpt>
            <trkpt lat="51.575441" lon="10.861093"><ele>449.9</ele></trkpt>
            <trkpt lat="51.575602" lon="10.861053"><ele>450</ele></trkpt>
            <trkpt lat="51.575914" lon="10.86088"><ele>450.6</ele></trkpt>
            <trkpt lat="51.576142" lon="10.860834"><ele>453</ele></trkpt>
            <trkpt lat="51.576243" lon="10.860874"><ele>452.9</ele></trkpt>
            <trkpt lat="51.576363" lon="10.861039"><ele>452.7</ele></trkpt>
            <trkpt lat="51.576394" lon="10.861214"><ele>452.7</ele></trkpt>
            <trkpt lat="51.576503" lon="10.86151"><ele>453</ele></trkpt>
            <trkpt lat="51.576604" lon="10.862075"><ele>454.2</ele></trkpt>
            <trkpt lat="51.576633" lon="10.862142"><ele>454.7</ele></trkpt>
            <trkpt lat="51.576746" lon="10.862297"><ele>455.2</ele></trkpt>
            <trkpt lat="51.576879" lon="10.862418"><ele>455.3</ele></trkpt>
            <trkpt lat="51.576952" lon="10.862424"><ele>455.1</ele></trkpt>
            <trkpt lat="51.577025" lon="10.862458"><ele>455.1</ele></trkpt>
            <trkpt lat="51.577093" lon="10.862538"><ele>454.9</ele></trkpt>
            <trkpt lat="51.577259" lon="10.862649"><ele>456.7</ele></trkpt>
            <trkpt lat="51.577731" lon="10.862738"><ele>457.8</ele></trkpt>
            <trkpt lat="51.577946" lon="10.86281"><ele>458.6</ele></trkpt>
            <trkpt lat="51.578085" lon="10.862914"><ele>459</ele></trkpt>
            <trkpt lat="51.57817" lon="10.862936"><ele>459</ele></trkpt>
            <trkpt lat="51.578298" lon="10.863034"><ele>459.5</ele></trkpt>
            <trkpt lat="51.57841" lon="10.863073"><ele>460.3</ele></trkpt>
            <trkpt lat="51.578837" lon="10.863464"><ele>455.6</ele></trkpt>
            <trkpt lat="51.57841" lon="10.863073"><ele>460.3</ele></trkpt>
            <trkpt lat="51.578298" lon="10.863034"><ele>459.5</ele></trkpt>
            <trkpt lat="51.57817" lon="10.862936"><ele>459</ele></trkpt>
            <trkpt lat="51.578085" lon="10.862914"><ele>459</ele></trkpt>
            <trkpt lat="51.577946" lon="10.86281"><ele>458.6</ele></trkpt>
            <trkpt lat="51.577731" lon="10.862738"><ele>457.8</ele></trkpt>
            <trkpt lat="51.577259" lon="10.862649"><ele>456.7</ele></trkpt>
            <trkpt lat="51.577093" lon="10.862538"><ele>454.9</ele></trkpt>
            <trkpt lat="51.577025" lon="10.862458"><ele>455.1</ele></trkpt>
            <trkpt lat="51.576952" lon="10.862424"><ele>455.1</ele></trkpt>
            <trkpt lat="51.576879" lon="10.862418"><ele>455.3</ele></trkpt>
            <trkpt lat="51.576746" lon="10.862297"><ele>455.2</ele></trkpt>
            <trkpt lat="51.576633" lon="10.862142"><ele>454.7</ele></trkpt>
            <trkpt lat="51.576604" lon="10.862075"><ele>454.2</ele></trkpt>
            <trkpt lat="51.576503" lon="10.86151"><ele>453</ele></trkpt>
            <trkpt lat="51.576394" lon="10.861214"><ele>452.7</ele></trkpt>
            <trkpt lat="51.576363" lon="10.861039"><ele>452.7</ele></trkpt>
            <trkpt lat="51.576243" lon="10.860874"><ele>452.9</ele></trkpt>
            <trkpt lat="51.576142" lon="10.860834"><ele>453</ele></trkpt>
            <trkpt lat="51.575914" lon="10.86088"><ele>450.6</ele></trkpt>
            <trkpt lat="51.575602" lon="10.861053"><ele>450</ele></trkpt>
            <trkpt lat="51.575441" lon="10.861093"><ele>449.9</ele></trkpt>
            <trkpt lat="51.575283" lon="10.861083"><ele>449.7</ele></trkpt>
            <trkpt lat="51.5748" lon="10.860862"><ele>449.4</ele></trkpt>
            <trkpt lat="51.574658" lon="10.860901"><ele>449</ele></trkpt>
            <trkpt lat="51.574515" lon="10.860867"><ele>448.8</ele></trkpt>
            <trkpt lat="51.574187" lon="10.861136"><ele>448.8</ele></trkpt>
            <trkpt lat="51.573906" lon="10.861754"><ele>448.5</ele></trkpt>
            <trkpt lat="51.573776" lon="10.861892"><ele>447</ele></trkpt>
            <trkpt lat="51.573656" lon="10.861947"><ele>441.5</ele></trkpt>
            <trkpt lat="51.573513" lon="10.862076"><ele>441.9</ele></trkpt>
            <trkpt lat="51.573368" lon="10.862051"><ele>441.7</ele></trkpt>
            <trkpt lat="51.573212" lon="10.861925"><ele>440.6</ele></trkpt>
            <trkpt lat="51.573079" lon="10.861722"><ele>439.7</ele></trkpt>
            <trkpt lat="51.572942" lon="10.86156"><ele>439.6</ele></trkpt>
            <trkpt lat="51.572578" lon="10.861303"><ele>439.3</ele></trkpt>
            <trkpt lat="51.572284" lon="10.861128"><ele>436</ele></trkpt>
            <trkpt lat="51.57202" lon="10.86067"><ele>435</ele></trkpt>
            <trkpt lat="51.571792" lon="10.860126"><ele>431.5</ele></trkpt>
            <trkpt lat="51.571471" lon="10.859463"><ele>421</ele></trkpt>
            <trkpt lat="51.571415" lon="10.859338"><ele>418.6</ele></trkpt>
            <trkpt lat="51.571327" lon="10.859228"><ele>418.9</ele></trkpt>
            <trkpt lat="51.571242" lon="10.859152"><ele>418.8</ele></trkpt>
            <trkpt lat="51.570755" lon="10.858569"><ele>413</ele></trkpt>
            <trkpt lat="51.570357" lon="10.858089"><ele>413.8</ele></trkpt>
            <trkpt lat="51.570244" lon="10.857885"><ele>413.8</ele></trkpt>
            <trkpt lat="51.57004" lon="10.857393"><ele>414</ele></trkpt>
            <trkpt lat="51.56997" lon="10.857282"><ele>410.9</ele></trkpt>
            <trkpt lat="51.569619" lon="10.856371"><ele>412.5</ele></trkpt>
            <trkpt lat="51.569455" lon="10.85586"><ele>413.5</ele></trkpt>
            <trkpt lat="51.569414" lon="10.855573"><ele>414.3</ele></trkpt>
            <trkpt lat="51.569385" lon="10.855321"><ele>415.7</ele></trkpt>
            <trkpt lat="51.569388" lon="10.854653"><ele>417.6</ele></trkpt>
            <trkpt lat="51.569427" lon="10.854361"><ele>417.9</ele></trkpt>
            <trkpt lat="51.56941" lon="10.853703"><ele>421.1</ele></trkpt>
            <trkpt lat="51.56948" lon="10.853003"><ele>424.2</ele></trkpt>
            <trkpt lat="51.569563" lon="10.852608"><ele>424.4</ele></trkpt>
            <trkpt lat="51.569621" lon="10.852022"><ele>424.4</ele></trkpt>
            <trkpt lat="51.569627" lon="10.851115"><ele>421.3</ele></trkpt>
            <trkpt lat="51.569599" lon="10.85093"><ele>419.9</ele></trkpt>
            <trkpt lat="51.569377" lon="10.850381"><ele>415.9</ele></trkpt>
            <trkpt lat="51.569049" lon="10.849272"><ele>410.1</ele></trkpt>
            <trkpt lat="51.568981" lon="10.849015"><ele>406.6</ele></trkpt>
            <trkpt lat="51.568919" lon="10.848641"><ele>399</ele></trkpt>
            <trkpt lat="51.568918" lon="10.848351"><ele>399.3</ele></trkpt>
            <trkpt lat="51.568957" lon="10.847779"><ele>400</ele></trkpt>
            <trkpt lat="51.569008" lon="10.847227"><ele>400</ele></trkpt>
            <trkpt lat="51.569011" lon="10.846981"><ele>400</ele></trkpt>
            <trkpt lat="51.568992" lon="10.846797"><ele>400</ele></trkpt>
            <trkpt lat="51.569002" lon="10.846157"><ele>409.1</ele></trkpt>
            <trkpt lat="51.569054" lon="10.845607"><ele>409.8</ele></trkpt>
            <trkpt lat="51.569099" lon="10.844596"><ele>412.3</ele></trkpt>
            <trkpt lat="51.569147" lon="10.844258"><ele>416</ele></trkpt>
            <trkpt lat="51.569237" lon="10.843795"><ele>400.9</ele></trkpt>
            <trkpt lat="51.569374" lon="10.842769"><ele>396.7</ele></trkpt>
            <trkpt lat="51.569446" lon="10.84184"><ele>394.7</ele></trkpt>
            <trkpt lat="51.569506" lon="10.84139"><ele>393.4</ele></trkpt>
            <trkpt lat="51.569518" lon="10.841034"><ele>392.1</ele></trkpt>
            <trkpt lat="51.569501" lon="10.840893"><ele>389</ele></trkpt>
            <trkpt lat="51.569519" lon="10.840667"><ele>382</ele></trkpt>
            <trkpt lat="51.569484" lon="10.840707"><ele>382</ele></trkpt>
            <trkpt lat="51.569451" lon="10.840712"><ele>382</ele></trkpt>
            <trkpt lat="51.56941" lon="10.840651"><ele>382</ele></trkpt>
            <trkpt lat="51.569381" lon="10.84048"><ele>382</ele></trkpt>
            <trkpt lat="51.569394" lon="10.840123"><ele>379</ele></trkpt>
            <trkpt lat="51.569371" lon="10.839732"><ele>374</ele></trkpt>
            <trkpt lat="51.569136" lon="10.839299"><ele>363</ele></trkpt>
            <trkpt lat="51.569075" lon="10.839132"><ele>362</ele></trkpt>
            <trkpt lat="51.569025" lon="10.838927"><ele>354</ele></trkpt>
            <trkpt lat="51.568941" lon="10.838811"><ele>349.7</ele></trkpt>
            <trkpt lat="51.568883" lon="10.838654"><ele>349.1</ele></trkpt>
            <trkpt lat="51.568792" lon="10.838534"><ele>348.4</ele></trkpt>
            <trkpt lat="51.568698" lon="10.838359"><ele>347.6</ele></trkpt>
            <trkpt lat="51.568596" lon="10.838089"><ele>339</ele></trkpt>
            <trkpt lat="51.56845" lon="10.837764"><ele>326.8</ele></trkpt>
            <trkpt lat="51.568323" lon="10.837637"><ele>324.3</ele></trkpt>
            <trkpt lat="51.567982" lon="10.837477"><ele>306</ele></trkpt>
            <trkpt lat="51.567542" lon="10.837212"><ele>299</ele></trkpt>
            <trkpt lat="51.566955" lon="10.836653"><ele>297.6</ele></trkpt>
            <trkpt lat="51.566572" lon="10.836246"><ele>298.3</ele></trkpt>
            <trkpt lat="51.566505" lon="10.836142"><ele>299</ele></trkpt>
            <trkpt lat="51.566332" lon="10.835931"><ele>299</ele></trkpt>
            <trkpt lat="51.566081" lon="10.835625"><ele>281</ele></trkpt>
            <trkpt lat="51.565932" lon="10.835525"><ele>281</ele></trkpt>
            <trkpt lat="51.565358" lon="10.835164"><ele>282.1</ele></trkpt>
            <trkpt lat="51.565294" lon="10.835095"><ele>282.3</ele></trkpt>
            <trkpt lat="51.565153" lon="10.834552"><ele>283</ele></trkpt>
            <trkpt lat="51.564688" lon="10.834538"><ele>279</ele></trkpt>
            <trkpt lat="51.564251" lon="10.834602"><ele>279</ele></trkpt>
            <trkpt lat="51.563943" lon="10.834633"><ele>272</ele></trkpt>
            <trkpt lat="51.563684" lon="10.834659"><ele>272</ele></trkpt>
            <trkpt lat="51.563371" lon="10.834706"><ele>272</ele></trkpt>
            <trkpt lat="51.563241" lon="10.834727"><ele>268</ele></trkpt>
            <trkpt lat="51.563097" lon="10.83476"><ele>268</ele></trkpt>
            <trkpt lat="51.561464" lon="10.835061"><ele>261</ele></trkpt>
            <trkpt lat="51.560679" lon="10.835201"><ele>258</ele></trkpt>
            <trkpt lat="51.560519" lon="10.835215"><ele>258</ele></trkpt>
            <trkpt lat="51.560528" lon="10.834562"><ele>257</ele></trkpt>
            <trkpt lat="51.559772" lon="10.834397"><ele>255</ele></trkpt>
            <trkpt lat="51.55972" lon="10.834376"><ele>255</ele></trkpt>
            <trkpt lat="51.55971" lon="10.834372"><ele>255</ele></trkpt>
            <trkpt lat="51.559555" lon="10.8343"><ele>255</ele></trkpt>
            <trkpt lat="51.559524" lon="10.833795"><ele>254</ele></trkpt>
            <trkpt lat="51.559285" lon="10.833668"><ele>254</ele></trkpt>
            <trkpt lat="51.55931" lon="10.833578"><ele>254</ele></trkpt>
            <trkpt lat="51.559307" lon="10.83346"><ele>254</ele></trkpt>
            <trkpt lat="51.559303" lon="10.833303"><ele>253</ele></trkpt>
            <trkpt lat="51.559296" lon="10.833064"><ele>253</ele></trkpt>
            <trkpt lat="51.559243" lon="10.833067"><ele>253</ele></trkpt>
            <trkpt lat="51.558709" lon="10.833111"><ele>252</ele></trkpt>
            <trkpt lat="51.558614" lon="10.83312"><ele>252</ele></trkpt>
            <trkpt lat="51.558438" lon="10.833102"><ele>252</ele></trkpt>
            <trkpt lat="51.558289" lon="10.833059"><ele>254</ele></trkpt>
            <trkpt lat="51.557713" lon="10.832907"><ele>254</ele></trkpt>
            <trkpt lat="51.557033" lon="10.832736"><ele>269.4</ele></trkpt>
            <trkpt lat="51.556956" lon="10.832691"><ele>268.7</ele></trkpt>
            <trkpt lat="51.556896" lon="10.832617"><ele>267.8</ele></trkpt>
            <trkpt lat="51.556849" lon="10.832483"><ele>274</ele></trkpt>
            <trkpt lat="51.556714" lon="10.831799"><ele>276.3</ele></trkpt>
            <trkpt lat="51.556585" lon="10.830873"><ele>277.4</ele></trkpt>
            <trkpt lat="51.556514" lon="10.830579"><ele>277.7</ele></trkpt>
            <trkpt lat="51.556403" lon="10.830279"><ele>280</ele></trkpt>
            <trkpt lat="51.556358" lon="10.829984"><ele>278.4</ele></trkpt>
            <trkpt lat="51.556311" lon="10.829172"><ele>278</ele></trkpt>
            <trkpt lat="51.556381" lon="10.828137"><ele>276.7</ele></trkpt>
            <trkpt lat="51.556358" lon="10.827353"><ele>276.4</ele></trkpt>
            <trkpt lat="51.55638" lon="10.827082"><ele>276.5</ele></trkpt>
            <trkpt lat="51.556497" lon="10.826262"><ele>275.9</ele></trkpt>
            <trkpt lat="51.556484" lon="10.82571"><ele>273</ele></trkpt>
            <trkpt lat="51.55656" lon="10.825605"><ele>268.7</ele></trkpt>
            <trkpt lat="51.556564" lon="10.825457"><ele>267.3</ele></trkpt>
        </trkseg>
    </trk>
</gpx>
