<?xml version="1.0" encoding="UTF-8"?>
<gpx version="1.1" creator="HWN Route Compare (OpenRouteService)" xmlns="http://www.topografix.com/GPX/1/1">
    <metadata>
        <name>OpenRouteService – Tour G2b</name>
    </metadata>
    <trk>
        <name>OpenRouteService – Tour G2b</name>
        <trkseg>
            <trkpt lat="51.588089" lon="10.827005"><ele>601</ele></trkpt>
            <trkpt lat="51.588153" lon="10.827083"><ele>601</ele></trkpt>
            <trkpt lat="51.588231" lon="10.827037"><ele>598.4</ele></trkpt>
            <trkpt lat="51.588449" lon="10.826747"><ele>598.7</ele></trkpt>
            <trkpt lat="51.588756" lon="10.826213"><ele>597.5</ele></trkpt>
            <trkpt lat="51.589036" lon="10.825804"><ele>597.6</ele></trkpt>
            <trkpt lat="51.589112" lon="10.82567"><ele>597.6</ele></trkpt>
            <trkpt lat="51.589165" lon="10.825506"><ele>597.3</ele></trkpt>
            <trkpt lat="51.589316" lon="10.825207"><ele>595.9</ele></trkpt>
            <trkpt lat="51.589508" lon="10.824951"><ele>593.4</ele></trkpt>
            <trkpt lat="51.58955" lon="10.824937"><ele>585</ele></trkpt>
            <trkpt lat="51.589686" lon="10.824636"><ele>577.9</ele></trkpt>
            <trkpt lat="51.58998" lon="10.824149"><ele>577.1</ele></trkpt>
            <trkpt lat="51.590064" lon="10.823977"><ele>575.7</ele></trkpt>
            <trkpt lat="51.590117" lon="10.823847"><ele>574.5</ele></trkpt>
            <trkpt lat="51.590228" lon="10.823481"><ele>572.6</ele></trkpt>
            <trkpt lat="51.590397" lon="10.822766"><ele>568.4</ele></trkpt>
            <trkpt lat="51.590539" lon="10.821798"><ele>562.8</ele></trkpt>
            <trkpt lat="51.59055" lon="10.821619"><ele>550</ele></trkpt>
            <trkpt lat="51.590814" lon="10.821381"><ele>548</ele></trkpt>
            <trkpt lat="51.591063" lon="10.8211"><ele>547.9</ele></trkpt>
            <trkpt lat="51.591258" lon="10.820846"><ele>547</ele></trkpt>
            <trkpt lat="51.591372" lon="10.820965"><ele>545.7</ele></trkpt>
            <trkpt lat="51.591607" lon="10.821048"><ele>546</ele></trkpt>
            <trkpt lat="51.591695" lon="10.820987"><ele>545.2</ele></trkpt>
            <trkpt lat="51.591836" lon="10.820811"><ele>545.1</ele></trkpt>
            <trkpt lat="51.592042" lon="10.820447"><ele>544.4</ele></trkpt>
            <trkpt lat="51.59235" lon="10.820029"><ele>543.8</ele></trkpt>
            <trkpt lat="51.59303" lon="10.818721"><ele>536.4</ele></trkpt>
            <trkpt lat="51.593233" lon="10.818221"><ele>534.1</ele></trkpt>
            <trkpt lat="51.593317" lon="10.817919"><ele>534</ele></trkpt>
            <trkpt lat="51.593501" lon="10.817426"><ele>527.8</ele></trkpt>
            <trkpt lat="51.593624" lon="10.816991"><ele>524.6</ele></trkpt>
            <trkpt lat="51.593701" lon="10.816604"><ele>521.6</ele></trkpt>
            <trkpt lat="51.593735" lon="10.816373"><ele>520.1</ele></trkpt>
            <trkpt lat="51.593677" lon="10.815755"><ele>513.2</ele></trkpt>
            <trkpt lat="51.593751" lon="10.814929"><ele>512</ele></trkpt>
            <trkpt lat="51.593858" lon="10.81442"><ele>511.4</ele></trkpt>
            <trkpt lat="51.594125" lon="10.813482"><ele>508.6</ele></trkpt>
            <trkpt lat="51.594228" lon="10.81317"><ele>505.4</ele></trkpt>
            <trkpt lat="51.594316" lon="10.812763"><ele>501.7</ele></trkpt>
            <trkpt lat="51.594363" lon="10.812277"><ele>498.6</ele></trkpt>
            <trkpt lat="51.594335" lon="10.811807"><ele>494.3</ele></trkpt>
            <trkpt lat="51.594347" lon="10.811662"><ele>494.8</ele></trkpt>
            <trkpt lat="51.594406" lon="10.811472"><ele>494.4</ele></trkpt>
            <trkpt lat="51.594446" lon="10.81127"><ele>491.7</ele></trkpt>
            <trkpt lat="51.594604" lon="10.810746"><ele>491.8</ele></trkpt>
            <trkpt lat="51.595032" lon="10.809764"><ele>488.6</ele></trkpt>
            <trkpt lat="51.595119" lon="10.80963"><ele>487.8</ele></trkpt>
            <trkpt lat="51.59525" lon="10.809529"><ele>486</ele></trkpt>
            <trkpt lat="51.595355" lon="10.809515"><ele>484</ele></trkpt>
            <trkpt lat="51.595442" lon="10.809531"><ele>483.4</ele></trkpt>
            <trkpt lat="51.595602" lon="10.809602"><ele>482.9</ele></trkpt>
            <trkpt lat="51.595932" lon="10.8098"><ele>477.9</ele></trkpt>
            <trkpt lat="51.596175" lon="10.809866"><ele>472.4</ele></trkpt>
            <trkpt lat="51.596359" lon="10.809887"><ele>452</ele></trkpt>
            <trkpt lat="51.596343" lon="10.809744"><ele>454</ele></trkpt>
            <trkpt lat="51.596268" lon="10.809585"><ele>454.4</ele></trkpt>
            <trkpt lat="51.59587" lon="10.809134"><ele>456</ele></trkpt>
            <trkpt lat="51.595838" lon="10.809057"><ele>456.2</ele></trkpt>
            <trkpt lat="51.595857" lon="10.808947"><ele>456.5</ele></trkpt>
            <trkpt lat="51.596067" lon="10.808534"><ele>457.4</ele></trkpt>
            <trkpt lat="51.596159" lon="10.808285"><ele>458.2</ele></trkpt>
            <trkpt lat="51.596261" lon="10.807766"><ele>460</ele></trkpt>
            <trkpt lat="51.596238" lon="10.807618"><ele>460.3</ele></trkpt>
            <trkpt lat="51.596159" lon="10.807458"><ele>460.7</ele></trkpt>
            <trkpt lat="51.595893" lon="10.807246"><ele>461.4</ele></trkpt>
            <trkpt lat="51.595854" lon="10.807094"><ele>461.7</ele></trkpt>
            <trkpt lat="51.59587" lon="10.806937"><ele>462.4</ele></trkpt>
            <trkpt lat="51.595909" lon="10.806819"><ele>462.7</ele></trkpt>
            <trkpt lat="51.596139" lon="10.80635"><ele>462.8</ele></trkpt>
            <trkpt lat="51.596355" lon="10.805978"><ele>462.3</ele></trkpt>
            <trkpt lat="51.596693" lon="10.805831"><ele>461.8</ele></trkpt>
            <trkpt lat="51.59681" lon="10.805739"><ele>462</ele></trkpt>
            <trkpt lat="51.596925" lon="10.805525"><ele>461.2</ele></trkpt>
            <trkpt lat="51.597008" lon="10.805315"><ele>462.1</ele></trkpt>
            <trkpt lat="51.597311" lon="10.804803"><ele>464.1</ele></trkpt>
            <trkpt lat="51.597414" lon="10.804491"><ele>465.5</ele></trkpt>
            <trkpt lat="51.597479" lon="10.804173"><ele>466.2</ele></trkpt>
            <trkpt lat="51.597514" lon="10.803883"><ele>467.3</ele></trkpt>
            <trkpt lat="51.597518" lon="10.80359"><ele>468.4</ele></trkpt>
            <trkpt lat="51.597485" lon="10.803298"><ele>471.1</ele></trkpt>
            <trkpt lat="51.597438" lon="10.803094"><ele>471.5</ele></trkpt>
            <trkpt lat="51.59727" lon="10.802606"><ele>473.6</ele></trkpt>
            <trkpt lat="51.597231" lon="10.802425"><ele>473.5</ele></trkpt>
            <trkpt lat="51.597224" lon="10.802143"><ele>475.5</ele></trkpt>
            <trkpt lat="51.597224" lon="10.801835"><ele>476.2</ele></trkpt>
            <trkpt lat="51.597272" lon="10.801244"><ele>477.2</ele></trkpt>
            <trkpt lat="51.59734" lon="10.800686"><ele>477.5</ele></trkpt>
            <trkpt lat="51.597469" lon="10.800131"><ele>476.5</ele></trkpt>
            <trkpt lat="51.597615" lon="10.799667"><ele>475.4</ele></trkpt>
            <trkpt lat="51.597706" lon="10.799536"><ele>475.4</ele></trkpt>
            <trkpt lat="51.597817" lon="10.799455"><ele>475.5</ele></trkpt>
            <trkpt lat="51.598014" lon="10.799385"><ele>475.3</ele></trkpt>
            <trkpt lat="51.598115" lon="10.79932"><ele>475.4</ele></trkpt>
            <trkpt lat="51.59831" lon="10.799171"><ele>475.2</ele></trkpt>
            <trkpt lat="51.59839" lon="10.799059"><ele>473</ele></trkpt>
            <trkpt lat="51.599045" lon="10.798091"><ele>479.6</ele></trkpt>
            <trkpt lat="51.599336" lon="10.797618"><ele>479.1</ele></trkpt>
            <trkpt lat="51.59964" lon="10.79693"><ele>482.8</ele></trkpt>
            <trkpt lat="51.599898" lon="10.796186"><ele>483.7</ele></trkpt>
            <trkpt lat="51.600545" lon="10.794949"><ele>481</ele></trkpt>
            <trkpt lat="51.600884" lon="10.794442"><ele>461.3</ele></trkpt>
            <trkpt lat="51.601021" lon="10.7941"><ele>461.5</ele></trkpt>
            <trkpt lat="51.601075" lon="10.793824"><ele>461.7</ele></trkpt>
            <trkpt lat="51.601088" lon="10.793147"><ele>460.4</ele></trkpt>
            <trkpt lat="51.601297" lon="10.792766"><ele>448</ele></trkpt>
            <trkpt lat="51.601351" lon="10.79264"><ele>441.6</ele></trkpt>
            <trkpt lat="51.601356" lon="10.792592"><ele>440.3</ele></trkpt>
            <trkpt lat="51.601375" lon="10.792423"><ele>439</ele></trkpt>
            <trkpt lat="51.601368" lon="10.792314"><ele>433</ele></trkpt>
            <trkpt lat="51.601347" lon="10.792227"><ele>433</ele></trkpt>
            <trkpt lat="51.601272" lon="10.792102"><ele>433</ele></trkpt>
            <trkpt lat="51.601183" lon="10.792019"><ele>426.1</ele></trkpt>
            <trkpt lat="51.6011" lon="10.791982"><ele>426.2</ele></trkpt>
            <trkpt lat="51.600786" lon="10.791947"><ele>425.8</ele></trkpt>
            <trkpt lat="51.600397" lon="10.791738"><ele>423.9</ele></trkpt>
            <trkpt lat="51.600274" lon="10.791727"><ele>423.5</ele></trkpt>
            <trkpt lat="51.600194" lon="10.79176"><ele>423.6</ele></trkpt>
            <trkpt lat="51.599903" lon="10.79197"><ele>422.6</ele></trkpt>
            <trkpt lat="51.599834" lon="10.791979"><ele>421.3</ele></trkpt>
            <trkpt lat="51.599769" lon="10.791955"><ele>420.7</ele></trkpt>
            <trkpt lat="51.599679" lon="10.791874"><ele>419.4</ele></trkpt>
            <trkpt lat="51.599383" lon="10.791499"><ele>416.4</ele></trkpt>
            <trkpt lat="51.599263" lon="10.791443"><ele>415</ele></trkpt>
            <trkpt lat="51.599114" lon="10.791411"><ele>413.2</ele></trkpt>
            <trkpt lat="51.598853" lon="10.791266"><ele>408.9</ele></trkpt>
            <trkpt lat="51.598635" lon="10.791109"><ele>406.4</ele></trkpt>
            <trkpt lat="51.598467" lon="10.790939"><ele>404</ele></trkpt>
            <trkpt lat="51.598366" lon="10.790866"><ele>403.1</ele></trkpt>
            <trkpt lat="51.598079" lon="10.79088"><ele>399.6</ele></trkpt>
            <trkpt lat="51.59783" lon="10.790949"><ele>397.4</ele></trkpt>
            <trkpt lat="51.597549" lon="10.791062"><ele>395.7</ele></trkpt>
            <trkpt lat="51.597367" lon="10.791069"><ele>393.8</ele></trkpt>
            <trkpt lat="51.597175" lon="10.791037"><ele>391.9</ele></trkpt>
            <trkpt lat="51.596806" lon="10.790866"><ele>387.1</ele></trkpt>
            <trkpt lat="51.596644" lon="10.790847"><ele>385.1</ele></trkpt>
            <trkpt lat="51.596174" lon="10.790898"><ele>381.8</ele></trkpt>
            <trkpt lat="51.595759" lon="10.791063"><ele>379.6</ele></trkpt>
            <trkpt lat="51.59567" lon="10.791161"><ele>378.7</ele></trkpt>
            <trkpt lat="51.595601" lon="10.791292"><ele>376.9</ele></trkpt>
            <trkpt lat="51.59538" lon="10.791567"><ele>370</ele></trkpt>
            <trkpt lat="51.594887" lon="10.791923"><ele>362.8</ele></trkpt>
            <trkpt lat="51.594473" lon="10.79233"><ele>360.7</ele></trkpt>
            <trkpt lat="51.594222" lon="10.792674"><ele>360.6</ele></trkpt>
            <trkpt lat="51.59415" lon="10.792834"><ele>359.4</ele></trkpt>
            <trkpt lat="51.594113" lon="10.793102"><ele>358.9</ele></trkpt>
            <trkpt lat="51.594106" lon="10.793457"><ele>357.4</ele></trkpt>
            <trkpt lat="51.594144" lon="10.793825"><ele>356.7</ele></trkpt>
            <trkpt lat="51.594137" lon="10.793937"><ele>356.6</ele></trkpt>
            <trkpt lat="51.594114" lon="10.794026"><ele>356.5</ele></trkpt>
            <trkpt lat="51.594072" lon="10.794127"><ele>356.4</ele></trkpt>
            <trkpt lat="51.594026" lon="10.794186"><ele>356.7</ele></trkpt>
            <trkpt lat="51.593673" lon="10.794531"><ele>356.7</ele></trkpt>
            <trkpt lat="51.593631" lon="10.794549"><ele>360</ele></trkpt>
            <trkpt lat="51.593741" lon="10.794697"><ele>370</ele></trkpt>
            <trkpt lat="51.594006" lon="10.795313"><ele>378.7</ele></trkpt>
            <trkpt lat="51.593997" lon="10.795379"><ele>380.3</ele></trkpt>
            <trkpt lat="51.593958" lon="10.795489"><ele>380.9</ele></trkpt>
            <trkpt lat="51.593945" lon="10.795592"><ele>383.6</ele></trkpt>
            <trkpt lat="51.59395" lon="10.795832"><ele>387</ele></trkpt>
            <trkpt lat="51.594011" lon="10.796151"><ele>399.5</ele></trkpt>
            <trkpt lat="51.594108" lon="10.796416"><ele>399.8</ele></trkpt>
            <trkpt lat="51.594175" lon="10.796533"><ele>400.1</ele></trkpt>
            <trkpt lat="51.594218" lon="10.796661"><ele>402.3</ele></trkpt>
            <trkpt lat="51.594243" lon="10.796804"><ele>403.5</ele></trkpt>
            <trkpt lat="51.594246" lon="10.797143"><ele>405.4</ele></trkpt>
            <trkpt lat="51.594307" lon="10.797472"><ele>408.4</ele></trkpt>
            <trkpt lat="51.59435" lon="10.797618"><ele>410.4</ele></trkpt>
            <trkpt lat="51.594356" lon="10.797759"><ele>411</ele></trkpt>
            <trkpt lat="51.59432" lon="10.798035"><ele>411.7</ele></trkpt>
            <trkpt lat="51.594297" lon="10.798088"><ele>411.1</ele></trkpt>
            <trkpt lat="51.59425" lon="10.798069"><ele>410.3</ele></trkpt>
            <trkpt lat="51.594186" lon="10.797995"><ele>409.7</ele></trkpt>
            <trkpt lat="51.593992" lon="10.797649"><ele>407.1</ele></trkpt>
            <trkpt lat="51.593922" lon="10.797488"><ele>405.6</ele></trkpt>
            <trkpt lat="51.593751" lon="10.797227"><ele>403.3</ele></trkpt>
            <trkpt lat="51.593453" lon="10.796922"><ele>400.2</ele></trkpt>
            <trkpt lat="51.593364" lon="10.796918"><ele>400.2</ele></trkpt>
            <trkpt lat="51.593288" lon="10.79696"><ele>400.6</ele></trkpt>
            <trkpt lat="51.593031" lon="10.797332"><ele>403.2</ele></trkpt>
            <trkpt lat="51.592821" lon="10.79758"><ele>402.6</ele></trkpt>
            <trkpt lat="51.592763" lon="10.797618"><ele>403.3</ele></trkpt>
            <trkpt lat="51.5927" lon="10.797623"><ele>403.9</ele></trkpt>
            <trkpt lat="51.592659" lon="10.797586"><ele>404.6</ele></trkpt>
            <trkpt lat="51.592572" lon="10.797375"><ele>403.8</ele></trkpt>
            <trkpt lat="51.592343" lon="10.796656"><ele>397.9</ele></trkpt>
            <trkpt lat="51.592251" lon="10.796616"><ele>401</ele></trkpt>
            <trkpt lat="51.592187" lon="10.796634"><ele>401.6</ele></trkpt>
            <trkpt lat="51.592151" lon="10.79668"><ele>404.2</ele></trkpt>
            <trkpt lat="51.592085" lon="10.796843"><ele>417.7</ele></trkpt>
            <trkpt lat="51.591851" lon="10.797876"><ele>420.6</ele></trkpt>
            <trkpt lat="51.591775" lon="10.798098"><ele>421.1</ele></trkpt>
            <trkpt lat="51.591589" lon="10.798503"><ele>429.5</ele></trkpt>
            <trkpt lat="51.591518" lon="10.798568"><ele>431.7</ele></trkpt>
            <trkpt lat="51.591433" lon="10.798582"><ele>432</ele></trkpt>
            <trkpt lat="51.591363" lon="10.798534"><ele>431.4</ele></trkpt>
            <trkpt lat="51.591311" lon="10.798378"><ele>430.9</ele></trkpt>
            <trkpt lat="51.591273" lon="10.79796"><ele>424.8</ele></trkpt>
            <trkpt lat="51.591173" lon="10.797384"><ele>428.6</ele></trkpt>
            <trkpt lat="51.591126" lon="10.797219"><ele>431.5</ele></trkpt>
            <trkpt lat="51.591065" lon="10.796783"><ele>433.1</ele></trkpt>
            <trkpt lat="51.590933" lon="10.796431"><ele>443.6</ele></trkpt>
            <trkpt lat="51.590809" lon="10.795935"><ele>445.3</ele></trkpt>
            <trkpt lat="51.590772" lon="10.795671"><ele>445.2</ele></trkpt>
            <trkpt lat="51.590785" lon="10.795479"><ele>443.8</ele></trkpt>
            <trkpt lat="51.590779" lon="10.795249"><ele>441.9</ele></trkpt>
            <trkpt lat="51.590798" lon="10.795053"><ele>439.4</ele></trkpt>
            <trkpt lat="51.590941" lon="10.794524"><ele>437.3</ele></trkpt>
            <trkpt lat="51.590944" lon="10.794404"><ele>438.1</ele></trkpt>
            <trkpt lat="51.590872" lon="10.794261"><ele>427</ele></trkpt>
            <trkpt lat="51.59063" lon="10.794009"><ele>458</ele></trkpt>
            <trkpt lat="51.590433" lon="10.793698"><ele>458.8</ele></trkpt>
            <trkpt lat="51.590276" lon="10.793"><ele>457.9</ele></trkpt>
            <trkpt lat="51.590211" lon="10.792776"><ele>457.4</ele></trkpt>
            <trkpt lat="51.590126" lon="10.792529"><ele>457.5</ele></trkpt>
            <trkpt lat="51.59002" lon="10.792293"><ele>457.9</ele></trkpt>
            <trkpt lat="51.589925" lon="10.792175"><ele>458.7</ele></trkpt>
            <trkpt lat="51.589713" lon="10.792051"><ele>457.9</ele></trkpt>
            <trkpt lat="51.589263" lon="10.791928"><ele>456.2</ele></trkpt>
            <trkpt lat="51.588942" lon="10.791892"><ele>459.7</ele></trkpt>
            <trkpt lat="51.588883" lon="10.791932"><ele>460.7</ele></trkpt>
            <trkpt lat="51.588836" lon="10.79202"><ele>461.5</ele></trkpt>
            <trkpt lat="51.588754" lon="10.792318"><ele>464</ele></trkpt>
            <trkpt lat="51.588682" lon="10.792737"><ele>482</ele></trkpt>
            <trkpt lat="51.588669" lon="10.793066"><ele>486</ele></trkpt>
            <trkpt lat="51.5887" lon="10.793487"><ele>488.6</ele></trkpt>
            <trkpt lat="51.588909" lon="10.794623"><ele>491.6</ele></trkpt>
            <trkpt lat="51.589067" lon="10.795363"><ele>497.5</ele></trkpt>
            <trkpt lat="51.589131" lon="10.795558"><ele>502</ele></trkpt>
            <trkpt lat="51.589104" lon="10.795775"><ele>501.5</ele></trkpt>
            <trkpt lat="51.589041" lon="10.795905"><ele>502</ele></trkpt>
            <trkpt lat="51.588692" lon="10.796144"><ele>502.9</ele></trkpt>
            <trkpt lat="51.588492" lon="10.79635"><ele>503.3</ele></trkpt>
            <trkpt lat="51.588256" lon="10.796736"><ele>501</ele></trkpt>
            <trkpt lat="51.588179" lon="10.796818"><ele>496</ele></trkpt>
            <trkpt lat="51.588309" lon="10.795842"><ele>478.2</ele></trkpt>
            <trkpt lat="51.588318" lon="10.79567"><ele>477.6</ele></trkpt>
            <trkpt lat="51.588264" lon="10.795382"><ele>478.1</ele></trkpt>
            <trkpt lat="51.587971" lon="10.794251"><ele>477.3</ele></trkpt>
            <trkpt lat="51.587897" lon="10.793867"><ele>477.2</ele></trkpt>
            <trkpt lat="51.587862" lon="10.793383"><ele>477.3</ele></trkpt>
            <trkpt lat="51.587826" lon="10.793152"><ele>477.4</ele></trkpt>
            <trkpt lat="51.58773" lon="10.792694"><ele>477</ele></trkpt>
            <trkpt lat="51.587704" lon="10.792573"><ele>477</ele></trkpt>
            <trkpt lat="51.587575" lon="10.792268"><ele>461.6</ele></trkpt>
            <trkpt lat="51.58738" lon="10.791962"><ele>445</ele></trkpt>
            <trkpt lat="51.587349" lon="10.791745"><ele>445</ele></trkpt>
            <trkpt lat="51.587342" lon="10.79169"><ele>445</ele></trkpt>
            <trkpt lat="51.587349" lon="10.791745"><ele>445</ele></trkpt>
            <trkpt lat="51.58738" lon="10.791962"><ele>445</ele></trkpt>
            <trkpt lat="51.587575" lon="10.792268"><ele>461.6</ele></trkpt>
            <trkpt lat="51.587704" lon="10.792573"><ele>477</ele></trkpt>
            <trkpt lat="51.58773" lon="10.792694"><ele>477</ele></trkpt>
            <trkpt lat="51.587826" lon="10.793152"><ele>477.4</ele></trkpt>
            <trkpt lat="51.587862" lon="10.793383"><ele>477.3</ele></trkpt>
            <trkpt lat="51.587897" lon="10.793867"><ele>477.2</ele></trkpt>
            <trkpt lat="51.587971" lon="10.794251"><ele>477.3</ele></trkpt>
            <trkpt lat="51.588264" lon="10.795382"><ele>478.1</ele></trkpt>
            <trkpt lat="51.588318" lon="10.79567"><ele>477.6</ele></trkpt>
            <trkpt lat="51.588309" lon="10.795842"><ele>478.2</ele></trkpt>
            <trkpt lat="51.588179" lon="10.796818"><ele>496</ele></trkpt>
            <trkpt lat="51.588163" lon="10.79693"><ele>496</ele></trkpt>
            <trkpt lat="51.58807" lon="10.79735"><ele>504.7</ele></trkpt>
            <trkpt lat="51.587799" lon="10.797976"><ele>506.2</ele></trkpt>
            <trkpt lat="51.587725" lon="10.7982"><ele>506.7</ele></trkpt>
            <trkpt lat="51.587619" lon="10.798667"><ele>508.7</ele></trkpt>
            <trkpt lat="51.587393" lon="10.799399"><ele>511.2</ele></trkpt>
            <trkpt lat="51.587283" lon="10.800029"><ele>511.4</ele></trkpt>
            <trkpt lat="51.587203" lon="10.800755"><ele>510</ele></trkpt>
            <trkpt lat="51.58711" lon="10.801809"><ele>516</ele></trkpt>
            <trkpt lat="51.587077" lon="10.802018"><ele>516</ele></trkpt>
            <trkpt lat="51.587089" lon="10.80232"><ele>522.4</ele></trkpt>
            <trkpt lat="51.587128" lon="10.802603"><ele>523.5</ele></trkpt>
            <trkpt lat="51.587397" lon="10.803751"><ele>526.9</ele></trkpt>
            <trkpt lat="51.587493" lon="10.804081"><ele>528.8</ele></trkpt>
            <trkpt lat="51.587598" lon="10.804338"><ele>532.5</ele></trkpt>
            <trkpt lat="51.587756" lon="10.804633"><ele>534.2</ele></trkpt>
            <trkpt lat="51.588529" lon="10.805937"><ele>542.1</ele></trkpt>
            <trkpt lat="51.58869" lon="10.806324"><ele>543.8</ele></trkpt>
            <trkpt lat="51.588888" lon="10.807107"><ele>548</ele></trkpt>
            <trkpt lat="51.589342" lon="10.808046"><ele>553.8</ele></trkpt>
            <trkpt lat="51.589479" lon="10.808392"><ele>556.1</ele></trkpt>
            <trkpt lat="51.589656" lon="10.808695"><ele>557.3</ele></trkpt>
            <trkpt lat="51.589815" lon="10.808904"><ele>558.3</ele></trkpt>
            <trkpt lat="51.590236" lon="10.80932"><ele>560.5</ele></trkpt>
            <trkpt lat="51.590428" lon="10.80942"><ele>561.3</ele></trkpt>
            <trkpt lat="51.590612" lon="10.809437"><ele>561.5</ele></trkpt>
            <trkpt lat="51.590829" lon="10.8095"><ele>562</ele></trkpt>
            <trkpt lat="51.591271" lon="10.809773"><ele>562.1</ele></trkpt>
            <trkpt lat="51.591543" lon="10.809906"><ele>561.6</ele></trkpt>
            <trkpt lat="51.591715" lon="10.81004"><ele>561.6</ele></trkpt>
            <trkpt lat="51.591793" lon="10.810149"><ele>561.4</ele></trkpt>
            <trkpt lat="51.591837" lon="10.810276"><ele>562</ele></trkpt>
            <trkpt lat="51.592007" lon="10.811146"><ele>560.6</ele></trkpt>
            <trkpt lat="51.592088" lon="10.811471"><ele>560.5</ele></trkpt>
            <trkpt lat="51.59235" lon="10.812292"><ele>558</ele></trkpt>
            <trkpt lat="51.592407" lon="10.812658"><ele>549.8</ele></trkpt>
            <trkpt lat="51.592402" lon="10.813102"><ele>550</ele></trkpt>
            <trkpt lat="51.592441" lon="10.813592"><ele>548.6</ele></trkpt>
            <trkpt lat="51.592428" lon="10.813874"><ele>544</ele></trkpt>
            <trkpt lat="51.592349" lon="10.814124"><ele>548.1</ele></trkpt>
            <trkpt lat="51.592217" lon="10.81445"><ele>548.1</ele></trkpt>
            <trkpt lat="51.592153" lon="10.814698"><ele>548.4</ele></trkpt>
            <trkpt lat="51.592146" lon="10.814934"><ele>548.4</ele></trkpt>
            <trkpt lat="51.592181" lon="10.815617"><ele>549.7</ele></trkpt>
            <trkpt lat="51.592112" lon="10.817568"><ele>552.5</ele></trkpt>
            <trkpt lat="51.592009" lon="10.81816"><ele>551.8</ele></trkpt>
            <trkpt lat="51.591981" lon="10.818568"><ele>550.9</ele></trkpt>
            <trkpt lat="51.591945" lon="10.818827"><ele>550.6</ele></trkpt>
            <trkpt lat="51.591662" lon="10.819963"><ele>547.9</ele></trkpt>
            <trkpt lat="51.591564" lon="10.820282"><ele>547.1</ele></trkpt>
            <trkpt lat="51.591457" lon="10.820515"><ele>546.8</ele></trkpt>
            <trkpt lat="51.591328" lon="10.820752"><ele>546.1</ele></trkpt>
            <trkpt lat="51.591258" lon="10.820846"><ele>547</ele></trkpt>
            <trkpt lat="51.591063" lon="10.8211"><ele>547.9</ele></trkpt>
            <trkpt lat="51.590814" lon="10.821381"><ele>548</ele></trkpt>
            <trkpt lat="51.59055" lon="10.821619"><ele>550</ele></trkpt>
            <trkpt lat="51.590539" lon="10.821798"><ele>562.8</ele></trkpt>
            <trkpt lat="51.590397" lon="10.822766"><ele>568.4</ele></trkpt>
            <trkpt lat="51.590228" lon="10.823481"><ele>572.6</ele></trkpt>
            <trkpt lat="51.590117" lon="10.823847"><ele>574.5</ele></trkpt>
            <trkpt lat="51.590064" lon="10.823977"><ele>575.7</ele></trkpt>
            <trkpt lat="51.58998" lon="10.824149"><ele>577.1</ele></trkpt>
            <trkpt lat="51.589686" lon="10.824636"><ele>577.9</ele></trkpt>
            <trkpt lat="51.58955" lon="10.824937"><ele>585</ele></trkpt>
            <trkpt lat="51.589508" lon="10.824951"><ele>593.4</ele></trkpt>
            <trkpt lat="51.589316" lon="10.825207"><ele>595.9</ele></trkpt>
            <trkpt lat="51.589165" lon="10.825506"><ele>597.3</ele></trkpt>
            <trkpt lat="51.589112" lon="10.82567"><ele>597.6</ele></trkpt>
            <trkpt lat="51.589036" lon="10.825804"><ele>597.6</ele></trkpt>
            <trkpt lat="51.588756" lon="10.826213"><ele>597.5</ele></trkpt>
            <trkpt lat="51.588449" lon="10.826747"><ele>598.7</ele></trkpt>
            <trkpt lat="51.588231" lon="10.827037"><ele>598.4</ele></trkpt>
            <trkpt lat="51.588153" lon="10.827083"><ele>601</ele></trkpt>
            <trkpt lat="51.588089" lon="10.827005"><ele>601</ele></trkpt>
        </trkseg>
    </trk>
</gpx>
