<?xml version="1.0" encoding="UTF-8"?>
<gpx version="1.1" creator="HWN Route Compare (OpenRouteService)" xmlns="http://www.topografix.com/GPX/1/1">
    <metadata>
        <name>OpenRouteService – Tour G3</name>
    </metadata>
    <trk>
        <name>OpenRouteService – Tour G3</name>
        <trkseg>
            <trkpt lat="51.498004" lon="10.947781"><ele>280</ele></trkpt>
            <trkpt lat="51.498108" lon="10.947999"><ele>280</ele></trkpt>
            <trkpt lat="51.498114" lon="10.948096"><ele>280</ele></trkpt>
            <trkpt lat="51.498152" lon="10.948059"><ele>280</ele></trkpt>
            <trkpt lat="51.498193" lon="10.948"><ele>279.7</ele></trkpt>
            <trkpt lat="51.498272" lon="10.947734"><ele>279.8</ele></trkpt>
            <trkpt lat="51.498395" lon="10.947653"><ele>278.7</ele></trkpt>
            <trkpt lat="51.49865" lon="10.947305"><ele>282</ele></trkpt>
            <trkpt lat="51.498967" lon="10.947159"><ele>292.9</ele></trkpt>
            <trkpt lat="51.499077" lon="10.947063"><ele>292.6</ele></trkpt>
            <trkpt lat="51.499145" lon="10.946946"><ele>292.5</ele></trkpt>
            <trkpt lat="51.499238" lon="10.946715"><ele>292.9</ele></trkpt>
            <trkpt lat="51.499268" lon="10.946588"><ele>293.1</ele></trkpt>
            <trkpt lat="51.499266" lon="10.946451"><ele>293.3</ele></trkpt>
            <trkpt lat="51.499243" lon="10.946331"><ele>294.3</ele></trkpt>
            <trkpt lat="51.499199" lon="10.946219"><ele>294</ele></trkpt>
            <trkpt lat="51.499122" lon="10.946129"><ele>294.5</ele></trkpt>
            <trkpt lat="51.49893" lon="10.945972"><ele>294.6</ele></trkpt>
            <trkpt lat="51.498879" lon="10.945865"><ele>294.6</ele></trkpt>
            <trkpt lat="51.498861" lon="10.945662"><ele>296.1</ele></trkpt>
            <trkpt lat="51.498892" lon="10.945544"><ele>296.5</ele></trkpt>
            <trkpt lat="51.498906" lon="10.944959"><ele>299.5</ele></trkpt>
            <trkpt lat="51.498946" lon="10.944805"><ele>301</ele></trkpt>
            <trkpt lat="51.499004" lon="10.944681"><ele>302.5</ele></trkpt>
            <trkpt lat="51.499063" lon="10.944644"><ele>303.1</ele></trkpt>
            <trkpt lat="51.499108" lon="10.944513"><ele>304.5</ele></trkpt>
            <trkpt lat="51.499227" lon="10.944284"><ele>305.4</ele></trkpt>
            <trkpt lat="51.499421" lon="10.944224"><ele>304.8</ele></trkpt>
            <trkpt lat="51.499518" lon="10.944106"><ele>306.4</ele></trkpt>
            <trkpt lat="51.499565" lon="10.94397"><ele>308</ele></trkpt>
            <trkpt lat="51.499558" lon="10.94344"><ele>308</ele></trkpt>
            <trkpt lat="51.499532" lon="10.942957"><ele>307.5</ele></trkpt>
            <trkpt lat="51.499458" lon="10.942745"><ele>307</ele></trkpt>
            <trkpt lat="51.499432" lon="10.942513"><ele>306</ele></trkpt>
            <trkpt lat="51.499502" lon="10.942158"><ele>306.9</ele></trkpt>
            <trkpt lat="51.499703" lon="10.9418"><ele>309.4</ele></trkpt>
            <trkpt lat="51.499794" lon="10.941716"><ele>309.6</ele></trkpt>
            <trkpt lat="51.499897" lon="10.941672"><ele>310.2</ele></trkpt>
            <trkpt lat="51.499971" lon="10.941602"><ele>318</ele></trkpt>
            <trkpt lat="51.50002" lon="10.941503"><ele>306.4</ele></trkpt>
            <trkpt lat="51.500082" lon="10.941432"><ele>306</ele></trkpt>
            <trkpt lat="51.500188" lon="10.941197"><ele>305.4</ele></trkpt>
            <trkpt lat="51.500244" lon="10.941024"><ele>305.1</ele></trkpt>
            <trkpt lat="51.500351" lon="10.94089"><ele>303</ele></trkpt>
            <trkpt lat="51.500473" lon="10.940719"><ele>307.7</ele></trkpt>
            <trkpt lat="51.500497" lon="10.940718"><ele>307.8</ele></trkpt>
            <trkpt lat="51.500523" lon="10.940739"><ele>308</ele></trkpt>
            <trkpt lat="51.500546" lon="10.940809"><ele>308.2</ele></trkpt>
            <trkpt lat="51.500698" lon="10.940994"><ele>307.6</ele></trkpt>
            <trkpt lat="51.500807" lon="10.940976"><ele>307.2</ele></trkpt>
            <trkpt lat="51.500859" lon="10.940932"><ele>307</ele></trkpt>
            <trkpt lat="51.500884" lon="10.940847"><ele>306.8</ele></trkpt>
            <trkpt lat="51.5009" lon="10.940685"><ele>306.9</ele></trkpt>
            <trkpt lat="51.500887" lon="10.940571"><ele>306.9</ele></trkpt>
            <trkpt lat="51.500835" lon="10.940414"><ele>307.1</ele></trkpt>
            <trkpt lat="51.500686" lon="10.94023"><ele>307.3</ele></trkpt>
            <trkpt lat="51.500606" lon="10.94004"><ele>307.9</ele></trkpt>
            <trkpt lat="51.500508" lon="10.939729"><ele>308.1</ele></trkpt>
            <trkpt lat="51.500447" lon="10.939628"><ele>311</ele></trkpt>
            <trkpt lat="51.500582" lon="10.939242"><ele>310.6</ele></trkpt>
            <trkpt lat="51.500597" lon="10.939134"><ele>310.6</ele></trkpt>
            <trkpt lat="51.5006" lon="10.939041"><ele>310.5</ele></trkpt>
            <trkpt lat="51.50056" lon="10.938553"><ele>310</ele></trkpt>
            <trkpt lat="51.500537" lon="10.937956"><ele>311.3</ele></trkpt>
            <trkpt lat="51.500557" lon="10.937747"><ele>312</ele></trkpt>
            <trkpt lat="51.500763" lon="10.937177"><ele>314</ele></trkpt>
            <trkpt lat="51.50096" lon="10.936691"><ele>317</ele></trkpt>
            <trkpt lat="51.501319" lon="10.935752"><ele>316.3</ele></trkpt>
            <trkpt lat="51.501882" lon="10.934206"><ele>315</ele></trkpt>
            <trkpt lat="51.502351" lon="10.932869"><ele>315</ele></trkpt>
            <trkpt lat="51.502415" lon="10.932623"><ele>315.2</ele></trkpt>
            <trkpt lat="51.502448" lon="10.932568"><ele>316</ele></trkpt>
            <trkpt lat="51.502589" lon="10.93256"><ele>323.6</ele></trkpt>
            <trkpt lat="51.503293" lon="10.932745"><ele>323.9</ele></trkpt>
            <trkpt lat="51.503414" lon="10.932658"><ele>324.3</ele></trkpt>
            <trkpt lat="51.503517" lon="10.932467"><ele>327</ele></trkpt>
            <trkpt lat="51.50355" lon="10.932349"><ele>322.4</ele></trkpt>
            <trkpt lat="51.503558" lon="10.932047"><ele>323.1</ele></trkpt>
            <trkpt lat="51.503561" lon="10.930664"><ele>318.7</ele></trkpt>
            <trkpt lat="51.503601" lon="10.930434"><ele>317.9</ele></trkpt>
            <trkpt lat="51.503867" lon="10.929399"><ele>311.5</ele></trkpt>
            <trkpt lat="51.504151" lon="10.928901"><ele>309.1</ele></trkpt>
            <trkpt lat="51.504668" lon="10.928284"><ele>294</ele></trkpt>
            <trkpt lat="51.504704" lon="10.928202"><ele>294</ele></trkpt>
            <trkpt lat="51.504738" lon="10.928051"><ele>294</ele></trkpt>
            <trkpt lat="51.50475" lon="10.927748"><ele>294</ele></trkpt>
            <trkpt lat="51.50477" lon="10.927609"><ele>294</ele></trkpt>
            <trkpt lat="51.504768" lon="10.927559"><ele>294</ele></trkpt>
            <trkpt lat="51.504832" lon="10.927181"><ele>291.7</ele></trkpt>
            <trkpt lat="51.504792" lon="10.92704"><ele>291.6</ele></trkpt>
            <trkpt lat="51.504742" lon="10.926976"><ele>291.5</ele></trkpt>
            <trkpt lat="51.504727" lon="10.926864"><ele>291</ele></trkpt>
            <trkpt lat="51.504648" lon="10.926499"><ele>292.2</ele></trkpt>
            <trkpt lat="51.504636" lon="10.926251"><ele>292.7</ele></trkpt>
            <trkpt lat="51.504665" lon="10.926009"><ele>292.5</ele></trkpt>
            <trkpt lat="51.504908" lon="10.925483"><ele>292.3</ele></trkpt>
            <trkpt lat="51.505196" lon="10.924766"><ele>293.3</ele></trkpt>
            <trkpt lat="51.505348" lon="10.924463"><ele>298</ele></trkpt>
            <trkpt lat="51.505407" lon="10.924299"><ele>301.4</ele></trkpt>
            <trkpt lat="51.505559" lon="10.924025"><ele>301.6</ele></trkpt>
            <trkpt lat="51.505686" lon="10.923711"><ele>302.2</ele></trkpt>
            <trkpt lat="51.505811" lon="10.923498"><ele>302.8</ele></trkpt>
            <trkpt lat="51.506172" lon="10.923323"><ele>303.3</ele></trkpt>
            <trkpt lat="51.506754" lon="10.922833"><ele>305.9</ele></trkpt>
            <trkpt lat="51.506919" lon="10.922631"><ele>307.4</ele></trkpt>
            <trkpt lat="51.507116" lon="10.922437"><ele>307.7</ele></trkpt>
            <trkpt lat="51.507484" lon="10.922273"><ele>308.1</ele></trkpt>
            <trkpt lat="51.507601" lon="10.922114"><ele>308.9</ele></trkpt>
            <trkpt lat="51.507707" lon="10.921919"><ele>309</ele></trkpt>
            <trkpt lat="51.507861" lon="10.921517"><ele>310.3</ele></trkpt>
            <trkpt lat="51.507956" lon="10.921403"><ele>316</ele></trkpt>
            <trkpt lat="51.508082" lon="10.921066"><ele>319.5</ele></trkpt>
            <trkpt lat="51.508163" lon="10.920692"><ele>319.8</ele></trkpt>
            <trkpt lat="51.508118" lon="10.920513"><ele>319.9</ele></trkpt>
            <trkpt lat="51.50794" lon="10.920148"><ele>320.5</ele></trkpt>
            <trkpt lat="51.50791" lon="10.919841"><ele>320.6</ele></trkpt>
            <trkpt lat="51.507849" lon="10.919561"><ele>320.6</ele></trkpt>
            <trkpt lat="51.507832" lon="10.919229"><ele>321.1</ele></trkpt>
            <trkpt lat="51.507944" lon="10.918696"><ele>321.6</ele></trkpt>
            <trkpt lat="51.507957" lon="10.918308"><ele>326</ele></trkpt>
            <trkpt lat="51.508041" lon="10.918284"><ele>326</ele></trkpt>
            <trkpt lat="51.508104" lon="10.918294"><ele>326</ele></trkpt>
            <trkpt lat="51.508195" lon="10.918046"><ele>329</ele></trkpt>
            <trkpt lat="51.50817" lon="10.917808"><ele>328.7</ele></trkpt>
            <trkpt lat="51.508079" lon="10.917473"><ele>328.9</ele></trkpt>
            <trkpt lat="51.50818" lon="10.916771"><ele>329.1</ele></trkpt>
            <trkpt lat="51.508199" lon="10.916357"><ele>329.8</ele></trkpt>
            <trkpt lat="51.508255" lon="10.916223"><ele>335</ele></trkpt>
            <trkpt lat="51.50855" lon="10.916112"><ele>332.5</ele></trkpt>
            <trkpt lat="51.50876" lon="10.915976"><ele>331.9</ele></trkpt>
            <trkpt lat="51.508881" lon="10.915757"><ele>333</ele></trkpt>
            <trkpt lat="51.509125" lon="10.915148"><ele>329.4</ele></trkpt>
            <trkpt lat="51.509268" lon="10.914723"><ele>325.9</ele></trkpt>
            <trkpt lat="51.509317" lon="10.914328"><ele>322.8</ele></trkpt>
            <trkpt lat="51.509368" lon="10.913694"><ele>317</ele></trkpt>
            <trkpt lat="51.50931" lon="10.912823"><ele>311.7</ele></trkpt>
            <trkpt lat="51.509267" lon="10.912602"><ele>310.9</ele></trkpt>
            <trkpt lat="51.509042" lon="10.9121"><ele>308</ele></trkpt>
            <trkpt lat="51.509023" lon="10.911756"><ele>306.3</ele></trkpt>
            <trkpt lat="51.50894" lon="10.911582"><ele>305.2</ele></trkpt>
            <trkpt lat="51.508913" lon="10.911252"><ele>304</ele></trkpt>
            <trkpt lat="51.509016" lon="10.911037"><ele>304</ele></trkpt>
            <trkpt lat="51.509156" lon="10.910555"><ele>302.4</ele></trkpt>
            <trkpt lat="51.50925" lon="10.91009"><ele>299</ele></trkpt>
            <trkpt lat="51.509263" lon="10.909842"><ele>280</ele></trkpt>
            <trkpt lat="51.509125" lon="10.909153"><ele>276.3</ele></trkpt>
            <trkpt lat="51.509153" lon="10.908327"><ele>275.6</ele></trkpt>
            <trkpt lat="51.50914" lon="10.908015"><ele>272</ele></trkpt>
            <trkpt lat="51.509087" lon="10.90739"><ele>271</ele></trkpt>
            <trkpt lat="51.509397" lon="10.90728"><ele>276.1</ele></trkpt>
            <trkpt lat="51.509704" lon="10.907115"><ele>276.6</ele></trkpt>
            <trkpt lat="51.509841" lon="10.907009"><ele>277.1</ele></trkpt>
            <trkpt lat="51.510093" lon="10.906761"><ele>277.7</ele></trkpt>
            <trkpt lat="51.510434" lon="10.906384"><ele>283</ele></trkpt>
            <trkpt lat="51.510554" lon="10.906253"><ele>283</ele></trkpt>
            <trkpt lat="51.510671" lon="10.906125"><ele>283</ele></trkpt>
            <trkpt lat="51.510813" lon="10.906044"><ele>283</ele></trkpt>
            <trkpt lat="51.511148" lon="10.905884"><ele>278</ele></trkpt>
            <trkpt lat="51.511519" lon="10.90585"><ele>277.5</ele></trkpt>
            <trkpt lat="51.511781" lon="10.905885"><ele>277.5</ele></trkpt>
            <trkpt lat="51.512404" lon="10.906268"><ele>277</ele></trkpt>
            <trkpt lat="51.51257" lon="10.905625"><ele>276.8</ele></trkpt>
            <trkpt lat="51.512663" lon="10.905204"><ele>276.9</ele></trkpt>
            <trkpt lat="51.513025" lon="10.90408"><ele>277</ele></trkpt>
            <trkpt lat="51.513141" lon="10.90367"><ele>284.3</ele></trkpt>
            <trkpt lat="51.513203" lon="10.903276"><ele>286.7</ele></trkpt>
            <trkpt lat="51.513261" lon="10.902534"><ele>288.1</ele></trkpt>
            <trkpt lat="51.513263" lon="10.902061"><ele>288.5</ele></trkpt>
            <trkpt lat="51.51323" lon="10.901799"><ele>289.6</ele></trkpt>
            <trkpt lat="51.513167" lon="10.901541"><ele>289.7</ele></trkpt>
            <trkpt lat="51.513032" lon="10.901351"><ele>289.9</ele></trkpt>
            <trkpt lat="51.512886" lon="10.901292"><ele>289.6</ele></trkpt>
            <trkpt lat="51.512605" lon="10.901242"><ele>293</ele></trkpt>
            <trkpt lat="51.512729" lon="10.90059"><ele>296.1</ele></trkpt>
            <trkpt lat="51.513057" lon="10.899679"><ele>296.9</ele></trkpt>
            <trkpt lat="51.513316" lon="10.899016"><ele>299.5</ele></trkpt>
            <trkpt lat="51.513467" lon="10.898548"><ele>297</ele></trkpt>
            <trkpt lat="51.513524" lon="10.89826"><ele>303.1</ele></trkpt>
            <trkpt lat="51.513597" lon="10.898038"><ele>303.4</ele></trkpt>
            <trkpt lat="51.513938" lon="10.897537"><ele>303.7</ele></trkpt>
            <trkpt lat="51.514033" lon="10.897294"><ele>304.1</ele></trkpt>
            <trkpt lat="51.514192" lon="10.896569"><ele>305.6</ele></trkpt>
            <trkpt lat="51.514242" lon="10.896004"><ele>308</ele></trkpt>
            <trkpt lat="51.514381" lon="10.895523"><ele>311.3</ele></trkpt>
            <trkpt lat="51.514392" lon="10.895131"><ele>311.4</ele></trkpt>
            <trkpt lat="51.514416" lon="10.894887"><ele>311.6</ele></trkpt>
            <trkpt lat="51.514654" lon="10.894332"><ele>312.1</ele></trkpt>
            <trkpt lat="51.514708" lon="10.894047"><ele>312.8</ele></trkpt>
            <trkpt lat="51.514718" lon="10.893679"><ele>313.7</ele></trkpt>
            <trkpt lat="51.514755" lon="10.893432"><ele>314.4</ele></trkpt>
            <trkpt lat="51.514962" lon="10.892723"><ele>315.4</ele></trkpt>
            <trkpt lat="51.51506" lon="10.892197"><ele>315.8</ele></trkpt>
            <trkpt lat="51.515107" lon="10.891798"><ele>314</ele></trkpt>
            <trkpt lat="51.51517" lon="10.891455"><ele>313.8</ele></trkpt>
            <trkpt lat="51.515265" lon="10.891279"><ele>313.6</ele></trkpt>
            <trkpt lat="51.515559" lon="10.890986"><ele>313.8</ele></trkpt>
            <trkpt lat="51.515684" lon="10.890756"><ele>313.9</ele></trkpt>
            <trkpt lat="51.515819" lon="10.890342"><ele>314.4</ele></trkpt>
            <trkpt lat="51.515847" lon="10.889739"><ele>315.1</ele></trkpt>
            <trkpt lat="51.515853" lon="10.889144"><ele>316.7</ele></trkpt>
            <trkpt lat="51.515898" lon="10.888648"><ele>318.2</ele></trkpt>
            <trkpt lat="51.515855" lon="10.888366"><ele>322</ele></trkpt>
            <trkpt lat="51.515846" lon="10.888012"><ele>317.4</ele></trkpt>
            <trkpt lat="51.515777" lon="10.887376"><ele>313.6</ele></trkpt>
            <trkpt lat="51.515855" lon="10.886675"><ele>314.3</ele></trkpt>
            <trkpt lat="51.515889" lon="10.885998"><ele>319</ele></trkpt>
            <trkpt lat="51.515955" lon="10.885728"><ele>313.9</ele></trkpt>
            <trkpt lat="51.516055" lon="10.885466"><ele>313.7</ele></trkpt>
            <trkpt lat="51.516399" lon="10.885087"><ele>312.6</ele></trkpt>
            <trkpt lat="51.516475" lon="10.88486"><ele>313</ele></trkpt>
            <trkpt lat="51.516589" lon="10.884424"><ele>312</ele></trkpt>
            <trkpt lat="51.516632" lon="10.884042"><ele>308.9</ele></trkpt>
            <trkpt lat="51.516694" lon="10.883717"><ele>306.4</ele></trkpt>
            <trkpt lat="51.516794" lon="10.883393"><ele>302.5</ele></trkpt>
            <trkpt lat="51.516984" lon="10.883192"><ele>301</ele></trkpt>
            <trkpt lat="51.517284" lon="10.882944"><ele>296.1</ele></trkpt>
            <trkpt lat="51.517454" lon="10.882746"><ele>292.8</ele></trkpt>
            <trkpt lat="51.517576" lon="10.882555"><ele>292.2</ele></trkpt>
            <trkpt lat="51.517688" lon="10.882159"><ele>285.8</ele></trkpt>
            <trkpt lat="51.517644" lon="10.881839"><ele>282.3</ele></trkpt>
            <trkpt lat="51.517767" lon="10.881247"><ele>274.7</ele></trkpt>
            <trkpt lat="51.517775" lon="10.880703"><ele>271.4</ele></trkpt>
            <trkpt lat="51.517741" lon="10.880263"><ele>268.1</ele></trkpt>
            <trkpt lat="51.517747" lon="10.879696"><ele>263.1</ele></trkpt>
            <trkpt lat="51.517933" lon="10.879549"><ele>261.1</ele></trkpt>
            <trkpt lat="51.518503" lon="10.879496"><ele>258.1</ele></trkpt>
            <trkpt lat="51.518751" lon="10.879283"><ele>254.5</ele></trkpt>
            <trkpt lat="51.518981" lon="10.879041"><ele>251.8</ele></trkpt>
            <trkpt lat="51.51919" lon="10.878747"><ele>249.9</ele></trkpt>
            <trkpt lat="51.519338" lon="10.878459"><ele>249.4</ele></trkpt>
            <trkpt lat="51.51948" lon="10.878108"><ele>246.9</ele></trkpt>
            <trkpt lat="51.519519" lon="10.877829"><ele>244</ele></trkpt>
            <trkpt lat="51.51957" lon="10.877724"><ele>235</ele></trkpt>
            <trkpt lat="51.519895" lon="10.877425"><ele>225</ele></trkpt>
            <trkpt lat="51.519849" lon="10.877065"><ele>225.4</ele></trkpt>
            <trkpt lat="51.519833" lon="10.876749"><ele>225.5</ele></trkpt>
            <trkpt lat="51.51984" lon="10.876538"><ele>225.6</ele></trkpt>
            <trkpt lat="51.519904" lon="10.876121"><ele>226</ele></trkpt>
            <trkpt lat="51.519915" lon="10.875864"><ele>226</ele></trkpt>
            <trkpt lat="51.520087" lon="10.874598"><ele>229.3</ele></trkpt>
            <trkpt lat="51.520066" lon="10.874514"><ele>231</ele></trkpt>
            <trkpt lat="51.520131" lon="10.87433"><ele>231.3</ele></trkpt>
            <trkpt lat="51.520166" lon="10.873988"><ele>232</ele></trkpt>
            <trkpt lat="51.520276" lon="10.872173"><ele>234.9</ele></trkpt>
            <trkpt lat="51.52029" lon="10.871994"><ele>234.7</ele></trkpt>
            <trkpt lat="51.520318" lon="10.871897"><ele>236</ele></trkpt>
            <trkpt lat="51.52029" lon="10.870781"><ele>238</ele></trkpt>
            <trkpt lat="51.520298" lon="10.869875"><ele>240</ele></trkpt>
            <trkpt lat="51.520337" lon="10.869351"><ele>240</ele></trkpt>
            <trkpt lat="51.52038" lon="10.868814"><ele>241</ele></trkpt>
            <trkpt lat="51.520539" lon="10.86814"><ele>242.6</ele></trkpt>
            <trkpt lat="51.520584" lon="10.867795"><ele>244</ele></trkpt>
            <trkpt lat="51.520564" lon="10.867517"><ele>244.7</ele></trkpt>
            <trkpt lat="51.52049" lon="10.867041"><ele>246</ele></trkpt>
            <trkpt lat="51.520286" lon="10.866752"><ele>246</ele></trkpt>
            <trkpt lat="51.520221" lon="10.866587"><ele>248</ele></trkpt>
            <trkpt lat="51.519984" lon="10.86594"><ele>253</ele></trkpt>
            <trkpt lat="51.519863" lon="10.865739"><ele>259</ele></trkpt>
            <trkpt lat="51.519685" lon="10.865524"><ele>261.6</ele></trkpt>
            <trkpt lat="51.519279" lon="10.865119"><ele>261</ele></trkpt>
            <trkpt lat="51.519104" lon="10.864956"><ele>262</ele></trkpt>
            <trkpt lat="51.518995" lon="10.864891"><ele>268</ele></trkpt>
            <trkpt lat="51.518849" lon="10.86475"><ele>269.5</ele></trkpt>
            <trkpt lat="51.518781" lon="10.864635"><ele>269.3</ele></trkpt>
            <trkpt lat="51.518677" lon="10.864354"><ele>269.2</ele></trkpt>
            <trkpt lat="51.518647" lon="10.864179"><ele>269.1</ele></trkpt>
            <trkpt lat="51.518637" lon="10.863573"><ele>270</ele></trkpt>
            <trkpt lat="51.518613" lon="10.863398"><ele>274</ele></trkpt>
            <trkpt lat="51.518603" lon="10.863319"><ele>275.3</ele></trkpt>
            <trkpt lat="51.518517" lon="10.863035"><ele>276</ele></trkpt>
            <trkpt lat="51.51842" lon="10.862761"><ele>282.4</ele></trkpt>
            <trkpt lat="51.518174" lon="10.86221"><ele>283.6</ele></trkpt>
            <trkpt lat="51.518117" lon="10.862045"><ele>295</ele></trkpt>
            <trkpt lat="51.51806" lon="10.861687"><ele>296.4</ele></trkpt>
            <trkpt lat="51.518037" lon="10.860924"><ele>300</ele></trkpt>
            <trkpt lat="51.517989" lon="10.859799"><ele>305.1</ele></trkpt>
            <trkpt lat="51.517987" lon="10.85893"><ele>305.3</ele></trkpt>
            <trkpt lat="51.517961" lon="10.858559"><ele>306</ele></trkpt>
            <trkpt lat="51.517897" lon="10.858234"><ele>306</ele></trkpt>
            <trkpt lat="51.517788" lon="10.857941"><ele>306</ele></trkpt>
            <trkpt lat="51.517701" lon="10.857935"><ele>304.4</ele></trkpt>
            <trkpt lat="51.517788" lon="10.857941"><ele>306</ele></trkpt>
            <trkpt lat="51.517897" lon="10.858234"><ele>306</ele></trkpt>
            <trkpt lat="51.517961" lon="10.858559"><ele>306</ele></trkpt>
            <trkpt lat="51.517987" lon="10.85893"><ele>305.3</ele></trkpt>
            <trkpt lat="51.517989" lon="10.859799"><ele>305.1</ele></trkpt>
            <trkpt lat="51.518037" lon="10.860924"><ele>300</ele></trkpt>
            <trkpt lat="51.51806" lon="10.861687"><ele>296.4</ele></trkpt>
            <trkpt lat="51.518117" lon="10.862045"><ele>295</ele></trkpt>
            <trkpt lat="51.518174" lon="10.86221"><ele>283.6</ele></trkpt>
            <trkpt lat="51.51842" lon="10.862761"><ele>282.4</ele></trkpt>
            <trkpt lat="51.518517" lon="10.863035"><ele>276</ele></trkpt>
            <trkpt lat="51.518603" lon="10.863319"><ele>275.3</ele></trkpt>
            <trkpt lat="51.518613" lon="10.863398"><ele>274</ele></trkpt>
            <trkpt lat="51.518637" lon="10.863573"><ele>270</ele></trkpt>
            <trkpt lat="51.518647" lon="10.864179"><ele>269.1</ele></trkpt>
            <trkpt lat="51.518677" lon="10.864354"><ele>269.2</ele></trkpt>
            <trkpt lat="51.518781" lon="10.864635"><ele>269.3</ele></trkpt>
            <trkpt lat="51.518849" lon="10.86475"><ele>269.5</ele></trkpt>
            <trkpt lat="51.518995" lon="10.864891"><ele>268</ele></trkpt>
            <trkpt lat="51.519104" lon="10.864956"><ele>262</ele></trkpt>
            <trkpt lat="51.519279" lon="10.865119"><ele>261</ele></trkpt>
            <trkpt lat="51.519685" lon="10.865524"><ele>261.6</ele></trkpt>
            <trkpt lat="51.519863" lon="10.865739"><ele>259</ele></trkpt>
            <trkpt lat="51.519984" lon="10.86594"><ele>253</ele></trkpt>
            <trkpt lat="51.520221" lon="10.866587"><ele>248</ele></trkpt>
            <trkpt lat="51.520286" lon="10.866752"><ele>246</ele></trkpt>
            <trkpt lat="51.52049" lon="10.867041"><ele>246</ele></trkpt>
            <trkpt lat="51.520564" lon="10.867517"><ele>244.7</ele></trkpt>
            <trkpt lat="51.520584" lon="10.867795"><ele>244</ele></trkpt>
            <trkpt lat="51.520539" lon="10.86814"><ele>242.6</ele></trkpt>
            <trkpt lat="51.52038" lon="10.868814"><ele>241</ele></trkpt>
            <trkpt lat="51.520337" lon="10.869351"><ele>240</ele></trkpt>
            <trkpt lat="51.520298" lon="10.869875"><ele>240</ele></trkpt>
            <trkpt lat="51.52029" lon="10.870781"><ele>238</ele></trkpt>
            <trkpt lat="51.520318" lon="10.871897"><ele>236</ele></trkpt>
            <trkpt lat="51.52029" lon="10.871994"><ele>234.7</ele></trkpt>
            <trkpt lat="51.520276" lon="10.872173"><ele>234.9</ele></trkpt>
            <trkpt lat="51.520166" lon="10.873988"><ele>232</ele></trkpt>
            <trkpt lat="51.520131" lon="10.87433"><ele>231.3</ele></trkpt>
            <trkpt lat="51.520066" lon="10.874514"><ele>231</ele></trkpt>
            <trkpt lat="51.520087" lon="10.874598"><ele>229.3</ele></trkpt>
            <trkpt lat="51.519915" lon="10.875864"><ele>226</ele></trkpt>
            <trkpt lat="51.519904" lon="10.876121"><ele>226</ele></trkpt>
            <trkpt lat="51.51984" lon="10.876538"><ele>225.6</ele></trkpt>
            <trkpt lat="51.519833" lon="10.876749"><ele>225.5</ele></trkpt>
            <trkpt lat="51.519849" lon="10.877065"><ele>225.4</ele></trkpt>
            <trkpt lat="51.519895" lon="10.877425"><ele>225</ele></trkpt>
            <trkpt lat="51.51957" lon="10.877724"><ele>235</ele></trkpt>
            <trkpt lat="51.519519" lon="10.877829"><ele>244</ele></trkpt>
            <trkpt lat="51.51948" lon="10.878108"><ele>246.9</ele></trkpt>
            <trkpt lat="51.519338" lon="10.878459"><ele>249.4</ele></trkpt>
            <trkpt lat="51.51919" lon="10.878747"><ele>249.9</ele></trkpt>
            <trkpt lat="51.518981" lon="10.879041"><ele>251.8</ele></trkpt>
            <trkpt lat="51.518751" lon="10.879283"><ele>254.5</ele></trkpt>
            <trkpt lat="51.518503" lon="10.879496"><ele>258.1</ele></trkpt>
            <trkpt lat="51.517933" lon="10.879549"><ele>261.1</ele></trkpt>
            <trkpt lat="51.517747" lon="10.879696"><ele>263.1</ele></trkpt>
            <trkpt lat="51.517741" lon="10.880263"><ele>268.1</ele></trkpt>
            <trkpt lat="51.517775" lon="10.880703"><ele>271.4</ele></trkpt>
            <trkpt lat="51.517767" lon="10.881247"><ele>274.7</ele></trkpt>
            <trkpt lat="51.517644" lon="10.881839"><ele>282.3</ele></trkpt>
            <trkpt lat="51.517688" lon="10.882159"><ele>285.8</ele></trkpt>
            <trkpt lat="51.517576" lon="10.882555"><ele>292.2</ele></trkpt>
            <trkpt lat="51.517454" lon="10.882746"><ele>292.8</ele></trkpt>
            <trkpt lat="51.517284" lon="10.882944"><ele>296.1</ele></trkpt>
            <trkpt lat="51.516984" lon="10.883192"><ele>301</ele></trkpt>
            <trkpt lat="51.516794" lon="10.883393"><ele>302.5</ele></trkpt>
            <trkpt lat="51.516694" lon="10.883717"><ele>306.4</ele></trkpt>
            <trkpt lat="51.516632" lon="10.884042"><ele>308.9</ele></trkpt>
            <trkpt lat="51.516589" lon="10.884424"><ele>312</ele></trkpt>
            <trkpt lat="51.516475" lon="10.88486"><ele>313</ele></trkpt>
            <trkpt lat="51.516399" lon="10.885087"><ele>312.6</ele></trkpt>
            <trkpt lat="51.516055" lon="10.885466"><ele>313.7</ele></trkpt>
            <trkpt lat="51.515955" lon="10.885728"><ele>313.9</ele></trkpt>
            <trkpt lat="51.515889" lon="10.885998"><ele>319</ele></trkpt>
            <trkpt lat="51.515855" lon="10.886675"><ele>314.3</ele></trkpt>
            <trkpt lat="51.515777" lon="10.887376"><ele>313.6</ele></trkpt>
            <trkpt lat="51.515846" lon="10.888012"><ele>317.4</ele></trkpt>
            <trkpt lat="51.515855" lon="10.888366"><ele>322</ele></trkpt>
            <trkpt lat="51.515898" lon="10.888648"><ele>318.2</ele></trkpt>
            <trkpt lat="51.515853" lon="10.889144"><ele>316.7</ele></trkpt>
            <trkpt lat="51.515847" lon="10.889739"><ele>315.1</ele></trkpt>
            <trkpt lat="51.515819" lon="10.890342"><ele>314.4</ele></trkpt>
            <trkpt lat="51.515684" lon="10.890756"><ele>313.9</ele></trkpt>
            <trkpt lat="51.515559" lon="10.890986"><ele>313.8</ele></trkpt>
            <trkpt lat="51.515265" lon="10.891279"><ele>313.6</ele></trkpt>
            <trkpt lat="51.51517" lon="10.891455"><ele>313.8</ele></trkpt>
            <trkpt lat="51.515107" lon="10.891798"><ele>314</ele></trkpt>
            <trkpt lat="51.51506" lon="10.892197"><ele>315.8</ele></trkpt>
            <trkpt lat="51.514962" lon="10.892723"><ele>315.4</ele></trkpt>
            <trkpt lat="51.514755" lon="10.893432"><ele>314.4</ele></trkpt>
            <trkpt lat="51.514718" lon="10.893679"><ele>313.7</ele></trkpt>
            <trkpt lat="51.514708" lon="10.894047"><ele>312.8</ele></trkpt>
            <trkpt lat="51.514654" lon="10.894332"><ele>312.1</ele></trkpt>
            <trkpt lat="51.514416" lon="10.894887"><ele>311.6</ele></trkpt>
            <trkpt lat="51.514392" lon="10.895131"><ele>311.4</ele></trkpt>
            <trkpt lat="51.514381" lon="10.895523"><ele>311.3</ele></trkpt>
            <trkpt lat="51.514242" lon="10.896004"><ele>308</ele></trkpt>
            <trkpt lat="51.514192" lon="10.896569"><ele>305.6</ele></trkpt>
            <trkpt lat="51.514033" lon="10.897294"><ele>304.1</ele></trkpt>
            <trkpt lat="51.513938" lon="10.897537"><ele>303.7</ele></trkpt>
            <trkpt lat="51.513597" lon="10.898038"><ele>303.4</ele></trkpt>
            <trkpt lat="51.513524" lon="10.89826"><ele>303.1</ele></trkpt>
            <trkpt lat="51.513467" lon="10.898548"><ele>297</ele></trkpt>
            <trkpt lat="51.513316" lon="10.899016"><ele>299.5</ele></trkpt>
            <trkpt lat="51.513057" lon="10.899679"><ele>296.9</ele></trkpt>
            <trkpt lat="51.512729" lon="10.90059"><ele>296.1</ele></trkpt>
            <trkpt lat="51.512605" lon="10.901242"><ele>293</ele></trkpt>
            <trkpt lat="51.512886" lon="10.901292"><ele>289.6</ele></trkpt>
            <trkpt lat="51.513032" lon="10.901351"><ele>289.9</ele></trkpt>
            <trkpt lat="51.513167" lon="10.901541"><ele>289.7</ele></trkpt>
            <trkpt lat="51.51323" lon="10.901799"><ele>289.6</ele></trkpt>
            <trkpt lat="51.513263" lon="10.902061"><ele>288.5</ele></trkpt>
            <trkpt lat="51.513261" lon="10.902534"><ele>288.1</ele></trkpt>
            <trkpt lat="51.513203" lon="10.903276"><ele>286.7</ele></trkpt>
            <trkpt lat="51.513141" lon="10.90367"><ele>284.3</ele></trkpt>
            <trkpt lat="51.513025" lon="10.90408"><ele>277</ele></trkpt>
            <trkpt lat="51.512663" lon="10.905204"><ele>276.9</ele></trkpt>
            <trkpt lat="51.51257" lon="10.905625"><ele>276.8</ele></trkpt>
            <trkpt lat="51.512404" lon="10.906268"><ele>277</ele></trkpt>
            <trkpt lat="51.511781" lon="10.905885"><ele>277.5</ele></trkpt>
            <trkpt lat="51.511519" lon="10.90585"><ele>277.5</ele></trkpt>
            <trkpt lat="51.511148" lon="10.905884"><ele>278</ele></trkpt>
            <trkpt lat="51.510813" lon="10.906044"><ele>283</ele></trkpt>
            <trkpt lat="51.510671" lon="10.906125"><ele>283</ele></trkpt>
            <trkpt lat="51.510554" lon="10.906253"><ele>283</ele></trkpt>
            <trkpt lat="51.510434" lon="10.906384"><ele>283</ele></trkpt>
            <trkpt lat="51.510093" lon="10.906761"><ele>277.7</ele></trkpt>
            <trkpt lat="51.509841" lon="10.907009"><ele>277.1</ele></trkpt>
            <trkpt lat="51.509704" lon="10.907115"><ele>276.6</ele></trkpt>
            <trkpt lat="51.509397" lon="10.90728"><ele>276.1</ele></trkpt>
            <trkpt lat="51.509087" lon="10.90739"><ele>271</ele></trkpt>
            <trkpt lat="51.50914" lon="10.908015"><ele>272</ele></trkpt>
            <trkpt lat="51.509153" lon="10.908327"><ele>275.6</ele></trkpt>
            <trkpt lat="51.509125" lon="10.909153"><ele>276.3</ele></trkpt>
            <trkpt lat="51.509263" lon="10.909842"><ele>280</ele></trkpt>
            <trkpt lat="51.50925" lon="10.91009"><ele>299</ele></trkpt>
            <trkpt lat="51.509156" lon="10.910555"><ele>302.4</ele></trkpt>
            <trkpt lat="51.509016" lon="10.911037"><ele>304</ele></trkpt>
            <trkpt lat="51.508913" lon="10.911252"><ele>304</ele></trkpt>
            <trkpt lat="51.50894" lon="10.911582"><ele>305.2</ele></trkpt>
            <trkpt lat="51.509023" lon="10.911756"><ele>306.3</ele></trkpt>
            <trkpt lat="51.509042" lon="10.9121"><ele>308</ele></trkpt>
            <trkpt lat="51.509267" lon="10.912602"><ele>310.9</ele></trkpt>
            <trkpt lat="51.50931" lon="10.912823"><ele>311.7</ele></trkpt>
            <trkpt lat="51.509368" lon="10.913694"><ele>317</ele></trkpt>
            <trkpt lat="51.509317" lon="10.914328"><ele>322.8</ele></trkpt>
            <trkpt lat="51.509268" lon="10.914723"><ele>325.9</ele></trkpt>
            <trkpt lat="51.509125" lon="10.915148"><ele>329.4</ele></trkpt>
            <trkpt lat="51.508881" lon="10.915757"><ele>333</ele></trkpt>
            <trkpt lat="51.50876" lon="10.915976"><ele>331.9</ele></trkpt>
            <trkpt lat="51.50855" lon="10.916112"><ele>332.5</ele></trkpt>
            <trkpt lat="51.508255" lon="10.916223"><ele>335</ele></trkpt>
            <trkpt lat="51.508199" lon="10.916357"><ele>329.8</ele></trkpt>
            <trkpt lat="51.50818" lon="10.916771"><ele>329.1</ele></trkpt>
            <trkpt lat="51.508079" lon="10.917473"><ele>328.9</ele></trkpt>
            <trkpt lat="51.50817" lon="10.917808"><ele>328.7</ele></trkpt>
            <trkpt lat="51.508195" lon="10.918046"><ele>329</ele></trkpt>
            <trkpt lat="51.508104" lon="10.918294"><ele>326</ele></trkpt>
            <trkpt lat="51.508041" lon="10.918284"><ele>326</ele></trkpt>
            <trkpt lat="51.507957" lon="10.918308"><ele>326</ele></trkpt>
            <trkpt lat="51.507944" lon="10.918696"><ele>321.6</ele></trkpt>
            <trkpt lat="51.507832" lon="10.919229"><ele>321.1</ele></trkpt>
            <trkpt lat="51.507849" lon="10.919561"><ele>320.6</ele></trkpt>
            <trkpt lat="51.50791" lon="10.919841"><ele>320.6</ele></trkpt>
            <trkpt lat="51.50794" lon="10.920148"><ele>320.5</ele></trkpt>
            <trkpt lat="51.508118" lon="10.920513"><ele>319.9</ele></trkpt>
            <trkpt lat="51.508163" lon="10.920692"><ele>319.8</ele></trkpt>
            <trkpt lat="51.508082" lon="10.921066"><ele>319.5</ele></trkpt>
            <trkpt lat="51.507956" lon="10.921403"><ele>316</ele></trkpt>
            <trkpt lat="51.507861" lon="10.921517"><ele>310.3</ele></trkpt>
            <trkpt lat="51.507707" lon="10.921919"><ele>309</ele></trkpt>
            <trkpt lat="51.507601" lon="10.922114"><ele>308.9</ele></trkpt>
            <trkpt lat="51.507484" lon="10.922273"><ele>308.1</ele></trkpt>
            <trkpt lat="51.507116" lon="10.922437"><ele>307.7</ele></trkpt>
            <trkpt lat="51.506919" lon="10.922631"><ele>307.4</ele></trkpt>
            <trkpt lat="51.506754" lon="10.922833"><ele>305.9</ele></trkpt>
            <trkpt lat="51.506172" lon="10.923323"><ele>303.3</ele></trkpt>
            <trkpt lat="51.505811" lon="10.923498"><ele>302.8</ele></trkpt>
            <trkpt lat="51.505686" lon="10.923711"><ele>302.2</ele></trkpt>
            <trkpt lat="51.505559" lon="10.924025"><ele>301.6</ele></trkpt>
            <trkpt lat="51.505407" lon="10.924299"><ele>301.4</ele></trkpt>
            <trkpt lat="51.505348" lon="10.924463"><ele>298</ele></trkpt>
            <trkpt lat="51.505196" lon="10.924766"><ele>293.3</ele></trkpt>
            <trkpt lat="51.504908" lon="10.925483"><ele>292.3</ele></trkpt>
            <trkpt lat="51.504665" lon="10.926009"><ele>292.5</ele></trkpt>
            <trkpt lat="51.504636" lon="10.926251"><ele>292.7</ele></trkpt>
            <trkpt lat="51.504648" lon="10.926499"><ele>292.2</ele></trkpt>
            <trkpt lat="51.504727" lon="10.926864"><ele>291</ele></trkpt>
            <trkpt lat="51.504742" lon="10.926976"><ele>291.5</ele></trkpt>
            <trkpt lat="51.504792" lon="10.92704"><ele>291.6</ele></trkpt>
            <trkpt lat="51.504832" lon="10.927181"><ele>291.7</ele></trkpt>
            <trkpt lat="51.504768" lon="10.927559"><ele>294</ele></trkpt>
            <trkpt lat="51.50477" lon="10.927609"><ele>294</ele></trkpt>
            <trkpt lat="51.50475" lon="10.927748"><ele>294</ele></trkpt>
            <trkpt lat="51.504738" lon="10.928051"><ele>294</ele></trkpt>
            <trkpt lat="51.504704" lon="10.928202"><ele>294</ele></trkpt>
            <trkpt lat="51.504668" lon="10.928284"><ele>294</ele></trkpt>
            <trkpt lat="51.504151" lon="10.928901"><ele>309.1</ele></trkpt>
            <trkpt lat="51.503867" lon="10.929399"><ele>311.5</ele></trkpt>
            <trkpt lat="51.503601" lon="10.930434"><ele>317.9</ele></trkpt>
            <trkpt lat="51.503561" lon="10.930664"><ele>318.7</ele></trkpt>
            <trkpt lat="51.503558" lon="10.932047"><ele>323.1</ele></trkpt>
            <trkpt lat="51.50355" lon="10.932349"><ele>322.4</ele></trkpt>
            <trkpt lat="51.503517" lon="10.932467"><ele>327</ele></trkpt>
            <trkpt lat="51.503414" lon="10.932658"><ele>324.3</ele></trkpt>
            <trkpt lat="51.503293" lon="10.932745"><ele>323.9</ele></trkpt>
            <trkpt lat="51.502589" lon="10.93256"><ele>323.6</ele></trkpt>
            <trkpt lat="51.502448" lon="10.932568"><ele>316</ele></trkpt>
            <trkpt lat="51.502415" lon="10.932623"><ele>315.2</ele></trkpt>
            <trkpt lat="51.502351" lon="10.932869"><ele>315</ele></trkpt>
            <trkpt lat="51.501882" lon="10.934206"><ele>315</ele></trkpt>
            <trkpt lat="51.501319" lon="10.935752"><ele>316.3</ele></trkpt>
            <trkpt lat="51.50096" lon="10.936691"><ele>317</ele></trkpt>
            <trkpt lat="51.500763" lon="10.937177"><ele>314</ele></trkpt>
            <trkpt lat="51.500557" lon="10.937747"><ele>312</ele></trkpt>
            <trkpt lat="51.500537" lon="10.937956"><ele>311.3</ele></trkpt>
            <trkpt lat="51.50056" lon="10.938553"><ele>310</ele></trkpt>
            <trkpt lat="51.5006" lon="10.939041"><ele>310.5</ele></trkpt>
            <trkpt lat="51.500597" lon="10.939134"><ele>310.6</ele></trkpt>
            <trkpt lat="51.500582" lon="10.939242"><ele>310.6</ele></trkpt>
            <trkpt lat="51.500447" lon="10.939628"><ele>311</ele></trkpt>
            <trkpt lat="51.500508" lon="10.939729"><ele>308.1</ele></trkpt>
            <trkpt lat="51.500606" lon="10.94004"><ele>307.9</ele></trkpt>
            <trkpt lat="51.500686" lon="10.94023"><ele>307.3</ele></trkpt>
            <trkpt lat="51.500835" lon="10.940414"><ele>307.1</ele></trkpt>
            <trkpt lat="51.500887" lon="10.940571"><ele>306.9</ele></trkpt>
            <trkpt lat="51.5009" lon="10.940685"><ele>306.9</ele></trkpt>
            <trkpt lat="51.500884" lon="10.940847"><ele>306.8</ele></trkpt>
            <trkpt lat="51.500859" lon="10.940932"><ele>307</ele></trkpt>
            <trkpt lat="51.500807" lon="10.940976"><ele>307.2</ele></trkpt>
            <trkpt lat="51.500698" lon="10.940994"><ele>307.6</ele></trkpt>
            <trkpt lat="51.500546" lon="10.940809"><ele>308.2</ele></trkpt>
            <trkpt lat="51.500523" lon="10.940739"><ele>308</ele></trkpt>
            <trkpt lat="51.500497" lon="10.940718"><ele>307.8</ele></trkpt>
            <trkpt lat="51.500473" lon="10.940719"><ele>307.7</ele></trkpt>
            <trkpt lat="51.500351" lon="10.94089"><ele>303</ele></trkpt>
            <trkpt lat="51.500244" lon="10.941024"><ele>305.1</ele></trkpt>
            <trkpt lat="51.500188" lon="10.941197"><ele>305.4</ele></trkpt>
            <trkpt lat="51.500082" lon="10.941432"><ele>306</ele></trkpt>
            <trkpt lat="51.50002" lon="10.941503"><ele>306.4</ele></trkpt>
            <trkpt lat="51.499971" lon="10.941602"><ele>318</ele></trkpt>
            <trkpt lat="51.499897" lon="10.941672"><ele>310.2</ele></trkpt>
            <trkpt lat="51.499794" lon="10.941716"><ele>309.6</ele></trkpt>
            <trkpt lat="51.499703" lon="10.9418"><ele>309.4</ele></trkpt>
            <trkpt lat="51.499502" lon="10.942158"><ele>306.9</ele></trkpt>
            <trkpt lat="51.499432" lon="10.942513"><ele>306</ele></trkpt>
            <trkpt lat="51.499458" lon="10.942745"><ele>307</ele></trkpt>
            <trkpt lat="51.499532" lon="10.942957"><ele>307.5</ele></trkpt>
            <trkpt lat="51.499558" lon="10.94344"><ele>308</ele></trkpt>
            <trkpt lat="51.499565" lon="10.94397"><ele>308</ele></trkpt>
            <trkpt lat="51.499518" lon="10.944106"><ele>306.4</ele></trkpt>
            <trkpt lat="51.499421" lon="10.944224"><ele>304.8</ele></trkpt>
            <trkpt lat="51.499227" lon="10.944284"><ele>305.4</ele></trkpt>
            <trkpt lat="51.499108" lon="10.944513"><ele>304.5</ele></trkpt>
            <trkpt lat="51.499063" lon="10.944644"><ele>303.1</ele></trkpt>
            <trkpt lat="51.499004" lon="10.944681"><ele>302.5</ele></trkpt>
            <trkpt lat="51.498946" lon="10.944805"><ele>301</ele></trkpt>
            <trkpt lat="51.498906" lon="10.944959"><ele>299.5</ele></trkpt>
            <trkpt lat="51.498892" lon="10.945544"><ele>296.5</ele></trkpt>
            <trkpt lat="51.498861" lon="10.945662"><ele>296.1</ele></trkpt>
            <trkpt lat="51.498879" lon="10.945865"><ele>294.6</ele></trkpt>
            <trkpt lat="51.49893" lon="10.945972"><ele>294.6</ele></trkpt>
            <trkpt lat="51.499122" lon="10.946129"><ele>294.5</ele></trkpt>
            <trkpt lat="51.499199" lon="10.946219"><ele>294</ele></trkpt>
            <trkpt lat="51.499243" lon="10.946331"><ele>294.3</ele></trkpt>
            <trkpt lat="51.499266" lon="10.946451"><ele>293.3</ele></trkpt>
            <trkpt lat="51.499268" lon="10.946588"><ele>293.1</ele></trkpt>
            <trkpt lat="51.499238" lon="10.946715"><ele>292.9</ele></trkpt>
            <trkpt lat="51.499145" lon="10.946946"><ele>292.5</ele></trkpt>
            <trkpt lat="51.499077" lon="10.947063"><ele>292.6</ele></trkpt>
            <trkpt lat="51.498967" lon="10.947159"><ele>292.9</ele></trkpt>
            <trkpt lat="51.49865" lon="10.947305"><ele>282</ele></trkpt>
            <trkpt lat="51.498395" lon="10.947653"><ele>278.7</ele></trkpt>
            <trkpt lat="51.498272" lon="10.947734"><ele>279.8</ele></trkpt>
            <trkpt lat="51.498193" lon="10.948"><ele>279.7</ele></trkpt>
            <trkpt lat="51.498152" lon="10.948059"><ele>280</ele></trkpt>
            <trkpt lat="51.498114" lon="10.948096"><ele>280</ele></trkpt>
            <trkpt lat="51.498108" lon="10.947999"><ele>280</ele></trkpt>
            <trkpt lat="51.498004" lon="10.947781"><ele>280</ele></trkpt>
        </trkseg>
    </trk>
</gpx>
