<?xml version="1.0" encoding="UTF-8"?>
<gpx version="1.1" creator="HWN Route Compare (OpenRouteService)" xmlns="http://www.topografix.com/GPX/1/1">
    <metadata>
        <name>OpenRouteService – Tour G4</name>
    </metadata>
    <trk>
        <name>OpenRouteService – Tour G4</name>
        <trkseg>
            <trkpt lat="51.5718" lon="10.952712"><ele>380</ele></trkpt>
            <trkpt lat="51.57174" lon="10.952739"><ele>380</ele></trkpt>
            <trkpt lat="51.571761" lon="10.95268"><ele>380</ele></trkpt>
            <trkpt lat="51.571718" lon="10.952591"><ele>380</ele></trkpt>
            <trkpt lat="51.571713" lon="10.952535"><ele>380</ele></trkpt>
            <trkpt lat="51.571706" lon="10.952473"><ele>398.4</ele></trkpt>
            <trkpt lat="51.571745" lon="10.95227"><ele>397.7</ele></trkpt>
            <trkpt lat="51.571748" lon="10.952095"><ele>396.8</ele></trkpt>
            <trkpt lat="51.571699" lon="10.951856"><ele>401</ele></trkpt>
            <trkpt lat="51.571634" lon="10.950773"><ele>417.9</ele></trkpt>
            <trkpt lat="51.571653" lon="10.950567"><ele>417.9</ele></trkpt>
            <trkpt lat="51.57169" lon="10.950461"><ele>417.8</ele></trkpt>
            <trkpt lat="51.571692" lon="10.950378"><ele>418</ele></trkpt>
            <trkpt lat="51.571682" lon="10.95026"><ele>418.3</ele></trkpt>
            <trkpt lat="51.571578" lon="10.949839"><ele>418.5</ele></trkpt>
            <trkpt lat="51.571567" lon="10.949718"><ele>418.3</ele></trkpt>
            <trkpt lat="51.571574" lon="10.949517"><ele>419.6</ele></trkpt>
            <trkpt lat="51.57163" lon="10.949118"><ele>419.2</ele></trkpt>
            <trkpt lat="51.571616" lon="10.949059"><ele>425</ele></trkpt>
            <trkpt lat="51.571605" lon="10.948951"><ele>424.6</ele></trkpt>
            <trkpt lat="51.571614" lon="10.948033"><ele>424.4</ele></trkpt>
            <trkpt lat="51.571585" lon="10.947762"><ele>424</ele></trkpt>
            <trkpt lat="51.571608" lon="10.947633"><ele>426.7</ele></trkpt>
            <trkpt lat="51.571612" lon="10.947368"><ele>426.2</ele></trkpt>
            <trkpt lat="51.571671" lon="10.946878"><ele>426.3</ele></trkpt>
            <trkpt lat="51.571839" lon="10.946041"><ele>433</ele></trkpt>
            <trkpt lat="51.572017" lon="10.94478"><ele>440.6</ele></trkpt>
            <trkpt lat="51.572028" lon="10.944499"><ele>441.2</ele></trkpt>
            <trkpt lat="51.572012" lon="10.944022"><ele>442.2</ele></trkpt>
            <trkpt lat="51.572095" lon="10.943254"><ele>443.7</ele></trkpt>
            <trkpt lat="51.572091" lon="10.94308"><ele>443.6</ele></trkpt>
            <trkpt lat="51.572039" lon="10.942645"><ele>444</ele></trkpt>
            <trkpt lat="51.571962" lon="10.942287"><ele>444.3</ele></trkpt>
            <trkpt lat="51.571925" lon="10.942184"><ele>449</ele></trkpt>
            <trkpt lat="51.571937" lon="10.942043"><ele>450.7</ele></trkpt>
            <trkpt lat="51.571922" lon="10.941925"><ele>451</ele></trkpt>
            <trkpt lat="51.571731" lon="10.941322"><ele>451.6</ele></trkpt>
            <trkpt lat="51.571664" lon="10.940927"><ele>451.8</ele></trkpt>
            <trkpt lat="51.571576" lon="10.939501"><ele>453.3</ele></trkpt>
            <trkpt lat="51.571572" lon="10.939262"><ele>453.3</ele></trkpt>
            <trkpt lat="51.57159" lon="10.938945"><ele>458</ele></trkpt>
            <trkpt lat="51.571729" lon="10.937373"><ele>466.4</ele></trkpt>
            <trkpt lat="51.571779" lon="10.937032"><ele>466</ele></trkpt>
            <trkpt lat="51.571833" lon="10.936819"><ele>468</ele></trkpt>
            <trkpt lat="51.571943" lon="10.936519"><ele>468</ele></trkpt>
            <trkpt lat="51.572029" lon="10.936305"><ele>468</ele></trkpt>
            <trkpt lat="51.572331" lon="10.93558"><ele>468</ele></trkpt>
            <trkpt lat="51.572985" lon="10.93385"><ele>470.5</ele></trkpt>
            <trkpt lat="51.573296" lon="10.932854"><ele>469</ele></trkpt>
            <trkpt lat="51.5734" lon="10.932522"><ele>464</ele></trkpt>
            <trkpt lat="51.574578" lon="10.929944"><ele>463</ele></trkpt>
            <trkpt lat="51.574931" lon="10.929191"><ele>463.3</ele></trkpt>
            <trkpt lat="51.575088" lon="10.928821"><ele>463.6</ele></trkpt>
            <trkpt lat="51.575421" lon="10.927422"><ele>462</ele></trkpt>
            <trkpt lat="51.575537" lon="10.927205"><ele>461.4</ele></trkpt>
            <trkpt lat="51.576029" lon="10.926435"><ele>453</ele></trkpt>
            <trkpt lat="51.576847" lon="10.924507"><ele>455</ele></trkpt>
            <trkpt lat="51.576925" lon="10.924414"><ele>458.8</ele></trkpt>
            <trkpt lat="51.577604" lon="10.923998"><ele>459.4</ele></trkpt>
            <trkpt lat="51.577672" lon="10.92401"><ele>464</ele></trkpt>
            <trkpt lat="51.577689" lon="10.923762"><ele>464.3</ele></trkpt>
            <trkpt lat="51.577668" lon="10.923099"><ele>465</ele></trkpt>
            <trkpt lat="51.577422" lon="10.922557"><ele>461.6</ele></trkpt>
            <trkpt lat="51.577223" lon="10.921983"><ele>461.2</ele></trkpt>
            <trkpt lat="51.57667" lon="10.919758"><ele>466.3</ele></trkpt>
            <trkpt lat="51.576364" lon="10.918383"><ele>469.1</ele></trkpt>
            <trkpt lat="51.576322" lon="10.917815"><ele>471.3</ele></trkpt>
            <trkpt lat="51.5763" lon="10.917213"><ele>473.2</ele></trkpt>
            <trkpt lat="51.576305" lon="10.916832"><ele>474</ele></trkpt>
            <trkpt lat="51.576265" lon="10.916049"><ele>473</ele></trkpt>
            <trkpt lat="51.576161" lon="10.915359"><ele>469.7</ele></trkpt>
            <trkpt lat="51.576019" lon="10.914661"><ele>469</ele></trkpt>
            <trkpt lat="51.575922" lon="10.914036"><ele>468.4</ele></trkpt>
            <trkpt lat="51.575888" lon="10.91291"><ele>467.6</ele></trkpt>
            <trkpt lat="51.575822" lon="10.912636"><ele>467.4</ele></trkpt>
            <trkpt lat="51.575688" lon="10.912261"><ele>467.3</ele></trkpt>
            <trkpt lat="51.575661" lon="10.911923"><ele>467.2</ele></trkpt>
            <trkpt lat="51.575687" lon="10.911483"><ele>468.1</ele></trkpt>
            <trkpt lat="51.575827" lon="10.910999"><ele>470.4</ele></trkpt>
            <trkpt lat="51.575971" lon="10.910564"><ele>473</ele></trkpt>
            <trkpt lat="51.576612" lon="10.908922"><ele>486.5</ele></trkpt>
            <trkpt lat="51.576666" lon="10.908652"><ele>487.2</ele></trkpt>
            <trkpt lat="51.576649" lon="10.908211"><ele>488.7</ele></trkpt>
            <trkpt lat="51.576598" lon="10.907831"><ele>489.9</ele></trkpt>
            <trkpt lat="51.576456" lon="10.907591"><ele>490</ele></trkpt>
            <trkpt lat="51.57604" lon="10.907553"><ele>491.9</ele></trkpt>
            <trkpt lat="51.575745" lon="10.907468"><ele>494.4</ele></trkpt>
            <trkpt lat="51.575524" lon="10.907489"><ele>498.3</ele></trkpt>
            <trkpt lat="51.575315" lon="10.907655"><ele>499.5</ele></trkpt>
            <trkpt lat="51.575001" lon="10.908024"><ele>502.3</ele></trkpt>
            <trkpt lat="51.574789" lon="10.90814"><ele>501</ele></trkpt>
            <trkpt lat="51.574577" lon="10.908058"><ele>498.5</ele></trkpt>
            <trkpt lat="51.574387" lon="10.907875"><ele>498.9</ele></trkpt>
            <trkpt lat="51.573068" lon="10.906377"><ele>491.1</ele></trkpt>
            <trkpt lat="51.572821" lon="10.906068"><ele>489.8</ele></trkpt>
            <trkpt lat="51.572664" lon="10.905837"><ele>488</ele></trkpt>
            <trkpt lat="51.571809" lon="10.904309"><ele>482.6</ele></trkpt>
            <trkpt lat="51.570763" lon="10.902792"><ele>482.9</ele></trkpt>
            <trkpt lat="51.570661" lon="10.902702"><ele>483.4</ele></trkpt>
            <trkpt lat="51.570587" lon="10.902694"><ele>486</ele></trkpt>
            <trkpt lat="51.570168" lon="10.901901"><ele>489.2</ele></trkpt>
            <trkpt lat="51.569813" lon="10.900941"><ele>490.1</ele></trkpt>
            <trkpt lat="51.569542" lon="10.900053"><ele>490</ele></trkpt>
            <trkpt lat="51.569459" lon="10.899781"><ele>478.1</ele></trkpt>
            <trkpt lat="51.569343" lon="10.899027"><ele>472.1</ele></trkpt>
            <trkpt lat="51.569246" lon="10.898183"><ele>468.5</ele></trkpt>
            <trkpt lat="51.569195" lon="10.897519"><ele>459.6</ele></trkpt>
            <trkpt lat="51.569085" lon="10.896913"><ele>457.4</ele></trkpt>
            <trkpt lat="51.56893" lon="10.896436"><ele>451.3</ele></trkpt>
            <trkpt lat="51.568692" lon="10.895966"><ele>445.9</ele></trkpt>
            <trkpt lat="51.568473" lon="10.895605"><ele>441.9</ele></trkpt>
            <trkpt lat="51.568138" lon="10.895218"><ele>435.2</ele></trkpt>
            <trkpt lat="51.567734" lon="10.894822"><ele>424</ele></trkpt>
            <trkpt lat="51.567596" lon="10.894699"><ele>424</ele></trkpt>
            <trkpt lat="51.566678" lon="10.894082"><ele>418.9</ele></trkpt>
            <trkpt lat="51.56646" lon="10.894035"><ele>419.1</ele></trkpt>
            <trkpt lat="51.566113" lon="10.894005"><ele>418.9</ele></trkpt>
            <trkpt lat="51.565856" lon="10.893821"><ele>420.6</ele></trkpt>
            <trkpt lat="51.565355" lon="10.89331"><ele>416</ele></trkpt>
            <trkpt lat="51.564973" lon="10.892993"><ele>408.9</ele></trkpt>
            <trkpt lat="51.564265" lon="10.892537"><ele>406.9</ele></trkpt>
            <trkpt lat="51.56384" lon="10.892284"><ele>403.6</ele></trkpt>
            <trkpt lat="51.563455" lon="10.89217"><ele>400.6</ele></trkpt>
            <trkpt lat="51.56303" lon="10.892082"><ele>397.9</ele></trkpt>
            <trkpt lat="51.562613" lon="10.892082"><ele>396.4</ele></trkpt>
            <trkpt lat="51.56233" lon="10.89224"><ele>395.4</ele></trkpt>
            <trkpt lat="51.562165" lon="10.892366"><ele>395.1</ele></trkpt>
            <trkpt lat="51.561931" lon="10.892362"><ele>394.1</ele></trkpt>
            <trkpt lat="51.561695" lon="10.892218"><ele>394.6</ele></trkpt>
            <trkpt lat="51.561513" lon="10.891838"><ele>395.8</ele></trkpt>
            <trkpt lat="51.561384" lon="10.891426"><ele>396.7</ele></trkpt>
            <trkpt lat="51.561199" lon="10.890991"><ele>397.5</ele></trkpt>
            <trkpt lat="51.561026" lon="10.890701"><ele>399.3</ele></trkpt>
            <trkpt lat="51.560884" lon="10.890609"><ele>399.4</ele></trkpt>
            <trkpt lat="51.560707" lon="10.890651"><ele>401</ele></trkpt>
            <trkpt lat="51.56039" lon="10.890916"><ele>401.3</ele></trkpt>
            <trkpt lat="51.560254" lon="10.891002"><ele>403</ele></trkpt>
            <trkpt lat="51.560573" lon="10.890281"><ele>406.8</ele></trkpt>
            <trkpt lat="51.56093" lon="10.88939"><ele>408.6</ele></trkpt>
            <trkpt lat="51.561252" lon="10.888642"><ele>411.4</ele></trkpt>
            <trkpt lat="51.561474" lon="10.887977"><ele>416</ele></trkpt>
            <trkpt lat="51.561337" lon="10.887673"><ele>417.4</ele></trkpt>
            <trkpt lat="51.561336" lon="10.887403"><ele>417.5</ele></trkpt>
            <trkpt lat="51.561431" lon="10.886718"><ele>418.2</ele></trkpt>
            <trkpt lat="51.561581" lon="10.886415"><ele>418.5</ele></trkpt>
            <trkpt lat="51.561687" lon="10.886145"><ele>417.6</ele></trkpt>
            <trkpt lat="51.561738" lon="10.885652"><ele>418.1</ele></trkpt>
            <trkpt lat="51.561618" lon="10.885126"><ele>420</ele></trkpt>
            <trkpt lat="51.561588" lon="10.884618"><ele>421.6</ele></trkpt>
            <trkpt lat="51.561489" lon="10.883976"><ele>425.8</ele></trkpt>
            <trkpt lat="51.561326" lon="10.883184"><ele>428</ele></trkpt>
            <trkpt lat="51.561213" lon="10.882896"><ele>428.7</ele></trkpt>
            <trkpt lat="51.561082" lon="10.882406"><ele>429</ele></trkpt>
            <trkpt lat="51.561018" lon="10.882011"><ele>429</ele></trkpt>
            <trkpt lat="51.560879" lon="10.881156"><ele>435.8</ele></trkpt>
            <trkpt lat="51.560756" lon="10.880605"><ele>434.9</ele></trkpt>
            <trkpt lat="51.560713" lon="10.880495"><ele>434.4</ele></trkpt>
            <trkpt lat="51.56056" lon="10.88025"><ele>432.1</ele></trkpt>
            <trkpt lat="51.560447" lon="10.879941"><ele>429.7</ele></trkpt>
            <trkpt lat="51.560369" lon="10.87979"><ele>428.1</ele></trkpt>
            <trkpt lat="51.560292" lon="10.879486"><ele>426.3</ele></trkpt>
            <trkpt lat="51.56017" lon="10.878757"><ele>419.1</ele></trkpt>
            <trkpt lat="51.56013" lon="10.877974"><ele>412.8</ele></trkpt>
            <trkpt lat="51.560033" lon="10.877514"><ele>409.7</ele></trkpt>
            <trkpt lat="51.559936" lon="10.877235"><ele>386</ele></trkpt>
            <trkpt lat="51.559586" lon="10.877003"><ele>388.3</ele></trkpt>
            <trkpt lat="51.559455" lon="10.876858"><ele>388.1</ele></trkpt>
            <trkpt lat="51.559355" lon="10.876828"><ele>387.9</ele></trkpt>
            <trkpt lat="51.559233" lon="10.876823"><ele>387.8</ele></trkpt>
            <trkpt lat="51.559106" lon="10.87688"><ele>388.2</ele></trkpt>
            <trkpt lat="51.559006" lon="10.876931"><ele>388.5</ele></trkpt>
            <trkpt lat="51.558896" lon="10.877052"><ele>388.9</ele></trkpt>
            <trkpt lat="51.55877" lon="10.877024"><ele>389.5</ele></trkpt>
            <trkpt lat="51.558752" lon="10.876974"><ele>393</ele></trkpt>
            <trkpt lat="51.558693" lon="10.877026"><ele>393.9</ele></trkpt>
            <trkpt lat="51.558323" lon="10.877549"><ele>393.9</ele></trkpt>
            <trkpt lat="51.558199" lon="10.877859"><ele>394</ele></trkpt>
            <trkpt lat="51.557891" lon="10.878205"><ele>395</ele></trkpt>
            <trkpt lat="51.557724" lon="10.878364"><ele>394.3</ele></trkpt>
            <trkpt lat="51.557609" lon="10.878441"><ele>395.2</ele></trkpt>
            <trkpt lat="51.55749" lon="10.878478"><ele>394.4</ele></trkpt>
            <trkpt lat="51.557338" lon="10.878472"><ele>394.4</ele></trkpt>
            <trkpt lat="51.557115" lon="10.878364"><ele>393</ele></trkpt>
            <trkpt lat="51.55699" lon="10.878371"><ele>392.4</ele></trkpt>
            <trkpt lat="51.556853" lon="10.878446"><ele>392.5</ele></trkpt>
            <trkpt lat="51.556474" lon="10.878762"><ele>389.8</ele></trkpt>
            <trkpt lat="51.556174" lon="10.878913"><ele>386.7</ele></trkpt>
            <trkpt lat="51.55602" lon="10.879093"><ele>384.9</ele></trkpt>
            <trkpt lat="51.555819" lon="10.879416"><ele>382.5</ele></trkpt>
            <trkpt lat="51.555572" lon="10.879628"><ele>380.5</ele></trkpt>
            <trkpt lat="51.55541" lon="10.87984"><ele>379.5</ele></trkpt>
            <trkpt lat="51.555327" lon="10.880066"><ele>378.2</ele></trkpt>
            <trkpt lat="51.555216" lon="10.880479"><ele>377.3</ele></trkpt>
            <trkpt lat="51.555039" lon="10.880739"><ele>377</ele></trkpt>
            <trkpt lat="51.555088" lon="10.880486"><ele>375</ele></trkpt>
            <trkpt lat="51.555113" lon="10.880088"><ele>374.5</ele></trkpt>
            <trkpt lat="51.555082" lon="10.879866"><ele>374.3</ele></trkpt>
            <trkpt lat="51.555054" lon="10.879771"><ele>374.5</ele></trkpt>
            <trkpt lat="51.555009" lon="10.879708"><ele>373</ele></trkpt>
            <trkpt lat="51.554924" lon="10.879669"><ele>363.9</ele></trkpt>
            <trkpt lat="51.554793" lon="10.879667"><ele>363.6</ele></trkpt>
            <trkpt lat="51.55435" lon="10.879749"><ele>362.3</ele></trkpt>
            <trkpt lat="51.554157" lon="10.879738"><ele>344</ele></trkpt>
            <trkpt lat="51.554135" lon="10.879778"><ele>344</ele></trkpt>
            <trkpt lat="51.554116" lon="10.879774"><ele>344</ele></trkpt>
            <trkpt lat="51.554097" lon="10.879735"><ele>344</ele></trkpt>
            <trkpt lat="51.554014" lon="10.879729"><ele>348.2</ele></trkpt>
            <trkpt lat="51.553941" lon="10.879779"><ele>347.8</ele></trkpt>
            <trkpt lat="51.55393" lon="10.879812"><ele>347.5</ele></trkpt>
            <trkpt lat="51.553941" lon="10.879779"><ele>347.8</ele></trkpt>
            <trkpt lat="51.554014" lon="10.879729"><ele>348.2</ele></trkpt>
            <trkpt lat="51.554097" lon="10.879735"><ele>344</ele></trkpt>
            <trkpt lat="51.554116" lon="10.879774"><ele>344</ele></trkpt>
            <trkpt lat="51.554135" lon="10.879778"><ele>344</ele></trkpt>
            <trkpt lat="51.554157" lon="10.879738"><ele>344</ele></trkpt>
            <trkpt lat="51.55435" lon="10.879749"><ele>362.3</ele></trkpt>
            <trkpt lat="51.554793" lon="10.879667"><ele>363.6</ele></trkpt>
            <trkpt lat="51.554924" lon="10.879669"><ele>363.9</ele></trkpt>
            <trkpt lat="51.555009" lon="10.879708"><ele>373</ele></trkpt>
            <trkpt lat="51.555054" lon="10.879771"><ele>374.5</ele></trkpt>
            <trkpt lat="51.555082" lon="10.879866"><ele>374.3</ele></trkpt>
            <trkpt lat="51.555113" lon="10.880088"><ele>374.5</ele></trkpt>
            <trkpt lat="51.555088" lon="10.880486"><ele>375</ele></trkpt>
            <trkpt lat="51.555039" lon="10.880739"><ele>377</ele></trkpt>
            <trkpt lat="51.555216" lon="10.880479"><ele>377.3</ele></trkpt>
            <trkpt lat="51.555327" lon="10.880066"><ele>378.2</ele></trkpt>
            <trkpt lat="51.55541" lon="10.87984"><ele>379.5</ele></trkpt>
            <trkpt lat="51.555572" lon="10.879628"><ele>380.5</ele></trkpt>
            <trkpt lat="51.555819" lon="10.879416"><ele>382.5</ele></trkpt>
            <trkpt lat="51.55602" lon="10.879093"><ele>384.9</ele></trkpt>
            <trkpt lat="51.556174" lon="10.878913"><ele>386.7</ele></trkpt>
            <trkpt lat="51.556474" lon="10.878762"><ele>389.8</ele></trkpt>
            <trkpt lat="51.556853" lon="10.878446"><ele>392.5</ele></trkpt>
            <trkpt lat="51.55699" lon="10.878371"><ele>392.4</ele></trkpt>
            <trkpt lat="51.557115" lon="10.878364"><ele>393</ele></trkpt>
            <trkpt lat="51.557338" lon="10.878472"><ele>394.4</ele></trkpt>
            <trkpt lat="51.55749" lon="10.878478"><ele>394.4</ele></trkpt>
            <trkpt lat="51.557609" lon="10.878441"><ele>395.2</ele></trkpt>
            <trkpt lat="51.557724" lon="10.878364"><ele>394.3</ele></trkpt>
            <trkpt lat="51.557891" lon="10.878205"><ele>395</ele></trkpt>
            <trkpt lat="51.558199" lon="10.877859"><ele>394</ele></trkpt>
            <trkpt lat="51.558323" lon="10.877549"><ele>393.9</ele></trkpt>
            <trkpt lat="51.558693" lon="10.877026"><ele>393.9</ele></trkpt>
            <trkpt lat="51.558752" lon="10.876974"><ele>393</ele></trkpt>
            <trkpt lat="51.55877" lon="10.877024"><ele>389.5</ele></trkpt>
            <trkpt lat="51.558896" lon="10.877052"><ele>388.9</ele></trkpt>
            <trkpt lat="51.559006" lon="10.876931"><ele>388.5</ele></trkpt>
            <trkpt lat="51.559106" lon="10.87688"><ele>388.2</ele></trkpt>
            <trkpt lat="51.559233" lon="10.876823"><ele>387.8</ele></trkpt>
            <trkpt lat="51.559355" lon="10.876828"><ele>387.9</ele></trkpt>
            <trkpt lat="51.559455" lon="10.876858"><ele>388.1</ele></trkpt>
            <trkpt lat="51.559586" lon="10.877003"><ele>388.3</ele></trkpt>
            <trkpt lat="51.559936" lon="10.877235"><ele>386</ele></trkpt>
            <trkpt lat="51.560033" lon="10.877514"><ele>409.7</ele></trkpt>
            <trkpt lat="51.56013" lon="10.877974"><ele>412.8</ele></trkpt>
            <trkpt lat="51.56017" lon="10.878757"><ele>419.1</ele></trkpt>
            <trkpt lat="51.560292" lon="10.879486"><ele>426.3</ele></trkpt>
            <trkpt lat="51.560369" lon="10.87979"><ele>428.1</ele></trkpt>
            <trkpt lat="51.560447" lon="10.879941"><ele>429.7</ele></trkpt>
            <trkpt lat="51.56056" lon="10.88025"><ele>432.1</ele></trkpt>
            <trkpt lat="51.560713" lon="10.880495"><ele>434.4</ele></trkpt>
            <trkpt lat="51.560756" lon="10.880605"><ele>434.9</ele></trkpt>
            <trkpt lat="51.560879" lon="10.881156"><ele>435.8</ele></trkpt>
            <trkpt lat="51.561018" lon="10.882011"><ele>429</ele></trkpt>
            <trkpt lat="51.561082" lon="10.882406"><ele>429</ele></trkpt>
            <trkpt lat="51.561213" lon="10.882896"><ele>428.7</ele></trkpt>
            <trkpt lat="51.561326" lon="10.883184"><ele>428</ele></trkpt>
            <trkpt lat="51.561489" lon="10.883976"><ele>425.8</ele></trkpt>
            <trkpt lat="51.561588" lon="10.884618"><ele>421.6</ele></trkpt>
            <trkpt lat="51.561618" lon="10.885126"><ele>420</ele></trkpt>
            <trkpt lat="51.561738" lon="10.885652"><ele>418.1</ele></trkpt>
            <trkpt lat="51.561687" lon="10.886145"><ele>417.6</ele></trkpt>
            <trkpt lat="51.561581" lon="10.886415"><ele>418.5</ele></trkpt>
            <trkpt lat="51.561431" lon="10.886718"><ele>418.2</ele></trkpt>
            <trkpt lat="51.561336" lon="10.887403"><ele>417.5</ele></trkpt>
            <trkpt lat="51.561337" lon="10.887673"><ele>417.4</ele></trkpt>
            <trkpt lat="51.561474" lon="10.887977"><ele>416</ele></trkpt>
            <trkpt lat="51.561252" lon="10.888642"><ele>411.4</ele></trkpt>
            <trkpt lat="51.56093" lon="10.88939"><ele>408.6</ele></trkpt>
            <trkpt lat="51.560573" lon="10.890281"><ele>406.8</ele></trkpt>
            <trkpt lat="51.560254" lon="10.891002"><ele>403</ele></trkpt>
            <trkpt lat="51.56039" lon="10.890916"><ele>401.3</ele></trkpt>
            <trkpt lat="51.560707" lon="10.890651"><ele>401</ele></trkpt>
            <trkpt lat="51.560884" lon="10.890609"><ele>399.4</ele></trkpt>
            <trkpt lat="51.561026" lon="10.890701"><ele>399.3</ele></trkpt>
            <trkpt lat="51.561199" lon="10.890991"><ele>397.5</ele></trkpt>
            <trkpt lat="51.561384" lon="10.891426"><ele>396.7</ele></trkpt>
            <trkpt lat="51.561513" lon="10.891838"><ele>395.8</ele></trkpt>
            <trkpt lat="51.561695" lon="10.892218"><ele>394.6</ele></trkpt>
            <trkpt lat="51.561931" lon="10.892362"><ele>394.1</ele></trkpt>
            <trkpt lat="51.562165" lon="10.892366"><ele>395.1</ele></trkpt>
            <trkpt lat="51.56233" lon="10.89224"><ele>395.4</ele></trkpt>
            <trkpt lat="51.562613" lon="10.892082"><ele>396.4</ele></trkpt>
            <trkpt lat="51.56303" lon="10.892082"><ele>397.9</ele></trkpt>
            <trkpt lat="51.563455" lon="10.89217"><ele>400.6</ele></trkpt>
            <trkpt lat="51.56384" lon="10.892284"><ele>403.6</ele></trkpt>
            <trkpt lat="51.564265" lon="10.892537"><ele>406.9</ele></trkpt>
            <trkpt lat="51.564973" lon="10.892993"><ele>408.9</ele></trkpt>
            <trkpt lat="51.565355" lon="10.89331"><ele>416</ele></trkpt>
            <trkpt lat="51.565856" lon="10.893821"><ele>420.6</ele></trkpt>
            <trkpt lat="51.566113" lon="10.894005"><ele>418.9</ele></trkpt>
            <trkpt lat="51.56646" lon="10.894035"><ele>419.1</ele></trkpt>
            <trkpt lat="51.566678" lon="10.894082"><ele>418.9</ele></trkpt>
            <trkpt lat="51.567596" lon="10.894699"><ele>424</ele></trkpt>
            <trkpt lat="51.567734" lon="10.894822"><ele>424</ele></trkpt>
            <trkpt lat="51.568138" lon="10.895218"><ele>435.2</ele></trkpt>
            <trkpt lat="51.568473" lon="10.895605"><ele>441.9</ele></trkpt>
            <trkpt lat="51.568692" lon="10.895966"><ele>445.9</ele></trkpt>
            <trkpt lat="51.56893" lon="10.896436"><ele>451.3</ele></trkpt>
            <trkpt lat="51.569085" lon="10.896913"><ele>457.4</ele></trkpt>
            <trkpt lat="51.569195" lon="10.897519"><ele>459.6</ele></trkpt>
            <trkpt lat="51.569246" lon="10.898183"><ele>468.5</ele></trkpt>
            <trkpt lat="51.569343" lon="10.899027"><ele>472.1</ele></trkpt>
            <trkpt lat="51.569459" lon="10.899781"><ele>478.1</ele></trkpt>
            <trkpt lat="51.569542" lon="10.900053"><ele>490</ele></trkpt>
            <trkpt lat="51.569813" lon="10.900941"><ele>490.1</ele></trkpt>
            <trkpt lat="51.570168" lon="10.901901"><ele>489.2</ele></trkpt>
            <trkpt lat="51.570587" lon="10.902694"><ele>486</ele></trkpt>
            <trkpt lat="51.570661" lon="10.902702"><ele>483.4</ele></trkpt>
            <trkpt lat="51.570763" lon="10.902792"><ele>482.9</ele></trkpt>
            <trkpt lat="51.571809" lon="10.904309"><ele>482.6</ele></trkpt>
            <trkpt lat="51.572664" lon="10.905837"><ele>488</ele></trkpt>
            <trkpt lat="51.572821" lon="10.906068"><ele>489.8</ele></trkpt>
            <trkpt lat="51.573068" lon="10.906377"><ele>491.1</ele></trkpt>
            <trkpt lat="51.574387" lon="10.907875"><ele>498.9</ele></trkpt>
            <trkpt lat="51.574577" lon="10.908058"><ele>498.5</ele></trkpt>
            <trkpt lat="51.574789" lon="10.90814"><ele>501</ele></trkpt>
            <trkpt lat="51.575001" lon="10.908024"><ele>502.3</ele></trkpt>
            <trkpt lat="51.575315" lon="10.907655"><ele>499.5</ele></trkpt>
            <trkpt lat="51.575524" lon="10.907489"><ele>498.3</ele></trkpt>
            <trkpt lat="51.575745" lon="10.907468"><ele>494.4</ele></trkpt>
            <trkpt lat="51.57604" lon="10.907553"><ele>491.9</ele></trkpt>
            <trkpt lat="51.576456" lon="10.907591"><ele>490</ele></trkpt>
            <trkpt lat="51.576598" lon="10.907831"><ele>489.9</ele></trkpt>
            <trkpt lat="51.576649" lon="10.908211"><ele>488.7</ele></trkpt>
            <trkpt lat="51.576666" lon="10.908652"><ele>487.2</ele></trkpt>
            <trkpt lat="51.576612" lon="10.908922"><ele>486.5</ele></trkpt>
            <trkpt lat="51.575971" lon="10.910564"><ele>473</ele></trkpt>
            <trkpt lat="51.575827" lon="10.910999"><ele>470.4</ele></trkpt>
            <trkpt lat="51.575687" lon="10.911483"><ele>468.1</ele></trkpt>
            <trkpt lat="51.575661" lon="10.911923"><ele>467.2</ele></trkpt>
            <trkpt lat="51.575688" lon="10.912261"><ele>467.3</ele></trkpt>
            <trkpt lat="51.575822" lon="10.912636"><ele>467.4</ele></trkpt>
            <trkpt lat="51.575888" lon="10.91291"><ele>467.6</ele></trkpt>
            <trkpt lat="51.575922" lon="10.914036"><ele>468.4</ele></trkpt>
            <trkpt lat="51.576019" lon="10.914661"><ele>469</ele></trkpt>
            <trkpt lat="51.576161" lon="10.915359"><ele>469.7</ele></trkpt>
            <trkpt lat="51.576265" lon="10.916049"><ele>473</ele></trkpt>
            <trkpt lat="51.576305" lon="10.916832"><ele>474</ele></trkpt>
            <trkpt lat="51.5763" lon="10.917213"><ele>473.2</ele></trkpt>
            <trkpt lat="51.576322" lon="10.917815"><ele>471.3</ele></trkpt>
            <trkpt lat="51.576364" lon="10.918383"><ele>469.1</ele></trkpt>
            <trkpt lat="51.57667" lon="10.919758"><ele>466.3</ele></trkpt>
            <trkpt lat="51.577223" lon="10.921983"><ele>461.2</ele></trkpt>
            <trkpt lat="51.577422" lon="10.922557"><ele>461.6</ele></trkpt>
            <trkpt lat="51.577668" lon="10.923099"><ele>465</ele></trkpt>
            <trkpt lat="51.577689" lon="10.923762"><ele>464.3</ele></trkpt>
            <trkpt lat="51.577672" lon="10.92401"><ele>464</ele></trkpt>
            <trkpt lat="51.577604" lon="10.923998"><ele>459.4</ele></trkpt>
            <trkpt lat="51.576925" lon="10.924414"><ele>458.8</ele></trkpt>
            <trkpt lat="51.576847" lon="10.924507"><ele>455</ele></trkpt>
            <trkpt lat="51.576029" lon="10.926435"><ele>453</ele></trkpt>
            <trkpt lat="51.575537" lon="10.927205"><ele>461.4</ele></trkpt>
            <trkpt lat="51.575421" lon="10.927422"><ele>462</ele></trkpt>
            <trkpt lat="51.575088" lon="10.928821"><ele>463.6</ele></trkpt>
            <trkpt lat="51.574931" lon="10.929191"><ele>463.3</ele></trkpt>
            <trkpt lat="51.574578" lon="10.929944"><ele>463</ele></trkpt>
            <trkpt lat="51.5734" lon="10.932522"><ele>464</ele></trkpt>
            <trkpt lat="51.573296" lon="10.932854"><ele>469</ele></trkpt>
            <trkpt lat="51.572985" lon="10.93385"><ele>470.5</ele></trkpt>
            <trkpt lat="51.572331" lon="10.93558"><ele>468</ele></trkpt>
            <trkpt lat="51.572029" lon="10.936305"><ele>468</ele></trkpt>
            <trkpt lat="51.571943" lon="10.936519"><ele>468</ele></trkpt>
            <trkpt lat="51.571833" lon="10.936819"><ele>468</ele></trkpt>
            <trkpt lat="51.571779" lon="10.937032"><ele>466</ele></trkpt>
            <trkpt lat="51.571729" lon="10.937373"><ele>466.4</ele></trkpt>
            <trkpt lat="51.57159" lon="10.938945"><ele>458</ele></trkpt>
            <trkpt lat="51.571572" lon="10.939262"><ele>453.3</ele></trkpt>
            <trkpt lat="51.571576" lon="10.939501"><ele>453.3</ele></trkpt>
            <trkpt lat="51.571664" lon="10.940927"><ele>451.8</ele></trkpt>
            <trkpt lat="51.571731" lon="10.941322"><ele>451.6</ele></trkpt>
            <trkpt lat="51.571922" lon="10.941925"><ele>451</ele></trkpt>
            <trkpt lat="51.571937" lon="10.942043"><ele>450.7</ele></trkpt>
            <trkpt lat="51.571925" lon="10.942184"><ele>449</ele></trkpt>
            <trkpt lat="51.571962" lon="10.942287"><ele>444.3</ele></trkpt>
            <trkpt lat="51.572039" lon="10.942645"><ele>444</ele></trkpt>
            <trkpt lat="51.572091" lon="10.94308"><ele>443.6</ele></trkpt>
            <trkpt lat="51.572095" lon="10.943254"><ele>443.7</ele></trkpt>
            <trkpt lat="51.572012" lon="10.944022"><ele>442.2</ele></trkpt>
            <trkpt lat="51.572028" lon="10.944499"><ele>441.2</ele></trkpt>
            <trkpt lat="51.572017" lon="10.94478"><ele>440.6</ele></trkpt>
            <trkpt lat="51.571839" lon="10.946041"><ele>433</ele></trkpt>
            <trkpt lat="51.571671" lon="10.946878"><ele>426.3</ele></trkpt>
            <trkpt lat="51.571612" lon="10.947368"><ele>426.2</ele></trkpt>
            <trkpt lat="51.571608" lon="10.947633"><ele>426.7</ele></trkpt>
            <trkpt lat="51.571585" lon="10.947762"><ele>424</ele></trkpt>
            <trkpt lat="51.571614" lon="10.948033"><ele>424.4</ele></trkpt>
            <trkpt lat="51.571605" lon="10.948951"><ele>424.6</ele></trkpt>
            <trkpt lat="51.571616" lon="10.949059"><ele>425</ele></trkpt>
            <trkpt lat="51.57163" lon="10.949118"><ele>419.2</ele></trkpt>
            <trkpt lat="51.571574" lon="10.949517"><ele>419.6</ele></trkpt>
            <trkpt lat="51.571567" lon="10.949718"><ele>418.3</ele></trkpt>
            <trkpt lat="51.571578" lon="10.949839"><ele>418.5</ele></trkpt>
            <trkpt lat="51.571682" lon="10.95026"><ele>418.3</ele></trkpt>
            <trkpt lat="51.571692" lon="10.950378"><ele>418</ele></trkpt>
            <trkpt lat="51.57169" lon="10.950461"><ele>417.8</ele></trkpt>
            <trkpt lat="51.571653" lon="10.950567"><ele>417.9</ele></trkpt>
            <trkpt lat="51.571634" lon="10.950773"><ele>417.9</ele></trkpt>
            <trkpt lat="51.571699" lon="10.951856"><ele>401</ele></trkpt>
            <trkpt lat="51.571748" lon="10.952095"><ele>396.8</ele></trkpt>
            <trkpt lat="51.571745" lon="10.95227"><ele>397.7</ele></trkpt>
            <trkpt lat="51.571706" lon="10.952473"><ele>398.4</ele></trkpt>
            <trkpt lat="51.571713" lon="10.952535"><ele>380</ele></trkpt>
            <trkpt lat="51.571718" lon="10.952591"><ele>380</ele></trkpt>
            <trkpt lat="51.571761" lon="10.95268"><ele>380</ele></trkpt>
            <trkpt lat="51.57174" lon="10.952739"><ele>380</ele></trkpt>
            <trkpt lat="51.5718" lon="10.952712"><ele>380</ele></trkpt>
        </trkseg>
    </trk>
</gpx>
