<?xml version="1.0" encoding="UTF-8"?>
<gpx version="1.1" creator="HWN Route Compare (OpenRouteService)" xmlns="http://www.topografix.com/GPX/1/1">
    <metadata>
        <name>OpenRouteService – Tour G5</name>
    </metadata>
    <trk>
        <name>OpenRouteService – Tour G5</name>
        <trkseg>
            <trkpt lat="51.637032" lon="10.968366"><ele>432</ele></trkpt>
            <trkpt lat="51.637064" lon="10.968359"><ele>432</ele></trkpt>
            <trkpt lat="51.637105" lon="10.968356"><ele>432</ele></trkpt>
            <trkpt lat="51.637234" lon="10.968377"><ele>437.7</ele></trkpt>
            <trkpt lat="51.637397" lon="10.96836"><ele>438.5</ele></trkpt>
            <trkpt lat="51.63751" lon="10.96832"><ele>439.5</ele></trkpt>
            <trkpt lat="51.63763" lon="10.968197"><ele>442</ele></trkpt>
            <trkpt lat="51.637655" lon="10.968147"><ele>442</ele></trkpt>
            <trkpt lat="51.63773" lon="10.968094"><ele>442</ele></trkpt>
            <trkpt lat="51.638126" lon="10.967983"><ele>442</ele></trkpt>
            <trkpt lat="51.638462" lon="10.967981"><ele>433.8</ele></trkpt>
            <trkpt lat="51.638608" lon="10.968012"><ele>434.1</ele></trkpt>
            <trkpt lat="51.638714" lon="10.968051"><ele>434.4</ele></trkpt>
            <trkpt lat="51.638952" lon="10.968194"><ele>432</ele></trkpt>
            <trkpt lat="51.639038" lon="10.968235"><ele>432</ele></trkpt>
            <trkpt lat="51.639112" lon="10.96823"><ele>432</ele></trkpt>
            <trkpt lat="51.639158" lon="10.968199"><ele>432</ele></trkpt>
            <trkpt lat="51.639162" lon="10.968412"><ele>422</ele></trkpt>
            <trkpt lat="51.639277" lon="10.968467"><ele>420</ele></trkpt>
            <trkpt lat="51.639324" lon="10.968469"><ele>420</ele></trkpt>
            <trkpt lat="51.639336" lon="10.96847"><ele>420.7</ele></trkpt>
            <trkpt lat="51.639373" lon="10.967996"><ele>422</ele></trkpt>
            <trkpt lat="51.639423" lon="10.96781"><ele>422</ele></trkpt>
            <trkpt lat="51.63947" lon="10.967799"><ele>422</ele></trkpt>
            <trkpt lat="51.639948" lon="10.967788"><ele>422</ele></trkpt>
            <trkpt lat="51.640004" lon="10.968085"><ele>425.7</ele></trkpt>
            <trkpt lat="51.640087" lon="10.969337"><ele>425.4</ele></trkpt>
            <trkpt lat="51.640471" lon="10.970878"><ele>423.6</ele></trkpt>
            <trkpt lat="51.640591" lon="10.971553"><ele>422.9</ele></trkpt>
            <trkpt lat="51.640828" lon="10.972668"><ele>422.8</ele></trkpt>
            <trkpt lat="51.641161" lon="10.973835"><ele>423.1</ele></trkpt>
            <trkpt lat="51.641261" lon="10.974123"><ele>423.3</ele></trkpt>
            <trkpt lat="51.641383" lon="10.974367"><ele>423.1</ele></trkpt>
            <trkpt lat="51.641532" lon="10.974592"><ele>422</ele></trkpt>
            <trkpt lat="51.641544" lon="10.974684"><ele>422</ele></trkpt>
            <trkpt lat="51.641582" lon="10.974745"><ele>422</ele></trkpt>
            <trkpt lat="51.641613" lon="10.974851"><ele>422</ele></trkpt>
            <trkpt lat="51.641806" lon="10.975098"><ele>423</ele></trkpt>
            <trkpt lat="51.641823" lon="10.975069"><ele>423</ele></trkpt>
            <trkpt lat="51.641923" lon="10.975009"><ele>423</ele></trkpt>
            <trkpt lat="51.641988" lon="10.975098"><ele>423</ele></trkpt>
            <trkpt lat="51.642027" lon="10.974951"><ele>427</ele></trkpt>
            <trkpt lat="51.642596" lon="10.972843"><ele>436.3</ele></trkpt>
            <trkpt lat="51.642648" lon="10.97271"><ele>440</ele></trkpt>
            <trkpt lat="51.642635" lon="10.972623"><ele>440</ele></trkpt>
            <trkpt lat="51.642555" lon="10.972151"><ele>443</ele></trkpt>
            <trkpt lat="51.64239" lon="10.97117"><ele>447</ele></trkpt>
            <trkpt lat="51.64221" lon="10.969905"><ele>456</ele></trkpt>
            <trkpt lat="51.642009" lon="10.968371"><ele>459.1</ele></trkpt>
            <trkpt lat="51.641993" lon="10.968151"><ele>462</ele></trkpt>
            <trkpt lat="51.641952" lon="10.967432"><ele>464</ele></trkpt>
            <trkpt lat="51.641942" lon="10.967024"><ele>466</ele></trkpt>
            <trkpt lat="51.641978" lon="10.965526"><ele>467</ele></trkpt>
            <trkpt lat="51.642024" lon="10.965184"><ele>467.7</ele></trkpt>
            <trkpt lat="51.642255" lon="10.964086"><ele>469.1</ele></trkpt>
            <trkpt lat="51.642402" lon="10.96234"><ele>471.6</ele></trkpt>
            <trkpt lat="51.642628" lon="10.960171"><ele>474.9</ele></trkpt>
            <trkpt lat="51.642887" lon="10.957122"><ele>481.5</ele></trkpt>
            <trkpt lat="51.643054" lon="10.955399"><ele>481.5</ele></trkpt>
            <trkpt lat="51.643111" lon="10.95461"><ele>482.1</ele></trkpt>
            <trkpt lat="51.643209" lon="10.95408"><ele>482.3</ele></trkpt>
            <trkpt lat="51.643264" lon="10.953434"><ele>483</ele></trkpt>
            <trkpt lat="51.643554" lon="10.950224"><ele>489.3</ele></trkpt>
            <trkpt lat="51.643659" lon="10.948846"><ele>491</ele></trkpt>
            <trkpt lat="51.643797" lon="10.94741"><ele>496</ele></trkpt>
            <trkpt lat="51.644019" lon="10.944474"><ele>504</ele></trkpt>
            <trkpt lat="51.644287" lon="10.942142"><ele>510</ele></trkpt>
            <trkpt lat="51.644614" lon="10.939811"><ele>515</ele></trkpt>
            <trkpt lat="51.644725" lon="10.938702"><ele>516</ele></trkpt>
            <trkpt lat="51.6448" lon="10.938262"><ele>516</ele></trkpt>
            <trkpt lat="51.64486" lon="10.937902"><ele>516.3</ele></trkpt>
            <trkpt lat="51.644993" lon="10.937356"><ele>517</ele></trkpt>
            <trkpt lat="51.645094" lon="10.937092"><ele>520</ele></trkpt>
            <trkpt lat="51.645359" lon="10.936406"><ele>523</ele></trkpt>
            <trkpt lat="51.645787" lon="10.935391"><ele>521.6</ele></trkpt>
            <trkpt lat="51.646414" lon="10.934397"><ele>520</ele></trkpt>
            <trkpt lat="51.646672" lon="10.9339"><ele>520.2</ele></trkpt>
            <trkpt lat="51.646876" lon="10.933423"><ele>521</ele></trkpt>
            <trkpt lat="51.647298" lon="10.931799"><ele>521.3</ele></trkpt>
            <trkpt lat="51.647437" lon="10.931423"><ele>521</ele></trkpt>
            <trkpt lat="51.648013" lon="10.930313"><ele>520.6</ele></trkpt>
            <trkpt lat="51.648726" lon="10.929076"><ele>517.9</ele></trkpt>
            <trkpt lat="51.64912" lon="10.928135"><ele>517</ele></trkpt>
            <trkpt lat="51.649319" lon="10.927887"><ele>515</ele></trkpt>
            <trkpt lat="51.649637" lon="10.92748"><ele>515.8</ele></trkpt>
            <trkpt lat="51.649899" lon="10.927255"><ele>515.3</ele></trkpt>
            <trkpt lat="51.650392" lon="10.926881"><ele>520</ele></trkpt>
            <trkpt lat="51.650619" lon="10.926651"><ele>521</ele></trkpt>
            <trkpt lat="51.650397" lon="10.926209"><ele>521</ele></trkpt>
            <trkpt lat="51.650337" lon="10.926025"><ele>521</ele></trkpt>
            <trkpt lat="51.650205" lon="10.925891"><ele>521</ele></trkpt>
            <trkpt lat="51.650125" lon="10.925591"><ele>521</ele></trkpt>
            <trkpt lat="51.649995" lon="10.925115"><ele>515.8</ele></trkpt>
            <trkpt lat="51.649928" lon="10.92501"><ele>516.1</ele></trkpt>
            <trkpt lat="51.649879" lon="10.92501"><ele>516.2</ele></trkpt>
            <trkpt lat="51.649802" lon="10.924951"><ele>516.3</ele></trkpt>
            <trkpt lat="51.649782" lon="10.924857"><ele>516.4</ele></trkpt>
            <trkpt lat="51.649818" lon="10.924765"><ele>516.4</ele></trkpt>
            <trkpt lat="51.649861" lon="10.924738"><ele>516.4</ele></trkpt>
            <trkpt lat="51.649917" lon="10.924645"><ele>516.5</ele></trkpt>
            <trkpt lat="51.649944" lon="10.924376"><ele>516</ele></trkpt>
            <trkpt lat="51.650045" lon="10.923259"><ele>516.9</ele></trkpt>
            <trkpt lat="51.650075" lon="10.922702"><ele>517</ele></trkpt>
            <trkpt lat="51.650137" lon="10.92273"><ele>517</ele></trkpt>
            <trkpt lat="51.650193" lon="10.922636"><ele>517</ele></trkpt>
            <trkpt lat="51.650268" lon="10.922587"><ele>517</ele></trkpt>
            <trkpt lat="51.650496" lon="10.922616"><ele>517</ele></trkpt>
            <trkpt lat="51.650515" lon="10.922472"><ele>516</ele></trkpt>
            <trkpt lat="51.650519" lon="10.922387"><ele>516</ele></trkpt>
            <trkpt lat="51.650513" lon="10.922185"><ele>512.6</ele></trkpt>
            <trkpt lat="51.650487" lon="10.92209"><ele>511.3</ele></trkpt>
            <trkpt lat="51.650338" lon="10.921848"><ele>509.1</ele></trkpt>
            <trkpt lat="51.650112" lon="10.921695"><ele>508.2</ele></trkpt>
            <trkpt lat="51.649882" lon="10.921442"><ele>506.4</ele></trkpt>
            <trkpt lat="51.649499" lon="10.92089"><ele>504.1</ele></trkpt>
            <trkpt lat="51.649459" lon="10.920779"><ele>503.1</ele></trkpt>
            <trkpt lat="51.64944" lon="10.920673"><ele>502.6</ele></trkpt>
            <trkpt lat="51.649459" lon="10.920347"><ele>502.2</ele></trkpt>
            <trkpt lat="51.64951" lon="10.920029"><ele>501.2</ele></trkpt>
            <trkpt lat="51.649653" lon="10.919512"><ele>500.7</ele></trkpt>
            <trkpt lat="51.64972" lon="10.919349"><ele>500.8</ele></trkpt>
            <trkpt lat="51.649814" lon="10.91921"><ele>500.5</ele></trkpt>
            <trkpt lat="51.649932" lon="10.919099"><ele>500.6</ele></trkpt>
            <trkpt lat="51.650066" lon="10.919034"><ele>500.8</ele></trkpt>
            <trkpt lat="51.650224" lon="10.919004"><ele>500.6</ele></trkpt>
            <trkpt lat="51.650337" lon="10.918923"><ele>500.4</ele></trkpt>
            <trkpt lat="51.650401" lon="10.9188"><ele>500.3</ele></trkpt>
            <trkpt lat="51.650405" lon="10.918792"><ele>500.2</ele></trkpt>
            <trkpt lat="51.650422" lon="10.918679"><ele>499</ele></trkpt>
            <trkpt lat="51.650385" lon="10.918552"><ele>500.7</ele></trkpt>
            <trkpt lat="51.650302" lon="10.918445"><ele>500.7</ele></trkpt>
            <trkpt lat="51.65019" lon="10.918345"><ele>500.6</ele></trkpt>
            <trkpt lat="51.649975" lon="10.918231"><ele>500.9</ele></trkpt>
            <trkpt lat="51.649722" lon="10.918187"><ele>501.1</ele></trkpt>
            <trkpt lat="51.649534" lon="10.918047"><ele>501.2</ele></trkpt>
            <trkpt lat="51.64941" lon="10.918037"><ele>501.3</ele></trkpt>
            <trkpt lat="51.649383" lon="10.918013"><ele>501.3</ele></trkpt>
            <trkpt lat="51.649297" lon="10.917829"><ele>501.4</ele></trkpt>
            <trkpt lat="51.6488" lon="10.917169"><ele>502.2</ele></trkpt>
            <trkpt lat="51.648748" lon="10.917064"><ele>502.2</ele></trkpt>
            <trkpt lat="51.648659" lon="10.916947"><ele>502</ele></trkpt>
            <trkpt lat="51.648518" lon="10.91664"><ele>502.3</ele></trkpt>
            <trkpt lat="51.648392" lon="10.916589"><ele>503.4</ele></trkpt>
            <trkpt lat="51.648018" lon="10.916591"><ele>513</ele></trkpt>
            <trkpt lat="51.648041" lon="10.91654"><ele>517</ele></trkpt>
            <trkpt lat="51.648111" lon="10.916228"><ele>518</ele></trkpt>
            <trkpt lat="51.648133" lon="10.915954"><ele>518.9</ele></trkpt>
            <trkpt lat="51.648192" lon="10.915573"><ele>519.9</ele></trkpt>
            <trkpt lat="51.648258" lon="10.915308"><ele>519.9</ele></trkpt>
            <trkpt lat="51.6483" lon="10.915205"><ele>519.9</ele></trkpt>
            <trkpt lat="51.648381" lon="10.915091"><ele>520.3</ele></trkpt>
            <trkpt lat="51.648886" lon="10.914695"><ele>521.5</ele></trkpt>
            <trkpt lat="51.649197" lon="10.914564"><ele>521.7</ele></trkpt>
            <trkpt lat="51.649582" lon="10.914502"><ele>526</ele></trkpt>
            <trkpt lat="51.64987" lon="10.914378"><ele>525</ele></trkpt>
            <trkpt lat="51.650206" lon="10.914094"><ele>525</ele></trkpt>
            <trkpt lat="51.650542" lon="10.913539"><ele>521.4</ele></trkpt>
            <trkpt lat="51.650584" lon="10.913438"><ele>521.1</ele></trkpt>
            <trkpt lat="51.650683" lon="10.913309"><ele>520.6</ele></trkpt>
            <trkpt lat="51.65073" lon="10.913295"><ele>520.3</ele></trkpt>
            <trkpt lat="51.651098" lon="10.913353"><ele>520</ele></trkpt>
            <trkpt lat="51.651188" lon="10.913336"><ele>520.3</ele></trkpt>
            <trkpt lat="51.651516" lon="10.913133"><ele>518</ele></trkpt>
            <trkpt lat="51.651487" lon="10.912864"><ele>518</ele></trkpt>
            <trkpt lat="51.651393" lon="10.912828"><ele>520.1</ele></trkpt>
            <trkpt lat="51.651288" lon="10.912731"><ele>520.3</ele></trkpt>
            <trkpt lat="51.651113" lon="10.912492"><ele>520.5</ele></trkpt>
            <trkpt lat="51.6506" lon="10.911517"><ele>523</ele></trkpt>
            <trkpt lat="51.650447" lon="10.911191"><ele>524.7</ele></trkpt>
            <trkpt lat="51.650087" lon="10.910585"><ele>526.6</ele></trkpt>
            <trkpt lat="51.649676" lon="10.909991"><ele>527</ele></trkpt>
            <trkpt lat="51.649336" lon="10.90954"><ele>527.5</ele></trkpt>
            <trkpt lat="51.649263" lon="10.909307"><ele>529</ele></trkpt>
            <trkpt lat="51.649203" lon="10.908915"><ele>534.3</ele></trkpt>
            <trkpt lat="51.649136" lon="10.908609"><ele>535.1</ele></trkpt>
            <trkpt lat="51.64899" lon="10.908139"><ele>533.9</ele></trkpt>
            <trkpt lat="51.648745" lon="10.907473"><ele>533.5</ele></trkpt>
            <trkpt lat="51.648607" lon="10.907032"><ele>534</ele></trkpt>
            <trkpt lat="51.648351" lon="10.906417"><ele>533.5</ele></trkpt>
            <trkpt lat="51.648334" lon="10.906287"><ele>533</ele></trkpt>
            <trkpt lat="51.64822" lon="10.905814"><ele>532</ele></trkpt>
            <trkpt lat="51.648077" lon="10.905635"><ele>531.9</ele></trkpt>
            <trkpt lat="51.647941" lon="10.905538"><ele>532</ele></trkpt>
            <trkpt lat="51.647751" lon="10.905455"><ele>531.9</ele></trkpt>
            <trkpt lat="51.647406" lon="10.905061"><ele>531.9</ele></trkpt>
            <trkpt lat="51.647111" lon="10.904781"><ele>532.1</ele></trkpt>
            <trkpt lat="51.646852" lon="10.904723"><ele>534</ele></trkpt>
            <trkpt lat="51.646638" lon="10.904703"><ele>536</ele></trkpt>
            <trkpt lat="51.646516" lon="10.904732"><ele>537</ele></trkpt>
            <trkpt lat="51.646228" lon="10.905043"><ele>533.7</ele></trkpt>
            <trkpt lat="51.645631" lon="10.905527"><ele>532.6</ele></trkpt>
            <trkpt lat="51.64416" lon="10.906399"><ele>528.8</ele></trkpt>
            <trkpt lat="51.64391" lon="10.906494"><ele>528.6</ele></trkpt>
            <trkpt lat="51.643604" lon="10.906539"><ele>527.8</ele></trkpt>
            <trkpt lat="51.643339" lon="10.906614"><ele>527.7</ele></trkpt>
            <trkpt lat="51.643158" lon="10.90659"><ele>524</ele></trkpt>
            <trkpt lat="51.642988" lon="10.906511"><ele>526.5</ele></trkpt>
            <trkpt lat="51.642226" lon="10.906436"><ele>530.2</ele></trkpt>
            <trkpt lat="51.641582" lon="10.906309"><ele>536</ele></trkpt>
            <trkpt lat="51.641325" lon="10.906227"><ele>538.4</ele></trkpt>
            <trkpt lat="51.641014" lon="10.906255"><ele>538.3</ele></trkpt>
            <trkpt lat="51.640799" lon="10.906324"><ele>540.5</ele></trkpt>
            <trkpt lat="51.640384" lon="10.906221"><ele>541.1</ele></trkpt>
            <trkpt lat="51.640257" lon="10.906127"><ele>541.6</ele></trkpt>
            <trkpt lat="51.640078" lon="10.906076"><ele>545</ele></trkpt>
            <trkpt lat="51.639668" lon="10.906046"><ele>551.4</ele></trkpt>
            <trkpt lat="51.639275" lon="10.905915"><ele>551.8</ele></trkpt>
            <trkpt lat="51.63906" lon="10.905794"><ele>552.3</ele></trkpt>
            <trkpt lat="51.638838" lon="10.905729"><ele>552.6</ele></trkpt>
            <trkpt lat="51.638519" lon="10.905677"><ele>553.5</ele></trkpt>
            <trkpt lat="51.638116" lon="10.905444"><ele>553.1</ele></trkpt>
            <trkpt lat="51.637902" lon="10.905358"><ele>552.9</ele></trkpt>
            <trkpt lat="51.637092" lon="10.905175"><ele>552</ele></trkpt>
            <trkpt lat="51.637003" lon="10.905214"><ele>552</ele></trkpt>
            <trkpt lat="51.636708" lon="10.905505"><ele>552</ele></trkpt>
            <trkpt lat="51.636605" lon="10.905576"><ele>553</ele></trkpt>
            <trkpt lat="51.636254" lon="10.905553"><ele>553.1</ele></trkpt>
            <trkpt lat="51.635978" lon="10.905494"><ele>553.5</ele></trkpt>
            <trkpt lat="51.635553" lon="10.905351"><ele>553.2</ele></trkpt>
            <trkpt lat="51.635195" lon="10.905432"><ele>553.1</ele></trkpt>
            <trkpt lat="51.63485" lon="10.905362"><ele>557</ele></trkpt>
            <trkpt lat="51.634794" lon="10.905452"><ele>551.2</ele></trkpt>
            <trkpt lat="51.634722" lon="10.905897"><ele>550.7</ele></trkpt>
            <trkpt lat="51.634651" lon="10.90612"><ele>550.2</ele></trkpt>
            <trkpt lat="51.634507" lon="10.906316"><ele>549.4</ele></trkpt>
            <trkpt lat="51.63431" lon="10.90642"><ele>549.5</ele></trkpt>
            <trkpt lat="51.634132" lon="10.906562"><ele>549.7</ele></trkpt>
            <trkpt lat="51.633947" lon="10.906858"><ele>549.1</ele></trkpt>
            <trkpt lat="51.633821" lon="10.906949"><ele>548</ele></trkpt>
            <trkpt lat="51.633653" lon="10.906979"><ele>546.7</ele></trkpt>
            <trkpt lat="51.6333" lon="10.906843"><ele>540</ele></trkpt>
            <trkpt lat="51.633204" lon="10.906881"><ele>540</ele></trkpt>
            <trkpt lat="51.633125" lon="10.906862"><ele>540</ele></trkpt>
            <trkpt lat="51.633081" lon="10.906835"><ele>540</ele></trkpt>
            <trkpt lat="51.633057" lon="10.906757"><ele>540</ele></trkpt>
            <trkpt lat="51.632911" lon="10.906775"><ele>540</ele></trkpt>
            <trkpt lat="51.632713" lon="10.906837"><ele>540</ele></trkpt>
            <trkpt lat="51.632517" lon="10.906808"><ele>540</ele></trkpt>
            <trkpt lat="51.631899" lon="10.906306"><ele>557.5</ele></trkpt>
            <trkpt lat="51.630926" lon="10.905802"><ele>576</ele></trkpt>
            <trkpt lat="51.630437" lon="10.905536"><ele>583.8</ele></trkpt>
            <trkpt lat="51.629896" lon="10.905491"><ele>590</ele></trkpt>
            <trkpt lat="51.629407" lon="10.905316"><ele>591.6</ele></trkpt>
            <trkpt lat="51.629134" lon="10.905288"><ele>592.1</ele></trkpt>
            <trkpt lat="51.628851" lon="10.90542"><ele>592.5</ele></trkpt>
            <trkpt lat="51.628776" lon="10.905395"><ele>595</ele></trkpt>
            <trkpt lat="51.628646" lon="10.905442"><ele>595</ele></trkpt>
            <trkpt lat="51.628538" lon="10.905423"><ele>595</ele></trkpt>
            <trkpt lat="51.628334" lon="10.905309"><ele>595.6</ele></trkpt>
            <trkpt lat="51.628079" lon="10.905115"><ele>595.4</ele></trkpt>
            <trkpt lat="51.627854" lon="10.904909"><ele>595.3</ele></trkpt>
            <trkpt lat="51.627503" lon="10.904762"><ele>594.9</ele></trkpt>
            <trkpt lat="51.627289" lon="10.904557"><ele>594.6</ele></trkpt>
            <trkpt lat="51.627129" lon="10.904392"><ele>594.7</ele></trkpt>
            <trkpt lat="51.626932" lon="10.904117"><ele>594.7</ele></trkpt>
            <trkpt lat="51.62671" lon="10.903545"><ele>594</ele></trkpt>
            <trkpt lat="51.626588" lon="10.903318"><ele>585</ele></trkpt>
            <trkpt lat="51.626418" lon="10.902993"><ele>583.5</ele></trkpt>
            <trkpt lat="51.625992" lon="10.9019"><ele>583.1</ele></trkpt>
            <trkpt lat="51.625847" lon="10.901672"><ele>582</ele></trkpt>
            <trkpt lat="51.625734" lon="10.901678"><ele>575.6</ele></trkpt>
            <trkpt lat="51.625581" lon="10.901634"><ele>575.5</ele></trkpt>
            <trkpt lat="51.625303" lon="10.901476"><ele>574.9</ele></trkpt>
            <trkpt lat="51.623882" lon="10.900508"><ele>574.9</ele></trkpt>
            <trkpt lat="51.62379" lon="10.90046"><ele>574.9</ele></trkpt>
            <trkpt lat="51.623365" lon="10.90037"><ele>575</ele></trkpt>
            <trkpt lat="51.623269" lon="10.900244"><ele>573.3</ele></trkpt>
            <trkpt lat="51.622858" lon="10.899578"><ele>573.6</ele></trkpt>
            <trkpt lat="51.622654" lon="10.899019"><ele>573</ele></trkpt>
            <trkpt lat="51.622489" lon="10.899142"><ele>574</ele></trkpt>
            <trkpt lat="51.621934" lon="10.900114"><ele>575</ele></trkpt>
            <trkpt lat="51.62185" lon="10.900199"><ele>582.8</ele></trkpt>
            <trkpt lat="51.621452" lon="10.900265"><ele>586.6</ele></trkpt>
            <trkpt lat="51.621115" lon="10.900371"><ele>587.4</ele></trkpt>
            <trkpt lat="51.620663" lon="10.900365"><ele>588.3</ele></trkpt>
            <trkpt lat="51.620456" lon="10.900468"><ele>592.8</ele></trkpt>
            <trkpt lat="51.620311" lon="10.90048"><ele>594.2</ele></trkpt>
            <trkpt lat="51.620143" lon="10.900543"><ele>594.5</ele></trkpt>
            <trkpt lat="51.619801" lon="10.900772"><ele>596.4</ele></trkpt>
            <trkpt lat="51.619159" lon="10.901098"><ele>596</ele></trkpt>
            <trkpt lat="51.619051" lon="10.901231"><ele>593.7</ele></trkpt>
            <trkpt lat="51.618816" lon="10.901351"><ele>594.1</ele></trkpt>
            <trkpt lat="51.618443" lon="10.901462"><ele>594.4</ele></trkpt>
            <trkpt lat="51.618141" lon="10.901469"><ele>588</ele></trkpt>
            <trkpt lat="51.61803" lon="10.901471"><ele>586.1</ele></trkpt>
            <trkpt lat="51.6178" lon="10.901408"><ele>586.4</ele></trkpt>
            <trkpt lat="51.617259" lon="10.901045"><ele>580</ele></trkpt>
            <trkpt lat="51.616851" lon="10.900798"><ele>573.5</ele></trkpt>
            <trkpt lat="51.616566" lon="10.900363"><ele>571</ele></trkpt>
            <trkpt lat="51.616359" lon="10.900011"><ele>570.2</ele></trkpt>
            <trkpt lat="51.615971" lon="10.899693"><ele>569</ele></trkpt>
            <trkpt lat="51.61567" lon="10.899417"><ele>567.6</ele></trkpt>
            <trkpt lat="51.615578" lon="10.899306"><ele>567.4</ele></trkpt>
            <trkpt lat="51.615475" lon="10.899087"><ele>567</ele></trkpt>
            <trkpt lat="51.61534" lon="10.898916"><ele>564</ele></trkpt>
            <trkpt lat="51.615094" lon="10.898587"><ele>561.9</ele></trkpt>
            <trkpt lat="51.614616" lon="10.897744"><ele>559</ele></trkpt>
            <trkpt lat="51.614385" lon="10.897651"><ele>559.5</ele></trkpt>
            <trkpt lat="51.613954" lon="10.897628"><ele>561</ele></trkpt>
            <trkpt lat="51.613744" lon="10.897591"><ele>561.5</ele></trkpt>
            <trkpt lat="51.613527" lon="10.897458"><ele>561.4</ele></trkpt>
            <trkpt lat="51.613113" lon="10.897276"><ele>561.5</ele></trkpt>
            <trkpt lat="51.612807" lon="10.897021"><ele>561.9</ele></trkpt>
            <trkpt lat="51.612629" lon="10.896825"><ele>562</ele></trkpt>
            <trkpt lat="51.612394" lon="10.896399"><ele>562</ele></trkpt>
            <trkpt lat="51.611822" lon="10.895829"><ele>565</ele></trkpt>
            <trkpt lat="51.61112" lon="10.894794"><ele>563.7</ele></trkpt>
            <trkpt lat="51.610717" lon="10.894148"><ele>562</ele></trkpt>
            <trkpt lat="51.610357" lon="10.893583"><ele>561.8</ele></trkpt>
            <trkpt lat="51.610117" lon="10.893406"><ele>561.8</ele></trkpt>
            <trkpt lat="51.609809" lon="10.893004"><ele>561.8</ele></trkpt>
            <trkpt lat="51.609382" lon="10.89227"><ele>561.2</ele></trkpt>
            <trkpt lat="51.608743" lon="10.891273"><ele>561</ele></trkpt>
            <trkpt lat="51.608135" lon="10.890176"><ele>560.3</ele></trkpt>
            <trkpt lat="51.60776" lon="10.88941"><ele>561</ele></trkpt>
            <trkpt lat="51.607566" lon="10.889788"><ele>558.7</ele></trkpt>
            <trkpt lat="51.606663" lon="10.891677"><ele>549.6</ele></trkpt>
            <trkpt lat="51.606515" lon="10.892064"><ele>550</ele></trkpt>
            <trkpt lat="51.606663" lon="10.891677"><ele>549.6</ele></trkpt>
            <trkpt lat="51.607566" lon="10.889788"><ele>558.7</ele></trkpt>
            <trkpt lat="51.60776" lon="10.88941"><ele>561</ele></trkpt>
            <trkpt lat="51.608135" lon="10.890176"><ele>560.3</ele></trkpt>
            <trkpt lat="51.608743" lon="10.891273"><ele>561</ele></trkpt>
            <trkpt lat="51.609382" lon="10.89227"><ele>561.2</ele></trkpt>
            <trkpt lat="51.609809" lon="10.893004"><ele>561.8</ele></trkpt>
            <trkpt lat="51.610117" lon="10.893406"><ele>561.8</ele></trkpt>
            <trkpt lat="51.610357" lon="10.893583"><ele>561.8</ele></trkpt>
            <trkpt lat="51.610717" lon="10.894148"><ele>562</ele></trkpt>
            <trkpt lat="51.61112" lon="10.894794"><ele>563.7</ele></trkpt>
            <trkpt lat="51.611822" lon="10.895829"><ele>565</ele></trkpt>
            <trkpt lat="51.611906" lon="10.896197"><ele>559.8</ele></trkpt>
            <trkpt lat="51.611922" lon="10.896446"><ele>559.4</ele></trkpt>
            <trkpt lat="51.611959" lon="10.899315"><ele>547.4</ele></trkpt>
            <trkpt lat="51.611946" lon="10.900238"><ele>546.7</ele></trkpt>
            <trkpt lat="51.611983" lon="10.900498"><ele>546.8</ele></trkpt>
            <trkpt lat="51.612044" lon="10.900753"><ele>546</ele></trkpt>
            <trkpt lat="51.612063" lon="10.900973"><ele>546.7</ele></trkpt>
            <trkpt lat="51.612056" lon="10.90129"><ele>547</ele></trkpt>
            <trkpt lat="51.612045" lon="10.902335"><ele>551.5</ele></trkpt>
            <trkpt lat="51.612058" lon="10.902538"><ele>551.8</ele></trkpt>
            <trkpt lat="51.612124" lon="10.902773"><ele>552.6</ele></trkpt>
            <trkpt lat="51.612553" lon="10.903781"><ele>554.4</ele></trkpt>
            <trkpt lat="51.612775" lon="10.904399"><ele>555</ele></trkpt>
            <trkpt lat="51.613396" lon="10.905983"><ele>555</ele></trkpt>
            <trkpt lat="51.613528" lon="10.906189"><ele>555</ele></trkpt>
            <trkpt lat="51.613632" lon="10.906377"><ele>554.8</ele></trkpt>
            <trkpt lat="51.613939" lon="10.906757"><ele>553.6</ele></trkpt>
            <trkpt lat="51.614241" lon="10.907196"><ele>553</ele></trkpt>
            <trkpt lat="51.614338" lon="10.907386"><ele>552.7</ele></trkpt>
            <trkpt lat="51.614384" lon="10.907534"><ele>552.6</ele></trkpt>
            <trkpt lat="51.614391" lon="10.907724"><ele>552.5</ele></trkpt>
            <trkpt lat="51.614345" lon="10.908222"><ele>552</ele></trkpt>
            <trkpt lat="51.614354" lon="10.908508"><ele>551.9</ele></trkpt>
            <trkpt lat="51.614385" lon="10.908787"><ele>551.9</ele></trkpt>
            <trkpt lat="51.614473" lon="10.909079"><ele>551.9</ele></trkpt>
            <trkpt lat="51.614604" lon="10.909403"><ele>552.3</ele></trkpt>
            <trkpt lat="51.614903" lon="10.910043"><ele>552.9</ele></trkpt>
            <trkpt lat="51.61518" lon="10.911117"><ele>553.6</ele></trkpt>
            <trkpt lat="51.615368" lon="10.911647"><ele>553.4</ele></trkpt>
            <trkpt lat="51.615562" lon="10.912092"><ele>553.2</ele></trkpt>
            <trkpt lat="51.615755" lon="10.912764"><ele>551</ele></trkpt>
            <trkpt lat="51.615997" lon="10.913434"><ele>553.3</ele></trkpt>
            <trkpt lat="51.616394" lon="10.914958"><ele>548</ele></trkpt>
            <trkpt lat="51.616676" lon="10.91594"><ele>544</ele></trkpt>
            <trkpt lat="51.61684" lon="10.91665"><ele>542</ele></trkpt>
            <trkpt lat="51.61685" lon="10.916781"><ele>539</ele></trkpt>
            <trkpt lat="51.616963" lon="10.917397"><ele>538.8</ele></trkpt>
            <trkpt lat="51.617086" lon="10.918206"><ele>539</ele></trkpt>
            <trkpt lat="51.617181" lon="10.919024"><ele>537</ele></trkpt>
            <trkpt lat="51.617231" lon="10.919177"><ele>532.4</ele></trkpt>
            <trkpt lat="51.617402" lon="10.91988"><ele>530.7</ele></trkpt>
            <trkpt lat="51.617479" lon="10.92046"><ele>530.2</ele></trkpt>
            <trkpt lat="51.617508" lon="10.920778"><ele>530.1</ele></trkpt>
            <trkpt lat="51.61752" lon="10.921236"><ele>528.8</ele></trkpt>
            <trkpt lat="51.61749" lon="10.92173"><ele>520</ele></trkpt>
            <trkpt lat="51.617475" lon="10.922259"><ele>520</ele></trkpt>
            <trkpt lat="51.617338" lon="10.92455"><ele>519</ele></trkpt>
            <trkpt lat="51.617314" lon="10.925048"><ele>518</ele></trkpt>
            <trkpt lat="51.617249" lon="10.926793"><ele>517.6</ele></trkpt>
            <trkpt lat="51.617284" lon="10.927402"><ele>517</ele></trkpt>
            <trkpt lat="51.617357" lon="10.928"><ele>517.3</ele></trkpt>
            <trkpt lat="51.617577" lon="10.928645"><ele>516.6</ele></trkpt>
            <trkpt lat="51.617699" lon="10.928862"><ele>513</ele></trkpt>
            <trkpt lat="51.617745" lon="10.928944"><ele>513</ele></trkpt>
            <trkpt lat="51.617786" lon="10.929023"><ele>513</ele></trkpt>
            <trkpt lat="51.618466" lon="10.930343"><ele>513</ele></trkpt>
            <trkpt lat="51.619427" lon="10.932308"><ele>505.4</ele></trkpt>
            <trkpt lat="51.619615" lon="10.932827"><ele>506.3</ele></trkpt>
            <trkpt lat="51.619714" lon="10.933277"><ele>505</ele></trkpt>
            <trkpt lat="51.619726" lon="10.933801"><ele>505</ele></trkpt>
            <trkpt lat="51.619724" lon="10.935122"><ele>503</ele></trkpt>
            <trkpt lat="51.619774" lon="10.93537"><ele>500</ele></trkpt>
            <trkpt lat="51.619883" lon="10.935772"><ele>495.1</ele></trkpt>
            <trkpt lat="51.620112" lon="10.936439"><ele>495</ele></trkpt>
            <trkpt lat="51.620509" lon="10.937504"><ele>487</ele></trkpt>
            <trkpt lat="51.620928" lon="10.938958"><ele>486.5</ele></trkpt>
            <trkpt lat="51.621124" lon="10.939885"><ele>485</ele></trkpt>
            <trkpt lat="51.621143" lon="10.939988"><ele>485</ele></trkpt>
            <trkpt lat="51.621318" lon="10.940916"><ele>480</ele></trkpt>
            <trkpt lat="51.621321" lon="10.940945"><ele>480</ele></trkpt>
            <trkpt lat="51.621338" lon="10.941134"><ele>480</ele></trkpt>
            <trkpt lat="51.621366" lon="10.941718"><ele>478.7</ele></trkpt>
            <trkpt lat="51.621333" lon="10.942693"><ele>476</ele></trkpt>
            <trkpt lat="51.621454" lon="10.944645"><ele>471.1</ele></trkpt>
            <trkpt lat="51.621466" lon="10.945033"><ele>470.8</ele></trkpt>
            <trkpt lat="51.621455" lon="10.945965"><ele>470.2</ele></trkpt>
            <trkpt lat="51.621354" lon="10.946677"><ele>469.2</ele></trkpt>
            <trkpt lat="51.621363" lon="10.946774"><ele>467</ele></trkpt>
            <trkpt lat="51.621373" lon="10.946882"><ele>467</ele></trkpt>
            <trkpt lat="51.621358" lon="10.94708"><ele>467</ele></trkpt>
            <trkpt lat="51.621329" lon="10.947311"><ele>467</ele></trkpt>
            <trkpt lat="51.621313" lon="10.947339"><ele>467</ele></trkpt>
            <trkpt lat="51.621275" lon="10.947329"><ele>467</ele></trkpt>
            <trkpt lat="51.621205" lon="10.947307"><ele>467</ele></trkpt>
            <trkpt lat="51.621144" lon="10.947289"><ele>467</ele></trkpt>
            <trkpt lat="51.621133" lon="10.947715"><ele>465.9</ele></trkpt>
            <trkpt lat="51.621188" lon="10.948522"><ele>465</ele></trkpt>
            <trkpt lat="51.621189" lon="10.948696"><ele>465</ele></trkpt>
            <trkpt lat="51.621175" lon="10.949173"><ele>463.5</ele></trkpt>
            <trkpt lat="51.621144" lon="10.949493"><ele>463.4</ele></trkpt>
            <trkpt lat="51.620977" lon="10.950491"><ele>462</ele></trkpt>
            <trkpt lat="51.620988" lon="10.950605"><ele>462</ele></trkpt>
            <trkpt lat="51.621046" lon="10.950825"><ele>462</ele></trkpt>
            <trkpt lat="51.621118" lon="10.950977"><ele>462</ele></trkpt>
            <trkpt lat="51.621272" lon="10.951161"><ele>462</ele></trkpt>
            <trkpt lat="51.62132" lon="10.951217"><ele>462</ele></trkpt>
            <trkpt lat="51.62173" lon="10.951675"><ele>460</ele></trkpt>
            <trkpt lat="51.622013" lon="10.951937"><ele>462.6</ele></trkpt>
            <trkpt lat="51.622179" lon="10.952037"><ele>463</ele></trkpt>
            <trkpt lat="51.622345" lon="10.952087"><ele>462.7</ele></trkpt>
            <trkpt lat="51.622503" lon="10.952082"><ele>464.9</ele></trkpt>
            <trkpt lat="51.622699" lon="10.952039"><ele>465.3</ele></trkpt>
            <trkpt lat="51.623387" lon="10.951747"><ele>468.5</ele></trkpt>
            <trkpt lat="51.623802" lon="10.951511"><ele>476</ele></trkpt>
            <trkpt lat="51.62416" lon="10.951425"><ele>479</ele></trkpt>
            <trkpt lat="51.624623" lon="10.951175"><ele>479.6</ele></trkpt>
            <trkpt lat="51.624893" lon="10.95107"><ele>479.3</ele></trkpt>
            <trkpt lat="51.624983" lon="10.951057"><ele>481</ele></trkpt>
            <trkpt lat="51.62511" lon="10.951119"><ele>482</ele></trkpt>
            <trkpt lat="51.626698" lon="10.952767"><ele>495.5</ele></trkpt>
            <trkpt lat="51.627601" lon="10.953741"><ele>497</ele></trkpt>
            <trkpt lat="51.628831" lon="10.954991"><ele>499.5</ele></trkpt>
            <trkpt lat="51.629324" lon="10.955518"><ele>499</ele></trkpt>
            <trkpt lat="51.629678" lon="10.955914"><ele>497.3</ele></trkpt>
            <trkpt lat="51.630876" lon="10.957145"><ele>495</ele></trkpt>
            <trkpt lat="51.631204" lon="10.957423"><ele>495.3</ele></trkpt>
            <trkpt lat="51.631564" lon="10.957496"><ele>495.3</ele></trkpt>
            <trkpt lat="51.632367" lon="10.957458"><ele>496</ele></trkpt>
            <trkpt lat="51.632389" lon="10.959559"><ele>492.5</ele></trkpt>
            <trkpt lat="51.632475" lon="10.962623"><ele>478</ele></trkpt>
            <trkpt lat="51.632401" lon="10.963148"><ele>479</ele></trkpt>
            <trkpt lat="51.632451" lon="10.963911"><ele>477</ele></trkpt>
            <trkpt lat="51.632928" lon="10.966978"><ele>466</ele></trkpt>
            <trkpt lat="51.633077" lon="10.967991"><ele>463</ele></trkpt>
            <trkpt lat="51.633262" lon="10.968013"><ele>459.3</ele></trkpt>
            <trkpt lat="51.63345" lon="10.968533"><ele>452</ele></trkpt>
            <trkpt lat="51.633649" lon="10.968826"><ele>452.6</ele></trkpt>
            <trkpt lat="51.634138" lon="10.968987"><ele>451.7</ele></trkpt>
            <trkpt lat="51.634451" lon="10.96906"><ele>451.7</ele></trkpt>
            <trkpt lat="51.634605" lon="10.969087"><ele>451.5</ele></trkpt>
            <trkpt lat="51.634762" lon="10.969058"><ele>451.2</ele></trkpt>
            <trkpt lat="51.634982" lon="10.968931"><ele>449.6</ele></trkpt>
            <trkpt lat="51.635404" lon="10.968454"><ele>448.8</ele></trkpt>
            <trkpt lat="51.636053" lon="10.968039"><ele>447.1</ele></trkpt>
            <trkpt lat="51.636157" lon="10.967896"><ele>445</ele></trkpt>
            <trkpt lat="51.636203" lon="10.967839"><ele>445</ele></trkpt>
            <trkpt lat="51.636235" lon="10.967802"><ele>445</ele></trkpt>
            <trkpt lat="51.636702" lon="10.967809"><ele>446.5</ele></trkpt>
            <trkpt lat="51.636867" lon="10.967862"><ele>446.4</ele></trkpt>
            <trkpt lat="51.636955" lon="10.967963"><ele>447</ele></trkpt>
            <trkpt lat="51.636945" lon="10.968036"><ele>447</ele></trkpt>
            <trkpt lat="51.636931" lon="10.968068"><ele>447</ele></trkpt>
            <trkpt lat="51.636905" lon="10.968135"><ele>447</ele></trkpt>
            <trkpt lat="51.636951" lon="10.968383"><ele>432</ele></trkpt>
            <trkpt lat="51.637032" lon="10.968366"><ele>432</ele></trkpt>
        </trkseg>
    </trk>
</gpx>
