<?xml version="1.0" encoding="UTF-8"?>
<gpx version="1.1" creator="HWN Route Compare (OpenRouteService)" xmlns="http://www.topografix.com/GPX/1/1">
    <metadata>
        <name>OpenRouteService – Tour G6</name>
    </metadata>
    <trk>
        <name>OpenRouteService – Tour G6</name>
        <trkseg>
            <trkpt lat="51.580589" lon="11.005411"><ele>578</ele></trkpt>
            <trkpt lat="51.580657" lon="11.005374"><ele>578</ele></trkpt>
            <trkpt lat="51.580755" lon="11.005429"><ele>578</ele></trkpt>
            <trkpt lat="51.580795" lon="11.005527"><ele>578</ele></trkpt>
            <trkpt lat="51.581018" lon="11.005388"><ele>583</ele></trkpt>
            <trkpt lat="51.581523" lon="11.005102"><ele>583</ele></trkpt>
            <trkpt lat="51.582438" lon="11.004571"><ele>569.1</ele></trkpt>
            <trkpt lat="51.582631" lon="11.00441"><ele>568.8</ele></trkpt>
            <trkpt lat="51.582753" lon="11.004247"><ele>568.2</ele></trkpt>
            <trkpt lat="51.583784" lon="11.00264"><ele>556.8</ele></trkpt>
            <trkpt lat="51.583979" lon="11.002363"><ele>555.5</ele></trkpt>
            <trkpt lat="51.584231" lon="11.002045"><ele>555.7</ele></trkpt>
            <trkpt lat="51.584495" lon="11.001764"><ele>554.7</ele></trkpt>
            <trkpt lat="51.5847" lon="11.00158"><ele>553.8</ele></trkpt>
            <trkpt lat="51.584847" lon="11.001491"><ele>550</ele></trkpt>
            <trkpt lat="51.584961" lon="11.001474"><ele>548.8</ele></trkpt>
            <trkpt lat="51.585128" lon="11.00149"><ele>545</ele></trkpt>
            <trkpt lat="51.585731" lon="11.001216"><ele>533.8</ele></trkpt>
            <trkpt lat="51.585798" lon="11.001151"><ele>534.1</ele></trkpt>
            <trkpt lat="51.585936" lon="11.000947"><ele>534.1</ele></trkpt>
            <trkpt lat="51.586163" lon="11.000899"><ele>533.7</ele></trkpt>
            <trkpt lat="51.586375" lon="11.000728"><ele>533.3</ele></trkpt>
            <trkpt lat="51.586452" lon="11.000707"><ele>532.6</ele></trkpt>
            <trkpt lat="51.586578" lon="11.000757"><ele>531.8</ele></trkpt>
            <trkpt lat="51.586742" lon="11.000959"><ele>531.4</ele></trkpt>
            <trkpt lat="51.586915" lon="11.001019"><ele>531.1</ele></trkpt>
            <trkpt lat="51.587082" lon="11.001126"><ele>530.6</ele></trkpt>
            <trkpt lat="51.587154" lon="11.001254"><ele>529.8</ele></trkpt>
            <trkpt lat="51.587253" lon="11.001592"><ele>528.9</ele></trkpt>
            <trkpt lat="51.587304" lon="11.00171"><ele>528.9</ele></trkpt>
            <trkpt lat="51.587389" lon="11.001816"><ele>529</ele></trkpt>
            <trkpt lat="51.587449" lon="11.001821"><ele>537</ele></trkpt>
            <trkpt lat="51.587629" lon="11.001733"><ele>525.4</ele></trkpt>
            <trkpt lat="51.58777" lon="11.001578"><ele>525</ele></trkpt>
            <trkpt lat="51.587912" lon="11.001514"><ele>523.8</ele></trkpt>
            <trkpt lat="51.587956" lon="11.001445"><ele>523.2</ele></trkpt>
            <trkpt lat="51.588101" lon="11.001319"><ele>522.7</ele></trkpt>
            <trkpt lat="51.588317" lon="11.001242"><ele>519</ele></trkpt>
            <trkpt lat="51.588576" lon="11.000826"><ele>505.3</ele></trkpt>
            <trkpt lat="51.588854" lon="11.000576"><ele>504</ele></trkpt>
            <trkpt lat="51.58902" lon="11.000476"><ele>499</ele></trkpt>
            <trkpt lat="51.589061" lon="11.000829"><ele>499.3</ele></trkpt>
            <trkpt lat="51.589113" lon="11.001074"><ele>499.7</ele></trkpt>
            <trkpt lat="51.589198" lon="11.001369"><ele>499.6</ele></trkpt>
            <trkpt lat="51.589227" lon="11.001808"><ele>499</ele></trkpt>
            <trkpt lat="51.589312" lon="11.002187"><ele>499</ele></trkpt>
            <trkpt lat="51.589464" lon="11.002013"><ele>495.2</ele></trkpt>
            <trkpt lat="51.58987" lon="11.001458"><ele>493.8</ele></trkpt>
            <trkpt lat="51.590064" lon="11.000966"><ele>493.7</ele></trkpt>
            <trkpt lat="51.590139" lon="11.000848"><ele>490</ele></trkpt>
            <trkpt lat="51.590128" lon="11.000494"><ele>486</ele></trkpt>
            <trkpt lat="51.590225" lon="11.000537"><ele>486</ele></trkpt>
            <trkpt lat="51.590375" lon="10.999608"><ele>481.6</ele></trkpt>
            <trkpt lat="51.590413" lon="10.998821"><ele>481.3</ele></trkpt>
            <trkpt lat="51.59039" lon="10.998349"><ele>480.5</ele></trkpt>
            <trkpt lat="51.59034" lon="10.998167"><ele>479</ele></trkpt>
            <trkpt lat="51.590458" lon="10.998159"><ele>479</ele></trkpt>
            <trkpt lat="51.590507" lon="10.998209"><ele>479</ele></trkpt>
            <trkpt lat="51.590534" lon="10.998229"><ele>479</ele></trkpt>
            <trkpt lat="51.590613" lon="10.998419"><ele>482.6</ele></trkpt>
            <trkpt lat="51.590872" lon="10.998585"><ele>483.9</ele></trkpt>
            <trkpt lat="51.591603" lon="10.998627"><ele>486.5</ele></trkpt>
            <trkpt lat="51.591978" lon="10.998379"><ele>488.2</ele></trkpt>
            <trkpt lat="51.592408" lon="10.998288"><ele>488.5</ele></trkpt>
            <trkpt lat="51.592732" lon="10.998121"><ele>489</ele></trkpt>
            <trkpt lat="51.592876" lon="10.997992"><ele>491</ele></trkpt>
            <trkpt lat="51.593316" lon="10.998428"><ele>492</ele></trkpt>
            <trkpt lat="51.59362" lon="10.998761"><ele>494.2</ele></trkpt>
            <trkpt lat="51.594029" lon="10.999367"><ele>493.8</ele></trkpt>
            <trkpt lat="51.594233" lon="10.999718"><ele>497</ele></trkpt>
            <trkpt lat="51.594526" lon="11.00032"><ele>497.8</ele></trkpt>
            <trkpt lat="51.595133" lon="11.001712"><ele>497.9</ele></trkpt>
            <trkpt lat="51.595522" lon="11.003312"><ele>498</ele></trkpt>
            <trkpt lat="51.595686" lon="11.004083"><ele>496.2</ele></trkpt>
            <trkpt lat="51.595809" lon="11.005188"><ele>492.7</ele></trkpt>
            <trkpt lat="51.596016" lon="11.006392"><ele>490.4</ele></trkpt>
            <trkpt lat="51.596046" lon="11.006714"><ele>489.4</ele></trkpt>
            <trkpt lat="51.596042" lon="11.006873"><ele>486</ele></trkpt>
            <trkpt lat="51.596713" lon="11.008189"><ele>474.5</ele></trkpt>
            <trkpt lat="51.597062" lon="11.009076"><ele>472.2</ele></trkpt>
            <trkpt lat="51.597173" lon="11.009223"><ele>472</ele></trkpt>
            <trkpt lat="51.59754" lon="11.009432"><ele>460</ele></trkpt>
            <trkpt lat="51.597947" lon="11.009945"><ele>457.8</ele></trkpt>
            <trkpt lat="51.598268" lon="11.010421"><ele>457.2</ele></trkpt>
            <trkpt lat="51.598387" lon="11.010665"><ele>452</ele></trkpt>
            <trkpt lat="51.59858" lon="11.010937"><ele>452</ele></trkpt>
            <trkpt lat="51.599618" lon="11.012564"><ele>441</ele></trkpt>
            <trkpt lat="51.599767" lon="11.012887"><ele>440.8</ele></trkpt>
            <trkpt lat="51.599936" lon="11.013522"><ele>438</ele></trkpt>
            <trkpt lat="51.600358" lon="11.014273"><ele>443</ele></trkpt>
            <trkpt lat="51.600405" lon="11.0126"><ele>443.6</ele></trkpt>
            <trkpt lat="51.600545" lon="11.011808"><ele>444.6</ele></trkpt>
            <trkpt lat="51.60068" lon="11.011185"><ele>446.6</ele></trkpt>
            <trkpt lat="51.600766" lon="11.011008"><ele>448.3</ele></trkpt>
            <trkpt lat="51.600895" lon="11.010889"><ele>449.6</ele></trkpt>
            <trkpt lat="51.601288" lon="11.01087"><ele>451.3</ele></trkpt>
            <trkpt lat="51.601429" lon="11.010753"><ele>451.5</ele></trkpt>
            <trkpt lat="51.601867" lon="11.010027"><ele>455.2</ele></trkpt>
            <trkpt lat="51.602086" lon="11.009834"><ele>456.6</ele></trkpt>
            <trkpt lat="51.602536" lon="11.009383"><ele>467</ele></trkpt>
            <trkpt lat="51.603604" lon="11.008543"><ele>469.7</ele></trkpt>
            <trkpt lat="51.603828" lon="11.008446"><ele>471</ele></trkpt>
            <trkpt lat="51.603922" lon="11.007698"><ele>473</ele></trkpt>
            <trkpt lat="51.60412" lon="11.00708"><ele>475</ele></trkpt>
            <trkpt lat="51.604243" lon="11.007063"><ele>480.2</ele></trkpt>
            <trkpt lat="51.604902" lon="11.007215"><ele>479.5</ele></trkpt>
            <trkpt lat="51.605449" lon="11.007387"><ele>478.8</ele></trkpt>
            <trkpt lat="51.605936" lon="11.007511"><ele>478</ele></trkpt>
            <trkpt lat="51.606294" lon="11.007602"><ele>478</ele></trkpt>
            <trkpt lat="51.606755" lon="11.007688"><ele>476</ele></trkpt>
            <trkpt lat="51.606805" lon="11.007665"><ele>475</ele></trkpt>
            <trkpt lat="51.606873" lon="11.007757"><ele>472.4</ele></trkpt>
            <trkpt lat="51.607513" lon="11.008208"><ele>469.4</ele></trkpt>
            <trkpt lat="51.60776" lon="11.008275"><ele>469.5</ele></trkpt>
            <trkpt lat="51.607984" lon="11.008212"><ele>469.5</ele></trkpt>
            <trkpt lat="51.608191" lon="11.008274"><ele>468.4</ele></trkpt>
            <trkpt lat="51.608366" lon="11.008466"><ele>461</ele></trkpt>
            <trkpt lat="51.608561" lon="11.008593"><ele>461</ele></trkpt>
            <trkpt lat="51.608913" lon="11.00868"><ele>461</ele></trkpt>
            <trkpt lat="51.609661" lon="11.008887"><ele>452</ele></trkpt>
            <trkpt lat="51.609723" lon="11.008906"><ele>452</ele></trkpt>
            <trkpt lat="51.609782" lon="11.00898"><ele>452</ele></trkpt>
            <trkpt lat="51.609803" lon="11.009103"><ele>452</ele></trkpt>
            <trkpt lat="51.609719" lon="11.009201"><ele>453.8</ele></trkpt>
            <trkpt lat="51.609586" lon="11.009456"><ele>454</ele></trkpt>
            <trkpt lat="51.609384" lon="11.00992"><ele>454.5</ele></trkpt>
            <trkpt lat="51.609202" lon="11.010384"><ele>454.8</ele></trkpt>
            <trkpt lat="51.609045" lon="11.010891"><ele>454.7</ele></trkpt>
            <trkpt lat="51.608861" lon="11.011417"><ele>457</ele></trkpt>
            <trkpt lat="51.608673" lon="11.012124"><ele>456.1</ele></trkpt>
            <trkpt lat="51.608085" lon="11.013452"><ele>456.2</ele></trkpt>
            <trkpt lat="51.607837" lon="11.014184"><ele>456.1</ele></trkpt>
            <trkpt lat="51.607651" lon="11.014883"><ele>456</ele></trkpt>
            <trkpt lat="51.607608" lon="11.014982"><ele>455.5</ele></trkpt>
            <trkpt lat="51.607651" lon="11.014883"><ele>456</ele></trkpt>
            <trkpt lat="51.607837" lon="11.014184"><ele>456.1</ele></trkpt>
            <trkpt lat="51.608085" lon="11.013452"><ele>456.2</ele></trkpt>
            <trkpt lat="51.608673" lon="11.012124"><ele>456.1</ele></trkpt>
            <trkpt lat="51.608861" lon="11.011417"><ele>457</ele></trkpt>
            <trkpt lat="51.609045" lon="11.010891"><ele>454.7</ele></trkpt>
            <trkpt lat="51.609202" lon="11.010384"><ele>454.8</ele></trkpt>
            <trkpt lat="51.609384" lon="11.00992"><ele>454.5</ele></trkpt>
            <trkpt lat="51.609586" lon="11.009456"><ele>454</ele></trkpt>
            <trkpt lat="51.609719" lon="11.009201"><ele>453.8</ele></trkpt>
            <trkpt lat="51.609803" lon="11.009103"><ele>452</ele></trkpt>
            <trkpt lat="51.609858" lon="11.009074"><ele>456.3</ele></trkpt>
            <trkpt lat="51.610089" lon="11.009169"><ele>457.3</ele></trkpt>
            <trkpt lat="51.610392" lon="11.009231"><ele>458.5</ele></trkpt>
            <trkpt lat="51.610449" lon="11.009262"><ele>458.6</ele></trkpt>
            <trkpt lat="51.61067" lon="11.009501"><ele>460.1</ele></trkpt>
            <trkpt lat="51.610809" lon="11.009704"><ele>460.2</ele></trkpt>
            <trkpt lat="51.610946" lon="11.009972"><ele>462</ele></trkpt>
            <trkpt lat="51.611181" lon="11.010641"><ele>466.8</ele></trkpt>
            <trkpt lat="51.611279" lon="11.011217"><ele>470</ele></trkpt>
            <trkpt lat="51.611254" lon="11.012222"><ele>474.8</ele></trkpt>
            <trkpt lat="51.61129" lon="11.013068"><ele>475.5</ele></trkpt>
            <trkpt lat="51.611359" lon="11.013803"><ele>480</ele></trkpt>
            <trkpt lat="51.611889" lon="11.014043"><ele>466</ele></trkpt>
            <trkpt lat="51.612361" lon="11.013676"><ele>466.7</ele></trkpt>
            <trkpt lat="51.613034" lon="11.013462"><ele>468</ele></trkpt>
            <trkpt lat="51.614199" lon="11.013187"><ele>472</ele></trkpt>
            <trkpt lat="51.615713" lon="11.012819"><ele>471</ele></trkpt>
            <trkpt lat="51.616417" lon="11.012615"><ele>474</ele></trkpt>
            <trkpt lat="51.616638" lon="11.01247"><ele>477</ele></trkpt>
            <trkpt lat="51.616906" lon="11.012569"><ele>476.8</ele></trkpt>
            <trkpt lat="51.617278" lon="11.012499"><ele>478</ele></trkpt>
            <trkpt lat="51.617468" lon="11.012521"><ele>477.4</ele></trkpt>
            <trkpt lat="51.617673" lon="11.012479"><ele>477.5</ele></trkpt>
            <trkpt lat="51.617783" lon="11.012482"><ele>478</ele></trkpt>
            <trkpt lat="51.617858" lon="11.012484"><ele>477</ele></trkpt>
            <trkpt lat="51.618129" lon="11.012563"><ele>476.9</ele></trkpt>
            <trkpt lat="51.618397" lon="11.012679"><ele>476.7</ele></trkpt>
            <trkpt lat="51.618775" lon="11.012995"><ele>476.6</ele></trkpt>
            <trkpt lat="51.618877" lon="11.013018"><ele>476</ele></trkpt>
            <trkpt lat="51.61904" lon="11.013055"><ele>474.5</ele></trkpt>
            <trkpt lat="51.619216" lon="11.01313"><ele>474.6</ele></trkpt>
            <trkpt lat="51.619413" lon="11.013162"><ele>474.6</ele></trkpt>
            <trkpt lat="51.619799" lon="11.012944"><ele>474.3</ele></trkpt>
            <trkpt lat="51.61999" lon="11.012874"><ele>474</ele></trkpt>
            <trkpt lat="51.620189" lon="11.012893"><ele>473.5</ele></trkpt>
            <trkpt lat="51.620786" lon="11.012805"><ele>472</ele></trkpt>
            <trkpt lat="51.620962" lon="11.012897"><ele>471.4</ele></trkpt>
            <trkpt lat="51.62123" lon="11.013097"><ele>470.6</ele></trkpt>
            <trkpt lat="51.621423" lon="11.013144"><ele>469.9</ele></trkpt>
            <trkpt lat="51.621545" lon="11.013139"><ele>469</ele></trkpt>
            <trkpt lat="51.621659" lon="11.013144"><ele>469</ele></trkpt>
            <trkpt lat="51.621778" lon="11.013203"><ele>469.2</ele></trkpt>
            <trkpt lat="51.622078" lon="11.013259"><ele>469.1</ele></trkpt>
            <trkpt lat="51.622384" lon="11.0132"><ele>469</ele></trkpt>
            <trkpt lat="51.622559" lon="11.013046"><ele>468.3</ele></trkpt>
            <trkpt lat="51.622933" lon="11.012663"><ele>467.2</ele></trkpt>
            <trkpt lat="51.623079" lon="11.012554"><ele>465.9</ele></trkpt>
            <trkpt lat="51.623309" lon="11.012454"><ele>464.7</ele></trkpt>
            <trkpt lat="51.623556" lon="11.012393"><ele>463</ele></trkpt>
            <trkpt lat="51.623979" lon="11.012304"><ele>460.8</ele></trkpt>
            <trkpt lat="51.624106" lon="11.01235"><ele>460.5</ele></trkpt>
            <trkpt lat="51.62429" lon="11.012522"><ele>459.7</ele></trkpt>
            <trkpt lat="51.624483" lon="11.012945"><ele>459.9</ele></trkpt>
            <trkpt lat="51.624677" lon="11.013633"><ele>460.9</ele></trkpt>
            <trkpt lat="51.624798" lon="11.014176"><ele>462.7</ele></trkpt>
            <trkpt lat="51.624763" lon="11.014478"><ele>463.9</ele></trkpt>
            <trkpt lat="51.624694" lon="11.014762"><ele>464.8</ele></trkpt>
            <trkpt lat="51.624362" lon="11.015649"><ele>466.7</ele></trkpt>
            <trkpt lat="51.624233" lon="11.016198"><ele>467.3</ele></trkpt>
            <trkpt lat="51.624207" lon="11.016737"><ele>467.3</ele></trkpt>
            <trkpt lat="51.624209" lon="11.016992"><ele>467.3</ele></trkpt>
            <trkpt lat="51.62427" lon="11.017187"><ele>466</ele></trkpt>
            <trkpt lat="51.624346" lon="11.017405"><ele>458.6</ele></trkpt>
            <trkpt lat="51.624375" lon="11.017538"><ele>458.9</ele></trkpt>
            <trkpt lat="51.624373" lon="11.017638"><ele>458.7</ele></trkpt>
            <trkpt lat="51.624423" lon="11.017955"><ele>458.3</ele></trkpt>
            <trkpt lat="51.624496" lon="11.018067"><ele>457.5</ele></trkpt>
            <trkpt lat="51.624615" lon="11.018118"><ele>456.9</ele></trkpt>
            <trkpt lat="51.624729" lon="11.018281"><ele>456.3</ele></trkpt>
            <trkpt lat="51.625193" lon="11.018614"><ele>454.7</ele></trkpt>
            <trkpt lat="51.625484" lon="11.018785"><ele>452.3</ele></trkpt>
            <trkpt lat="51.625561" lon="11.018872"><ele>451.5</ele></trkpt>
            <trkpt lat="51.625581" lon="11.018997"><ele>450.6</ele></trkpt>
            <trkpt lat="51.625564" lon="11.019386"><ele>447.9</ele></trkpt>
            <trkpt lat="51.625449" lon="11.019782"><ele>445.2</ele></trkpt>
            <trkpt lat="51.625429" lon="11.019893"><ele>444</ele></trkpt>
            <trkpt lat="51.625429" lon="11.020005"><ele>442.5</ele></trkpt>
            <trkpt lat="51.625484" lon="11.020191"><ele>441</ele></trkpt>
            <trkpt lat="51.625732" lon="11.021483"><ele>436.2</ele></trkpt>
            <trkpt lat="51.625739" lon="11.021675"><ele>435.5</ele></trkpt>
            <trkpt lat="51.625657" lon="11.023431"><ele>433</ele></trkpt>
            <trkpt lat="51.626711" lon="11.020379"><ele>434.6</ele></trkpt>
            <trkpt lat="51.626912" lon="11.019839"><ele>436</ele></trkpt>
            <trkpt lat="51.627161" lon="11.02007"><ele>434</ele></trkpt>
            <trkpt lat="51.62737" lon="11.020209"><ele>434</ele></trkpt>
            <trkpt lat="51.627514" lon="11.020334"><ele>434</ele></trkpt>
            <trkpt lat="51.628958" lon="11.02149"><ele>430</ele></trkpt>
            <trkpt lat="51.62899" lon="11.021515"><ele>430</ele></trkpt>
            <trkpt lat="51.629691" lon="11.022015"><ele>420.7</ele></trkpt>
            <trkpt lat="51.630126" lon="11.022427"><ele>413</ele></trkpt>
            <trkpt lat="51.630581" lon="11.022098"><ele>407.4</ele></trkpt>
            <trkpt lat="51.630972" lon="11.021903"><ele>406.9</ele></trkpt>
            <trkpt lat="51.631069" lon="11.021744"><ele>406.5</ele></trkpt>
            <trkpt lat="51.631104" lon="11.021584"><ele>405.8</ele></trkpt>
            <trkpt lat="51.631121" lon="11.021215"><ele>400</ele></trkpt>
            <trkpt lat="51.631142" lon="11.021004"><ele>398.1</ele></trkpt>
            <trkpt lat="51.631242" lon="11.020752"><ele>397.5</ele></trkpt>
            <trkpt lat="51.631329" lon="11.020648"><ele>395</ele></trkpt>
            <trkpt lat="51.631508" lon="11.020655"><ele>391</ele></trkpt>
            <trkpt lat="51.631869" lon="11.020868"><ele>389.6</ele></trkpt>
            <trkpt lat="51.631982" lon="11.020869"><ele>390.1</ele></trkpt>
            <trkpt lat="51.632055" lon="11.0208"><ele>389</ele></trkpt>
            <trkpt lat="51.632645" lon="11.019879"><ele>388.8</ele></trkpt>
            <trkpt lat="51.63475" lon="11.01697"><ele>392</ele></trkpt>
            <trkpt lat="51.634881" lon="11.016704"><ele>392</ele></trkpt>
            <trkpt lat="51.635734" lon="11.01524"><ele>394.2</ele></trkpt>
            <trkpt lat="51.635808" lon="11.015186"><ele>395</ele></trkpt>
            <trkpt lat="51.635841" lon="11.015192"><ele>386</ele></trkpt>
            <trkpt lat="51.636508" lon="11.015675"><ele>386</ele></trkpt>
            <trkpt lat="51.636613" lon="11.015751"><ele>386</ele></trkpt>
            <trkpt lat="51.636957" lon="11.01599"><ele>384</ele></trkpt>
            <trkpt lat="51.637102" lon="11.0156"><ele>382</ele></trkpt>
            <trkpt lat="51.637454" lon="11.015864"><ele>388.8</ele></trkpt>
            <trkpt lat="51.637625" lon="11.016052"><ele>389.6</ele></trkpt>
            <trkpt lat="51.637927" lon="11.016492"><ele>391</ele></trkpt>
            <trkpt lat="51.638081" lon="11.016813"><ele>392.1</ele></trkpt>
            <trkpt lat="51.638239" lon="11.01717"><ele>393.9</ele></trkpt>
            <trkpt lat="51.638563" lon="11.018475"><ele>397.3</ele></trkpt>
            <trkpt lat="51.638689" lon="11.018928"><ele>397.2</ele></trkpt>
            <trkpt lat="51.638824" lon="11.019214"><ele>396</ele></trkpt>
            <trkpt lat="51.638892" lon="11.019466"><ele>396.9</ele></trkpt>
            <trkpt lat="51.638912" lon="11.019778"><ele>396.9</ele></trkpt>
            <trkpt lat="51.638947" lon="11.019986"><ele>396.8</ele></trkpt>
            <trkpt lat="51.639129" lon="11.020349"><ele>396.5</ele></trkpt>
            <trkpt lat="51.63918" lon="11.020494"><ele>397.2</ele></trkpt>
            <trkpt lat="51.639189" lon="11.020672"><ele>397.9</ele></trkpt>
            <trkpt lat="51.639132" lon="11.0209"><ele>397.8</ele></trkpt>
            <trkpt lat="51.639054" lon="11.021114"><ele>397.7</ele></trkpt>
            <trkpt lat="51.639016" lon="11.021288"><ele>397</ele></trkpt>
            <trkpt lat="51.638887" lon="11.021287"><ele>397</ele></trkpt>
            <trkpt lat="51.638538" lon="11.021603"><ele>397</ele></trkpt>
            <trkpt lat="51.638333" lon="11.021823"><ele>404.6</ele></trkpt>
            <trkpt lat="51.638226" lon="11.021977"><ele>404.7</ele></trkpt>
            <trkpt lat="51.638105" lon="11.02208"><ele>404.7</ele></trkpt>
            <trkpt lat="51.637937" lon="11.022386"><ele>404.7</ele></trkpt>
            <trkpt lat="51.637726" lon="11.022632"><ele>405.2</ele></trkpt>
            <trkpt lat="51.637674" lon="11.022714"><ele>407.1</ele></trkpt>
            <trkpt lat="51.637726" lon="11.022632"><ele>405.2</ele></trkpt>
            <trkpt lat="51.637937" lon="11.022386"><ele>404.7</ele></trkpt>
            <trkpt lat="51.638105" lon="11.02208"><ele>404.7</ele></trkpt>
            <trkpt lat="51.638226" lon="11.021977"><ele>404.7</ele></trkpt>
            <trkpt lat="51.638333" lon="11.021823"><ele>404.6</ele></trkpt>
            <trkpt lat="51.638538" lon="11.021603"><ele>397</ele></trkpt>
            <trkpt lat="51.638887" lon="11.021287"><ele>397</ele></trkpt>
            <trkpt lat="51.639016" lon="11.021288"><ele>397</ele></trkpt>
            <trkpt lat="51.639054" lon="11.021114"><ele>397.7</ele></trkpt>
            <trkpt lat="51.639132" lon="11.0209"><ele>397.8</ele></trkpt>
            <trkpt lat="51.639189" lon="11.020672"><ele>397.9</ele></trkpt>
            <trkpt lat="51.63918" lon="11.020494"><ele>397.2</ele></trkpt>
            <trkpt lat="51.639129" lon="11.020349"><ele>396.5</ele></trkpt>
            <trkpt lat="51.638947" lon="11.019986"><ele>396.8</ele></trkpt>
            <trkpt lat="51.638912" lon="11.019778"><ele>396.9</ele></trkpt>
            <trkpt lat="51.638892" lon="11.019466"><ele>396.9</ele></trkpt>
            <trkpt lat="51.638824" lon="11.019214"><ele>396</ele></trkpt>
            <trkpt lat="51.638689" lon="11.018928"><ele>397.2</ele></trkpt>
            <trkpt lat="51.638563" lon="11.018475"><ele>397.3</ele></trkpt>
            <trkpt lat="51.638239" lon="11.01717"><ele>393.9</ele></trkpt>
            <trkpt lat="51.638081" lon="11.016813"><ele>392.1</ele></trkpt>
            <trkpt lat="51.637927" lon="11.016492"><ele>391</ele></trkpt>
            <trkpt lat="51.637625" lon="11.016052"><ele>389.6</ele></trkpt>
            <trkpt lat="51.637454" lon="11.015864"><ele>388.8</ele></trkpt>
            <trkpt lat="51.637102" lon="11.0156"><ele>382</ele></trkpt>
            <trkpt lat="51.636957" lon="11.01599"><ele>384</ele></trkpt>
            <trkpt lat="51.636613" lon="11.015751"><ele>386</ele></trkpt>
            <trkpt lat="51.636508" lon="11.015675"><ele>386</ele></trkpt>
            <trkpt lat="51.635841" lon="11.015192"><ele>386</ele></trkpt>
            <trkpt lat="51.635808" lon="11.015186"><ele>395</ele></trkpt>
            <trkpt lat="51.635734" lon="11.01524"><ele>394.2</ele></trkpt>
            <trkpt lat="51.634881" lon="11.016704"><ele>392</ele></trkpt>
            <trkpt lat="51.63475" lon="11.01697"><ele>392</ele></trkpt>
            <trkpt lat="51.632645" lon="11.019879"><ele>388.8</ele></trkpt>
            <trkpt lat="51.632055" lon="11.0208"><ele>389</ele></trkpt>
            <trkpt lat="51.631982" lon="11.020869"><ele>390.1</ele></trkpt>
            <trkpt lat="51.631869" lon="11.020868"><ele>389.6</ele></trkpt>
            <trkpt lat="51.631508" lon="11.020655"><ele>391</ele></trkpt>
            <trkpt lat="51.631329" lon="11.020648"><ele>395</ele></trkpt>
            <trkpt lat="51.631242" lon="11.020752"><ele>397.5</ele></trkpt>
            <trkpt lat="51.631142" lon="11.021004"><ele>398.1</ele></trkpt>
            <trkpt lat="51.631121" lon="11.021215"><ele>400</ele></trkpt>
            <trkpt lat="51.631104" lon="11.021584"><ele>405.8</ele></trkpt>
            <trkpt lat="51.631069" lon="11.021744"><ele>406.5</ele></trkpt>
            <trkpt lat="51.630972" lon="11.021903"><ele>406.9</ele></trkpt>
            <trkpt lat="51.630581" lon="11.022098"><ele>407.4</ele></trkpt>
            <trkpt lat="51.630126" lon="11.022427"><ele>413</ele></trkpt>
            <trkpt lat="51.629691" lon="11.022015"><ele>420.7</ele></trkpt>
            <trkpt lat="51.62899" lon="11.021515"><ele>430</ele></trkpt>
            <trkpt lat="51.628958" lon="11.02149"><ele>430</ele></trkpt>
            <trkpt lat="51.627514" lon="11.020334"><ele>434</ele></trkpt>
            <trkpt lat="51.62737" lon="11.020209"><ele>434</ele></trkpt>
            <trkpt lat="51.627161" lon="11.02007"><ele>434</ele></trkpt>
            <trkpt lat="51.626912" lon="11.019839"><ele>436</ele></trkpt>
            <trkpt lat="51.626711" lon="11.020379"><ele>434.6</ele></trkpt>
            <trkpt lat="51.625657" lon="11.023431"><ele>433</ele></trkpt>
            <trkpt lat="51.625382" lon="11.024213"><ele>421.9</ele></trkpt>
            <trkpt lat="51.625213" lon="11.024747"><ele>420.7</ele></trkpt>
            <trkpt lat="51.625137" lon="11.025446"><ele>419.1</ele></trkpt>
            <trkpt lat="51.625098" lon="11.025591"><ele>419</ele></trkpt>
            <trkpt lat="51.625035" lon="11.025672"><ele>418.9</ele></trkpt>
            <trkpt lat="51.624833" lon="11.025844"><ele>418.4</ele></trkpt>
            <trkpt lat="51.624657" lon="11.026192"><ele>417.1</ele></trkpt>
            <trkpt lat="51.624599" lon="11.026238"><ele>416.7</ele></trkpt>
            <trkpt lat="51.624521" lon="11.026258"><ele>413</ele></trkpt>
            <trkpt lat="51.624382" lon="11.026233"><ele>409.4</ele></trkpt>
            <trkpt lat="51.624139" lon="11.026309"><ele>409.8</ele></trkpt>
            <trkpt lat="51.623995" lon="11.02639"><ele>410.2</ele></trkpt>
            <trkpt lat="51.623251" lon="11.026908"><ele>401</ele></trkpt>
            <trkpt lat="51.622631" lon="11.027477"><ele>403.6</ele></trkpt>
            <trkpt lat="51.622522" lon="11.027703"><ele>402.8</ele></trkpt>
            <trkpt lat="51.622504" lon="11.027869"><ele>402.2</ele></trkpt>
            <trkpt lat="51.622491" lon="11.028552"><ele>411</ele></trkpt>
            <trkpt lat="51.622348" lon="11.028389"><ele>410.7</ele></trkpt>
            <trkpt lat="51.622232" lon="11.028305"><ele>410</ele></trkpt>
            <trkpt lat="51.622135" lon="11.028314"><ele>415.8</ele></trkpt>
            <trkpt lat="51.622032" lon="11.028391"><ele>415</ele></trkpt>
            <trkpt lat="51.621812" lon="11.028767"><ele>419.7</ele></trkpt>
            <trkpt lat="51.621317" lon="11.029466"><ele>424.3</ele></trkpt>
            <trkpt lat="51.621017" lon="11.030003"><ele>429.9</ele></trkpt>
            <trkpt lat="51.62093" lon="11.030041"><ele>430.4</ele></trkpt>
            <trkpt lat="51.62083" lon="11.030052"><ele>431.2</ele></trkpt>
            <trkpt lat="51.620614" lon="11.030036"><ele>434.6</ele></trkpt>
            <trkpt lat="51.620447" lon="11.030132"><ele>434.9</ele></trkpt>
            <trkpt lat="51.620267" lon="11.030202"><ele>435.3</ele></trkpt>
            <trkpt lat="51.620044" lon="11.030374"><ele>436.1</ele></trkpt>
            <trkpt lat="51.619678" lon="11.030803"><ele>437.7</ele></trkpt>
            <trkpt lat="51.619581" lon="11.030942"><ele>438.4</ele></trkpt>
            <trkpt lat="51.619436" lon="11.030975"><ele>434</ele></trkpt>
            <trkpt lat="51.61909" lon="11.030481"><ele>443.4</ele></trkpt>
            <trkpt lat="51.618453" lon="11.029467"><ele>451</ele></trkpt>
            <trkpt lat="51.61734" lon="11.031267"><ele>430</ele></trkpt>
            <trkpt lat="51.617308" lon="11.031489"><ele>430</ele></trkpt>
            <trkpt lat="51.617042" lon="11.030928"><ele>430</ele></trkpt>
            <trkpt lat="51.616656" lon="11.031602"><ele>415.2</ele></trkpt>
            <trkpt lat="51.616439" lon="11.031869"><ele>415</ele></trkpt>
            <trkpt lat="51.616261" lon="11.03201"><ele>414.8</ele></trkpt>
            <trkpt lat="51.61604" lon="11.032265"><ele>414.6</ele></trkpt>
            <trkpt lat="51.615678" lon="11.032624"><ele>405</ele></trkpt>
            <trkpt lat="51.615704" lon="11.033072"><ele>405</ele></trkpt>
            <trkpt lat="51.615693" lon="11.033239"><ele>405</ele></trkpt>
            <trkpt lat="51.615736" lon="11.033358"><ele>391.8</ele></trkpt>
            <trkpt lat="51.615768" lon="11.033545"><ele>391.8</ele></trkpt>
            <trkpt lat="51.61579" lon="11.033895"><ele>391.8</ele></trkpt>
            <trkpt lat="51.615796" lon="11.034487"><ele>385</ele></trkpt>
            <trkpt lat="51.615631" lon="11.034413"><ele>386.7</ele></trkpt>
            <trkpt lat="51.615036" lon="11.034329"><ele>391.8</ele></trkpt>
            <trkpt lat="51.614223" lon="11.034165"><ele>396.1</ele></trkpt>
            <trkpt lat="51.61385" lon="11.034131"><ele>408</ele></trkpt>
            <trkpt lat="51.613399" lon="11.034117"><ele>406.6</ele></trkpt>
            <trkpt lat="51.61296" lon="11.034182"><ele>405.6</ele></trkpt>
            <trkpt lat="51.612479" lon="11.034413"><ele>403.3</ele></trkpt>
            <trkpt lat="51.612074" lon="11.03507"><ele>401.2</ele></trkpt>
            <trkpt lat="51.611954" lon="11.035173"><ele>398.2</ele></trkpt>
            <trkpt lat="51.611818" lon="11.035208"><ele>397.5</ele></trkpt>
            <trkpt lat="51.6114" lon="11.035161"><ele>392</ele></trkpt>
            <trkpt lat="51.611229" lon="11.035143"><ele>392</ele></trkpt>
            <trkpt lat="51.610178" lon="11.035756"><ele>398</ele></trkpt>
            <trkpt lat="51.610034" lon="11.035833"><ele>398</ele></trkpt>
            <trkpt lat="51.609834" lon="11.035811"><ele>398</ele></trkpt>
            <trkpt lat="51.60941" lon="11.035447"><ele>397.6</ele></trkpt>
            <trkpt lat="51.607859" lon="11.034636"><ele>402.7</ele></trkpt>
            <trkpt lat="51.607092" lon="11.03412"><ele>407.7</ele></trkpt>
            <trkpt lat="51.60643" lon="11.03364"><ele>409.2</ele></trkpt>
            <trkpt lat="51.606246" lon="11.033581"><ele>410</ele></trkpt>
            <trkpt lat="51.606075" lon="11.033602"><ele>412.2</ele></trkpt>
            <trkpt lat="51.60468" lon="11.034707"><ele>415</ele></trkpt>
            <trkpt lat="51.604016" lon="11.035178"><ele>404</ele></trkpt>
            <trkpt lat="51.603068" lon="11.034654"><ele>414</ele></trkpt>
            <trkpt lat="51.602819" lon="11.034483"><ele>414.9</ele></trkpt>
            <trkpt lat="51.602594" lon="11.03413"><ele>418.7</ele></trkpt>
            <trkpt lat="51.602376" lon="11.03332"><ele>420.3</ele></trkpt>
            <trkpt lat="51.602303" lon="11.032821"><ele>422.1</ele></trkpt>
            <trkpt lat="51.602292" lon="11.03244"><ele>424.5</ele></trkpt>
            <trkpt lat="51.60233" lon="11.032095"><ele>425.2</ele></trkpt>
            <trkpt lat="51.602468" lon="11.031519"><ele>426</ele></trkpt>
            <trkpt lat="51.602243" lon="11.031508"><ele>426</ele></trkpt>
            <trkpt lat="51.602024" lon="11.031534"><ele>427.2</ele></trkpt>
            <trkpt lat="51.601953" lon="11.031516"><ele>427.4</ele></trkpt>
            <trkpt lat="51.601883" lon="11.031317"><ele>427.6</ele></trkpt>
            <trkpt lat="51.60169" lon="11.030351"><ele>429</ele></trkpt>
            <trkpt lat="51.601574" lon="11.029997"><ele>429.9</ele></trkpt>
            <trkpt lat="51.600607" lon="11.028013"><ele>429.6</ele></trkpt>
            <trkpt lat="51.600201" lon="11.027442"><ele>426</ele></trkpt>
            <trkpt lat="51.60001" lon="11.027225"><ele>426</ele></trkpt>
            <trkpt lat="51.599684" lon="11.02694"><ele>436.8</ele></trkpt>
            <trkpt lat="51.599538" lon="11.026754"><ele>436</ele></trkpt>
            <trkpt lat="51.599284" lon="11.026169"><ele>435.2</ele></trkpt>
            <trkpt lat="51.599213" lon="11.02591"><ele>434.8</ele></trkpt>
            <trkpt lat="51.599208" lon="11.025762"><ele>434</ele></trkpt>
            <trkpt lat="51.599169" lon="11.025052"><ele>437.9</ele></trkpt>
            <trkpt lat="51.59911" lon="11.024714"><ele>438.3</ele></trkpt>
            <trkpt lat="51.599026" lon="11.024499"><ele>437.8</ele></trkpt>
            <trkpt lat="51.598803" lon="11.024237"><ele>436.6</ele></trkpt>
            <trkpt lat="51.598493" lon="11.024135"><ele>436.1</ele></trkpt>
            <trkpt lat="51.598322" lon="11.024042"><ele>436.3</ele></trkpt>
            <trkpt lat="51.598139" lon="11.023879"><ele>436.3</ele></trkpt>
            <trkpt lat="51.597809" lon="11.02352"><ele>436.6</ele></trkpt>
            <trkpt lat="51.597706" lon="11.023525"><ele>436.7</ele></trkpt>
            <trkpt lat="51.597311" lon="11.023787"><ele>437.6</ele></trkpt>
            <trkpt lat="51.596757" lon="11.023815"><ele>438.3</ele></trkpt>
            <trkpt lat="51.596614" lon="11.023796"><ele>438.5</ele></trkpt>
            <trkpt lat="51.59649" lon="11.023747"><ele>438.4</ele></trkpt>
            <trkpt lat="51.596331" lon="11.023516"><ele>438.6</ele></trkpt>
            <trkpt lat="51.596003" lon="11.023222"><ele>438.4</ele></trkpt>
            <trkpt lat="51.595796" lon="11.02312"><ele>439</ele></trkpt>
            <trkpt lat="51.595696" lon="11.02247"><ele>436.6</ele></trkpt>
            <trkpt lat="51.59568" lon="11.022127"><ele>436.7</ele></trkpt>
            <trkpt lat="51.595698" lon="11.021894"><ele>436.9</ele></trkpt>
            <trkpt lat="51.595769" lon="11.021672"><ele>436</ele></trkpt>
            <trkpt lat="51.595916" lon="11.021298"><ele>437.3</ele></trkpt>
            <trkpt lat="51.595952" lon="11.02114"><ele>438</ele></trkpt>
            <trkpt lat="51.59591" lon="11.021122"><ele>438</ele></trkpt>
            <trkpt lat="51.595892" lon="11.021089"><ele>438</ele></trkpt>
            <trkpt lat="51.595339" lon="11.019774"><ele>438</ele></trkpt>
            <trkpt lat="51.594839" lon="11.018974"><ele>441.3</ele></trkpt>
            <trkpt lat="51.594205" lon="11.017643"><ele>444</ele></trkpt>
            <trkpt lat="51.593872" lon="11.016848"><ele>452.9</ele></trkpt>
            <trkpt lat="51.593383" lon="11.015971"><ele>457.4</ele></trkpt>
            <trkpt lat="51.593046" lon="11.015272"><ele>461.1</ele></trkpt>
            <trkpt lat="51.592744" lon="11.01494"><ele>473</ele></trkpt>
            <trkpt lat="51.592673" lon="11.014788"><ele>477.1</ele></trkpt>
            <trkpt lat="51.5925" lon="11.01423"><ele>476.5</ele></trkpt>
            <trkpt lat="51.592448" lon="11.014116"><ele>477.6</ele></trkpt>
            <trkpt lat="51.592329" lon="11.01405"><ele>484</ele></trkpt>
            <trkpt lat="51.592273" lon="11.014156"><ele>483.8</ele></trkpt>
            <trkpt lat="51.592183" lon="11.014242"><ele>483.2</ele></trkpt>
            <trkpt lat="51.591723" lon="11.014526"><ele>483.4</ele></trkpt>
            <trkpt lat="51.591121" lon="11.015092"><ele>484.5</ele></trkpt>
            <trkpt lat="51.59095" lon="11.015335"><ele>485.6</ele></trkpt>
            <trkpt lat="51.590761" lon="11.015696"><ele>486</ele></trkpt>
            <trkpt lat="51.590494" lon="11.016083"><ele>487.8</ele></trkpt>
            <trkpt lat="51.590196" lon="11.016448"><ele>488.4</ele></trkpt>
            <trkpt lat="51.590005" lon="11.016735"><ele>488.7</ele></trkpt>
            <trkpt lat="51.589534" lon="11.017553"><ele>491.1</ele></trkpt>
            <trkpt lat="51.589433" lon="11.017753"><ele>491.5</ele></trkpt>
            <trkpt lat="51.589265" lon="11.018325"><ele>491.9</ele></trkpt>
            <trkpt lat="51.589177" lon="11.018549"><ele>492.5</ele></trkpt>
            <trkpt lat="51.589093" lon="11.018682"><ele>492.7</ele></trkpt>
            <trkpt lat="51.588963" lon="11.01879"><ele>492.9</ele></trkpt>
            <trkpt lat="51.588666" lon="11.018941"><ele>493.1</ele></trkpt>
            <trkpt lat="51.588527" lon="11.018987"><ele>495</ele></trkpt>
            <trkpt lat="51.588479" lon="11.019002"><ele>495.8</ele></trkpt>
            <trkpt lat="51.588415" lon="11.01894"><ele>495.8</ele></trkpt>
            <trkpt lat="51.588351" lon="11.018676"><ele>495.7</ele></trkpt>
            <trkpt lat="51.58834" lon="11.018453"><ele>495.8</ele></trkpt>
            <trkpt lat="51.588234" lon="11.018109"><ele>495.8</ele></trkpt>
            <trkpt lat="51.588229" lon="11.017952"><ele>495.9</ele></trkpt>
            <trkpt lat="51.588162" lon="11.017703"><ele>496</ele></trkpt>
            <trkpt lat="51.58811" lon="11.017419"><ele>496.1</ele></trkpt>
            <trkpt lat="51.588123" lon="11.017319"><ele>496.1</ele></trkpt>
            <trkpt lat="51.588103" lon="11.017229"><ele>496.2</ele></trkpt>
            <trkpt lat="51.588051" lon="11.017167"><ele>496.2</ele></trkpt>
            <trkpt lat="51.588012" lon="11.01692"><ele>496.5</ele></trkpt>
            <trkpt lat="51.587945" lon="11.01458"><ele>498</ele></trkpt>
            <trkpt lat="51.587549" lon="11.014616"><ele>498</ele></trkpt>
            <trkpt lat="51.587385" lon="11.014612"><ele>494</ele></trkpt>
            <trkpt lat="51.587725" lon="11.013578"><ele>498</ele></trkpt>
            <trkpt lat="51.587725" lon="11.013489"><ele>500</ele></trkpt>
            <trkpt lat="51.587707" lon="11.013391"><ele>501.3</ele></trkpt>
            <trkpt lat="51.587758" lon="11.013009"><ele>504</ele></trkpt>
            <trkpt lat="51.587702" lon="11.012919"><ele>504</ele></trkpt>
            <trkpt lat="51.58767" lon="11.012864"><ele>504</ele></trkpt>
            <trkpt lat="51.587791" lon="11.012658"><ele>504</ele></trkpt>
            <trkpt lat="51.587785" lon="11.012585"><ele>504</ele></trkpt>
            <trkpt lat="51.587212" lon="11.012197"><ele>508</ele></trkpt>
            <trkpt lat="51.587179" lon="11.012151"><ele>517.3</ele></trkpt>
            <trkpt lat="51.587122" lon="11.012002"><ele>516.5</ele></trkpt>
            <trkpt lat="51.587069" lon="11.011727"><ele>515.8</ele></trkpt>
            <trkpt lat="51.586969" lon="11.011454"><ele>515.8</ele></trkpt>
            <trkpt lat="51.586847" lon="11.01133"><ele>515.8</ele></trkpt>
            <trkpt lat="51.586672" lon="11.011078"><ele>515.9</ele></trkpt>
            <trkpt lat="51.586611" lon="11.01097"><ele>517.1</ele></trkpt>
            <trkpt lat="51.586521" lon="11.010688"><ele>539</ele></trkpt>
            <trkpt lat="51.58597" lon="11.010507"><ele>545.5</ele></trkpt>
            <trkpt lat="51.58587" lon="11.01045"><ele>544.9</ele></trkpt>
            <trkpt lat="51.585783" lon="11.010449"><ele>546.3</ele></trkpt>
            <trkpt lat="51.585519" lon="11.010517"><ele>547.5</ele></trkpt>
            <trkpt lat="51.584813" lon="11.010283"><ele>561</ele></trkpt>
            <trkpt lat="51.584722" lon="11.010268"><ele>564.3</ele></trkpt>
            <trkpt lat="51.58465" lon="11.010227"><ele>564</ele></trkpt>
            <trkpt lat="51.584426" lon="11.009973"><ele>564.4</ele></trkpt>
            <trkpt lat="51.584349" lon="11.009786"><ele>565.8</ele></trkpt>
            <trkpt lat="51.58416" lon="11.009159"><ele>567.2</ele></trkpt>
            <trkpt lat="51.583895" lon="11.008523"><ele>568.8</ele></trkpt>
            <trkpt lat="51.583743" lon="11.008215"><ele>572.5</ele></trkpt>
            <trkpt lat="51.583498" lon="11.007831"><ele>580</ele></trkpt>
            <trkpt lat="51.583266" lon="11.007414"><ele>581.4</ele></trkpt>
            <trkpt lat="51.583107" lon="11.00704"><ele>581.7</ele></trkpt>
            <trkpt lat="51.582985" lon="11.006871"><ele>581.9</ele></trkpt>
            <trkpt lat="51.582419" lon="11.00655"><ele>582.1</ele></trkpt>
            <trkpt lat="51.582006" lon="11.006539"><ele>582.6</ele></trkpt>
            <trkpt lat="51.581615" lon="11.006392"><ele>582.5</ele></trkpt>
            <trkpt lat="51.581324" lon="11.006151"><ele>582.7</ele></trkpt>
            <trkpt lat="51.58098" lon="11.005902"><ele>583.1</ele></trkpt>
            <trkpt lat="51.580928" lon="11.005828"><ele>583</ele></trkpt>
            <trkpt lat="51.58092" lon="11.005613"><ele>582.7</ele></trkpt>
            <trkpt lat="51.580874" lon="11.005542"><ele>582.5</ele></trkpt>
            <trkpt lat="51.580795" lon="11.005527"><ele>578</ele></trkpt>
            <trkpt lat="51.580755" lon="11.005429"><ele>578</ele></trkpt>
            <trkpt lat="51.580657" lon="11.005374"><ele>578</ele></trkpt>
            <trkpt lat="51.580589" lon="11.005411"><ele>578</ele></trkpt>
        </trkseg>
    </trk>
</gpx>
