<?xml version="1.0" encoding="UTF-8"?>
<gpx version="1.1" creator="HWN Route Compare (OpenRouteService)" xmlns="http://www.topografix.com/GPX/1/1">
    <metadata>
        <name>OpenRouteService – Tour H1</name>
    </metadata>
    <trk>
        <name>OpenRouteService – Tour H1</name>
        <trkseg>
            <trkpt lat="51.501341" lon="11.141923"><ele>315</ele></trkpt>
            <trkpt lat="51.501442" lon="11.141936"><ele>315</ele></trkpt>
            <trkpt lat="51.501586" lon="11.141895"><ele>315</ele></trkpt>
            <trkpt lat="51.501496" lon="11.14132"><ele>312.4</ele></trkpt>
            <trkpt lat="51.501481" lon="11.141046"><ele>311</ele></trkpt>
            <trkpt lat="51.501442" lon="11.140444"><ele>302.1</ele></trkpt>
            <trkpt lat="51.501381" lon="11.140045"><ele>303.2</ele></trkpt>
            <trkpt lat="51.501339" lon="11.139944"><ele>303</ele></trkpt>
            <trkpt lat="51.501293" lon="11.139889"><ele>302.8</ele></trkpt>
            <trkpt lat="51.501232" lon="11.139878"><ele>302.4</ele></trkpt>
            <trkpt lat="51.501166" lon="11.139905"><ele>301.9</ele></trkpt>
            <trkpt lat="51.501104" lon="11.139969"><ele>301.5</ele></trkpt>
            <trkpt lat="51.501048" lon="11.140066"><ele>301.7</ele></trkpt>
            <trkpt lat="51.500793" lon="11.140799"><ele>300.4</ele></trkpt>
            <trkpt lat="51.500636" lon="11.141151"><ele>299.4</ele></trkpt>
            <trkpt lat="51.500389" lon="11.141524"><ele>296</ele></trkpt>
            <trkpt lat="51.500078" lon="11.141834"><ele>293.5</ele></trkpt>
            <trkpt lat="51.499765" lon="11.142242"><ele>285</ele></trkpt>
            <trkpt lat="51.499628" lon="11.142321"><ele>285</ele></trkpt>
            <trkpt lat="51.499528" lon="11.142247"><ele>285</ele></trkpt>
            <trkpt lat="51.499443" lon="11.14207"><ele>285</ele></trkpt>
            <trkpt lat="51.499463" lon="11.141879"><ele>283.6</ele></trkpt>
            <trkpt lat="51.499466" lon="11.141648"><ele>283.7</ele></trkpt>
            <trkpt lat="51.499402" lon="11.14106"><ele>281</ele></trkpt>
            <trkpt lat="51.499385" lon="11.140656"><ele>278</ele></trkpt>
            <trkpt lat="51.499627" lon="11.139409"><ele>271.5</ele></trkpt>
            <trkpt lat="51.499699" lon="11.139167"><ele>271.2</ele></trkpt>
            <trkpt lat="51.499807" lon="11.138939"><ele>270.8</ele></trkpt>
            <trkpt lat="51.499923" lon="11.138731"><ele>270</ele></trkpt>
            <trkpt lat="51.500028" lon="11.138586"><ele>269.3</ele></trkpt>
            <trkpt lat="51.500547" lon="11.138012"><ele>270.3</ele></trkpt>
            <trkpt lat="51.500743" lon="11.137827"><ele>271.3</ele></trkpt>
            <trkpt lat="51.500909" lon="11.137769"><ele>292</ele></trkpt>
            <trkpt lat="51.501035" lon="11.137759"><ele>292</ele></trkpt>
            <trkpt lat="51.501078" lon="11.137722"><ele>292</ele></trkpt>
            <trkpt lat="51.501121" lon="11.137582"><ele>292</ele></trkpt>
            <trkpt lat="51.501148" lon="11.137491"><ele>296</ele></trkpt>
            <trkpt lat="51.500981" lon="11.137365"><ele>288</ele></trkpt>
            <trkpt lat="51.500795" lon="11.137294"><ele>285.1</ele></trkpt>
            <trkpt lat="51.499439" lon="11.137066"><ele>261.9</ele></trkpt>
            <trkpt lat="51.499219" lon="11.13688"><ele>260.3</ele></trkpt>
            <trkpt lat="51.498655" lon="11.136288"><ele>257.8</ele></trkpt>
            <trkpt lat="51.498531" lon="11.136121"><ele>257.2</ele></trkpt>
            <trkpt lat="51.498443" lon="11.135909"><ele>256.6</ele></trkpt>
            <trkpt lat="51.498045" lon="11.133798"><ele>248</ele></trkpt>
            <trkpt lat="51.497441" lon="11.130626"><ele>259.4</ele></trkpt>
            <trkpt lat="51.497331" lon="11.129691"><ele>261</ele></trkpt>
            <trkpt lat="51.497139" lon="11.128973"><ele>260.4</ele></trkpt>
            <trkpt lat="51.497104" lon="11.128762"><ele>260</ele></trkpt>
            <trkpt lat="51.497107" lon="11.1286"><ele>260.1</ele></trkpt>
            <trkpt lat="51.49714" lon="11.128469"><ele>260</ele></trkpt>
            <trkpt lat="51.497414" lon="11.128034"><ele>258.1</ele></trkpt>
            <trkpt lat="51.497492" lon="11.127854"><ele>257.5</ele></trkpt>
            <trkpt lat="51.497543" lon="11.127584"><ele>255.1</ele></trkpt>
            <trkpt lat="51.497589" lon="11.12709"><ele>251.7</ele></trkpt>
            <trkpt lat="51.497579" lon="11.126853"><ele>248.4</ele></trkpt>
            <trkpt lat="51.49748" lon="11.126365"><ele>243.3</ele></trkpt>
            <trkpt lat="51.497409" lon="11.126101"><ele>241.9</ele></trkpt>
            <trkpt lat="51.497239" lon="11.125594"><ele>245</ele></trkpt>
            <trkpt lat="51.496825" lon="11.124113"><ele>235</ele></trkpt>
            <trkpt lat="51.496431" lon="11.122744"><ele>238.1</ele></trkpt>
            <trkpt lat="51.496336" lon="11.122543"><ele>238.4</ele></trkpt>
            <trkpt lat="51.495998" lon="11.121947"><ele>232</ele></trkpt>
            <trkpt lat="51.495897" lon="11.121756"><ele>232</ele></trkpt>
            <trkpt lat="51.495721" lon="11.121419"><ele>235</ele></trkpt>
            <trkpt lat="51.495537" lon="11.121076"><ele>235</ele></trkpt>
            <trkpt lat="51.495414" lon="11.120917"><ele>235</ele></trkpt>
            <trkpt lat="51.49523" lon="11.120824"><ele>226</ele></trkpt>
            <trkpt lat="51.49505" lon="11.120688"><ele>225</ele></trkpt>
            <trkpt lat="51.494845" lon="11.120494"><ele>223.2</ele></trkpt>
            <trkpt lat="51.494034" lon="11.11966"><ele>226</ele></trkpt>
            <trkpt lat="51.493988" lon="11.119566"><ele>226</ele></trkpt>
            <trkpt lat="51.493965" lon="11.119545"><ele>226</ele></trkpt>
            <trkpt lat="51.49384" lon="11.119562"><ele>226</ele></trkpt>
            <trkpt lat="51.493822" lon="11.119511"><ele>226</ele></trkpt>
            <trkpt lat="51.493685" lon="11.119292"><ele>227.6</ele></trkpt>
            <trkpt lat="51.49364" lon="11.119153"><ele>243</ele></trkpt>
            <trkpt lat="51.493628" lon="11.119108"><ele>243</ele></trkpt>
            <trkpt lat="51.493628" lon="11.119094"><ele>243</ele></trkpt>
            <trkpt lat="51.49395" lon="11.118639"><ele>243</ele></trkpt>
            <trkpt lat="51.494167" lon="11.118328"><ele>236.8</ele></trkpt>
            <trkpt lat="51.494545" lon="11.117914"><ele>235.4</ele></trkpt>
            <trkpt lat="51.494596" lon="11.117804"><ele>234.9</ele></trkpt>
            <trkpt lat="51.494624" lon="11.117636"><ele>233</ele></trkpt>
            <trkpt lat="51.494632" lon="11.117586"><ele>233</ele></trkpt>
            <trkpt lat="51.494646" lon="11.117513"><ele>233</ele></trkpt>
            <trkpt lat="51.494754" lon="11.11713"><ele>250</ele></trkpt>
            <trkpt lat="51.49482" lon="11.116843"><ele>250</ele></trkpt>
            <trkpt lat="51.494818" lon="11.116755"><ele>250</ele></trkpt>
            <trkpt lat="51.494798" lon="11.116712"><ele>250</ele></trkpt>
            <trkpt lat="51.49479" lon="11.116607"><ele>264</ele></trkpt>
            <trkpt lat="51.494669" lon="11.1165"><ele>264</ele></trkpt>
            <trkpt lat="51.494615" lon="11.116484"><ele>264</ele></trkpt>
            <trkpt lat="51.494522" lon="11.116422"><ele>264</ele></trkpt>
            <trkpt lat="51.494475" lon="11.11639"><ele>264</ele></trkpt>
            <trkpt lat="51.494506" lon="11.116324"><ele>264</ele></trkpt>
            <trkpt lat="51.494547" lon="11.116132"><ele>272.3</ele></trkpt>
            <trkpt lat="51.494535" lon="11.116119"><ele>272.6</ele></trkpt>
            <trkpt lat="51.494452" lon="11.116249"><ele>273.8</ele></trkpt>
            <trkpt lat="51.494419" lon="11.116062"><ele>275.2</ele></trkpt>
            <trkpt lat="51.494347" lon="11.116015"><ele>276.2</ele></trkpt>
            <trkpt lat="51.494245" lon="11.116122"><ele>277.2</ele></trkpt>
            <trkpt lat="51.49412" lon="11.116204"><ele>278.4</ele></trkpt>
            <trkpt lat="51.494062" lon="11.116062"><ele>277</ele></trkpt>
            <trkpt lat="51.494037" lon="11.116037"><ele>276.4</ele></trkpt>
            <trkpt lat="51.493915" lon="11.116117"><ele>275.9</ele></trkpt>
            <trkpt lat="51.493843" lon="11.116201"><ele>289</ele></trkpt>
            <trkpt lat="51.493728" lon="11.116441"><ele>284.4</ele></trkpt>
            <trkpt lat="51.493643" lon="11.116676"><ele>284.4</ele></trkpt>
            <trkpt lat="51.493618" lon="11.116886"><ele>284.3</ele></trkpt>
            <trkpt lat="51.493531" lon="11.116989"><ele>284.3</ele></trkpt>
            <trkpt lat="51.493366" lon="11.117036"><ele>284.2</ele></trkpt>
            <trkpt lat="51.49328" lon="11.117216"><ele>281.1</ele></trkpt>
            <trkpt lat="51.493274" lon="11.117228"><ele>278</ele></trkpt>
            <trkpt lat="51.493228" lon="11.117218"><ele>278</ele></trkpt>
            <trkpt lat="51.493172" lon="11.117151"><ele>278</ele></trkpt>
            <trkpt lat="51.493006" lon="11.11688"><ele>278</ele></trkpt>
            <trkpt lat="51.492946" lon="11.116746"><ele>278</ele></trkpt>
            <trkpt lat="51.492952" lon="11.116236"><ele>282.4</ele></trkpt>
            <trkpt lat="51.49298" lon="11.115662"><ele>282.7</ele></trkpt>
            <trkpt lat="51.493041" lon="11.115099"><ele>287</ele></trkpt>
            <trkpt lat="51.493073" lon="11.11486"><ele>294</ele></trkpt>
            <trkpt lat="51.493163" lon="11.114441"><ele>293.9</ele></trkpt>
            <trkpt lat="51.493176" lon="11.113947"><ele>295.4</ele></trkpt>
            <trkpt lat="51.493315" lon="11.113164"><ele>297.3</ele></trkpt>
            <trkpt lat="51.493356" lon="11.112967"><ele>297.6</ele></trkpt>
            <trkpt lat="51.493584" lon="11.112186"><ele>300.9</ele></trkpt>
            <trkpt lat="51.493619" lon="11.111967"><ele>301.5</ele></trkpt>
            <trkpt lat="51.493617" lon="11.111794"><ele>301.9</ele></trkpt>
            <trkpt lat="51.493569" lon="11.111315"><ele>302.2</ele></trkpt>
            <trkpt lat="51.493481" lon="11.110755"><ele>302.9</ele></trkpt>
            <trkpt lat="51.493426" lon="11.110164"><ele>304.2</ele></trkpt>
            <trkpt lat="51.493428" lon="11.109891"><ele>308</ele></trkpt>
            <trkpt lat="51.493333" lon="11.109865"><ele>311.6</ele></trkpt>
            <trkpt lat="51.493216" lon="11.109774"><ele>311.9</ele></trkpt>
            <trkpt lat="51.492723" lon="11.109258"><ele>312.2</ele></trkpt>
            <trkpt lat="51.492627" lon="11.109127"><ele>312.3</ele></trkpt>
            <trkpt lat="51.492558" lon="11.108964"><ele>312.4</ele></trkpt>
            <trkpt lat="51.492501" lon="11.108728"><ele>312.5</ele></trkpt>
            <trkpt lat="51.492482" lon="11.108538"><ele>312</ele></trkpt>
            <trkpt lat="51.492487" lon="11.108259"><ele>308</ele></trkpt>
            <trkpt lat="51.492477" lon="11.107992"><ele>308</ele></trkpt>
            <trkpt lat="51.492478" lon="11.106725"><ele>309.7</ele></trkpt>
            <trkpt lat="51.492516" lon="11.10607"><ele>309.8</ele></trkpt>
            <trkpt lat="51.492511" lon="11.105843"><ele>310.3</ele></trkpt>
            <trkpt lat="51.492488" lon="11.105638"><ele>309.9</ele></trkpt>
            <trkpt lat="51.492516" lon="11.105165"><ele>310</ele></trkpt>
            <trkpt lat="51.492496" lon="11.104808"><ele>310</ele></trkpt>
            <trkpt lat="51.492516" lon="11.104625"><ele>315</ele></trkpt>
            <trkpt lat="51.492566" lon="11.104366"><ele>315</ele></trkpt>
            <trkpt lat="51.492569" lon="11.104308"><ele>315</ele></trkpt>
            <trkpt lat="51.492581" lon="11.104065"><ele>314.9</ele></trkpt>
            <trkpt lat="51.492553" lon="11.103828"><ele>315</ele></trkpt>
            <trkpt lat="51.492483" lon="11.102878"><ele>314.4</ele></trkpt>
            <trkpt lat="51.49245" lon="11.10272"><ele>314.4</ele></trkpt>
            <trkpt lat="51.492385" lon="11.102524"><ele>314.3</ele></trkpt>
            <trkpt lat="51.492353" lon="11.102462"><ele>314.6</ele></trkpt>
            <trkpt lat="51.492301" lon="11.102414"><ele>325</ele></trkpt>
            <trkpt lat="51.491786" lon="11.102263"><ele>322.4</ele></trkpt>
            <trkpt lat="51.491411" lon="11.102126"><ele>321.5</ele></trkpt>
            <trkpt lat="51.491106" lon="11.10213"><ele>321.8</ele></trkpt>
            <trkpt lat="51.490707" lon="11.102272"><ele>319.6</ele></trkpt>
            <trkpt lat="51.490425" lon="11.102481"><ele>313</ele></trkpt>
            <trkpt lat="51.490383" lon="11.102283"><ele>309.7</ele></trkpt>
            <trkpt lat="51.490303" lon="11.102088"><ele>310.3</ele></trkpt>
            <trkpt lat="51.490159" lon="11.101867"><ele>310.7</ele></trkpt>
            <trkpt lat="51.490043" lon="11.101781"><ele>310.8</ele></trkpt>
            <trkpt lat="51.489888" lon="11.101617"><ele>310.2</ele></trkpt>
            <trkpt lat="51.489685" lon="11.101182"><ele>309.6</ele></trkpt>
            <trkpt lat="51.4896" lon="11.100931"><ele>299</ele></trkpt>
            <trkpt lat="51.489475" lon="11.10078"><ele>297.5</ele></trkpt>
            <trkpt lat="51.489417" lon="11.100672"><ele>297.6</ele></trkpt>
            <trkpt lat="51.489011" lon="11.099539"><ele>291</ele></trkpt>
            <trkpt lat="51.488842" lon="11.099188"><ele>291</ele></trkpt>
            <trkpt lat="51.48852" lon="11.098458"><ele>288.6</ele></trkpt>
            <trkpt lat="51.488006" lon="11.097081"><ele>284.7</ele></trkpt>
            <trkpt lat="51.487938" lon="11.096865"><ele>283.6</ele></trkpt>
            <trkpt lat="51.487842" lon="11.096405"><ele>281.9</ele></trkpt>
            <trkpt lat="51.48769" lon="11.095308"><ele>281</ele></trkpt>
            <trkpt lat="51.487514" lon="11.094563"><ele>280</ele></trkpt>
            <trkpt lat="51.487494" lon="11.0943"><ele>290</ele></trkpt>
            <trkpt lat="51.487485" lon="11.094109"><ele>298</ele></trkpt>
            <trkpt lat="51.487489" lon="11.093932"><ele>298</ele></trkpt>
            <trkpt lat="51.487473" lon="11.0937"><ele>298</ele></trkpt>
            <trkpt lat="51.487321" lon="11.092825"><ele>302.7</ele></trkpt>
            <trkpt lat="51.487289" lon="11.092469"><ele>303.3</ele></trkpt>
            <trkpt lat="51.487179" lon="11.092008"><ele>303.3</ele></trkpt>
            <trkpt lat="51.487168" lon="11.091772"><ele>303.5</ele></trkpt>
            <trkpt lat="51.487276" lon="11.090852"><ele>304.4</ele></trkpt>
            <trkpt lat="51.487342" lon="11.090457"><ele>304.5</ele></trkpt>
            <trkpt lat="51.487368" lon="11.089511"><ele>306</ele></trkpt>
            <trkpt lat="51.48736" lon="11.089331"><ele>303.9</ele></trkpt>
            <trkpt lat="51.487338" lon="11.089196"><ele>303.9</ele></trkpt>
            <trkpt lat="51.487279" lon="11.089008"><ele>303.8</ele></trkpt>
            <trkpt lat="51.487176" lon="11.088763"><ele>303.6</ele></trkpt>
            <trkpt lat="51.487074" lon="11.088613"><ele>303.4</ele></trkpt>
            <trkpt lat="51.486882" lon="11.088497"><ele>303.2</ele></trkpt>
            <trkpt lat="51.486833" lon="11.08842"><ele>303</ele></trkpt>
            <trkpt lat="51.486814" lon="11.088216"><ele>302.8</ele></trkpt>
            <trkpt lat="51.486857" lon="11.087491"><ele>302.5</ele></trkpt>
            <trkpt lat="51.486904" lon="11.087398"><ele>302.2</ele></trkpt>
            <trkpt lat="51.487027" lon="11.087322"><ele>301.9</ele></trkpt>
            <trkpt lat="51.48724" lon="11.08732"><ele>301.7</ele></trkpt>
            <trkpt lat="51.48768" lon="11.087401"><ele>301.9</ele></trkpt>
            <trkpt lat="51.487816" lon="11.087374"><ele>287</ele></trkpt>
            <trkpt lat="51.487679" lon="11.086139"><ele>289.9</ele></trkpt>
            <trkpt lat="51.487474" lon="11.085222"><ele>291.4</ele></trkpt>
            <trkpt lat="51.487437" lon="11.084867"><ele>292.2</ele></trkpt>
            <trkpt lat="51.487451" lon="11.084336"><ele>294.2</ele></trkpt>
            <trkpt lat="51.487434" lon="11.083918"><ele>295.7</ele></trkpt>
            <trkpt lat="51.48744" lon="11.083685"><ele>296.6</ele></trkpt>
            <trkpt lat="51.487481" lon="11.083479"><ele>297.5</ele></trkpt>
            <trkpt lat="51.487569" lon="11.083236"><ele>295.7</ele></trkpt>
            <trkpt lat="51.487593" lon="11.08312"><ele>295.8</ele></trkpt>
            <trkpt lat="51.487589" lon="11.083005"><ele>283</ele></trkpt>
            <trkpt lat="51.487705" lon="11.082778"><ele>284.5</ele></trkpt>
            <trkpt lat="51.488015" lon="11.08145"><ele>282.1</ele></trkpt>
            <trkpt lat="51.48816" lon="11.080985"><ele>281.1</ele></trkpt>
            <trkpt lat="51.48831" lon="11.080688"><ele>279</ele></trkpt>
            <trkpt lat="51.488495" lon="11.080408"><ele>266</ele></trkpt>
            <trkpt lat="51.488828" lon="11.079933"><ele>255</ele></trkpt>
            <trkpt lat="51.48891" lon="11.079792"><ele>250.2</ele></trkpt>
            <trkpt lat="51.488955" lon="11.079647"><ele>250.7</ele></trkpt>
            <trkpt lat="51.489019" lon="11.079401"><ele>251.1</ele></trkpt>
            <trkpt lat="51.489126" lon="11.078812"><ele>250.4</ele></trkpt>
            <trkpt lat="51.489215" lon="11.078213"><ele>249.2</ele></trkpt>
            <trkpt lat="51.4892" lon="11.078126"><ele>248.7</ele></trkpt>
            <trkpt lat="51.489156" lon="11.078039"><ele>242</ele></trkpt>
            <trkpt lat="51.489099" lon="11.077991"><ele>242</ele></trkpt>
            <trkpt lat="51.489028" lon="11.077859"><ele>242</ele></trkpt>
            <trkpt lat="51.489099" lon="11.077991"><ele>242</ele></trkpt>
            <trkpt lat="51.489156" lon="11.078039"><ele>242</ele></trkpt>
            <trkpt lat="51.4892" lon="11.078126"><ele>248.7</ele></trkpt>
            <trkpt lat="51.489215" lon="11.078213"><ele>249.2</ele></trkpt>
            <trkpt lat="51.489126" lon="11.078812"><ele>250.4</ele></trkpt>
            <trkpt lat="51.489019" lon="11.079401"><ele>251.1</ele></trkpt>
            <trkpt lat="51.488955" lon="11.079647"><ele>250.7</ele></trkpt>
            <trkpt lat="51.48891" lon="11.079792"><ele>250.2</ele></trkpt>
            <trkpt lat="51.488828" lon="11.079933"><ele>255</ele></trkpt>
            <trkpt lat="51.488495" lon="11.080408"><ele>266</ele></trkpt>
            <trkpt lat="51.48831" lon="11.080688"><ele>279</ele></trkpt>
            <trkpt lat="51.48816" lon="11.080985"><ele>281.1</ele></trkpt>
            <trkpt lat="51.488015" lon="11.08145"><ele>282.1</ele></trkpt>
            <trkpt lat="51.487705" lon="11.082778"><ele>284.5</ele></trkpt>
            <trkpt lat="51.487589" lon="11.083005"><ele>283</ele></trkpt>
            <trkpt lat="51.487593" lon="11.08312"><ele>295.8</ele></trkpt>
            <trkpt lat="51.487569" lon="11.083236"><ele>295.7</ele></trkpt>
            <trkpt lat="51.487481" lon="11.083479"><ele>297.5</ele></trkpt>
            <trkpt lat="51.48744" lon="11.083685"><ele>296.6</ele></trkpt>
            <trkpt lat="51.487434" lon="11.083918"><ele>295.7</ele></trkpt>
            <trkpt lat="51.487451" lon="11.084336"><ele>294.2</ele></trkpt>
            <trkpt lat="51.487437" lon="11.084867"><ele>292.2</ele></trkpt>
            <trkpt lat="51.487474" lon="11.085222"><ele>291.4</ele></trkpt>
            <trkpt lat="51.487679" lon="11.086139"><ele>289.9</ele></trkpt>
            <trkpt lat="51.487816" lon="11.087374"><ele>287</ele></trkpt>
            <trkpt lat="51.48768" lon="11.087401"><ele>301.9</ele></trkpt>
            <trkpt lat="51.48724" lon="11.08732"><ele>301.7</ele></trkpt>
            <trkpt lat="51.487027" lon="11.087322"><ele>301.9</ele></trkpt>
            <trkpt lat="51.486904" lon="11.087398"><ele>302.2</ele></trkpt>
            <trkpt lat="51.486857" lon="11.087491"><ele>302.5</ele></trkpt>
            <trkpt lat="51.486814" lon="11.088216"><ele>302.8</ele></trkpt>
            <trkpt lat="51.486833" lon="11.08842"><ele>303</ele></trkpt>
            <trkpt lat="51.486882" lon="11.088497"><ele>303.2</ele></trkpt>
            <trkpt lat="51.487074" lon="11.088613"><ele>303.4</ele></trkpt>
            <trkpt lat="51.487176" lon="11.088763"><ele>303.6</ele></trkpt>
            <trkpt lat="51.487279" lon="11.089008"><ele>303.8</ele></trkpt>
            <trkpt lat="51.487338" lon="11.089196"><ele>303.9</ele></trkpt>
            <trkpt lat="51.48736" lon="11.089331"><ele>303.9</ele></trkpt>
            <trkpt lat="51.487368" lon="11.089511"><ele>306</ele></trkpt>
            <trkpt lat="51.487342" lon="11.090457"><ele>304.5</ele></trkpt>
            <trkpt lat="51.487276" lon="11.090852"><ele>304.4</ele></trkpt>
            <trkpt lat="51.487168" lon="11.091772"><ele>303.5</ele></trkpt>
            <trkpt lat="51.487179" lon="11.092008"><ele>303.3</ele></trkpt>
            <trkpt lat="51.487289" lon="11.092469"><ele>303.3</ele></trkpt>
            <trkpt lat="51.487321" lon="11.092825"><ele>302.7</ele></trkpt>
            <trkpt lat="51.487473" lon="11.0937"><ele>298</ele></trkpt>
            <trkpt lat="51.487489" lon="11.093932"><ele>298</ele></trkpt>
            <trkpt lat="51.487485" lon="11.094109"><ele>298</ele></trkpt>
            <trkpt lat="51.487494" lon="11.0943"><ele>290</ele></trkpt>
            <trkpt lat="51.487514" lon="11.094563"><ele>280</ele></trkpt>
            <trkpt lat="51.48769" lon="11.095308"><ele>281</ele></trkpt>
            <trkpt lat="51.487842" lon="11.096405"><ele>281.9</ele></trkpt>
            <trkpt lat="51.487938" lon="11.096865"><ele>283.6</ele></trkpt>
            <trkpt lat="51.488006" lon="11.097081"><ele>284.7</ele></trkpt>
            <trkpt lat="51.48852" lon="11.098458"><ele>288.6</ele></trkpt>
            <trkpt lat="51.488842" lon="11.099188"><ele>291</ele></trkpt>
            <trkpt lat="51.489011" lon="11.099539"><ele>291</ele></trkpt>
            <trkpt lat="51.489417" lon="11.100672"><ele>297.6</ele></trkpt>
            <trkpt lat="51.489475" lon="11.10078"><ele>297.5</ele></trkpt>
            <trkpt lat="51.4896" lon="11.100931"><ele>299</ele></trkpt>
            <trkpt lat="51.489685" lon="11.101182"><ele>309.6</ele></trkpt>
            <trkpt lat="51.489888" lon="11.101617"><ele>310.2</ele></trkpt>
            <trkpt lat="51.490043" lon="11.101781"><ele>310.8</ele></trkpt>
            <trkpt lat="51.490159" lon="11.101867"><ele>310.7</ele></trkpt>
            <trkpt lat="51.490303" lon="11.102088"><ele>310.3</ele></trkpt>
            <trkpt lat="51.490383" lon="11.102283"><ele>309.7</ele></trkpt>
            <trkpt lat="51.490425" lon="11.102481"><ele>313</ele></trkpt>
            <trkpt lat="51.490707" lon="11.102272"><ele>319.6</ele></trkpt>
            <trkpt lat="51.491106" lon="11.10213"><ele>321.8</ele></trkpt>
            <trkpt lat="51.491411" lon="11.102126"><ele>321.5</ele></trkpt>
            <trkpt lat="51.491786" lon="11.102263"><ele>322.4</ele></trkpt>
            <trkpt lat="51.492301" lon="11.102414"><ele>325</ele></trkpt>
            <trkpt lat="51.492353" lon="11.102462"><ele>314.6</ele></trkpt>
            <trkpt lat="51.492385" lon="11.102524"><ele>314.3</ele></trkpt>
            <trkpt lat="51.49245" lon="11.10272"><ele>314.4</ele></trkpt>
            <trkpt lat="51.492483" lon="11.102878"><ele>314.4</ele></trkpt>
            <trkpt lat="51.492553" lon="11.103828"><ele>315</ele></trkpt>
            <trkpt lat="51.492581" lon="11.104065"><ele>314.9</ele></trkpt>
            <trkpt lat="51.492569" lon="11.104308"><ele>315</ele></trkpt>
            <trkpt lat="51.492566" lon="11.104366"><ele>315</ele></trkpt>
            <trkpt lat="51.492516" lon="11.104625"><ele>315</ele></trkpt>
            <trkpt lat="51.492496" lon="11.104808"><ele>310</ele></trkpt>
            <trkpt lat="51.492516" lon="11.105165"><ele>310</ele></trkpt>
            <trkpt lat="51.492488" lon="11.105638"><ele>309.9</ele></trkpt>
            <trkpt lat="51.492511" lon="11.105843"><ele>310.3</ele></trkpt>
            <trkpt lat="51.492516" lon="11.10607"><ele>309.8</ele></trkpt>
            <trkpt lat="51.492478" lon="11.106725"><ele>309.7</ele></trkpt>
            <trkpt lat="51.492477" lon="11.107992"><ele>308</ele></trkpt>
            <trkpt lat="51.492487" lon="11.108259"><ele>308</ele></trkpt>
            <trkpt lat="51.492482" lon="11.108538"><ele>312</ele></trkpt>
            <trkpt lat="51.492501" lon="11.108728"><ele>312.5</ele></trkpt>
            <trkpt lat="51.492558" lon="11.108964"><ele>312.4</ele></trkpt>
            <trkpt lat="51.492627" lon="11.109127"><ele>312.3</ele></trkpt>
            <trkpt lat="51.492723" lon="11.109258"><ele>312.2</ele></trkpt>
            <trkpt lat="51.493216" lon="11.109774"><ele>311.9</ele></trkpt>
            <trkpt lat="51.493333" lon="11.109865"><ele>311.6</ele></trkpt>
            <trkpt lat="51.493428" lon="11.109891"><ele>308</ele></trkpt>
            <trkpt lat="51.493426" lon="11.110164"><ele>304.2</ele></trkpt>
            <trkpt lat="51.493481" lon="11.110755"><ele>302.9</ele></trkpt>
            <trkpt lat="51.493569" lon="11.111315"><ele>302.2</ele></trkpt>
            <trkpt lat="51.493617" lon="11.111794"><ele>301.9</ele></trkpt>
            <trkpt lat="51.493619" lon="11.111967"><ele>301.5</ele></trkpt>
            <trkpt lat="51.493584" lon="11.112186"><ele>300.9</ele></trkpt>
            <trkpt lat="51.493356" lon="11.112967"><ele>297.6</ele></trkpt>
            <trkpt lat="51.493315" lon="11.113164"><ele>297.3</ele></trkpt>
            <trkpt lat="51.493176" lon="11.113947"><ele>295.4</ele></trkpt>
            <trkpt lat="51.493163" lon="11.114441"><ele>293.9</ele></trkpt>
            <trkpt lat="51.493073" lon="11.11486"><ele>294</ele></trkpt>
            <trkpt lat="51.493041" lon="11.115099"><ele>287</ele></trkpt>
            <trkpt lat="51.49298" lon="11.115662"><ele>282.7</ele></trkpt>
            <trkpt lat="51.492952" lon="11.116236"><ele>282.4</ele></trkpt>
            <trkpt lat="51.492946" lon="11.116746"><ele>278</ele></trkpt>
            <trkpt lat="51.493006" lon="11.11688"><ele>278</ele></trkpt>
            <trkpt lat="51.493172" lon="11.117151"><ele>278</ele></trkpt>
            <trkpt lat="51.493228" lon="11.117218"><ele>278</ele></trkpt>
            <trkpt lat="51.493274" lon="11.117228"><ele>278</ele></trkpt>
            <trkpt lat="51.493366" lon="11.117036"><ele>284.2</ele></trkpt>
            <trkpt lat="51.493531" lon="11.116989"><ele>284.3</ele></trkpt>
            <trkpt lat="51.493618" lon="11.116886"><ele>284.3</ele></trkpt>
            <trkpt lat="51.493643" lon="11.116676"><ele>284.4</ele></trkpt>
            <trkpt lat="51.493728" lon="11.116441"><ele>284.4</ele></trkpt>
            <trkpt lat="51.493843" lon="11.116201"><ele>289</ele></trkpt>
            <trkpt lat="51.493915" lon="11.116117"><ele>275.9</ele></trkpt>
            <trkpt lat="51.494037" lon="11.116037"><ele>276.4</ele></trkpt>
            <trkpt lat="51.494062" lon="11.116062"><ele>277</ele></trkpt>
            <trkpt lat="51.49412" lon="11.116204"><ele>278.4</ele></trkpt>
            <trkpt lat="51.494245" lon="11.116122"><ele>277.2</ele></trkpt>
            <trkpt lat="51.494347" lon="11.116015"><ele>276.2</ele></trkpt>
            <trkpt lat="51.494419" lon="11.116062"><ele>275.2</ele></trkpt>
            <trkpt lat="51.494452" lon="11.116249"><ele>273.8</ele></trkpt>
            <trkpt lat="51.494535" lon="11.116119"><ele>272.6</ele></trkpt>
            <trkpt lat="51.494547" lon="11.116132"><ele>272.3</ele></trkpt>
            <trkpt lat="51.494506" lon="11.116324"><ele>264</ele></trkpt>
            <trkpt lat="51.494475" lon="11.11639"><ele>264</ele></trkpt>
            <trkpt lat="51.494522" lon="11.116422"><ele>264</ele></trkpt>
            <trkpt lat="51.494615" lon="11.116484"><ele>264</ele></trkpt>
            <trkpt lat="51.494669" lon="11.1165"><ele>264</ele></trkpt>
            <trkpt lat="51.49479" lon="11.116607"><ele>264</ele></trkpt>
            <trkpt lat="51.494798" lon="11.116712"><ele>250</ele></trkpt>
            <trkpt lat="51.494818" lon="11.116755"><ele>250</ele></trkpt>
            <trkpt lat="51.49482" lon="11.116843"><ele>250</ele></trkpt>
            <trkpt lat="51.494754" lon="11.11713"><ele>250</ele></trkpt>
            <trkpt lat="51.494646" lon="11.117513"><ele>233</ele></trkpt>
            <trkpt lat="51.494632" lon="11.117586"><ele>233</ele></trkpt>
            <trkpt lat="51.494624" lon="11.117636"><ele>233</ele></trkpt>
            <trkpt lat="51.494596" lon="11.117804"><ele>234.9</ele></trkpt>
            <trkpt lat="51.494545" lon="11.117914"><ele>235.4</ele></trkpt>
            <trkpt lat="51.494167" lon="11.118328"><ele>236.8</ele></trkpt>
            <trkpt lat="51.49395" lon="11.118639"><ele>243</ele></trkpt>
            <trkpt lat="51.493628" lon="11.119094"><ele>243</ele></trkpt>
            <trkpt lat="51.493628" lon="11.119108"><ele>243</ele></trkpt>
            <trkpt lat="51.49364" lon="11.119153"><ele>243</ele></trkpt>
            <trkpt lat="51.493685" lon="11.119292"><ele>227.6</ele></trkpt>
            <trkpt lat="51.493822" lon="11.119511"><ele>226</ele></trkpt>
            <trkpt lat="51.49384" lon="11.119562"><ele>226</ele></trkpt>
            <trkpt lat="51.493965" lon="11.119545"><ele>226</ele></trkpt>
            <trkpt lat="51.493988" lon="11.119566"><ele>226</ele></trkpt>
            <trkpt lat="51.494034" lon="11.11966"><ele>226</ele></trkpt>
            <trkpt lat="51.494845" lon="11.120494"><ele>223.2</ele></trkpt>
            <trkpt lat="51.49505" lon="11.120688"><ele>225</ele></trkpt>
            <trkpt lat="51.49523" lon="11.120824"><ele>226</ele></trkpt>
            <trkpt lat="51.495414" lon="11.120917"><ele>235</ele></trkpt>
            <trkpt lat="51.495537" lon="11.121076"><ele>235</ele></trkpt>
            <trkpt lat="51.495721" lon="11.121419"><ele>235</ele></trkpt>
            <trkpt lat="51.495897" lon="11.121756"><ele>232</ele></trkpt>
            <trkpt lat="51.495998" lon="11.121947"><ele>232</ele></trkpt>
            <trkpt lat="51.496336" lon="11.122543"><ele>238.4</ele></trkpt>
            <trkpt lat="51.496431" lon="11.122744"><ele>238.1</ele></trkpt>
            <trkpt lat="51.496825" lon="11.124113"><ele>235</ele></trkpt>
            <trkpt lat="51.497239" lon="11.125594"><ele>245</ele></trkpt>
            <trkpt lat="51.497409" lon="11.126101"><ele>241.9</ele></trkpt>
            <trkpt lat="51.49748" lon="11.126365"><ele>243.3</ele></trkpt>
            <trkpt lat="51.497579" lon="11.126853"><ele>248.4</ele></trkpt>
            <trkpt lat="51.497589" lon="11.12709"><ele>251.7</ele></trkpt>
            <trkpt lat="51.497543" lon="11.127584"><ele>255.1</ele></trkpt>
            <trkpt lat="51.497492" lon="11.127854"><ele>257.5</ele></trkpt>
            <trkpt lat="51.497414" lon="11.128034"><ele>258.1</ele></trkpt>
            <trkpt lat="51.49714" lon="11.128469"><ele>260</ele></trkpt>
            <trkpt lat="51.497107" lon="11.1286"><ele>260.1</ele></trkpt>
            <trkpt lat="51.497104" lon="11.128762"><ele>260</ele></trkpt>
            <trkpt lat="51.497139" lon="11.128973"><ele>260.4</ele></trkpt>
            <trkpt lat="51.497331" lon="11.129691"><ele>261</ele></trkpt>
            <trkpt lat="51.497441" lon="11.130626"><ele>259.4</ele></trkpt>
            <trkpt lat="51.498045" lon="11.133798"><ele>248</ele></trkpt>
            <trkpt lat="51.498443" lon="11.135909"><ele>256.6</ele></trkpt>
            <trkpt lat="51.498531" lon="11.136121"><ele>257.2</ele></trkpt>
            <trkpt lat="51.498655" lon="11.136288"><ele>257.8</ele></trkpt>
            <trkpt lat="51.499219" lon="11.13688"><ele>260.3</ele></trkpt>
            <trkpt lat="51.499439" lon="11.137066"><ele>261.9</ele></trkpt>
            <trkpt lat="51.500795" lon="11.137294"><ele>285.1</ele></trkpt>
            <trkpt lat="51.500981" lon="11.137365"><ele>288</ele></trkpt>
            <trkpt lat="51.501148" lon="11.137491"><ele>296</ele></trkpt>
            <trkpt lat="51.501121" lon="11.137582"><ele>292</ele></trkpt>
            <trkpt lat="51.501078" lon="11.137722"><ele>292</ele></trkpt>
            <trkpt lat="51.501035" lon="11.137759"><ele>292</ele></trkpt>
            <trkpt lat="51.500909" lon="11.137769"><ele>292</ele></trkpt>
            <trkpt lat="51.500743" lon="11.137827"><ele>271.3</ele></trkpt>
            <trkpt lat="51.500547" lon="11.138012"><ele>270.3</ele></trkpt>
            <trkpt lat="51.500028" lon="11.138586"><ele>269.3</ele></trkpt>
            <trkpt lat="51.499923" lon="11.138731"><ele>270</ele></trkpt>
            <trkpt lat="51.499807" lon="11.138939"><ele>270.8</ele></trkpt>
            <trkpt lat="51.499699" lon="11.139167"><ele>271.2</ele></trkpt>
            <trkpt lat="51.499627" lon="11.139409"><ele>271.5</ele></trkpt>
            <trkpt lat="51.499385" lon="11.140656"><ele>278</ele></trkpt>
            <trkpt lat="51.499402" lon="11.14106"><ele>281</ele></trkpt>
            <trkpt lat="51.499466" lon="11.141648"><ele>283.7</ele></trkpt>
            <trkpt lat="51.499463" lon="11.141879"><ele>283.6</ele></trkpt>
            <trkpt lat="51.499443" lon="11.14207"><ele>285</ele></trkpt>
            <trkpt lat="51.499528" lon="11.142247"><ele>285</ele></trkpt>
            <trkpt lat="51.499628" lon="11.142321"><ele>285</ele></trkpt>
            <trkpt lat="51.499765" lon="11.142242"><ele>285</ele></trkpt>
            <trkpt lat="51.500078" lon="11.141834"><ele>293.5</ele></trkpt>
            <trkpt lat="51.500389" lon="11.141524"><ele>296</ele></trkpt>
            <trkpt lat="51.500636" lon="11.141151"><ele>299.4</ele></trkpt>
            <trkpt lat="51.500793" lon="11.140799"><ele>300.4</ele></trkpt>
            <trkpt lat="51.501048" lon="11.140066"><ele>301.7</ele></trkpt>
            <trkpt lat="51.501104" lon="11.139969"><ele>301.5</ele></trkpt>
            <trkpt lat="51.501166" lon="11.139905"><ele>301.9</ele></trkpt>
            <trkpt lat="51.501232" lon="11.139878"><ele>302.4</ele></trkpt>
            <trkpt lat="51.501293" lon="11.139889"><ele>302.8</ele></trkpt>
            <trkpt lat="51.501339" lon="11.139944"><ele>303</ele></trkpt>
            <trkpt lat="51.501381" lon="11.140045"><ele>303.2</ele></trkpt>
            <trkpt lat="51.501442" lon="11.140444"><ele>302.1</ele></trkpt>
            <trkpt lat="51.501481" lon="11.141046"><ele>311</ele></trkpt>
            <trkpt lat="51.501496" lon="11.14132"><ele>312.4</ele></trkpt>
            <trkpt lat="51.501586" lon="11.141895"><ele>315</ele></trkpt>
            <trkpt lat="51.501442" lon="11.141936"><ele>315</ele></trkpt>
            <trkpt lat="51.501341" lon="11.141923"><ele>315</ele></trkpt>
        </trkseg>
    </trk>
</gpx>
