<?xml version="1.0" encoding="UTF-8"?>
<gpx version="1.1" creator="HWN Route Compare (OpenRouteService)" xmlns="http://www.topografix.com/GPX/1/1">
    <metadata>
        <name>OpenRouteService – Tour H2</name>
    </metadata>
    <trk>
        <name>OpenRouteService – Tour H2</name>
        <trkseg>
            <trkpt lat="51.569706" lon="11.192683"><ele>304.3</ele></trkpt>
            <trkpt lat="51.569659" lon="11.19261"><ele>304</ele></trkpt>
            <trkpt lat="51.569625" lon="11.19255"><ele>304</ele></trkpt>
            <trkpt lat="51.569463" lon="11.192264"><ele>309.4</ele></trkpt>
            <trkpt lat="51.569299" lon="11.192027"><ele>308.9</ele></trkpt>
            <trkpt lat="51.56904" lon="11.191786"><ele>308.3</ele></trkpt>
            <trkpt lat="51.568796" lon="11.191607"><ele>317</ele></trkpt>
            <trkpt lat="51.56849" lon="11.191339"><ele>320.8</ele></trkpt>
            <trkpt lat="51.568336" lon="11.191248"><ele>320.7</ele></trkpt>
            <trkpt lat="51.568008" lon="11.191209"><ele>321</ele></trkpt>
            <trkpt lat="51.56788" lon="11.191228"><ele>321</ele></trkpt>
            <trkpt lat="51.567733" lon="11.191291"><ele>321</ele></trkpt>
            <trkpt lat="51.567494" lon="11.191448"><ele>321</ele></trkpt>
            <trkpt lat="51.567126" lon="11.191868"><ele>316</ele></trkpt>
            <trkpt lat="51.56676" lon="11.192235"><ele>313.4</ele></trkpt>
            <trkpt lat="51.566589" lon="11.192457"><ele>310</ele></trkpt>
            <trkpt lat="51.566444" lon="11.192542"><ele>302.4</ele></trkpt>
            <trkpt lat="51.566386" lon="11.19254"><ele>302</ele></trkpt>
            <trkpt lat="51.566255" lon="11.192468"><ele>301.2</ele></trkpt>
            <trkpt lat="51.565739" lon="11.191901"><ele>298.8</ele></trkpt>
            <trkpt lat="51.565605" lon="11.191662"><ele>298.8</ele></trkpt>
            <trkpt lat="51.565363" lon="11.191136"><ele>298.8</ele></trkpt>
            <trkpt lat="51.565329" lon="11.19097"><ele>298.7</ele></trkpt>
            <trkpt lat="51.565302" lon="11.190604"><ele>299</ele></trkpt>
            <trkpt lat="51.565302" lon="11.19034"><ele>299.3</ele></trkpt>
            <trkpt lat="51.565336" lon="11.190097"><ele>299.6</ele></trkpt>
            <trkpt lat="51.565505" lon="11.189583"><ele>300.3</ele></trkpt>
            <trkpt lat="51.565765" lon="11.189095"><ele>300.4</ele></trkpt>
            <trkpt lat="51.566068" lon="11.188624"><ele>300.9</ele></trkpt>
            <trkpt lat="51.566314" lon="11.188008"><ele>301.2</ele></trkpt>
            <trkpt lat="51.566363" lon="11.18793"><ele>304</ele></trkpt>
            <trkpt lat="51.566477" lon="11.187903"><ele>302.8</ele></trkpt>
            <trkpt lat="51.566803" lon="11.187911"><ele>302.7</ele></trkpt>
            <trkpt lat="51.566937" lon="11.187872"><ele>302.5</ele></trkpt>
            <trkpt lat="51.567" lon="11.187807"><ele>302.3</ele></trkpt>
            <trkpt lat="51.56707" lon="11.187701"><ele>302.3</ele></trkpt>
            <trkpt lat="51.56727" lon="11.187232"><ele>301.2</ele></trkpt>
            <trkpt lat="51.567527" lon="11.186545"><ele>301</ele></trkpt>
            <trkpt lat="51.567598" lon="11.186219"><ele>300.5</ele></trkpt>
            <trkpt lat="51.567648" lon="11.185588"><ele>299.5</ele></trkpt>
            <trkpt lat="51.567675" lon="11.185425"><ele>299.4</ele></trkpt>
            <trkpt lat="51.567724" lon="11.185187"><ele>299.4</ele></trkpt>
            <trkpt lat="51.56795" lon="11.184418"><ele>299.3</ele></trkpt>
            <trkpt lat="51.568009" lon="11.184044"><ele>299.3</ele></trkpt>
            <trkpt lat="51.567998" lon="11.183755"><ele>299.3</ele></trkpt>
            <trkpt lat="51.567952" lon="11.183345"><ele>299.4</ele></trkpt>
            <trkpt lat="51.567801" lon="11.182524"><ele>299.4</ele></trkpt>
            <trkpt lat="51.567742" lon="11.182052"><ele>299.5</ele></trkpt>
            <trkpt lat="51.567666" lon="11.18165"><ele>299.8</ele></trkpt>
            <trkpt lat="51.567641" lon="11.181411"><ele>301</ele></trkpt>
            <trkpt lat="51.567738" lon="11.180986"><ele>301</ele></trkpt>
            <trkpt lat="51.567825" lon="11.18069"><ele>302</ele></trkpt>
            <trkpt lat="51.567851" lon="11.180517"><ele>302</ele></trkpt>
            <trkpt lat="51.567883" lon="11.179775"><ele>301.7</ele></trkpt>
            <trkpt lat="51.567875" lon="11.179202"><ele>300.7</ele></trkpt>
            <trkpt lat="51.567963" lon="11.178383"><ele>299.4</ele></trkpt>
            <trkpt lat="51.568037" lon="11.177363"><ele>300.4</ele></trkpt>
            <trkpt lat="51.568155" lon="11.1766"><ele>303.2</ele></trkpt>
            <trkpt lat="51.56835" lon="11.175725"><ele>304.6</ele></trkpt>
            <trkpt lat="51.568386" lon="11.175513"><ele>304.3</ele></trkpt>
            <trkpt lat="51.5684" lon="11.175263"><ele>304.3</ele></trkpt>
            <trkpt lat="51.568372" lon="11.174685"><ele>304.1</ele></trkpt>
            <trkpt lat="51.568377" lon="11.174461"><ele>303.9</ele></trkpt>
            <trkpt lat="51.568424" lon="11.17423"><ele>303.6</ele></trkpt>
            <trkpt lat="51.568587" lon="11.173738"><ele>301</ele></trkpt>
            <trkpt lat="51.568798" lon="11.172901"><ele>303.6</ele></trkpt>
            <trkpt lat="51.568907" lon="11.172354"><ele>303.9</ele></trkpt>
            <trkpt lat="51.568951" lon="11.172228"><ele>304</ele></trkpt>
            <trkpt lat="51.569028" lon="11.172111"><ele>304.1</ele></trkpt>
            <trkpt lat="51.569605" lon="11.17151"><ele>305.2</ele></trkpt>
            <trkpt lat="51.57007" lon="11.17094"><ele>306.8</ele></trkpt>
            <trkpt lat="51.570205" lon="11.170837"><ele>307.7</ele></trkpt>
            <trkpt lat="51.570917" lon="11.170402"><ele>307.4</ele></trkpt>
            <trkpt lat="51.57144" lon="11.1699"><ele>306.6</ele></trkpt>
            <trkpt lat="51.572051" lon="11.169214"><ele>308.3</ele></trkpt>
            <trkpt lat="51.572137" lon="11.169086"><ele>307.8</ele></trkpt>
            <trkpt lat="51.57224" lon="11.168864"><ele>302</ele></trkpt>
            <trkpt lat="51.572541" lon="11.168249"><ele>305.5</ele></trkpt>
            <trkpt lat="51.572702" lon="11.167817"><ele>306</ele></trkpt>
            <trkpt lat="51.57281" lon="11.167586"><ele>306.3</ele></trkpt>
            <trkpt lat="51.573201" lon="11.167059"><ele>306.4</ele></trkpt>
            <trkpt lat="51.573383" lon="11.16685"><ele>312</ele></trkpt>
            <trkpt lat="51.573485" lon="11.166555"><ele>311.1</ele></trkpt>
            <trkpt lat="51.573585" lon="11.166185"><ele>310</ele></trkpt>
            <trkpt lat="51.574316" lon="11.166646"><ele>324.7</ele></trkpt>
            <trkpt lat="51.574482" lon="11.166873"><ele>326</ele></trkpt>
            <trkpt lat="51.575005" lon="11.167192"><ele>332</ele></trkpt>
            <trkpt lat="51.575365" lon="11.167571"><ele>336.5</ele></trkpt>
            <trkpt lat="51.575617" lon="11.167739"><ele>337.6</ele></trkpt>
            <trkpt lat="51.575955" lon="11.168075"><ele>340</ele></trkpt>
            <trkpt lat="51.576111" lon="11.168178"><ele>339.8</ele></trkpt>
            <trkpt lat="51.57625" lon="11.168233"><ele>340.4</ele></trkpt>
            <trkpt lat="51.576369" lon="11.168211"><ele>340.3</ele></trkpt>
            <trkpt lat="51.576625" lon="11.168078"><ele>342</ele></trkpt>
            <trkpt lat="51.57672" lon="11.167762"><ele>349.9</ele></trkpt>
            <trkpt lat="51.576738" lon="11.167578"><ele>350.1</ele></trkpt>
            <trkpt lat="51.57673" lon="11.167409"><ele>351</ele></trkpt>
            <trkpt lat="51.576695" lon="11.167248"><ele>351.1</ele></trkpt>
            <trkpt lat="51.576586" lon="11.167003"><ele>351.6</ele></trkpt>
            <trkpt lat="51.576242" lon="11.165613"><ele>356.9</ele></trkpt>
            <trkpt lat="51.576252" lon="11.165418"><ele>358.3</ele></trkpt>
            <trkpt lat="51.576326" lon="11.165107"><ele>359.9</ele></trkpt>
            <trkpt lat="51.576505" lon="11.164478"><ele>361.9</ele></trkpt>
            <trkpt lat="51.576529" lon="11.164245"><ele>363.3</ele></trkpt>
            <trkpt lat="51.576491" lon="11.164114"><ele>370</ele></trkpt>
            <trkpt lat="51.576603" lon="11.164054"><ele>372.8</ele></trkpt>
            <trkpt lat="51.576741" lon="11.163784"><ele>372.8</ele></trkpt>
            <trkpt lat="51.577025" lon="11.162933"><ele>374.4</ele></trkpt>
            <trkpt lat="51.577232" lon="11.162136"><ele>376.7</ele></trkpt>
            <trkpt lat="51.577627" lon="11.161088"><ele>382.5</ele></trkpt>
            <trkpt lat="51.578046" lon="11.160462"><ele>385.9</ele></trkpt>
            <trkpt lat="51.578539" lon="11.159946"><ele>391.5</ele></trkpt>
            <trkpt lat="51.579622" lon="11.159155"><ele>395.8</ele></trkpt>
            <trkpt lat="51.579836" lon="11.158808"><ele>396.8</ele></trkpt>
            <trkpt lat="51.580137" lon="11.158188"><ele>395.8</ele></trkpt>
            <trkpt lat="51.580428" lon="11.15772"><ele>395.5</ele></trkpt>
            <trkpt lat="51.580903" lon="11.157107"><ele>393.4</ele></trkpt>
            <trkpt lat="51.5821" lon="11.156163"><ele>389.5</ele></trkpt>
            <trkpt lat="51.582924" lon="11.156069"><ele>387.5</ele></trkpt>
            <trkpt lat="51.583124" lon="11.156003"><ele>387.4</ele></trkpt>
            <trkpt lat="51.583281" lon="11.155875"><ele>387.3</ele></trkpt>
            <trkpt lat="51.583609" lon="11.155346"><ele>387.5</ele></trkpt>
            <trkpt lat="51.583929" lon="11.154655"><ele>387.6</ele></trkpt>
            <trkpt lat="51.584204" lon="11.154114"><ele>394</ele></trkpt>
            <trkpt lat="51.58427" lon="11.154017"><ele>394</ele></trkpt>
            <trkpt lat="51.584346" lon="11.153949"><ele>394</ele></trkpt>
            <trkpt lat="51.585163" lon="11.153738"><ele>401</ele></trkpt>
            <trkpt lat="51.58674" lon="11.146376"><ele>409</ele></trkpt>
            <trkpt lat="51.587058" lon="11.145015"><ele>409</ele></trkpt>
            <trkpt lat="51.587164" lon="11.144779"><ele>408</ele></trkpt>
            <trkpt lat="51.587291" lon="11.144415"><ele>407.7</ele></trkpt>
            <trkpt lat="51.587393" lon="11.144248"><ele>407.4</ele></trkpt>
            <trkpt lat="51.587527" lon="11.14408"><ele>410</ele></trkpt>
            <trkpt lat="51.587708" lon="11.143968"><ele>410.9</ele></trkpt>
            <trkpt lat="51.588593" lon="11.143634"><ele>411</ele></trkpt>
            <trkpt lat="51.588715" lon="11.143578"><ele>411.3</ele></trkpt>
            <trkpt lat="51.588771" lon="11.143522"><ele>413</ele></trkpt>
            <trkpt lat="51.588814" lon="11.14344"><ele>414</ele></trkpt>
            <trkpt lat="51.58885" lon="11.14324"><ele>414</ele></trkpt>
            <trkpt lat="51.589045" lon="11.141614"><ele>416</ele></trkpt>
            <trkpt lat="51.589212" lon="11.140554"><ele>417</ele></trkpt>
            <trkpt lat="51.59007" lon="11.14003"><ele>416</ele></trkpt>
            <trkpt lat="51.589985" lon="11.139617"><ele>416</ele></trkpt>
            <trkpt lat="51.589957" lon="11.139324"><ele>416</ele></trkpt>
            <trkpt lat="51.589973" lon="11.139139"><ele>416</ele></trkpt>
            <trkpt lat="51.589985" lon="11.139074"><ele>415</ele></trkpt>
            <trkpt lat="51.59004" lon="11.138966"><ele>413</ele></trkpt>
            <trkpt lat="51.590225" lon="11.138879"><ele>413</ele></trkpt>
            <trkpt lat="51.590357" lon="11.138831"><ele>413</ele></trkpt>
            <trkpt lat="51.590465" lon="11.138682"><ele>413</ele></trkpt>
            <trkpt lat="51.590571" lon="11.138287"><ele>411</ele></trkpt>
            <trkpt lat="51.590613" lon="11.138211"><ele>410.4</ele></trkpt>
            <trkpt lat="51.590663" lon="11.138168"><ele>410.5</ele></trkpt>
            <trkpt lat="51.590751" lon="11.138159"><ele>410.6</ele></trkpt>
            <trkpt lat="51.591036" lon="11.138229"><ele>409</ele></trkpt>
            <trkpt lat="51.591066" lon="11.138136"><ele>409</ele></trkpt>
            <trkpt lat="51.591188" lon="11.137955"><ele>409</ele></trkpt>
            <trkpt lat="51.591363" lon="11.137842"><ele>409</ele></trkpt>
            <trkpt lat="51.591372" lon="11.137778"><ele>409</ele></trkpt>
            <trkpt lat="51.592193" lon="11.137558"><ele>410</ele></trkpt>
            <trkpt lat="51.59224" lon="11.137546"><ele>410</ele></trkpt>
            <trkpt lat="51.592239" lon="11.137537"><ele>410</ele></trkpt>
            <trkpt lat="51.592235" lon="11.137406"><ele>411</ele></trkpt>
            <trkpt lat="51.592236" lon="11.137108"><ele>411</ele></trkpt>
            <trkpt lat="51.592252" lon="11.136932"><ele>411</ele></trkpt>
            <trkpt lat="51.592337" lon="11.13669"><ele>411</ele></trkpt>
            <trkpt lat="51.592511" lon="11.136316"><ele>415</ele></trkpt>
            <trkpt lat="51.592538" lon="11.13616"><ele>416</ele></trkpt>
            <trkpt lat="51.592559" lon="11.135805"><ele>416.4</ele></trkpt>
            <trkpt lat="51.592632" lon="11.135578"><ele>417</ele></trkpt>
            <trkpt lat="51.592727" lon="11.135467"><ele>417</ele></trkpt>
            <trkpt lat="51.592913" lon="11.135371"><ele>417</ele></trkpt>
            <trkpt lat="51.59298" lon="11.135336"><ele>417</ele></trkpt>
            <trkpt lat="51.593653" lon="11.134987"><ele>418.3</ele></trkpt>
            <trkpt lat="51.593754" lon="11.134981"><ele>419</ele></trkpt>
            <trkpt lat="51.593759" lon="11.134854"><ele>419</ele></trkpt>
            <trkpt lat="51.59383" lon="11.134803"><ele>419.1</ele></trkpt>
            <trkpt lat="51.595439" lon="11.134126"><ele>420</ele></trkpt>
            <trkpt lat="51.595646" lon="11.133974"><ele>420.8</ele></trkpt>
            <trkpt lat="51.596069" lon="11.133854"><ele>421.6</ele></trkpt>
            <trkpt lat="51.596346" lon="11.133694"><ele>421.8</ele></trkpt>
            <trkpt lat="51.597254" lon="11.132942"><ele>424</ele></trkpt>
            <trkpt lat="51.598173" lon="11.132149"><ele>424</ele></trkpt>
            <trkpt lat="51.59826" lon="11.132108"><ele>424.3</ele></trkpt>
            <trkpt lat="51.598613" lon="11.132107"><ele>425</ele></trkpt>
            <trkpt lat="51.599999" lon="11.132078"><ele>425</ele></trkpt>
            <trkpt lat="51.601653" lon="11.132097"><ele>425.5</ele></trkpt>
            <trkpt lat="51.601761" lon="11.13191"><ele>421</ele></trkpt>
            <trkpt lat="51.601984" lon="11.131838"><ele>419</ele></trkpt>
            <trkpt lat="51.602372" lon="11.131864"><ele>418.6</ele></trkpt>
            <trkpt lat="51.602863" lon="11.131859"><ele>418.1</ele></trkpt>
            <trkpt lat="51.602972" lon="11.131815"><ele>416</ele></trkpt>
            <trkpt lat="51.603252" lon="11.131285"><ele>409.3</ele></trkpt>
            <trkpt lat="51.603393" lon="11.131178"><ele>402</ele></trkpt>
            <trkpt lat="51.603467" lon="11.131155"><ele>402</ele></trkpt>
            <trkpt lat="51.603558" lon="11.131122"><ele>402</ele></trkpt>
            <trkpt lat="51.603949" lon="11.130989"><ele>399.6</ele></trkpt>
            <trkpt lat="51.604232" lon="11.130702"><ele>394</ele></trkpt>
            <trkpt lat="51.604508" lon="11.131265"><ele>395.6</ele></trkpt>
            <trkpt lat="51.604589" lon="11.131585"><ele>395.7</ele></trkpt>
            <trkpt lat="51.604633" lon="11.131898"><ele>395.9</ele></trkpt>
            <trkpt lat="51.604731" lon="11.132339"><ele>396.1</ele></trkpt>
            <trkpt lat="51.604777" lon="11.13295"><ele>396.4</ele></trkpt>
            <trkpt lat="51.604746" lon="11.133872"><ele>397.3</ele></trkpt>
            <trkpt lat="51.604785" lon="11.13422"><ele>397</ele></trkpt>
            <trkpt lat="51.604847" lon="11.134659"><ele>396.2</ele></trkpt>
            <trkpt lat="51.604873" lon="11.135014"><ele>396</ele></trkpt>
            <trkpt lat="51.604859" lon="11.135409"><ele>395</ele></trkpt>
            <trkpt lat="51.604848" lon="11.1356"><ele>395</ele></trkpt>
            <trkpt lat="51.604901" lon="11.136031"><ele>395</ele></trkpt>
            <trkpt lat="51.60496" lon="11.136384"><ele>395</ele></trkpt>
            <trkpt lat="51.604905" lon="11.136488"><ele>395</ele></trkpt>
            <trkpt lat="51.604796" lon="11.136631"><ele>395</ele></trkpt>
            <trkpt lat="51.604856" lon="11.136772"><ele>394</ele></trkpt>
            <trkpt lat="51.605071" lon="11.136904"><ele>392</ele></trkpt>
            <trkpt lat="51.605246" lon="11.137073"><ele>392</ele></trkpt>
            <trkpt lat="51.605394" lon="11.137259"><ele>392</ele></trkpt>
            <trkpt lat="51.605602" lon="11.137423"><ele>392</ele></trkpt>
            <trkpt lat="51.605648" lon="11.137481"><ele>392</ele></trkpt>
            <trkpt lat="51.605892" lon="11.137885"><ele>407.7</ele></trkpt>
            <trkpt lat="51.606134" lon="11.138037"><ele>406</ele></trkpt>
            <trkpt lat="51.606333" lon="11.138122"><ele>413</ele></trkpt>
            <trkpt lat="51.606597" lon="11.137927"><ele>417.6</ele></trkpt>
            <trkpt lat="51.606685" lon="11.137828"><ele>418.1</ele></trkpt>
            <trkpt lat="51.606845" lon="11.137773"><ele>418.9</ele></trkpt>
            <trkpt lat="51.607041" lon="11.137531"><ele>420.3</ele></trkpt>
            <trkpt lat="51.607149" lon="11.137523"><ele>424</ele></trkpt>
            <trkpt lat="51.607209" lon="11.137494"><ele>424.2</ele></trkpt>
            <trkpt lat="51.607289" lon="11.13741"><ele>424.3</ele></trkpt>
            <trkpt lat="51.607367" lon="11.137426"><ele>424.4</ele></trkpt>
            <trkpt lat="51.607459" lon="11.137381"><ele>424.5</ele></trkpt>
            <trkpt lat="51.607511" lon="11.137411"><ele>424.3</ele></trkpt>
            <trkpt lat="51.607569" lon="11.137387"><ele>423</ele></trkpt>
            <trkpt lat="51.607668" lon="11.137342"><ele>423</ele></trkpt>
            <trkpt lat="51.607886" lon="11.136951"><ele>423</ele></trkpt>
            <trkpt lat="51.60791" lon="11.136849"><ele>423</ele></trkpt>
            <trkpt lat="51.607957" lon="11.136841"><ele>423</ele></trkpt>
            <trkpt lat="51.607971" lon="11.136817"><ele>423</ele></trkpt>
            <trkpt lat="51.607954" lon="11.136783"><ele>423</ele></trkpt>
            <trkpt lat="51.607965" lon="11.136761"><ele>423</ele></trkpt>
            <trkpt lat="51.607972" lon="11.136745"><ele>423</ele></trkpt>
            <trkpt lat="51.607965" lon="11.136761"><ele>423</ele></trkpt>
            <trkpt lat="51.607954" lon="11.136783"><ele>423</ele></trkpt>
            <trkpt lat="51.607971" lon="11.136817"><ele>423</ele></trkpt>
            <trkpt lat="51.607957" lon="11.136841"><ele>423</ele></trkpt>
            <trkpt lat="51.60791" lon="11.136849"><ele>423</ele></trkpt>
            <trkpt lat="51.607886" lon="11.136951"><ele>423</ele></trkpt>
            <trkpt lat="51.607668" lon="11.137342"><ele>423</ele></trkpt>
            <trkpt lat="51.607569" lon="11.137387"><ele>423</ele></trkpt>
            <trkpt lat="51.607511" lon="11.137411"><ele>424.3</ele></trkpt>
            <trkpt lat="51.607459" lon="11.137381"><ele>424.5</ele></trkpt>
            <trkpt lat="51.607367" lon="11.137426"><ele>424.4</ele></trkpt>
            <trkpt lat="51.607289" lon="11.13741"><ele>424.3</ele></trkpt>
            <trkpt lat="51.607209" lon="11.137494"><ele>424.2</ele></trkpt>
            <trkpt lat="51.607149" lon="11.137523"><ele>424</ele></trkpt>
            <trkpt lat="51.607041" lon="11.137531"><ele>420.3</ele></trkpt>
            <trkpt lat="51.606845" lon="11.137773"><ele>418.9</ele></trkpt>
            <trkpt lat="51.606685" lon="11.137828"><ele>418.1</ele></trkpt>
            <trkpt lat="51.606597" lon="11.137927"><ele>417.6</ele></trkpt>
            <trkpt lat="51.606333" lon="11.138122"><ele>413</ele></trkpt>
            <trkpt lat="51.606134" lon="11.138037"><ele>406</ele></trkpt>
            <trkpt lat="51.605892" lon="11.137885"><ele>407.7</ele></trkpt>
            <trkpt lat="51.605648" lon="11.137481"><ele>392</ele></trkpt>
            <trkpt lat="51.605602" lon="11.137423"><ele>392</ele></trkpt>
            <trkpt lat="51.605394" lon="11.137259"><ele>392</ele></trkpt>
            <trkpt lat="51.605246" lon="11.137073"><ele>392</ele></trkpt>
            <trkpt lat="51.605071" lon="11.136904"><ele>392</ele></trkpt>
            <trkpt lat="51.604856" lon="11.136772"><ele>394</ele></trkpt>
            <trkpt lat="51.604796" lon="11.136631"><ele>395</ele></trkpt>
            <trkpt lat="51.604905" lon="11.136488"><ele>395</ele></trkpt>
            <trkpt lat="51.60496" lon="11.136384"><ele>395</ele></trkpt>
            <trkpt lat="51.604901" lon="11.136031"><ele>395</ele></trkpt>
            <trkpt lat="51.604848" lon="11.1356"><ele>395</ele></trkpt>
            <trkpt lat="51.604859" lon="11.135409"><ele>395</ele></trkpt>
            <trkpt lat="51.604873" lon="11.135014"><ele>396</ele></trkpt>
            <trkpt lat="51.604847" lon="11.134659"><ele>396.2</ele></trkpt>
            <trkpt lat="51.604785" lon="11.13422"><ele>397</ele></trkpt>
            <trkpt lat="51.604746" lon="11.133872"><ele>397.3</ele></trkpt>
            <trkpt lat="51.604777" lon="11.13295"><ele>396.4</ele></trkpt>
            <trkpt lat="51.604731" lon="11.132339"><ele>396.1</ele></trkpt>
            <trkpt lat="51.604633" lon="11.131898"><ele>395.9</ele></trkpt>
            <trkpt lat="51.604589" lon="11.131585"><ele>395.7</ele></trkpt>
            <trkpt lat="51.604508" lon="11.131265"><ele>395.6</ele></trkpt>
            <trkpt lat="51.604232" lon="11.130702"><ele>394</ele></trkpt>
            <trkpt lat="51.603949" lon="11.130989"><ele>399.6</ele></trkpt>
            <trkpt lat="51.603558" lon="11.131122"><ele>402</ele></trkpt>
            <trkpt lat="51.603467" lon="11.131155"><ele>402</ele></trkpt>
            <trkpt lat="51.603393" lon="11.131178"><ele>402</ele></trkpt>
            <trkpt lat="51.603252" lon="11.131285"><ele>409.3</ele></trkpt>
            <trkpt lat="51.602972" lon="11.131815"><ele>416</ele></trkpt>
            <trkpt lat="51.602863" lon="11.131859"><ele>418.1</ele></trkpt>
            <trkpt lat="51.602372" lon="11.131864"><ele>418.6</ele></trkpt>
            <trkpt lat="51.601984" lon="11.131838"><ele>419</ele></trkpt>
            <trkpt lat="51.601761" lon="11.13191"><ele>421</ele></trkpt>
            <trkpt lat="51.601653" lon="11.132097"><ele>425.5</ele></trkpt>
            <trkpt lat="51.599999" lon="11.132078"><ele>425</ele></trkpt>
            <trkpt lat="51.598613" lon="11.132107"><ele>425</ele></trkpt>
            <trkpt lat="51.59826" lon="11.132108"><ele>424.3</ele></trkpt>
            <trkpt lat="51.598173" lon="11.132149"><ele>424</ele></trkpt>
            <trkpt lat="51.597254" lon="11.132942"><ele>424</ele></trkpt>
            <trkpt lat="51.596346" lon="11.133694"><ele>421.8</ele></trkpt>
            <trkpt lat="51.596069" lon="11.133854"><ele>421.6</ele></trkpt>
            <trkpt lat="51.595646" lon="11.133974"><ele>420.8</ele></trkpt>
            <trkpt lat="51.595439" lon="11.134126"><ele>420</ele></trkpt>
            <trkpt lat="51.59383" lon="11.134803"><ele>419.1</ele></trkpt>
            <trkpt lat="51.593759" lon="11.134854"><ele>419</ele></trkpt>
            <trkpt lat="51.593754" lon="11.134981"><ele>419</ele></trkpt>
            <trkpt lat="51.593653" lon="11.134987"><ele>418.3</ele></trkpt>
            <trkpt lat="51.59298" lon="11.135336"><ele>417</ele></trkpt>
            <trkpt lat="51.592913" lon="11.135371"><ele>417</ele></trkpt>
            <trkpt lat="51.592727" lon="11.135467"><ele>417</ele></trkpt>
            <trkpt lat="51.592632" lon="11.135578"><ele>417</ele></trkpt>
            <trkpt lat="51.592559" lon="11.135805"><ele>416.4</ele></trkpt>
            <trkpt lat="51.592538" lon="11.13616"><ele>416</ele></trkpt>
            <trkpt lat="51.592511" lon="11.136316"><ele>415</ele></trkpt>
            <trkpt lat="51.592337" lon="11.13669"><ele>411</ele></trkpt>
            <trkpt lat="51.592252" lon="11.136932"><ele>411</ele></trkpt>
            <trkpt lat="51.592236" lon="11.137108"><ele>411</ele></trkpt>
            <trkpt lat="51.592235" lon="11.137406"><ele>411</ele></trkpt>
            <trkpt lat="51.592239" lon="11.137537"><ele>410</ele></trkpt>
            <trkpt lat="51.59224" lon="11.137546"><ele>410</ele></trkpt>
            <trkpt lat="51.592193" lon="11.137558"><ele>410</ele></trkpt>
            <trkpt lat="51.591372" lon="11.137778"><ele>409</ele></trkpt>
            <trkpt lat="51.591363" lon="11.137842"><ele>409</ele></trkpt>
            <trkpt lat="51.591188" lon="11.137955"><ele>409</ele></trkpt>
            <trkpt lat="51.591066" lon="11.138136"><ele>409</ele></trkpt>
            <trkpt lat="51.591036" lon="11.138229"><ele>409</ele></trkpt>
            <trkpt lat="51.590751" lon="11.138159"><ele>410.6</ele></trkpt>
            <trkpt lat="51.590663" lon="11.138168"><ele>410.5</ele></trkpt>
            <trkpt lat="51.590613" lon="11.138211"><ele>410.4</ele></trkpt>
            <trkpt lat="51.590571" lon="11.138287"><ele>411</ele></trkpt>
            <trkpt lat="51.590465" lon="11.138682"><ele>413</ele></trkpt>
            <trkpt lat="51.590357" lon="11.138831"><ele>413</ele></trkpt>
            <trkpt lat="51.590225" lon="11.138879"><ele>413</ele></trkpt>
            <trkpt lat="51.59004" lon="11.138966"><ele>413</ele></trkpt>
            <trkpt lat="51.589985" lon="11.139074"><ele>415</ele></trkpt>
            <trkpt lat="51.589973" lon="11.139139"><ele>416</ele></trkpt>
            <trkpt lat="51.589957" lon="11.139324"><ele>416</ele></trkpt>
            <trkpt lat="51.589985" lon="11.139617"><ele>416</ele></trkpt>
            <trkpt lat="51.59007" lon="11.14003"><ele>416</ele></trkpt>
            <trkpt lat="51.589212" lon="11.140554"><ele>417</ele></trkpt>
            <trkpt lat="51.589045" lon="11.141614"><ele>416</ele></trkpt>
            <trkpt lat="51.58885" lon="11.14324"><ele>414</ele></trkpt>
            <trkpt lat="51.588814" lon="11.14344"><ele>414</ele></trkpt>
            <trkpt lat="51.588771" lon="11.143522"><ele>413</ele></trkpt>
            <trkpt lat="51.588715" lon="11.143578"><ele>411.3</ele></trkpt>
            <trkpt lat="51.588593" lon="11.143634"><ele>411</ele></trkpt>
            <trkpt lat="51.587708" lon="11.143968"><ele>410.9</ele></trkpt>
            <trkpt lat="51.587527" lon="11.14408"><ele>410</ele></trkpt>
            <trkpt lat="51.587393" lon="11.144248"><ele>407.4</ele></trkpt>
            <trkpt lat="51.587291" lon="11.144415"><ele>407.7</ele></trkpt>
            <trkpt lat="51.587164" lon="11.144779"><ele>408</ele></trkpt>
            <trkpt lat="51.587058" lon="11.145015"><ele>409</ele></trkpt>
            <trkpt lat="51.58674" lon="11.146376"><ele>409</ele></trkpt>
            <trkpt lat="51.585163" lon="11.153738"><ele>401</ele></trkpt>
            <trkpt lat="51.584346" lon="11.153949"><ele>394</ele></trkpt>
            <trkpt lat="51.58427" lon="11.154017"><ele>394</ele></trkpt>
            <trkpt lat="51.584204" lon="11.154114"><ele>394</ele></trkpt>
            <trkpt lat="51.583929" lon="11.154655"><ele>387.6</ele></trkpt>
            <trkpt lat="51.583609" lon="11.155346"><ele>387.5</ele></trkpt>
            <trkpt lat="51.583281" lon="11.155875"><ele>387.3</ele></trkpt>
            <trkpt lat="51.583124" lon="11.156003"><ele>387.4</ele></trkpt>
            <trkpt lat="51.582924" lon="11.156069"><ele>387.5</ele></trkpt>
            <trkpt lat="51.5821" lon="11.156163"><ele>389.5</ele></trkpt>
            <trkpt lat="51.580903" lon="11.157107"><ele>393.4</ele></trkpt>
            <trkpt lat="51.580428" lon="11.15772"><ele>395.5</ele></trkpt>
            <trkpt lat="51.580137" lon="11.158188"><ele>395.8</ele></trkpt>
            <trkpt lat="51.579836" lon="11.158808"><ele>396.8</ele></trkpt>
            <trkpt lat="51.579622" lon="11.159155"><ele>395.8</ele></trkpt>
            <trkpt lat="51.578539" lon="11.159946"><ele>391.5</ele></trkpt>
            <trkpt lat="51.578046" lon="11.160462"><ele>385.9</ele></trkpt>
            <trkpt lat="51.577627" lon="11.161088"><ele>382.5</ele></trkpt>
            <trkpt lat="51.577232" lon="11.162136"><ele>376.7</ele></trkpt>
            <trkpt lat="51.577025" lon="11.162933"><ele>374.4</ele></trkpt>
            <trkpt lat="51.576741" lon="11.163784"><ele>372.8</ele></trkpt>
            <trkpt lat="51.576603" lon="11.164054"><ele>372.8</ele></trkpt>
            <trkpt lat="51.576491" lon="11.164114"><ele>370</ele></trkpt>
            <trkpt lat="51.576529" lon="11.164245"><ele>363.3</ele></trkpt>
            <trkpt lat="51.576505" lon="11.164478"><ele>361.9</ele></trkpt>
            <trkpt lat="51.576326" lon="11.165107"><ele>359.9</ele></trkpt>
            <trkpt lat="51.576252" lon="11.165418"><ele>358.3</ele></trkpt>
            <trkpt lat="51.576242" lon="11.165613"><ele>356.9</ele></trkpt>
            <trkpt lat="51.576586" lon="11.167003"><ele>351.6</ele></trkpt>
            <trkpt lat="51.576695" lon="11.167248"><ele>351.1</ele></trkpt>
            <trkpt lat="51.57673" lon="11.167409"><ele>351</ele></trkpt>
            <trkpt lat="51.576738" lon="11.167578"><ele>350.1</ele></trkpt>
            <trkpt lat="51.57672" lon="11.167762"><ele>349.9</ele></trkpt>
            <trkpt lat="51.576625" lon="11.168078"><ele>342</ele></trkpt>
            <trkpt lat="51.576369" lon="11.168211"><ele>340.3</ele></trkpt>
            <trkpt lat="51.57625" lon="11.168233"><ele>340.4</ele></trkpt>
            <trkpt lat="51.576111" lon="11.168178"><ele>339.8</ele></trkpt>
            <trkpt lat="51.575955" lon="11.168075"><ele>340</ele></trkpt>
            <trkpt lat="51.575617" lon="11.167739"><ele>337.6</ele></trkpt>
            <trkpt lat="51.575365" lon="11.167571"><ele>336.5</ele></trkpt>
            <trkpt lat="51.575005" lon="11.167192"><ele>332</ele></trkpt>
            <trkpt lat="51.574482" lon="11.166873"><ele>326</ele></trkpt>
            <trkpt lat="51.574316" lon="11.166646"><ele>324.7</ele></trkpt>
            <trkpt lat="51.573585" lon="11.166185"><ele>310</ele></trkpt>
            <trkpt lat="51.573485" lon="11.166555"><ele>311.1</ele></trkpt>
            <trkpt lat="51.573383" lon="11.16685"><ele>312</ele></trkpt>
            <trkpt lat="51.573201" lon="11.167059"><ele>306.4</ele></trkpt>
            <trkpt lat="51.57281" lon="11.167586"><ele>306.3</ele></trkpt>
            <trkpt lat="51.572702" lon="11.167817"><ele>306</ele></trkpt>
            <trkpt lat="51.572541" lon="11.168249"><ele>305.5</ele></trkpt>
            <trkpt lat="51.57224" lon="11.168864"><ele>302</ele></trkpt>
            <trkpt lat="51.572137" lon="11.169086"><ele>307.8</ele></trkpt>
            <trkpt lat="51.572051" lon="11.169214"><ele>308.3</ele></trkpt>
            <trkpt lat="51.57144" lon="11.1699"><ele>306.6</ele></trkpt>
            <trkpt lat="51.570917" lon="11.170402"><ele>307.4</ele></trkpt>
            <trkpt lat="51.570205" lon="11.170837"><ele>307.7</ele></trkpt>
            <trkpt lat="51.57007" lon="11.17094"><ele>306.8</ele></trkpt>
            <trkpt lat="51.569605" lon="11.17151"><ele>305.2</ele></trkpt>
            <trkpt lat="51.569028" lon="11.172111"><ele>304.1</ele></trkpt>
            <trkpt lat="51.568951" lon="11.172228"><ele>304</ele></trkpt>
            <trkpt lat="51.568907" lon="11.172354"><ele>303.9</ele></trkpt>
            <trkpt lat="51.568798" lon="11.172901"><ele>303.6</ele></trkpt>
            <trkpt lat="51.568587" lon="11.173738"><ele>301</ele></trkpt>
            <trkpt lat="51.568424" lon="11.17423"><ele>303.6</ele></trkpt>
            <trkpt lat="51.568377" lon="11.174461"><ele>303.9</ele></trkpt>
            <trkpt lat="51.568372" lon="11.174685"><ele>304.1</ele></trkpt>
            <trkpt lat="51.5684" lon="11.175263"><ele>304.3</ele></trkpt>
            <trkpt lat="51.568386" lon="11.175513"><ele>304.3</ele></trkpt>
            <trkpt lat="51.56835" lon="11.175725"><ele>304.6</ele></trkpt>
            <trkpt lat="51.568155" lon="11.1766"><ele>303.2</ele></trkpt>
            <trkpt lat="51.568037" lon="11.177363"><ele>300.4</ele></trkpt>
            <trkpt lat="51.567963" lon="11.178383"><ele>299.4</ele></trkpt>
            <trkpt lat="51.567875" lon="11.179202"><ele>300.7</ele></trkpt>
            <trkpt lat="51.567883" lon="11.179775"><ele>301.7</ele></trkpt>
            <trkpt lat="51.567851" lon="11.180517"><ele>302</ele></trkpt>
            <trkpt lat="51.567825" lon="11.18069"><ele>302</ele></trkpt>
            <trkpt lat="51.567738" lon="11.180986"><ele>301</ele></trkpt>
            <trkpt lat="51.567641" lon="11.181411"><ele>301</ele></trkpt>
            <trkpt lat="51.567666" lon="11.18165"><ele>299.8</ele></trkpt>
            <trkpt lat="51.567742" lon="11.182052"><ele>299.5</ele></trkpt>
            <trkpt lat="51.567801" lon="11.182524"><ele>299.4</ele></trkpt>
            <trkpt lat="51.567952" lon="11.183345"><ele>299.4</ele></trkpt>
            <trkpt lat="51.567998" lon="11.183755"><ele>299.3</ele></trkpt>
            <trkpt lat="51.568009" lon="11.184044"><ele>299.3</ele></trkpt>
            <trkpt lat="51.56795" lon="11.184418"><ele>299.3</ele></trkpt>
            <trkpt lat="51.567724" lon="11.185187"><ele>299.4</ele></trkpt>
            <trkpt lat="51.567675" lon="11.185425"><ele>299.4</ele></trkpt>
            <trkpt lat="51.567648" lon="11.185588"><ele>299.5</ele></trkpt>
            <trkpt lat="51.567598" lon="11.186219"><ele>300.5</ele></trkpt>
            <trkpt lat="51.567527" lon="11.186545"><ele>301</ele></trkpt>
            <trkpt lat="51.56727" lon="11.187232"><ele>301.2</ele></trkpt>
            <trkpt lat="51.56707" lon="11.187701"><ele>302.3</ele></trkpt>
            <trkpt lat="51.567" lon="11.187807"><ele>302.3</ele></trkpt>
            <trkpt lat="51.566937" lon="11.187872"><ele>302.5</ele></trkpt>
            <trkpt lat="51.566803" lon="11.187911"><ele>302.7</ele></trkpt>
            <trkpt lat="51.566477" lon="11.187903"><ele>302.8</ele></trkpt>
            <trkpt lat="51.566363" lon="11.18793"><ele>304</ele></trkpt>
            <trkpt lat="51.566314" lon="11.188008"><ele>301.2</ele></trkpt>
            <trkpt lat="51.566068" lon="11.188624"><ele>300.9</ele></trkpt>
            <trkpt lat="51.565765" lon="11.189095"><ele>300.4</ele></trkpt>
            <trkpt lat="51.565505" lon="11.189583"><ele>300.3</ele></trkpt>
            <trkpt lat="51.565336" lon="11.190097"><ele>299.6</ele></trkpt>
            <trkpt lat="51.565302" lon="11.19034"><ele>299.3</ele></trkpt>
            <trkpt lat="51.565302" lon="11.190604"><ele>299</ele></trkpt>
            <trkpt lat="51.565329" lon="11.19097"><ele>298.7</ele></trkpt>
            <trkpt lat="51.565363" lon="11.191136"><ele>298.8</ele></trkpt>
            <trkpt lat="51.565605" lon="11.191662"><ele>298.8</ele></trkpt>
            <trkpt lat="51.565739" lon="11.191901"><ele>298.8</ele></trkpt>
            <trkpt lat="51.566255" lon="11.192468"><ele>301.2</ele></trkpt>
            <trkpt lat="51.566386" lon="11.19254"><ele>302</ele></trkpt>
            <trkpt lat="51.566444" lon="11.192542"><ele>302.4</ele></trkpt>
            <trkpt lat="51.566589" lon="11.192457"><ele>310</ele></trkpt>
            <trkpt lat="51.56676" lon="11.192235"><ele>313.4</ele></trkpt>
            <trkpt lat="51.567126" lon="11.191868"><ele>316</ele></trkpt>
            <trkpt lat="51.567494" lon="11.191448"><ele>321</ele></trkpt>
            <trkpt lat="51.567733" lon="11.191291"><ele>321</ele></trkpt>
            <trkpt lat="51.56788" lon="11.191228"><ele>321</ele></trkpt>
            <trkpt lat="51.568008" lon="11.191209"><ele>321</ele></trkpt>
            <trkpt lat="51.568336" lon="11.191248"><ele>320.7</ele></trkpt>
            <trkpt lat="51.56849" lon="11.191339"><ele>320.8</ele></trkpt>
            <trkpt lat="51.568796" lon="11.191607"><ele>317</ele></trkpt>
            <trkpt lat="51.56904" lon="11.191786"><ele>308.3</ele></trkpt>
            <trkpt lat="51.569299" lon="11.192027"><ele>308.9</ele></trkpt>
            <trkpt lat="51.569463" lon="11.192264"><ele>309.4</ele></trkpt>
            <trkpt lat="51.569625" lon="11.19255"><ele>304</ele></trkpt>
            <trkpt lat="51.569659" lon="11.19261"><ele>304</ele></trkpt>
            <trkpt lat="51.569706" lon="11.192683"><ele>304.3</ele></trkpt>
        </trkseg>
    </trk>
</gpx>
