<?xml version="1.0" encoding="UTF-8"?>
<gpx version="1.1" creator="HWN Route Compare (OpenRouteService)" xmlns="http://www.topografix.com/GPX/1/1">
    <metadata>
        <name>OpenRouteService – Tour H3</name>
    </metadata>
    <trk>
        <name>OpenRouteService – Tour H3</name>
        <trkseg>
            <trkpt lat="51.534503" lon="11.314512"><ele>299.3</ele></trkpt>
            <trkpt lat="51.534401" lon="11.314523"><ele>297</ele></trkpt>
            <trkpt lat="51.534416" lon="11.314476"><ele>296.2</ele></trkpt>
            <trkpt lat="51.534412" lon="11.314416"><ele>295.9</ele></trkpt>
            <trkpt lat="51.534311" lon="11.314098"><ele>295.5</ele></trkpt>
            <trkpt lat="51.534309" lon="11.31397"><ele>295.6</ele></trkpt>
            <trkpt lat="51.534348" lon="11.313856"><ele>295.7</ele></trkpt>
            <trkpt lat="51.534433" lon="11.313754"><ele>294</ele></trkpt>
            <trkpt lat="51.534405" lon="11.31366"><ele>283.5</ele></trkpt>
            <trkpt lat="51.534399" lon="11.313559"><ele>284.5</ele></trkpt>
            <trkpt lat="51.534185" lon="11.313374"><ele>287.1</ele></trkpt>
            <trkpt lat="51.534112" lon="11.313118"><ele>281</ele></trkpt>
            <trkpt lat="51.534076" lon="11.313044"><ele>255</ele></trkpt>
            <trkpt lat="51.534033" lon="11.312869"><ele>255</ele></trkpt>
            <trkpt lat="51.534025" lon="11.312711"><ele>255</ele></trkpt>
            <trkpt lat="51.533988" lon="11.312652"><ele>255</ele></trkpt>
            <trkpt lat="51.533956" lon="11.312654"><ele>255</ele></trkpt>
            <trkpt lat="51.533907" lon="11.312734"><ele>255</ele></trkpt>
            <trkpt lat="51.533885" lon="11.312762"><ele>253</ele></trkpt>
            <trkpt lat="51.533705" lon="11.312257"><ele>249</ele></trkpt>
            <trkpt lat="51.533677" lon="11.311844"><ele>248.7</ele></trkpt>
            <trkpt lat="51.533714" lon="11.311476"><ele>248</ele></trkpt>
            <trkpt lat="51.533742" lon="11.311188"><ele>248</ele></trkpt>
            <trkpt lat="51.533792" lon="11.310917"><ele>248</ele></trkpt>
            <trkpt lat="51.53384" lon="11.310773"><ele>248</ele></trkpt>
            <trkpt lat="51.533841" lon="11.310608"><ele>248</ele></trkpt>
            <trkpt lat="51.533835" lon="11.310501"><ele>248</ele></trkpt>
            <trkpt lat="51.533823" lon="11.310356"><ele>248</ele></trkpt>
            <trkpt lat="51.533796" lon="11.31024"><ele>248</ele></trkpt>
            <trkpt lat="51.53379" lon="11.310162"><ele>248</ele></trkpt>
            <trkpt lat="51.533746" lon="11.310075"><ele>248</ele></trkpt>
            <trkpt lat="51.53374" lon="11.310063"><ele>248</ele></trkpt>
            <trkpt lat="51.533515" lon="11.310091"><ele>250.9</ele></trkpt>
            <trkpt lat="51.533386" lon="11.31013"><ele>251.5</ele></trkpt>
            <trkpt lat="51.533091" lon="11.310308"><ele>251.5</ele></trkpt>
            <trkpt lat="51.532464" lon="11.310753"><ele>251</ele></trkpt>
            <trkpt lat="51.532456" lon="11.310711"><ele>251</ele></trkpt>
            <trkpt lat="51.531754" lon="11.311026"><ele>247</ele></trkpt>
            <trkpt lat="51.53164" lon="11.31105"><ele>246.3</ele></trkpt>
            <trkpt lat="51.531331" lon="11.311032"><ele>246</ele></trkpt>
            <trkpt lat="51.530961" lon="11.31103"><ele>246</ele></trkpt>
            <trkpt lat="51.530654" lon="11.311031"><ele>244</ele></trkpt>
            <trkpt lat="51.530489" lon="11.311032"><ele>244</ele></trkpt>
            <trkpt lat="51.530118" lon="11.311046"><ele>243</ele></trkpt>
            <trkpt lat="51.529486" lon="11.311216"><ele>241</ele></trkpt>
            <trkpt lat="51.528949" lon="11.311319"><ele>237</ele></trkpt>
            <trkpt lat="51.528669" lon="11.311332"><ele>236.7</ele></trkpt>
            <trkpt lat="51.528542" lon="11.311313"><ele>236.7</ele></trkpt>
            <trkpt lat="51.52816" lon="11.31119"><ele>236</ele></trkpt>
            <trkpt lat="51.528115" lon="11.311106"><ele>236</ele></trkpt>
            <trkpt lat="51.527982" lon="11.311096"><ele>236</ele></trkpt>
            <trkpt lat="51.527805" lon="11.31113"><ele>234.1</ele></trkpt>
            <trkpt lat="51.52735" lon="11.311303"><ele>233.8</ele></trkpt>
            <trkpt lat="51.527231" lon="11.31131"><ele>233</ele></trkpt>
            <trkpt lat="51.527145" lon="11.311263"><ele>233</ele></trkpt>
            <trkpt lat="51.526753" lon="11.310911"><ele>233</ele></trkpt>
            <trkpt lat="51.526588" lon="11.310873"><ele>233.8</ele></trkpt>
            <trkpt lat="51.526483" lon="11.310897"><ele>234</ele></trkpt>
            <trkpt lat="51.52643" lon="11.310563"><ele>239</ele></trkpt>
            <trkpt lat="51.526208" lon="11.309578"><ele>242.3</ele></trkpt>
            <trkpt lat="51.526066" lon="11.30855"><ele>243.1</ele></trkpt>
            <trkpt lat="51.525969" lon="11.308066"><ele>244.3</ele></trkpt>
            <trkpt lat="51.525701" lon="11.307007"><ele>247</ele></trkpt>
            <trkpt lat="51.525511" lon="11.306438"><ele>248.1</ele></trkpt>
            <trkpt lat="51.525432" lon="11.305997"><ele>248.9</ele></trkpt>
            <trkpt lat="51.525325" lon="11.3057"><ele>249</ele></trkpt>
            <trkpt lat="51.525047" lon="11.304715"><ele>247.7</ele></trkpt>
            <trkpt lat="51.524942" lon="11.304061"><ele>248.5</ele></trkpt>
            <trkpt lat="51.524915" lon="11.303507"><ele>250.3</ele></trkpt>
            <trkpt lat="51.52481" lon="11.302554"><ele>256</ele></trkpt>
            <trkpt lat="51.524155" lon="11.301083"><ele>261</ele></trkpt>
            <trkpt lat="51.523741" lon="11.300323"><ele>266.4</ele></trkpt>
            <trkpt lat="51.52323" lon="11.299251"><ele>272.3</ele></trkpt>
            <trkpt lat="51.523113" lon="11.29905"><ele>273.9</ele></trkpt>
            <trkpt lat="51.522814" lon="11.298656"><ele>274.6</ele></trkpt>
            <trkpt lat="51.522248" lon="11.29801"><ele>278.2</ele></trkpt>
            <trkpt lat="51.522076" lon="11.297867"><ele>279.4</ele></trkpt>
            <trkpt lat="51.521535" lon="11.297526"><ele>284</ele></trkpt>
            <trkpt lat="51.520774" lon="11.296792"><ele>293</ele></trkpt>
            <trkpt lat="51.520586" lon="11.296264"><ele>296.2</ele></trkpt>
            <trkpt lat="51.520441" lon="11.29558"><ele>296.7</ele></trkpt>
            <trkpt lat="51.520328" lon="11.294626"><ele>297.9</ele></trkpt>
            <trkpt lat="51.520069" lon="11.292914"><ele>300.6</ele></trkpt>
            <trkpt lat="51.519986" lon="11.292278"><ele>307</ele></trkpt>
            <trkpt lat="51.51966" lon="11.289987"><ele>308</ele></trkpt>
            <trkpt lat="51.519566" lon="11.289249"><ele>308</ele></trkpt>
            <trkpt lat="51.519519" lon="11.288836"><ele>308.1</ele></trkpt>
            <trkpt lat="51.51947" lon="11.288174"><ele>309</ele></trkpt>
            <trkpt lat="51.519449" lon="11.287903"><ele>309</ele></trkpt>
            <trkpt lat="51.51943" lon="11.287784"><ele>309</ele></trkpt>
            <trkpt lat="51.519389" lon="11.287591"><ele>309</ele></trkpt>
            <trkpt lat="51.519357" lon="11.287516"><ele>309</ele></trkpt>
            <trkpt lat="51.5194" lon="11.287446"><ele>309</ele></trkpt>
            <trkpt lat="51.519438" lon="11.287371"><ele>309</ele></trkpt>
            <trkpt lat="51.51947" lon="11.287186"><ele>309</ele></trkpt>
            <trkpt lat="51.519489" lon="11.287019"><ele>309</ele></trkpt>
            <trkpt lat="51.5195" lon="11.286691"><ele>308.1</ele></trkpt>
            <trkpt lat="51.519524" lon="11.286472"><ele>308.1</ele></trkpt>
            <trkpt lat="51.519897" lon="11.284455"><ele>308</ele></trkpt>
            <trkpt lat="51.519877" lon="11.284423"><ele>309.1</ele></trkpt>
            <trkpt lat="51.519863" lon="11.28418"><ele>309.2</ele></trkpt>
            <trkpt lat="51.51988" lon="11.28354"><ele>309.7</ele></trkpt>
            <trkpt lat="51.519872" lon="11.283101"><ele>309.7</ele></trkpt>
            <trkpt lat="51.519836" lon="11.282797"><ele>309.7</ele></trkpt>
            <trkpt lat="51.519747" lon="11.282327"><ele>309.6</ele></trkpt>
            <trkpt lat="51.519736" lon="11.281838"><ele>311</ele></trkpt>
            <trkpt lat="51.519715" lon="11.281713"><ele>311.7</ele></trkpt>
            <trkpt lat="51.519641" lon="11.281615"><ele>314</ele></trkpt>
            <trkpt lat="51.519714" lon="11.281484"><ele>314</ele></trkpt>
            <trkpt lat="51.519749" lon="11.281277"><ele>314</ele></trkpt>
            <trkpt lat="51.519772" lon="11.281064"><ele>314.9</ele></trkpt>
            <trkpt lat="51.519857" lon="11.280772"><ele>317</ele></trkpt>
            <trkpt lat="51.519872" lon="11.280598"><ele>319.4</ele></trkpt>
            <trkpt lat="51.519864" lon="11.280442"><ele>319.6</ele></trkpt>
            <trkpt lat="51.519757" lon="11.279987"><ele>320.4</ele></trkpt>
            <trkpt lat="51.519735" lon="11.279705"><ele>320.2</ele></trkpt>
            <trkpt lat="51.519585" lon="11.279354"><ele>321</ele></trkpt>
            <trkpt lat="51.51953" lon="11.279107"><ele>324.5</ele></trkpt>
            <trkpt lat="51.519523" lon="11.278786"><ele>324.6</ele></trkpt>
            <trkpt lat="51.519603" lon="11.278026"><ele>324.6</ele></trkpt>
            <trkpt lat="51.519671" lon="11.277748"><ele>326</ele></trkpt>
            <trkpt lat="51.519682" lon="11.277719"><ele>326</ele></trkpt>
            <trkpt lat="51.519736" lon="11.277622"><ele>326.3</ele></trkpt>
            <trkpt lat="51.519815" lon="11.277564"><ele>326.4</ele></trkpt>
            <trkpt lat="51.519867" lon="11.277555"><ele>326.5</ele></trkpt>
            <trkpt lat="51.519971" lon="11.277452"><ele>328</ele></trkpt>
            <trkpt lat="51.520106" lon="11.277319"><ele>346</ele></trkpt>
            <trkpt lat="51.520217" lon="11.27708"><ele>346</ele></trkpt>
            <trkpt lat="51.520283" lon="11.277048"><ele>346</ele></trkpt>
            <trkpt lat="51.520305" lon="11.276996"><ele>346</ele></trkpt>
            <trkpt lat="51.520394" lon="11.276985"><ele>346</ele></trkpt>
            <trkpt lat="51.520381" lon="11.276939"><ele>346</ele></trkpt>
            <trkpt lat="51.52036" lon="11.27687"><ele>346</ele></trkpt>
            <trkpt lat="51.520284" lon="11.276858"><ele>346</ele></trkpt>
            <trkpt lat="51.520267" lon="11.276637"><ele>344.5</ele></trkpt>
            <trkpt lat="51.520177" lon="11.276492"><ele>344.3</ele></trkpt>
            <trkpt lat="51.520113" lon="11.27633"><ele>344.1</ele></trkpt>
            <trkpt lat="51.520095" lon="11.276176"><ele>343.8</ele></trkpt>
            <trkpt lat="51.520102" lon="11.276079"><ele>343.5</ele></trkpt>
            <trkpt lat="51.520075" lon="11.275955"><ele>343.2</ele></trkpt>
            <trkpt lat="51.520076" lon="11.275761"><ele>342.9</ele></trkpt>
            <trkpt lat="51.52" lon="11.275326"><ele>341.9</ele></trkpt>
            <trkpt lat="51.519997" lon="11.275153"><ele>342.5</ele></trkpt>
            <trkpt lat="51.520024" lon="11.27481"><ele>343</ele></trkpt>
            <trkpt lat="51.520016" lon="11.274652"><ele>342.5</ele></trkpt>
            <trkpt lat="51.51997" lon="11.274532"><ele>330</ele></trkpt>
            <trkpt lat="51.519759" lon="11.274368"><ele>330</ele></trkpt>
            <trkpt lat="51.519524" lon="11.274286"><ele>330</ele></trkpt>
            <trkpt lat="51.519406" lon="11.274286"><ele>330</ele></trkpt>
            <trkpt lat="51.519414" lon="11.274066"><ele>327.6</ele></trkpt>
            <trkpt lat="51.519454" lon="11.273833"><ele>327</ele></trkpt>
            <trkpt lat="51.519421" lon="11.273738"><ele>327</ele></trkpt>
            <trkpt lat="51.519307" lon="11.273689"><ele>319</ele></trkpt>
            <trkpt lat="51.519013" lon="11.273659"><ele>317.6</ele></trkpt>
            <trkpt lat="51.518983" lon="11.273624"><ele>318</ele></trkpt>
            <trkpt lat="51.518946" lon="11.273503"><ele>315</ele></trkpt>
            <trkpt lat="51.518907" lon="11.273418"><ele>314.7</ele></trkpt>
            <trkpt lat="51.518639" lon="11.273291"><ele>313</ele></trkpt>
            <trkpt lat="51.518738" lon="11.272678"><ele>311.6</ele></trkpt>
            <trkpt lat="51.518808" lon="11.272074"><ele>311.3</ele></trkpt>
            <trkpt lat="51.518986" lon="11.27109"><ele>311.2</ele></trkpt>
            <trkpt lat="51.51902" lon="11.270837"><ele>311.2</ele></trkpt>
            <trkpt lat="51.519034" lon="11.270613"><ele>311.1</ele></trkpt>
            <trkpt lat="51.519023" lon="11.27042"><ele>311.2</ele></trkpt>
            <trkpt lat="51.518941" lon="11.270181"><ele>311</ele></trkpt>
            <trkpt lat="51.518817" lon="11.27022"><ele>312.8</ele></trkpt>
            <trkpt lat="51.518404" lon="11.270202"><ele>311.9</ele></trkpt>
            <trkpt lat="51.518214" lon="11.270158"><ele>311.5</ele></trkpt>
            <trkpt lat="51.518106" lon="11.270083"><ele>311.1</ele></trkpt>
            <trkpt lat="51.517963" lon="11.269858"><ele>310.7</ele></trkpt>
            <trkpt lat="51.517853" lon="11.269738"><ele>310.6</ele></trkpt>
            <trkpt lat="51.517716" lon="11.269625"><ele>310.5</ele></trkpt>
            <trkpt lat="51.517607" lon="11.269587"><ele>310.4</ele></trkpt>
            <trkpt lat="51.517518" lon="11.269593"><ele>310.2</ele></trkpt>
            <trkpt lat="51.5172" lon="11.269735"><ele>310.1</ele></trkpt>
            <trkpt lat="51.51711" lon="11.269753"><ele>310.1</ele></trkpt>
            <trkpt lat="51.515853" lon="11.269678"><ele>308.1</ele></trkpt>
            <trkpt lat="51.514734" lon="11.269688"><ele>307</ele></trkpt>
            <trkpt lat="51.514704" lon="11.269691"><ele>308.5</ele></trkpt>
            <trkpt lat="51.514691" lon="11.269726"><ele>308.7</ele></trkpt>
            <trkpt lat="51.514676" lon="11.270192"><ele>308.7</ele></trkpt>
            <trkpt lat="51.514637" lon="11.270277"><ele>308.7</ele></trkpt>
            <trkpt lat="51.514549" lon="11.270402"><ele>309</ele></trkpt>
            <trkpt lat="51.514154" lon="11.270536"><ele>315</ele></trkpt>
            <trkpt lat="51.513914" lon="11.270605"><ele>315.1</ele></trkpt>
            <trkpt lat="51.513726" lon="11.270598"><ele>315.1</ele></trkpt>
            <trkpt lat="51.513243" lon="11.270334"><ele>316</ele></trkpt>
            <trkpt lat="51.512891" lon="11.270107"><ele>316</ele></trkpt>
            <trkpt lat="51.512728" lon="11.270041"><ele>316</ele></trkpt>
            <trkpt lat="51.512724" lon="11.27004"><ele>316</ele></trkpt>
            <trkpt lat="51.51244" lon="11.270018"><ele>313</ele></trkpt>
            <trkpt lat="51.512195" lon="11.270089"><ele>313</ele></trkpt>
            <trkpt lat="51.511708" lon="11.270379"><ele>313</ele></trkpt>
            <trkpt lat="51.510787" lon="11.270952"><ele>302.7</ele></trkpt>
            <trkpt lat="51.51006" lon="11.271373"><ele>298</ele></trkpt>
            <trkpt lat="51.509816" lon="11.271512"><ele>289</ele></trkpt>
            <trkpt lat="51.508496" lon="11.272259"><ele>282</ele></trkpt>
            <trkpt lat="51.507734" lon="11.272694"><ele>273.7</ele></trkpt>
            <trkpt lat="51.50743" lon="11.272917"><ele>271</ele></trkpt>
            <trkpt lat="51.506691" lon="11.27367"><ele>269</ele></trkpt>
            <trkpt lat="51.506542" lon="11.273815"><ele>267</ele></trkpt>
            <trkpt lat="51.506309" lon="11.274048"><ele>265.3</ele></trkpt>
            <trkpt lat="51.505906" lon="11.274387"><ele>265.1</ele></trkpt>
            <trkpt lat="51.505796" lon="11.274407"><ele>265.2</ele></trkpt>
            <trkpt lat="51.505627" lon="11.274374"><ele>265.2</ele></trkpt>
            <trkpt lat="51.505558" lon="11.274411"><ele>265</ele></trkpt>
            <trkpt lat="51.505416" lon="11.274534"><ele>265</ele></trkpt>
            <trkpt lat="51.504711" lon="11.274889"><ele>267</ele></trkpt>
            <trkpt lat="51.504694" lon="11.274884"><ele>267</ele></trkpt>
            <trkpt lat="51.504429" lon="11.274249"><ele>269.8</ele></trkpt>
            <trkpt lat="51.504379" lon="11.274161"><ele>270</ele></trkpt>
            <trkpt lat="51.504263" lon="11.274091"><ele>270.6</ele></trkpt>
            <trkpt lat="51.504223" lon="11.274034"><ele>271</ele></trkpt>
            <trkpt lat="51.504111" lon="11.273769"><ele>271.1</ele></trkpt>
            <trkpt lat="51.504062" lon="11.273711"><ele>270.9</ele></trkpt>
            <trkpt lat="51.504021" lon="11.273706"><ele>270.7</ele></trkpt>
            <trkpt lat="51.50397" lon="11.273741"><ele>274</ele></trkpt>
            <trkpt lat="51.503471" lon="11.274159"><ele>274</ele></trkpt>
            <trkpt lat="51.503454" lon="11.273802"><ele>274</ele></trkpt>
            <trkpt lat="51.503399" lon="11.273589"><ele>274</ele></trkpt>
            <trkpt lat="51.503319" lon="11.273205"><ele>280</ele></trkpt>
            <trkpt lat="51.50285" lon="11.273439"><ele>281.3</ele></trkpt>
            <trkpt lat="51.502627" lon="11.273601"><ele>281</ele></trkpt>
            <trkpt lat="51.502393" lon="11.273815"><ele>285</ele></trkpt>
            <trkpt lat="51.502355" lon="11.273829"><ele>285</ele></trkpt>
            <trkpt lat="51.502263" lon="11.273751"><ele>285</ele></trkpt>
            <trkpt lat="51.502197" lon="11.273922"><ele>285</ele></trkpt>
            <trkpt lat="51.502065" lon="11.274147"><ele>283.1</ele></trkpt>
            <trkpt lat="51.501949" lon="11.274287"><ele>283</ele></trkpt>
            <trkpt lat="51.501346" lon="11.274918"><ele>283.1</ele></trkpt>
            <trkpt lat="51.500956" lon="11.275246"><ele>282</ele></trkpt>
            <trkpt lat="51.500737" lon="11.275427"><ele>284</ele></trkpt>
            <trkpt lat="51.500695" lon="11.275466"><ele>284</ele></trkpt>
            <trkpt lat="51.500623" lon="11.27555"><ele>284</ele></trkpt>
            <trkpt lat="51.500342" lon="11.275811"><ele>284</ele></trkpt>
            <trkpt lat="51.500309" lon="11.275843"><ele>284</ele></trkpt>
            <trkpt lat="51.499845" lon="11.27618"><ele>283.4</ele></trkpt>
            <trkpt lat="51.499522" lon="11.276343"><ele>284.2</ele></trkpt>
            <trkpt lat="51.498963" lon="11.276503"><ele>285.7</ele></trkpt>
            <trkpt lat="51.498379" lon="11.276539"><ele>286.7</ele></trkpt>
            <trkpt lat="51.498292" lon="11.27657"><ele>287</ele></trkpt>
            <trkpt lat="51.498175" lon="11.276648"><ele>287.1</ele></trkpt>
            <trkpt lat="51.498018" lon="11.276803"><ele>287.2</ele></trkpt>
            <trkpt lat="51.497865" lon="11.27703"><ele>287.2</ele></trkpt>
            <trkpt lat="51.497787" lon="11.277201"><ele>287.2</ele></trkpt>
            <trkpt lat="51.497604" lon="11.277787"><ele>287.3</ele></trkpt>
            <trkpt lat="51.4975" lon="11.27801"><ele>287.2</ele></trkpt>
            <trkpt lat="51.4974" lon="11.278143"><ele>287.3</ele></trkpt>
            <trkpt lat="51.497263" lon="11.27828"><ele>287.3</ele></trkpt>
            <trkpt lat="51.49702" lon="11.278477"><ele>287.3</ele></trkpt>
            <trkpt lat="51.496926" lon="11.278528"><ele>288</ele></trkpt>
            <trkpt lat="51.496722" lon="11.27856"><ele>288</ele></trkpt>
            <trkpt lat="51.496678" lon="11.278565"><ele>288</ele></trkpt>
            <trkpt lat="51.495971" lon="11.277797"><ele>289.7</ele></trkpt>
            <trkpt lat="51.495437" lon="11.277155"><ele>291.6</ele></trkpt>
            <trkpt lat="51.494694" lon="11.275682"><ele>296.7</ele></trkpt>
            <trkpt lat="51.494478" lon="11.275102"><ele>298.2</ele></trkpt>
            <trkpt lat="51.494353" lon="11.274681"><ele>298.7</ele></trkpt>
            <trkpt lat="51.494262" lon="11.274473"><ele>300</ele></trkpt>
            <trkpt lat="51.494198" lon="11.274116"><ele>305.5</ele></trkpt>
            <trkpt lat="51.494082" lon="11.273687"><ele>309</ele></trkpt>
            <trkpt lat="51.493984" lon="11.273319"><ele>312</ele></trkpt>
            <trkpt lat="51.493961" lon="11.273219"><ele>312</ele></trkpt>
            <trkpt lat="51.493906" lon="11.272918"><ele>312</ele></trkpt>
            <trkpt lat="51.493782" lon="11.272397"><ele>314</ele></trkpt>
            <trkpt lat="51.493634" lon="11.271882"><ele>315</ele></trkpt>
            <trkpt lat="51.493565" lon="11.271673"><ele>305.2</ele></trkpt>
            <trkpt lat="51.493464" lon="11.27147"><ele>303.5</ele></trkpt>
            <trkpt lat="51.493248" lon="11.271156"><ele>304.2</ele></trkpt>
            <trkpt lat="51.493158" lon="11.271072"><ele>299</ele></trkpt>
            <trkpt lat="51.493091" lon="11.270985"><ele>299</ele></trkpt>
            <trkpt lat="51.493158" lon="11.271072"><ele>299</ele></trkpt>
            <trkpt lat="51.493248" lon="11.271156"><ele>304.2</ele></trkpt>
            <trkpt lat="51.493464" lon="11.27147"><ele>303.5</ele></trkpt>
            <trkpt lat="51.493565" lon="11.271673"><ele>305.2</ele></trkpt>
            <trkpt lat="51.493634" lon="11.271882"><ele>315</ele></trkpt>
            <trkpt lat="51.493782" lon="11.272397"><ele>314</ele></trkpt>
            <trkpt lat="51.493906" lon="11.272918"><ele>312</ele></trkpt>
            <trkpt lat="51.493961" lon="11.273219"><ele>312</ele></trkpt>
            <trkpt lat="51.493984" lon="11.273319"><ele>312</ele></trkpt>
            <trkpt lat="51.494082" lon="11.273687"><ele>309</ele></trkpt>
            <trkpt lat="51.494198" lon="11.274116"><ele>305.5</ele></trkpt>
            <trkpt lat="51.494262" lon="11.274473"><ele>300</ele></trkpt>
            <trkpt lat="51.494353" lon="11.274681"><ele>298.7</ele></trkpt>
            <trkpt lat="51.494478" lon="11.275102"><ele>298.2</ele></trkpt>
            <trkpt lat="51.494694" lon="11.275682"><ele>296.7</ele></trkpt>
            <trkpt lat="51.495437" lon="11.277155"><ele>291.6</ele></trkpt>
            <trkpt lat="51.495971" lon="11.277797"><ele>289.7</ele></trkpt>
            <trkpt lat="51.496678" lon="11.278565"><ele>288</ele></trkpt>
            <trkpt lat="51.496722" lon="11.27856"><ele>288</ele></trkpt>
            <trkpt lat="51.496926" lon="11.278528"><ele>288</ele></trkpt>
            <trkpt lat="51.49702" lon="11.278477"><ele>287.3</ele></trkpt>
            <trkpt lat="51.497263" lon="11.27828"><ele>287.3</ele></trkpt>
            <trkpt lat="51.4974" lon="11.278143"><ele>287.3</ele></trkpt>
            <trkpt lat="51.4975" lon="11.27801"><ele>287.2</ele></trkpt>
            <trkpt lat="51.497604" lon="11.277787"><ele>287.3</ele></trkpt>
            <trkpt lat="51.497787" lon="11.277201"><ele>287.2</ele></trkpt>
            <trkpt lat="51.497865" lon="11.27703"><ele>287.2</ele></trkpt>
            <trkpt lat="51.498018" lon="11.276803"><ele>287.2</ele></trkpt>
            <trkpt lat="51.498175" lon="11.276648"><ele>287.1</ele></trkpt>
            <trkpt lat="51.498292" lon="11.27657"><ele>287</ele></trkpt>
            <trkpt lat="51.498379" lon="11.276539"><ele>286.7</ele></trkpt>
            <trkpt lat="51.498963" lon="11.276503"><ele>285.7</ele></trkpt>
            <trkpt lat="51.499522" lon="11.276343"><ele>284.2</ele></trkpt>
            <trkpt lat="51.499845" lon="11.27618"><ele>283.4</ele></trkpt>
            <trkpt lat="51.500309" lon="11.275843"><ele>284</ele></trkpt>
            <trkpt lat="51.500342" lon="11.275811"><ele>284</ele></trkpt>
            <trkpt lat="51.500623" lon="11.27555"><ele>284</ele></trkpt>
            <trkpt lat="51.500695" lon="11.275466"><ele>284</ele></trkpt>
            <trkpt lat="51.500737" lon="11.275427"><ele>284</ele></trkpt>
            <trkpt lat="51.500956" lon="11.275246"><ele>282</ele></trkpt>
            <trkpt lat="51.501346" lon="11.274918"><ele>283.1</ele></trkpt>
            <trkpt lat="51.501949" lon="11.274287"><ele>283</ele></trkpt>
            <trkpt lat="51.502065" lon="11.274147"><ele>283.1</ele></trkpt>
            <trkpt lat="51.502197" lon="11.273922"><ele>285</ele></trkpt>
            <trkpt lat="51.502263" lon="11.273751"><ele>285</ele></trkpt>
            <trkpt lat="51.502355" lon="11.273829"><ele>285</ele></trkpt>
            <trkpt lat="51.502393" lon="11.273815"><ele>285</ele></trkpt>
            <trkpt lat="51.502627" lon="11.273601"><ele>281</ele></trkpt>
            <trkpt lat="51.50285" lon="11.273439"><ele>281.3</ele></trkpt>
            <trkpt lat="51.503319" lon="11.273205"><ele>280</ele></trkpt>
            <trkpt lat="51.503399" lon="11.273589"><ele>274</ele></trkpt>
            <trkpt lat="51.503454" lon="11.273802"><ele>274</ele></trkpt>
            <trkpt lat="51.503471" lon="11.274159"><ele>274</ele></trkpt>
            <trkpt lat="51.50397" lon="11.273741"><ele>274</ele></trkpt>
            <trkpt lat="51.504021" lon="11.273706"><ele>270.7</ele></trkpt>
            <trkpt lat="51.504062" lon="11.273711"><ele>270.9</ele></trkpt>
            <trkpt lat="51.504111" lon="11.273769"><ele>271.1</ele></trkpt>
            <trkpt lat="51.504223" lon="11.274034"><ele>271</ele></trkpt>
            <trkpt lat="51.504263" lon="11.274091"><ele>270.6</ele></trkpt>
            <trkpt lat="51.504379" lon="11.274161"><ele>270</ele></trkpt>
            <trkpt lat="51.504429" lon="11.274249"><ele>269.8</ele></trkpt>
            <trkpt lat="51.504694" lon="11.274884"><ele>267</ele></trkpt>
            <trkpt lat="51.504711" lon="11.274889"><ele>267</ele></trkpt>
            <trkpt lat="51.505416" lon="11.274534"><ele>265</ele></trkpt>
            <trkpt lat="51.505558" lon="11.274411"><ele>265</ele></trkpt>
            <trkpt lat="51.505627" lon="11.274374"><ele>265.2</ele></trkpt>
            <trkpt lat="51.505796" lon="11.274407"><ele>265.2</ele></trkpt>
            <trkpt lat="51.505906" lon="11.274387"><ele>265.1</ele></trkpt>
            <trkpt lat="51.506309" lon="11.274048"><ele>265.3</ele></trkpt>
            <trkpt lat="51.506542" lon="11.273815"><ele>267</ele></trkpt>
            <trkpt lat="51.506691" lon="11.27367"><ele>269</ele></trkpt>
            <trkpt lat="51.50743" lon="11.272917"><ele>271</ele></trkpt>
            <trkpt lat="51.507461" lon="11.272997"><ele>271.6</ele></trkpt>
            <trkpt lat="51.508827" lon="11.275447"><ele>275.5</ele></trkpt>
            <trkpt lat="51.508974" lon="11.275838"><ele>275.7</ele></trkpt>
            <trkpt lat="51.509077" lon="11.276187"><ele>275.6</ele></trkpt>
            <trkpt lat="51.509278" lon="11.276756"><ele>275.8</ele></trkpt>
            <trkpt lat="51.509469" lon="11.277234"><ele>276.5</ele></trkpt>
            <trkpt lat="51.509543" lon="11.277354"><ele>276.8</ele></trkpt>
            <trkpt lat="51.509942" lon="11.277764"><ele>277.4</ele></trkpt>
            <trkpt lat="51.510757" lon="11.278805"><ele>279.6</ele></trkpt>
            <trkpt lat="51.511111" lon="11.279416"><ele>282.3</ele></trkpt>
            <trkpt lat="51.511642" lon="11.280444"><ele>285.1</ele></trkpt>
            <trkpt lat="51.512665" lon="11.282244"><ele>291.8</ele></trkpt>
            <trkpt lat="51.512781" lon="11.282405"><ele>292.3</ele></trkpt>
            <trkpt lat="51.512874" lon="11.282462"><ele>294</ele></trkpt>
            <trkpt lat="51.513667" lon="11.282067"><ele>296.8</ele></trkpt>
            <trkpt lat="51.513932" lon="11.281961"><ele>298</ele></trkpt>
            <trkpt lat="51.514334" lon="11.284323"><ele>296.3</ele></trkpt>
            <trkpt lat="51.514473" lon="11.28523"><ele>294</ele></trkpt>
            <trkpt lat="51.514539" lon="11.285249"><ele>292.9</ele></trkpt>
            <trkpt lat="51.515084" lon="11.285966"><ele>292.5</ele></trkpt>
            <trkpt lat="51.515258" lon="11.286125"><ele>290</ele></trkpt>
            <trkpt lat="51.515307" lon="11.286167"><ele>290</ele></trkpt>
            <trkpt lat="51.515418" lon="11.286282"><ele>290</ele></trkpt>
            <trkpt lat="51.515509" lon="11.286164"><ele>290</ele></trkpt>
            <trkpt lat="51.515529" lon="11.286105"><ele>290</ele></trkpt>
            <trkpt lat="51.515577" lon="11.286123"><ele>290</ele></trkpt>
            <trkpt lat="51.515649" lon="11.286105"><ele>290</ele></trkpt>
            <trkpt lat="51.515752" lon="11.286086"><ele>290</ele></trkpt>
            <trkpt lat="51.516141" lon="11.286074"><ele>290</ele></trkpt>
            <trkpt lat="51.516292" lon="11.286123"><ele>290</ele></trkpt>
            <trkpt lat="51.516402" lon="11.28619"><ele>290</ele></trkpt>
            <trkpt lat="51.516605" lon="11.286294"><ele>292.1</ele></trkpt>
            <trkpt lat="51.516678" lon="11.286379"><ele>292.8</ele></trkpt>
            <trkpt lat="51.516723" lon="11.286474"><ele>294</ele></trkpt>
            <trkpt lat="51.516801" lon="11.28669"><ele>291</ele></trkpt>
            <trkpt lat="51.516856" lon="11.286765"><ele>291</ele></trkpt>
            <trkpt lat="51.516991" lon="11.286946"><ele>291</ele></trkpt>
            <trkpt lat="51.517037" lon="11.287034"><ele>291</ele></trkpt>
            <trkpt lat="51.517058" lon="11.287156"><ele>290.6</ele></trkpt>
            <trkpt lat="51.517062" lon="11.287308"><ele>290.5</ele></trkpt>
            <trkpt lat="51.517014" lon="11.287779"><ele>289</ele></trkpt>
            <trkpt lat="51.517457" lon="11.287875"><ele>289</ele></trkpt>
            <trkpt lat="51.517895" lon="11.287959"><ele>300.2</ele></trkpt>
            <trkpt lat="51.51806" lon="11.28796"><ele>302.1</ele></trkpt>
            <trkpt lat="51.518578" lon="11.28779"><ele>303.2</ele></trkpt>
            <trkpt lat="51.519094" lon="11.287706"><ele>303.3</ele></trkpt>
            <trkpt lat="51.5193" lon="11.287594"><ele>303.3</ele></trkpt>
            <trkpt lat="51.519357" lon="11.287516"><ele>309</ele></trkpt>
            <trkpt lat="51.519389" lon="11.287591"><ele>309</ele></trkpt>
            <trkpt lat="51.51943" lon="11.287784"><ele>309</ele></trkpt>
            <trkpt lat="51.519449" lon="11.287903"><ele>309</ele></trkpt>
            <trkpt lat="51.51947" lon="11.288174"><ele>309</ele></trkpt>
            <trkpt lat="51.519519" lon="11.288836"><ele>308.1</ele></trkpt>
            <trkpt lat="51.519566" lon="11.289249"><ele>308</ele></trkpt>
            <trkpt lat="51.51966" lon="11.289987"><ele>308</ele></trkpt>
            <trkpt lat="51.519986" lon="11.292278"><ele>307</ele></trkpt>
            <trkpt lat="51.520069" lon="11.292914"><ele>300.6</ele></trkpt>
            <trkpt lat="51.520328" lon="11.294626"><ele>297.9</ele></trkpt>
            <trkpt lat="51.520441" lon="11.29558"><ele>296.7</ele></trkpt>
            <trkpt lat="51.520586" lon="11.296264"><ele>296.2</ele></trkpt>
            <trkpt lat="51.520774" lon="11.296792"><ele>293</ele></trkpt>
            <trkpt lat="51.521535" lon="11.297526"><ele>284</ele></trkpt>
            <trkpt lat="51.522076" lon="11.297867"><ele>279.4</ele></trkpt>
            <trkpt lat="51.522248" lon="11.29801"><ele>278.2</ele></trkpt>
            <trkpt lat="51.522814" lon="11.298656"><ele>274.6</ele></trkpt>
            <trkpt lat="51.523113" lon="11.29905"><ele>273.9</ele></trkpt>
            <trkpt lat="51.52323" lon="11.299251"><ele>272.3</ele></trkpt>
            <trkpt lat="51.523741" lon="11.300323"><ele>266.4</ele></trkpt>
            <trkpt lat="51.524155" lon="11.301083"><ele>261</ele></trkpt>
            <trkpt lat="51.52481" lon="11.302554"><ele>256</ele></trkpt>
            <trkpt lat="51.524915" lon="11.303507"><ele>250.3</ele></trkpt>
            <trkpt lat="51.524942" lon="11.304061"><ele>248.5</ele></trkpt>
            <trkpt lat="51.525047" lon="11.304715"><ele>247.7</ele></trkpt>
            <trkpt lat="51.525325" lon="11.3057"><ele>249</ele></trkpt>
            <trkpt lat="51.525432" lon="11.305997"><ele>248.9</ele></trkpt>
            <trkpt lat="51.525511" lon="11.306438"><ele>248.1</ele></trkpt>
            <trkpt lat="51.525701" lon="11.307007"><ele>247</ele></trkpt>
            <trkpt lat="51.525969" lon="11.308066"><ele>244.3</ele></trkpt>
            <trkpt lat="51.526066" lon="11.30855"><ele>243.1</ele></trkpt>
            <trkpt lat="51.526208" lon="11.309578"><ele>242.3</ele></trkpt>
            <trkpt lat="51.52643" lon="11.310563"><ele>239</ele></trkpt>
            <trkpt lat="51.526483" lon="11.310897"><ele>234</ele></trkpt>
            <trkpt lat="51.526588" lon="11.310873"><ele>233.8</ele></trkpt>
            <trkpt lat="51.526753" lon="11.310911"><ele>233</ele></trkpt>
            <trkpt lat="51.527145" lon="11.311263"><ele>233</ele></trkpt>
            <trkpt lat="51.527231" lon="11.31131"><ele>233</ele></trkpt>
            <trkpt lat="51.52735" lon="11.311303"><ele>233.8</ele></trkpt>
            <trkpt lat="51.527805" lon="11.31113"><ele>234.1</ele></trkpt>
            <trkpt lat="51.527982" lon="11.311096"><ele>236</ele></trkpt>
            <trkpt lat="51.528115" lon="11.311106"><ele>236</ele></trkpt>
            <trkpt lat="51.52816" lon="11.31119"><ele>236</ele></trkpt>
            <trkpt lat="51.528542" lon="11.311313"><ele>236.7</ele></trkpt>
            <trkpt lat="51.528669" lon="11.311332"><ele>236.7</ele></trkpt>
            <trkpt lat="51.528949" lon="11.311319"><ele>237</ele></trkpt>
            <trkpt lat="51.529486" lon="11.311216"><ele>241</ele></trkpt>
            <trkpt lat="51.530118" lon="11.311046"><ele>243</ele></trkpt>
            <trkpt lat="51.530489" lon="11.311032"><ele>244</ele></trkpt>
            <trkpt lat="51.530654" lon="11.311031"><ele>244</ele></trkpt>
            <trkpt lat="51.530961" lon="11.31103"><ele>246</ele></trkpt>
            <trkpt lat="51.531331" lon="11.311032"><ele>246</ele></trkpt>
            <trkpt lat="51.53164" lon="11.31105"><ele>246.3</ele></trkpt>
            <trkpt lat="51.531754" lon="11.311026"><ele>247</ele></trkpt>
            <trkpt lat="51.532456" lon="11.310711"><ele>251</ele></trkpt>
            <trkpt lat="51.532464" lon="11.310753"><ele>251</ele></trkpt>
            <trkpt lat="51.533091" lon="11.310308"><ele>251.5</ele></trkpt>
            <trkpt lat="51.533386" lon="11.31013"><ele>251.5</ele></trkpt>
            <trkpt lat="51.533515" lon="11.310091"><ele>250.9</ele></trkpt>
            <trkpt lat="51.53374" lon="11.310063"><ele>248</ele></trkpt>
            <trkpt lat="51.533746" lon="11.310075"><ele>248</ele></trkpt>
            <trkpt lat="51.53379" lon="11.310162"><ele>248</ele></trkpt>
            <trkpt lat="51.533796" lon="11.31024"><ele>248</ele></trkpt>
            <trkpt lat="51.533823" lon="11.310356"><ele>248</ele></trkpt>
            <trkpt lat="51.533835" lon="11.310501"><ele>248</ele></trkpt>
            <trkpt lat="51.533841" lon="11.310608"><ele>248</ele></trkpt>
            <trkpt lat="51.53384" lon="11.310773"><ele>248</ele></trkpt>
            <trkpt lat="51.533792" lon="11.310917"><ele>248</ele></trkpt>
            <trkpt lat="51.533742" lon="11.311188"><ele>248</ele></trkpt>
            <trkpt lat="51.533714" lon="11.311476"><ele>248</ele></trkpt>
            <trkpt lat="51.533677" lon="11.311844"><ele>248.7</ele></trkpt>
            <trkpt lat="51.533705" lon="11.312257"><ele>249</ele></trkpt>
            <trkpt lat="51.533885" lon="11.312762"><ele>253</ele></trkpt>
            <trkpt lat="51.533907" lon="11.312734"><ele>255</ele></trkpt>
            <trkpt lat="51.533956" lon="11.312654"><ele>255</ele></trkpt>
            <trkpt lat="51.533988" lon="11.312652"><ele>255</ele></trkpt>
            <trkpt lat="51.534025" lon="11.312711"><ele>255</ele></trkpt>
            <trkpt lat="51.534033" lon="11.312869"><ele>255</ele></trkpt>
            <trkpt lat="51.534076" lon="11.313044"><ele>255</ele></trkpt>
            <trkpt lat="51.534112" lon="11.313118"><ele>281</ele></trkpt>
            <trkpt lat="51.534185" lon="11.313374"><ele>287.1</ele></trkpt>
            <trkpt lat="51.534399" lon="11.313559"><ele>284.5</ele></trkpt>
            <trkpt lat="51.534405" lon="11.31366"><ele>283.5</ele></trkpt>
            <trkpt lat="51.534433" lon="11.313754"><ele>294</ele></trkpt>
            <trkpt lat="51.534348" lon="11.313856"><ele>295.7</ele></trkpt>
            <trkpt lat="51.534309" lon="11.31397"><ele>295.6</ele></trkpt>
            <trkpt lat="51.534311" lon="11.314098"><ele>295.5</ele></trkpt>
            <trkpt lat="51.534412" lon="11.314416"><ele>295.9</ele></trkpt>
            <trkpt lat="51.534416" lon="11.314476"><ele>296.2</ele></trkpt>
            <trkpt lat="51.534401" lon="11.314523"><ele>297</ele></trkpt>
            <trkpt lat="51.534503" lon="11.314512"><ele>299.3</ele></trkpt>
        </trkseg>
    </trk>
</gpx>
