<?xml version="1.0" encoding="UTF-8"?>
<gpx version="1.1" creator="HWN Route Compare"
     xmlns="http://www.topografix.com/GPX/1/1"
     xmlns:xsi="http://www.w3.org/2001/XMLSchema-instance"
     xsi:schemaLocation="http://www.topografix.com/GPX/1/1 http://www.topografix.com/GPX/1/1/gpx.xsd">
    <metadata>
        <name>HWN Tour A1 (Platzhalter)</name>
        <desc>Nordwestharz: Goslar, Okertal, Clausthal, Bad Grund · Stempel HWN129, HWN130, HWN105, HWN113 · Luftlinie, geschätzt ca. 18,7 km / mind. 163 Hm</desc>
    </metadata>
    <wpt lat="51.81926" lon="10.22503">
        <ele>392</ele>
        <name>1. HWN129 Weltwald</name>
        <desc>Hütte im Weltwald</desc>
        <sym>Flag</sym>
    </wpt>
    <wpt lat="51.8198705" lon="10.2452016">
        <ele>555</ele>
        <name>2. HWN130 Iberger Albert-Turm</name>
        <desc>Iberger Albert-Turm</desc>
        <sym>Flag</sym>
    </wpt>
    <wpt lat="51.8258" lon="10.2885832">
        <ele>536</ele>
        <name>3. HWN105 Prinzenlaube</name>
        <desc>Prinzenlaube</desc>
        <sym>Flag</sym>
    </wpt>
    <wpt lat="51.849451" lon="10.300115">
        <ele>477</ele>
        <name>4. HWN113 Grumbacher Teich</name>
        <desc>Grumbacher Teich</desc>
        <sym>Flag</sym>
    </wpt>
    <trk>
        <name>HWN Tour A1 (Platzhalter)</name>
        <desc>Nordwestharz: Goslar, Okertal, Clausthal, Bad Grund · Stempel HWN129, HWN130, HWN105, HWN113 · Luftlinie, geschätzt ca. 18,7 km / mind. 163 Hm</desc>
        <trkseg>
            <trkpt lat="51.81926" lon="10.22503"><ele>392</ele></trkpt>
            <trkpt lat="51.8198705" lon="10.2452016"><ele>555</ele></trkpt>
            <trkpt lat="51.8258" lon="10.2885832"><ele>536</ele></trkpt>
            <trkpt lat="51.849451" lon="10.300115"><ele>477</ele></trkpt>
            <trkpt lat="51.81926" lon="10.22503"><ele>392</ele></trkpt>
        </trkseg>
    </trk>
</gpx>
