<?xml version="1.0" encoding="UTF-8"?>
<gpx version="1.1" creator="HWN Route Compare"
     xmlns="http://www.topografix.com/GPX/1/1"
     xmlns:xsi="http://www.w3.org/2001/XMLSchema-instance"
     xsi:schemaLocation="http://www.topografix.com/GPX/1/1 http://www.topografix.com/GPX/1/1/gpx.xsd">
    <metadata>
        <name>HWN Tour A2 (Platzhalter)</name>
        <desc>Nordwestharz: Goslar, Okertal, Clausthal, Bad Grund · Stempel HWN102, HWN142, HWN106, HWN107, HWN103, HWN104 · Luftlinie, geschätzt ca. 20,1 km / mind. 218 Hm</desc>
    </metadata>
    <wpt lat="51.91484" lon="10.25144">
        <ele>565</ele>
        <name>1. HWN102 Lageswarte</name>
        <desc>Lageswarte</desc>
        <sym>Flag</sym>
    </wpt>
    <wpt lat="51.89504" lon="10.27904">
        <ele>350</ele>
        <name>2. HWN142 Mandolinenhütte</name>
        <desc>Mandolinenhütte</desc>
        <sym>Flag</sym>
    </wpt>
    <wpt lat="51.876832" lon="10.292047">
        <ele>400</ele>
        <name>3. HWN106 Schöne Aussicht Bielstein</name>
        <desc>Schöne Aussicht, Bielstein</desc>
        <sym>Flag</sym>
    </wpt>
    <wpt lat="51.8635985" lon="10.2902365">
        <ele>415</ele>
        <name>4. HWN107 Maaßener Gaipel</name>
        <desc>Maaßener Gaipel</desc>
        <sym>Flag</sym>
    </wpt>
    <wpt lat="51.88032" lon="10.25558">
        <ele>540</ele>
        <name>5. HWN103 Luchsstein</name>
        <desc>Luchsstein</desc>
        <sym>Flag</sym>
    </wpt>
    <wpt lat="51.8849" lon="10.2385666">
        <ele>537</ele>
        <name>6. HWN104 Tränkebachhütte</name>
        <desc>Tränkebachhütte</desc>
        <sym>Flag</sym>
    </wpt>
    <trk>
        <name>HWN Tour A2 (Platzhalter)</name>
        <desc>Nordwestharz: Goslar, Okertal, Clausthal, Bad Grund · Stempel HWN102, HWN142, HWN106, HWN107, HWN103, HWN104 · Luftlinie, geschätzt ca. 20,1 km / mind. 218 Hm</desc>
        <trkseg>
            <trkpt lat="51.91484" lon="10.25144"><ele>565</ele></trkpt>
            <trkpt lat="51.89504" lon="10.27904"><ele>350</ele></trkpt>
            <trkpt lat="51.876832" lon="10.292047"><ele>400</ele></trkpt>
            <trkpt lat="51.8635985" lon="10.2902365"><ele>415</ele></trkpt>
            <trkpt lat="51.88032" lon="10.25558"><ele>540</ele></trkpt>
            <trkpt lat="51.8849" lon="10.2385666"><ele>537</ele></trkpt>
            <trkpt lat="51.91484" lon="10.25144"><ele>565</ele></trkpt>
        </trkseg>
    </trk>
</gpx>
