<?xml version="1.0" encoding="UTF-8"?>
<gpx version="1.1" creator="HWN Route Compare"
     xmlns="http://www.topografix.com/GPX/1/1"
     xmlns:xsi="http://www.w3.org/2001/XMLSchema-instance"
     xsi:schemaLocation="http://www.topografix.com/GPX/1/1 http://www.topografix.com/GPX/1/1/gpx.xsd">
    <metadata>
        <name>HWN Tour A3 (Platzhalter)</name>
        <desc>Nordwestharz: Goslar, Okertal, Clausthal, Bad Grund · Stempel HWN109, HWN171, HWN110, HWN111 · Luftlinie, geschätzt ca. 18,2 km / mind. 331 Hm</desc>
    </metadata>
    <wpt lat="51.9126333" lon="10.3357167">
        <ele>315</ele>
        <name>1. HWN109 Heimberg</name>
        <desc>Heimberg</desc>
        <sym>Flag</sym>
    </wpt>
    <wpt lat="51.88803" lon="10.33152">
        <ele>490</ele>
        <name>2. HWN171 Altarklippe</name>
        <desc>Altarklippe (oberhalb d. Granestausees)</desc>
        <sym>Flag</sym>
    </wpt>
    <wpt lat="51.9005822" lon="10.3822248">
        <ele>300</ele>
        <name>3. HWN110 Granstausee</name>
        <desc>Granstausee</desc>
        <sym>Flag</sym>
    </wpt>
    <wpt lat="51.90652" lon="10.40525">
        <ele>456</ele>
        <name>4. HWN111 Steinbergturm</name>
        <desc>Steinbergturm
Steinbergalm</desc>
        <sym>Flag</sym>
    </wpt>
    <trk>
        <name>HWN Tour A3 (Platzhalter)</name>
        <desc>Nordwestharz: Goslar, Okertal, Clausthal, Bad Grund · Stempel HWN109, HWN171, HWN110, HWN111 · Luftlinie, geschätzt ca. 18,2 km / mind. 331 Hm</desc>
        <trkseg>
            <trkpt lat="51.9126333" lon="10.3357167"><ele>315</ele></trkpt>
            <trkpt lat="51.88803" lon="10.33152"><ele>490</ele></trkpt>
            <trkpt lat="51.9005822" lon="10.3822248"><ele>300</ele></trkpt>
            <trkpt lat="51.90652" lon="10.40525"><ele>456</ele></trkpt>
            <trkpt lat="51.9126333" lon="10.3357167"><ele>315</ele></trkpt>
        </trkseg>
    </trk>
</gpx>
