<?xml version="1.0" encoding="UTF-8"?>
<gpx version="1.1" creator="HWN Route Compare"
     xmlns="http://www.topografix.com/GPX/1/1"
     xmlns:xsi="http://www.w3.org/2001/XMLSchema-instance"
     xsi:schemaLocation="http://www.topografix.com/GPX/1/1 http://www.topografix.com/GPX/1/1/gpx.xsd">
    <metadata>
        <name>HWN Tour A4 (Platzhalter)</name>
        <desc>Nordwestharz: Goslar, Okertal, Clausthal, Bad Grund · Stempel HWN112, HWN125, HWN124, HWN126 · Luftlinie, geschätzt ca. 15,7 km / mind. 224 Hm</desc>
    </metadata>
    <wpt lat="51.8606487" lon="10.3573171">
        <ele>630</ele>
        <name>1. HWN112 Liebesbank</name>
        <desc>Liebesbank</desc>
        <sym>Flag</sym>
    </wpt>
    <wpt lat="51.8488211" lon="10.3822879">
        <ele>750</ele>
        <name>2. HWN125 Schalker Turm</name>
        <desc>Schalker Turm</desc>
        <sym>Flag</sym>
    </wpt>
    <wpt lat="51.8409096" lon="10.4234715">
        <ele>526</ele>
        <name>3. HWN124 Köte am Heidenstieg</name>
        <desc>Köte am Heidenstieg</desc>
        <sym>Flag</sym>
    </wpt>
    <wpt lat="51.83702" lon="10.37981">
        <ele>609</ele>
        <name>4. HWN126 Lochstein</name>
        <desc>Lochstein, Oberer
Schalker Graben</desc>
        <sym>Flag</sym>
    </wpt>
    <trk>
        <name>HWN Tour A4 (Platzhalter)</name>
        <desc>Nordwestharz: Goslar, Okertal, Clausthal, Bad Grund · Stempel HWN112, HWN125, HWN124, HWN126 · Luftlinie, geschätzt ca. 15,7 km / mind. 224 Hm</desc>
        <trkseg>
            <trkpt lat="51.8606487" lon="10.3573171"><ele>630</ele></trkpt>
            <trkpt lat="51.8488211" lon="10.3822879"><ele>750</ele></trkpt>
            <trkpt lat="51.8409096" lon="10.4234715"><ele>526</ele></trkpt>
            <trkpt lat="51.83702" lon="10.37981"><ele>609</ele></trkpt>
            <trkpt lat="51.8606487" lon="10.3573171"><ele>630</ele></trkpt>
        </trkseg>
    </trk>
</gpx>
