<?xml version="1.0" encoding="UTF-8"?>
<gpx version="1.1" creator="HWN Route Compare"
     xmlns="http://www.topografix.com/GPX/1/1"
     xmlns:xsi="http://www.w3.org/2001/XMLSchema-instance"
     xsi:schemaLocation="http://www.topografix.com/GPX/1/1 http://www.topografix.com/GPX/1/1/gpx.xsd">
    <metadata>
        <name>HWN Tour A5b (Platzhalter)</name>
        <desc>Nordwestharz: Goslar, Okertal, Clausthal, Bad Grund · Stempel HWN091, HWN114 · Luftlinie, geschätzt ca. 1,5 km / mind. 281 Hm</desc>
    </metadata>
    <wpt lat="51.8900833" lon="10.41905">
        <ele>354</ele>
        <name>1. HWN091 Rammelsberg</name>
        <desc>Rammelsberg Goslar</desc>
        <sym>Flag</sym>
    </wpt>
    <wpt lat="51.88848" lon="10.42668">
        <ele>635</ele>
        <name>2. HWN114 Ramseck</name>
        <desc>Ramseck</desc>
        <sym>Flag</sym>
    </wpt>
    <trk>
        <name>HWN Tour A5b (Platzhalter)</name>
        <desc>Nordwestharz: Goslar, Okertal, Clausthal, Bad Grund · Stempel HWN091, HWN114 · Luftlinie, geschätzt ca. 1,5 km / mind. 281 Hm</desc>
        <trkseg>
            <trkpt lat="51.8900833" lon="10.41905"><ele>354</ele></trkpt>
            <trkpt lat="51.88848" lon="10.42668"><ele>635</ele></trkpt>
            <trkpt lat="51.8900833" lon="10.41905"><ele>354</ele></trkpt>
        </trkseg>
    </trk>
</gpx>
