<?xml version="1.0" encoding="UTF-8"?>
<gpx version="1.1" creator="HWN Route Compare"
     xmlns="http://www.topografix.com/GPX/1/1"
     xmlns:xsi="http://www.w3.org/2001/XMLSchema-instance"
     xsi:schemaLocation="http://www.topografix.com/GPX/1/1 http://www.topografix.com/GPX/1/1/gpx.xsd">
    <metadata>
        <name>HWN Tour B2 (Platzhalter)</name>
        <desc>Brocken und Nationalpark Nord · Stempel HWN121, HWN169, HWN001, HWN002, HWN003, HWN004, HWN170, HWN122 · Luftlinie, geschätzt ca. 18,8 km / mind. 188 Hm</desc>
    </metadata>
    <wpt lat="51.87167" lon="10.56647">
        <ele>461</ele>
        <name>1. HWN121 Aussichtsreich Burgberg</name>
        <desc>Aussichtsreich
Burgberg</desc>
        <sym>Flag</sym>
    </wpt>
    <wpt lat="51.8556833" lon="10.5730999">
        <ele>532</ele>
        <name>2. HWN169 Molkenhaus</name>
        <desc>Molkenhaus</desc>
        <sym>Flag</sym>
    </wpt>
    <wpt lat="51.841649" lon="10.5799757">
        <ele>555</ele>
        <name>3. HWN001 Eckertalsperre</name>
        <desc>Eckertalsperre (Staumauer)</desc>
        <sym>Flag</sym>
    </wpt>
    <wpt lat="51.8301677" lon="10.6027742">
        <ele>635</ele>
        <name>4. HWN002 Scharfenstein</name>
        <desc>Scharfenstein (Rangerstation)</desc>
        <sym>Flag</sym>
    </wpt>
    <wpt lat="51.84415" lon="10.61161">
        <ele>567</ele>
        <name>5. HWN003 Am Kruzifix</name>
        <desc>Am Kruzifix (Schutzhütte)</desc>
        <sym>Flag</sym>
    </wpt>
    <wpt lat="51.862558" lon="10.618166">
        <ele>555</ele>
        <name>6. HWN004 Taubenklippe</name>
        <desc>Taubenklippe</desc>
        <sym>Flag</sym>
    </wpt>
    <wpt lat="51.8650167" lon="10.6053166">
        <ele>531</ele>
        <name>7. HWN170 Rabenklippe</name>
        <desc>Rabenklippe</desc>
        <sym>Flag</sym>
    </wpt>
    <wpt lat="51.8753167" lon="10.5925833">
        <ele>545</ele>
        <name>8. HWN122 Kreuz des deutschen Ostens</name>
        <desc>Kreuz des deutschen Ostens</desc>
        <sym>Flag</sym>
    </wpt>
    <trk>
        <name>HWN Tour B2 (Platzhalter)</name>
        <desc>Brocken und Nationalpark Nord · Stempel HWN121, HWN169, HWN001, HWN002, HWN003, HWN004, HWN170, HWN122 · Luftlinie, geschätzt ca. 18,8 km / mind. 188 Hm</desc>
        <trkseg>
            <trkpt lat="51.87167" lon="10.56647"><ele>461</ele></trkpt>
            <trkpt lat="51.8556833" lon="10.5730999"><ele>532</ele></trkpt>
            <trkpt lat="51.841649" lon="10.5799757"><ele>555</ele></trkpt>
            <trkpt lat="51.8301677" lon="10.6027742"><ele>635</ele></trkpt>
            <trkpt lat="51.84415" lon="10.61161"><ele>567</ele></trkpt>
            <trkpt lat="51.862558" lon="10.618166"><ele>555</ele></trkpt>
            <trkpt lat="51.8650167" lon="10.6053166"><ele>531</ele></trkpt>
            <trkpt lat="51.8753167" lon="10.5925833"><ele>545</ele></trkpt>
            <trkpt lat="51.87167" lon="10.56647"><ele>461</ele></trkpt>
        </trkseg>
    </trk>
</gpx>
