<?xml version="1.0" encoding="UTF-8"?>
<gpx version="1.1" creator="HWN Route Compare"
     xmlns="http://www.topografix.com/GPX/1/1"
     xmlns:xsi="http://www.w3.org/2001/XMLSchema-instance"
     xsi:schemaLocation="http://www.topografix.com/GPX/1/1 http://www.topografix.com/GPX/1/1/gpx.xsd">
    <metadata>
        <name>HWN Tour B3 (Platzhalter)</name>
        <desc>Brocken und Nationalpark Nord · Stempel HWN019, HWN009, HWN011, HWN010, HWN023 · Luftlinie, geschätzt ca. 21,3 km / mind. 469 Hm</desc>
    </metadata>
    <wpt lat="51.8203667" lon="10.5729833">
        <ele>655</ele>
        <name>1. HWN019 Skidenkmal</name>
        <desc>Skidenkmal</desc>
        <sym>Flag</sym>
    </wpt>
    <wpt lat="51.8005385" lon="10.6157828">
        <ele>1124</ele>
        <name>2. HWN009 Brockenhaus</name>
        <desc>Brockenhaus</desc>
        <sym>Flag</sym>
    </wpt>
    <wpt lat="51.7849852" lon="10.6179225">
        <ele>922</ele>
        <name>3. HWN011 Eckerloch</name>
        <desc>Eckerloch</desc>
        <sym>Flag</sym>
    </wpt>
    <wpt lat="51.8026431" lon="10.6433484">
        <ele>922</ele>
        <name>4. HWN010 Große Zeterklippe</name>
        <desc>Große Zeterklippe</desc>
        <sym>Flag</sym>
    </wpt>
    <wpt lat="51.8077069" lon="10.6577926">
        <ele>747</ele>
        <name>5. HWN023 Molkenhausstern</name>
        <desc>Molkenhausstern</desc>
        <sym>Flag</sym>
    </wpt>
    <trk>
        <name>HWN Tour B3 (Platzhalter)</name>
        <desc>Brocken und Nationalpark Nord · Stempel HWN019, HWN009, HWN011, HWN010, HWN023 · Luftlinie, geschätzt ca. 21,3 km / mind. 469 Hm</desc>
        <trkseg>
            <trkpt lat="51.8203667" lon="10.5729833"><ele>655</ele></trkpt>
            <trkpt lat="51.8005385" lon="10.6157828"><ele>1124</ele></trkpt>
            <trkpt lat="51.7849852" lon="10.6179225"><ele>922</ele></trkpt>
            <trkpt lat="51.8026431" lon="10.6433484"><ele>922</ele></trkpt>
            <trkpt lat="51.8077069" lon="10.6577926"><ele>747</ele></trkpt>
            <trkpt lat="51.8203667" lon="10.5729833"><ele>655</ele></trkpt>
        </trkseg>
    </trk>
</gpx>
