<?xml version="1.0" encoding="UTF-8"?>
<gpx version="1.1" creator="HWN Route Compare"
     xmlns="http://www.topografix.com/GPX/1/1"
     xmlns:xsi="http://www.w3.org/2001/XMLSchema-instance"
     xsi:schemaLocation="http://www.topografix.com/GPX/1/1 http://www.topografix.com/GPX/1/1/gpx.xsd">
    <metadata>
        <name>HWN Tour B4 (Platzhalter)</name>
        <desc>Brocken und Nationalpark Nord · Stempel HWN022, HWN015, HWN017, HWN013, HWN018, HWN156 · Luftlinie, geschätzt ca. 21,5 km / mind. 289 Hm</desc>
    </metadata>
    <wpt lat="51.7910164" lon="10.6448051">
        <ele>911</ele>
        <name>1. HWN022 Gelber Brink</name>
        <desc>Gelber Brink</desc>
        <sym>Flag</sym>
    </wpt>
    <wpt lat="51.7815216" lon="10.6937767">
        <ele>879</ele>
        <name>2. HWN015 Leistenklippe</name>
        <desc>Leistenklippe</desc>
        <sym>Flag</sym>
    </wpt>
    <wpt lat="51.7721776" lon="10.6965632">
        <ele>750</ele>
        <name>3. HWN017 Trudenstein</name>
        <desc>Trudenstein</desc>
        <sym>Flag</sym>
    </wpt>
    <wpt lat="51.7735635" lon="10.6671864">
        <ele>806</ele>
        <name>4. HWN013 Ahrentsklint</name>
        <desc>Ahrentsklint</desc>
        <sym>Flag</sym>
    </wpt>
    <wpt lat="51.7518251" lon="10.6324505">
        <ele>739</ele>
        <name>5. HWN018 Grenzweg am Kaffeehorst</name>
        <desc>Grenzweg am Kaffeehorst</desc>
        <sym>Flag</sym>
    </wpt>
    <wpt lat="51.7564333" lon="10.6186834">
        <ele>972</ele>
        <name>6. HWN156 Wurmberg-Baude</name>
        <desc>Wurmberg-Baude</desc>
        <sym>Flag</sym>
    </wpt>
    <trk>
        <name>HWN Tour B4 (Platzhalter)</name>
        <desc>Brocken und Nationalpark Nord · Stempel HWN022, HWN015, HWN017, HWN013, HWN018, HWN156 · Luftlinie, geschätzt ca. 21,5 km / mind. 289 Hm</desc>
        <trkseg>
            <trkpt lat="51.7910164" lon="10.6448051"><ele>911</ele></trkpt>
            <trkpt lat="51.7815216" lon="10.6937767"><ele>879</ele></trkpt>
            <trkpt lat="51.7721776" lon="10.6965632"><ele>750</ele></trkpt>
            <trkpt lat="51.7735635" lon="10.6671864"><ele>806</ele></trkpt>
            <trkpt lat="51.7518251" lon="10.6324505"><ele>739</ele></trkpt>
            <trkpt lat="51.7564333" lon="10.6186834"><ele>972</ele></trkpt>
            <trkpt lat="51.7910164" lon="10.6448051"><ele>911</ele></trkpt>
        </trkseg>
    </trk>
</gpx>
