<?xml version="1.0" encoding="UTF-8"?>
<gpx version="1.1" creator="HWN Route Compare"
     xmlns="http://www.topografix.com/GPX/1/1"
     xmlns:xsi="http://www.w3.org/2001/XMLSchema-instance"
     xsi:schemaLocation="http://www.topografix.com/GPX/1/1 http://www.topografix.com/GPX/1/1/gpx.xsd">
    <metadata>
        <name>HWN Tour B7 (Platzhalter)</name>
        <desc>Brocken und Nationalpark Nord · Stempel HWN006, HWN007, HWN008, HWN016, HWN030 · Luftlinie, geschätzt ca. 17,6 km / mind. 211 Hm</desc>
    </metadata>
    <wpt lat="51.8286834" lon="10.63485">
        <ele>556</ele>
        <name>1. HWN006 Obere Ilsefälle</name>
        <desc>Obere Ilsefälle (Bremer Hütte)</desc>
        <sym>Flag</sym>
    </wpt>
    <wpt lat="51.83187" lon="10.66819">
        <ele>551</ele>
        <name>2. HWN007 Gasthaus Plessenburg</name>
        <desc>Gasthaus Plessenburg</desc>
        <sym>Flag</sym>
    </wpt>
    <wpt lat="51.8193666" lon="10.6279167">
        <ele>650</ele>
        <name>3. HWN008 Stempelsbuche</name>
        <desc>Stempelsbuche</desc>
        <sym>Flag</sym>
    </wpt>
    <wpt lat="51.8234967" lon="10.6521028">
        <ele>650</ele>
        <name>4. HWN016 Ferdinands Stein</name>
        <desc>Ferdinands Stein</desc>
        <sym>Flag</sym>
    </wpt>
    <wpt lat="51.8463368" lon="10.6631266">
        <ele>444</ele>
        <name>5. HWN030 Ilsestein</name>
        <desc>Ilsestein</desc>
        <sym>Flag</sym>
    </wpt>
    <trk>
        <name>HWN Tour B7 (Platzhalter)</name>
        <desc>Brocken und Nationalpark Nord · Stempel HWN006, HWN007, HWN008, HWN016, HWN030 · Luftlinie, geschätzt ca. 17,6 km / mind. 211 Hm</desc>
        <trkseg>
            <trkpt lat="51.8286834" lon="10.63485"><ele>556</ele></trkpt>
            <trkpt lat="51.83187" lon="10.66819"><ele>551</ele></trkpt>
            <trkpt lat="51.8193666" lon="10.6279167"><ele>650</ele></trkpt>
            <trkpt lat="51.8234967" lon="10.6521028"><ele>650</ele></trkpt>
            <trkpt lat="51.8463368" lon="10.6631266"><ele>444</ele></trkpt>
            <trkpt lat="51.8286834" lon="10.63485"><ele>556</ele></trkpt>
        </trkseg>
    </trk>
</gpx>
