<?xml version="1.0" encoding="UTF-8"?>
<gpx version="1.1" creator="HWN Route Compare"
     xmlns="http://www.topografix.com/GPX/1/1"
     xmlns:xsi="http://www.w3.org/2001/XMLSchema-instance"
     xsi:schemaLocation="http://www.topografix.com/GPX/1/1 http://www.topografix.com/GPX/1/1/gpx.xsd">
    <metadata>
        <name>HWN Tour B8 (Platzhalter)</name>
        <desc>Brocken und Nationalpark Nord · Stempel HWN020, HWN021, HWN014 · Luftlinie, geschätzt ca. 3,3 km / mind. 59 Hm</desc>
    </metadata>
    <wpt lat="51.7503211" lon="10.6750453">
        <ele>612</ele>
        <name>1. HWN020 Barrenberg</name>
        <desc>Barrenberg (Aussichtspunkt)</desc>
        <sym>Flag</sym>
    </wpt>
    <wpt lat="51.7540669" lon="10.6809074">
        <ele>623</ele>
        <name>2. HWN021 Heleneruh</name>
        <desc>Heleneruh - Elend</desc>
        <sym>Flag</sym>
    </wpt>
    <wpt lat="51.75425" lon="10.66585">
        <ele>671</ele>
        <name>3. HWN014 Schnarcherklippe</name>
        <desc>Schnarcherklippe (Schutzhütte)</desc>
        <sym>Flag</sym>
    </wpt>
    <trk>
        <name>HWN Tour B8 (Platzhalter)</name>
        <desc>Brocken und Nationalpark Nord · Stempel HWN020, HWN021, HWN014 · Luftlinie, geschätzt ca. 3,3 km / mind. 59 Hm</desc>
        <trkseg>
            <trkpt lat="51.7503211" lon="10.6750453"><ele>612</ele></trkpt>
            <trkpt lat="51.7540669" lon="10.6809074"><ele>623</ele></trkpt>
            <trkpt lat="51.75425" lon="10.66585"><ele>671</ele></trkpt>
            <trkpt lat="51.7503211" lon="10.6750453"><ele>612</ele></trkpt>
        </trkseg>
    </trk>
</gpx>
