<?xml version="1.0" encoding="UTF-8"?>
<gpx version="1.1" creator="HWN Route Compare"
     xmlns="http://www.topografix.com/GPX/1/1"
     xmlns:xsi="http://www.w3.org/2001/XMLSchema-instance"
     xsi:schemaLocation="http://www.topografix.com/GPX/1/1 http://www.topografix.com/GPX/1/1/gpx.xsd">
    <metadata>
        <name>HWN Tour C2 (Platzhalter)</name>
        <desc>Oberharz: Altenau, St. Andreasberg, Bad Lauterberg · Stempel HWN143, HWN144 · Luftlinie, geschätzt ca. 13 km / mind. 261 Hm</desc>
    </metadata>
    <wpt lat="51.7232203" lon="10.336262">
        <ele>540</ele>
        <name>1. HWN143 Köte Schindelkopf</name>
        <desc>Köte Schindelkopf</desc>
        <sym>Flag</sym>
    </wpt>
    <wpt lat="51.7281389" lon="10.4033611">
        <ele>801</ele>
        <name>2. HWN144 Hanskühnenburg</name>
        <desc>Hanskühnenburg</desc>
        <sym>Flag</sym>
    </wpt>
    <trk>
        <name>HWN Tour C2 (Platzhalter)</name>
        <desc>Oberharz: Altenau, St. Andreasberg, Bad Lauterberg · Stempel HWN143, HWN144 · Luftlinie, geschätzt ca. 13 km / mind. 261 Hm</desc>
        <trkseg>
            <trkpt lat="51.7232203" lon="10.336262"><ele>540</ele></trkpt>
            <trkpt lat="51.7281389" lon="10.4033611"><ele>801</ele></trkpt>
            <trkpt lat="51.7232203" lon="10.336262"><ele>540</ele></trkpt>
        </trkseg>
    </trk>
</gpx>
