<?xml version="1.0" encoding="UTF-8"?>
<gpx version="1.1" creator="HWN Route Compare"
     xmlns="http://www.topografix.com/GPX/1/1"
     xmlns:xsi="http://www.w3.org/2001/XMLSchema-instance"
     xsi:schemaLocation="http://www.topografix.com/GPX/1/1 http://www.topografix.com/GPX/1/1/gpx.xsd">
    <metadata>
        <name>HWN Tour C3 (Platzhalter)</name>
        <desc>Oberharz: Altenau, St. Andreasberg, Bad Lauterberg · Stempel HWN137, HWN138, HWN147, HWN145, HWN127, HWN128 · Luftlinie, geschätzt ca. 18,3 km / mind. 126 Hm</desc>
    </metadata>
    <wpt lat="51.77606" lon="10.351">
        <ele>561</ele>
        <name>1. HWN137 Bärenbruchner Teich</name>
        <desc>Bärenbruchner Teich</desc>
        <sym>Flag</sym>
    </wpt>
    <wpt lat="51.7667667" lon="10.3552333">
        <ele>611</ele>
        <name>2. HWN138 Braunseck</name>
        <desc>Braunseck</desc>
        <sym>Flag</sym>
    </wpt>
    <wpt lat="51.75382" lon="10.39834">
        <ele>530</ele>
        <name>3. HWN147 Eleonorenblick</name>
        <desc>Eleonorenblick</desc>
        <sym>Flag</sym>
    </wpt>
    <wpt lat="51.7771" lon="10.3878333">
        <ele>600</ele>
        <name>4. HWN145 Schmidts-Denkmal</name>
        <desc>Schmidts-Denkmal</desc>
        <sym>Flag</sym>
    </wpt>
    <wpt lat="51.7979115" lon="10.3888812">
        <ele>592</ele>
        <name>5. HWN127 Weppner Hütte</name>
        <desc>Weppner Hütte, Jägersbleeker Teich</desc>
        <sym>Flag</sym>
    </wpt>
    <wpt lat="51.78573" lon="10.37743">
        <ele>598</ele>
        <name>6. HWN128 Huttaler Widerwaage</name>
        <desc>Huttaler Widerwaage</desc>
        <sym>Flag</sym>
    </wpt>
    <trk>
        <name>HWN Tour C3 (Platzhalter)</name>
        <desc>Oberharz: Altenau, St. Andreasberg, Bad Lauterberg · Stempel HWN137, HWN138, HWN147, HWN145, HWN127, HWN128 · Luftlinie, geschätzt ca. 18,3 km / mind. 126 Hm</desc>
        <trkseg>
            <trkpt lat="51.77606" lon="10.351"><ele>561</ele></trkpt>
            <trkpt lat="51.7667667" lon="10.3552333"><ele>611</ele></trkpt>
            <trkpt lat="51.75382" lon="10.39834"><ele>530</ele></trkpt>
            <trkpt lat="51.7771" lon="10.3878333"><ele>600</ele></trkpt>
            <trkpt lat="51.7979115" lon="10.3888812"><ele>592</ele></trkpt>
            <trkpt lat="51.78573" lon="10.37743"><ele>598</ele></trkpt>
            <trkpt lat="51.77606" lon="10.351"><ele>561</ele></trkpt>
        </trkseg>
    </trk>
</gpx>
