<?xml version="1.0" encoding="UTF-8"?>
<gpx version="1.1" creator="HWN Route Compare"
     xmlns="http://www.topografix.com/GPX/1/1"
     xmlns:xsi="http://www.w3.org/2001/XMLSchema-instance"
     xsi:schemaLocation="http://www.topografix.com/GPX/1/1 http://www.topografix.com/GPX/1/1/gpx.xsd">
    <metadata>
        <name>HWN Tour C4 (Platzhalter)</name>
        <desc>Oberharz: Altenau, St. Andreasberg, Bad Lauterberg · Stempel HWN151, HWN101, HWN150, HWN115, HWN152 · Luftlinie, geschätzt ca. 19,3 km / mind. 298 Hm</desc>
    </metadata>
    <wpt lat="51.62885" lon="10.4089332">
        <ele>372</ele>
        <name>1. HWN151 Ruine Scharzfels</name>
        <desc>Ruine Scharzfels</desc>
        <sym>Flag</sym>
    </wpt>
    <wpt lat="51.6350165" lon="10.4044">
        <ele>370</ele>
        <name>2. HWN101 Einhornhöhle</name>
        <desc>Einhornhöhle</desc>
        <sym>Flag</sym>
    </wpt>
    <wpt lat="51.6673999" lon="10.4301166">
        <ele>668</ele>
        <name>3. HWN150 Großer Knollen</name>
        <desc>Großer Knollen</desc>
        <sym>Flag</sym>
    </wpt>
    <wpt lat="51.6408008" lon="10.472213">
        <ele>523</ele>
        <name>4. HWN115 Bismarck-Turm</name>
        <desc>Bismarck-Turm</desc>
        <sym>Flag</sym>
    </wpt>
    <wpt lat="51.6434167" lon="10.4425999">
        <ele>479</ele>
        <name>5. HWN152 Knollenkreuz</name>
        <desc>Knollenkreuz</desc>
        <sym>Flag</sym>
    </wpt>
    <trk>
        <name>HWN Tour C4 (Platzhalter)</name>
        <desc>Oberharz: Altenau, St. Andreasberg, Bad Lauterberg · Stempel HWN151, HWN101, HWN150, HWN115, HWN152 · Luftlinie, geschätzt ca. 19,3 km / mind. 298 Hm</desc>
        <trkseg>
            <trkpt lat="51.62885" lon="10.4089332"><ele>372</ele></trkpt>
            <trkpt lat="51.6350165" lon="10.4044"><ele>370</ele></trkpt>
            <trkpt lat="51.6673999" lon="10.4301166"><ele>668</ele></trkpt>
            <trkpt lat="51.6408008" lon="10.472213"><ele>523</ele></trkpt>
            <trkpt lat="51.6434167" lon="10.4425999"><ele>479</ele></trkpt>
            <trkpt lat="51.62885" lon="10.4089332"><ele>372</ele></trkpt>
        </trkseg>
    </trk>
</gpx>
