<?xml version="1.0" encoding="UTF-8"?>
<gpx version="1.1" creator="HWN Route Compare"
     xmlns="http://www.topografix.com/GPX/1/1"
     xmlns:xsi="http://www.w3.org/2001/XMLSchema-instance"
     xsi:schemaLocation="http://www.topografix.com/GPX/1/1 http://www.topografix.com/GPX/1/1/gpx.xsd">
    <metadata>
        <name>HWN Tour C5 (Platzhalter)</name>
        <desc>Oberharz: Altenau, St. Andreasberg, Bad Lauterberg · Stempel HWN146, HWN154 · Luftlinie, geschätzt ca. 15,8 km / mind. 60 Hm</desc>
    </metadata>
    <wpt lat="51.7626" lon="10.4457333">
        <ele>610</ele>
        <name>1. HWN146 Großes Wehr Morgenbrodstal</name>
        <desc>Großes Wehr
Morgenbrodstal</desc>
        <sym>Flag</sym>
    </wpt>
    <wpt lat="51.7322373" lon="10.5113626">
        <ele>670</ele>
        <name>2. HWN154 Dreibrodesteine</name>
        <desc>Dreibrodesteine</desc>
        <sym>Flag</sym>
    </wpt>
    <trk>
        <name>HWN Tour C5 (Platzhalter)</name>
        <desc>Oberharz: Altenau, St. Andreasberg, Bad Lauterberg · Stempel HWN146, HWN154 · Luftlinie, geschätzt ca. 15,8 km / mind. 60 Hm</desc>
        <trkseg>
            <trkpt lat="51.7626" lon="10.4457333"><ele>610</ele></trkpt>
            <trkpt lat="51.7322373" lon="10.5113626"><ele>670</ele></trkpt>
            <trkpt lat="51.7626" lon="10.4457333"><ele>610</ele></trkpt>
        </trkseg>
    </trk>
</gpx>
