<?xml version="1.0" encoding="UTF-8"?>
<gpx version="1.1" creator="HWN Route Compare"
     xmlns="http://www.topografix.com/GPX/1/1"
     xmlns:xsi="http://www.w3.org/2001/XMLSchema-instance"
     xsi:schemaLocation="http://www.topografix.com/GPX/1/1 http://www.topografix.com/GPX/1/1/gpx.xsd">
    <metadata>
        <name>HWN Tour D1 (Platzhalter)</name>
        <desc>Bodetal, Blankenburg, Wernigerode, Rübeland · Stempel HWN052, HWN056, HWN042, HWN041, HWN044 · Luftlinie, geschätzt ca. 19,7 km / mind. 102 Hm</desc>
    </metadata>
    <wpt lat="51.7027527" lon="10.7912051">
        <ele>443</ele>
        <name>1. HWN052 Trageburg</name>
        <desc>Trageburg</desc>
        <sym>Flag</sym>
    </wpt>
    <wpt lat="51.71153" lon="10.80097">
        <ele>445</ele>
        <name>2. HWN056 Rappbodeblick Trautenstein</name>
        <desc>Rappbodeblick
Trautenstein</desc>
        <sym>Flag</sym>
    </wpt>
    <wpt lat="51.7355836" lon="10.8050534">
        <ele>425</ele>
        <name>3. HWN042 Trogfurter Brücke</name>
        <desc>Trogfurter Brücke</desc>
        <sym>Flag</sym>
    </wpt>
    <wpt lat="51.7384135" lon="10.7671901">
        <ele>463</ele>
        <name>4. HWN041 Ruine Königsburg</name>
        <desc>Ruine Königsburg</desc>
        <sym>Flag</sym>
    </wpt>
    <wpt lat="51.7055931" lon="10.7408945">
        <ele>525</ele>
        <name>5. HWN044 Kapitelsberg</name>
        <desc>Kapitelsberg</desc>
        <sym>Flag</sym>
    </wpt>
    <trk>
        <name>HWN Tour D1 (Platzhalter)</name>
        <desc>Bodetal, Blankenburg, Wernigerode, Rübeland · Stempel HWN052, HWN056, HWN042, HWN041, HWN044 · Luftlinie, geschätzt ca. 19,7 km / mind. 102 Hm</desc>
        <trkseg>
            <trkpt lat="51.7027527" lon="10.7912051"><ele>443</ele></trkpt>
            <trkpt lat="51.71153" lon="10.80097"><ele>445</ele></trkpt>
            <trkpt lat="51.7355836" lon="10.8050534"><ele>425</ele></trkpt>
            <trkpt lat="51.7384135" lon="10.7671901"><ele>463</ele></trkpt>
            <trkpt lat="51.7055931" lon="10.7408945"><ele>525</ele></trkpt>
            <trkpt lat="51.7027527" lon="10.7912051"><ele>443</ele></trkpt>
        </trkseg>
    </trk>
</gpx>
