<?xml version="1.0" encoding="UTF-8"?>
<gpx version="1.1" creator="HWN Route Compare"
     xmlns="http://www.topografix.com/GPX/1/1"
     xmlns:xsi="http://www.w3.org/2001/XMLSchema-instance"
     xsi:schemaLocation="http://www.topografix.com/GPX/1/1 http://www.topografix.com/GPX/1/1/gpx.xsd">
    <metadata>
        <name>HWN Tour D2a (Platzhalter)</name>
        <desc>Bodetal, Blankenburg, Wernigerode, Rübeland · Stempel HWN033, HWN032, HWN031 · Luftlinie, geschätzt ca. 9,8 km / mind. 121 Hm</desc>
    </metadata>
    <wpt lat="51.8261332" lon="10.84825">
        <ele>437</ele>
        <name>1. HWN033 Stapenberg</name>
        <desc>Stapenberg</desc>
        <sym>Flag</sym>
    </wpt>
    <wpt lat="51.827537" lon="10.81259">
        <ele>316</ele>
        <name>2. HWN032 Gasthaus Christianental</name>
        <desc>Gasthaus Christianental</desc>
        <sym>Flag</sym>
    </wpt>
    <wpt lat="51.8300303" lon="10.7979608">
        <ele>366</ele>
        <name>3. HWN031 Agnesberg</name>
        <desc>Agnesberg</desc>
        <sym>Flag</sym>
    </wpt>
    <trk>
        <name>HWN Tour D2a (Platzhalter)</name>
        <desc>Bodetal, Blankenburg, Wernigerode, Rübeland · Stempel HWN033, HWN032, HWN031 · Luftlinie, geschätzt ca. 9,8 km / mind. 121 Hm</desc>
        <trkseg>
            <trkpt lat="51.8261332" lon="10.84825"><ele>437</ele></trkpt>
            <trkpt lat="51.827537" lon="10.81259"><ele>316</ele></trkpt>
            <trkpt lat="51.8300303" lon="10.7979608"><ele>366</ele></trkpt>
            <trkpt lat="51.8261332" lon="10.84825"><ele>437</ele></trkpt>
        </trkseg>
    </trk>
</gpx>
