<?xml version="1.0" encoding="UTF-8"?>
<gpx version="1.1" creator="HWN Route Compare"
     xmlns="http://www.topografix.com/GPX/1/1"
     xmlns:xsi="http://www.w3.org/2001/XMLSchema-instance"
     xsi:schemaLocation="http://www.topografix.com/GPX/1/1 http://www.topografix.com/GPX/1/1/gpx.xsd">
    <metadata>
        <name>HWN Tour D2b (Platzhalter)</name>
        <desc>Bodetal, Blankenburg, Wernigerode, Rübeland · Stempel HWN035, HWN036, HWN034 · Luftlinie, geschätzt ca. 9,2 km / mind. 32 Hm</desc>
    </metadata>
    <wpt lat="51.8154458" lon="10.7766306">
        <ele>444</ele>
        <name>1. HWN035 Gasthaus Armeleuteberg</name>
        <desc>Gasthaus Armeleuteberg</desc>
        <sym>Flag</sym>
    </wpt>
    <wpt lat="51.7922222" lon="10.7802778">
        <ele>476</ele>
        <name>2. HWN036 Peterstein</name>
        <desc>Peterstein</desc>
        <sym>Flag</sym>
    </wpt>
    <wpt lat="51.8100167" lon="10.7984">
        <ele>463</ele>
        <name>3. HWN034 Scharfenstein</name>
        <desc>Scharfenstein</desc>
        <sym>Flag</sym>
    </wpt>
    <trk>
        <name>HWN Tour D2b (Platzhalter)</name>
        <desc>Bodetal, Blankenburg, Wernigerode, Rübeland · Stempel HWN035, HWN036, HWN034 · Luftlinie, geschätzt ca. 9,2 km / mind. 32 Hm</desc>
        <trkseg>
            <trkpt lat="51.8154458" lon="10.7766306"><ele>444</ele></trkpt>
            <trkpt lat="51.7922222" lon="10.7802778"><ele>476</ele></trkpt>
            <trkpt lat="51.8100167" lon="10.7984"><ele>463</ele></trkpt>
            <trkpt lat="51.8154458" lon="10.7766306"><ele>444</ele></trkpt>
        </trkseg>
    </trk>
</gpx>
