<?xml version="1.0" encoding="UTF-8"?>
<gpx version="1.1" creator="HWN Route Compare"
     xmlns="http://www.topografix.com/GPX/1/1"
     xmlns:xsi="http://www.w3.org/2001/XMLSchema-instance"
     xsi:schemaLocation="http://www.topografix.com/GPX/1/1 http://www.topografix.com/GPX/1/1/gpx.xsd">
    <metadata>
        <name>HWN Tour D4 (Platzhalter)</name>
        <desc>Bodetal, Blankenburg, Wernigerode, Rübeland · Stempel HWN060, HWN054, HWN053 · Luftlinie, geschätzt ca. 14,1 km / mind. 86 Hm</desc>
    </metadata>
    <wpt lat="51.7219526" lon="10.8961803">
        <ele>481</ele>
        <name>1. HWN060 Stemberghaus-Köhlerei</name>
        <desc>Stemberghaus-Köhlerei</desc>
        <sym>Flag</sym>
    </wpt>
    <wpt lat="51.729124" lon="10.8809109">
        <ele>486</ele>
        <name>2. HWN054 Rotestein</name>
        <desc>Rotestein</desc>
        <sym>Flag</sym>
    </wpt>
    <wpt lat="51.7096833" lon="10.8311333">
        <ele>400</ele>
        <name>3. HWN053 Hassel-Vorsperre</name>
        <desc>Hassel-Vorsperre</desc>
        <sym>Flag</sym>
    </wpt>
    <trk>
        <name>HWN Tour D4 (Platzhalter)</name>
        <desc>Bodetal, Blankenburg, Wernigerode, Rübeland · Stempel HWN060, HWN054, HWN053 · Luftlinie, geschätzt ca. 14,1 km / mind. 86 Hm</desc>
        <trkseg>
            <trkpt lat="51.7219526" lon="10.8961803"><ele>481</ele></trkpt>
            <trkpt lat="51.729124" lon="10.8809109"><ele>486</ele></trkpt>
            <trkpt lat="51.7096833" lon="10.8311333"><ele>400</ele></trkpt>
            <trkpt lat="51.7219526" lon="10.8961803"><ele>481</ele></trkpt>
        </trkseg>
    </trk>
</gpx>
