<?xml version="1.0" encoding="UTF-8"?>
<gpx version="1.1" creator="HWN Route Compare"
     xmlns="http://www.topografix.com/GPX/1/1"
     xmlns:xsi="http://www.w3.org/2001/XMLSchema-instance"
     xsi:schemaLocation="http://www.topografix.com/GPX/1/1 http://www.topografix.com/GPX/1/1/gpx.xsd">
    <metadata>
        <name>HWN Tour D6 (Platzhalter)</name>
        <desc>Bodetal, Blankenburg, Wernigerode, Rübeland · Stempel HWN074, HWN076, HWN078, HWN059, HWN079, HWN077 · Luftlinie, geschätzt ca. 20,9 km / mind. 244 Hm</desc>
    </metadata>
    <wpt lat="51.7769018" lon="11.0011348">
        <ele>220</ele>
        <name>1. HWN074 Hamburger Wappen</name>
        <desc>Hamburger Wappen (Teufelsmauer)</desc>
        <sym>Flag</sym>
    </wpt>
    <wpt lat="51.7859791" lon="10.9671674">
        <ele>297</ele>
        <name>2. HWN076 Großvaterfelsen</name>
        <desc>Großvaterfelsen</desc>
        <sym>Flag</sym>
    </wpt>
    <wpt lat="51.7874667" lon="10.95635">
        <ele>250</ele>
        <name>3. HWN078 Barocke Gärten</name>
        <desc>Barocke Gärten</desc>
        <sym>Flag</sym>
    </wpt>
    <wpt lat="51.80498" lon="10.90977">
        <ele>270</ele>
        <name>4. HWN059 Klostergrund Michaelstein</name>
        <desc>Klostergrund Michaelstein</desc>
        <sym>Flag</sym>
    </wpt>
    <wpt lat="51.78495" lon="10.9230167">
        <ele>417</ele>
        <name>5. HWN079 Otto-Ebert-Brücke</name>
        <desc>Otto-Ebert-Brücke</desc>
        <sym>Flag</sym>
    </wpt>
    <wpt lat="51.7827469" lon="10.9542049">
        <ele>334</ele>
        <name>6. HWN077 Ruine Luisenburg</name>
        <desc>Ruine Luisenburg</desc>
        <sym>Flag</sym>
    </wpt>
    <trk>
        <name>HWN Tour D6 (Platzhalter)</name>
        <desc>Bodetal, Blankenburg, Wernigerode, Rübeland · Stempel HWN074, HWN076, HWN078, HWN059, HWN079, HWN077 · Luftlinie, geschätzt ca. 20,9 km / mind. 244 Hm</desc>
        <trkseg>
            <trkpt lat="51.7769018" lon="11.0011348"><ele>220</ele></trkpt>
            <trkpt lat="51.7859791" lon="10.9671674"><ele>297</ele></trkpt>
            <trkpt lat="51.7874667" lon="10.95635"><ele>250</ele></trkpt>
            <trkpt lat="51.80498" lon="10.90977"><ele>270</ele></trkpt>
            <trkpt lat="51.78495" lon="10.9230167"><ele>417</ele></trkpt>
            <trkpt lat="51.7827469" lon="10.9542049"><ele>334</ele></trkpt>
            <trkpt lat="51.7769018" lon="11.0011348"><ele>220</ele></trkpt>
        </trkseg>
    </trk>
</gpx>
