<?xml version="1.0" encoding="UTF-8"?>
<gpx version="1.1" creator="HWN Route Compare"
     xmlns="http://www.topografix.com/GPX/1/1"
     xmlns:xsi="http://www.w3.org/2001/XMLSchema-instance"
     xsi:schemaLocation="http://www.topografix.com/GPX/1/1 http://www.topografix.com/GPX/1/1/gpx.xsd">
    <metadata>
        <name>HWN Tour D7b (Platzhalter)</name>
        <desc>Bodetal, Blankenburg, Wernigerode, Rübeland · Stempel HWN070, HWN068, HWN067, HWN069, HWN066 · Luftlinie, geschätzt ca. 10,8 km / mind. 193 Hm</desc>
    </metadata>
    <wpt lat="51.7337167" lon="11.0074">
        <ele>380</ele>
        <name>1. HWN070 Prinzensicht</name>
        <desc>Prinzensicht (Aussichtspunkt)</desc>
        <sym>Flag</sym>
    </wpt>
    <wpt lat="51.7173198" lon="11.0022257">
        <ele>470</ele>
        <name>2. HWN068 &quot;Pfeil&quot;-Denkmal</name>
        <desc>&quot;Pfeil&quot;-Denkmal</desc>
        <sym>Flag</sym>
    </wpt>
    <wpt lat="51.7169165" lon="10.9780534">
        <ele>400</ele>
        <name>3. HWN067 Weisser Hirsch</name>
        <desc>Weisser Hirsch (Aussichtspunkt)</desc>
        <sym>Flag</sym>
    </wpt>
    <wpt lat="51.722" lon="10.9701334">
        <ele>277</ele>
        <name>4. HWN069 Sonnenklippe</name>
        <desc>Sonnenklippe (Bodetal)</desc>
        <sym>Flag</sym>
    </wpt>
    <wpt lat="51.7231" lon="10.9661334">
        <ele>301</ele>
        <name>5. HWN066 Wilhelmsblick</name>
        <desc>Wilhelmsblick (Aussichtspunkt)</desc>
        <sym>Flag</sym>
    </wpt>
    <trk>
        <name>HWN Tour D7b (Platzhalter)</name>
        <desc>Bodetal, Blankenburg, Wernigerode, Rübeland · Stempel HWN070, HWN068, HWN067, HWN069, HWN066 · Luftlinie, geschätzt ca. 10,8 km / mind. 193 Hm</desc>
        <trkseg>
            <trkpt lat="51.7337167" lon="11.0074"><ele>380</ele></trkpt>
            <trkpt lat="51.7173198" lon="11.0022257"><ele>470</ele></trkpt>
            <trkpt lat="51.7169165" lon="10.9780534"><ele>400</ele></trkpt>
            <trkpt lat="51.722" lon="10.9701334"><ele>277</ele></trkpt>
            <trkpt lat="51.7231" lon="10.9661334"><ele>301</ele></trkpt>
            <trkpt lat="51.7337167" lon="11.0074"><ele>380</ele></trkpt>
        </trkseg>
    </trk>
</gpx>
