<?xml version="1.0" encoding="UTF-8"?>
<gpx version="1.1" creator="HWN Route Compare"
     xmlns="http://www.topografix.com/GPX/1/1"
     xmlns:xsi="http://www.w3.org/2001/XMLSchema-instance"
     xsi:schemaLocation="http://www.topografix.com/GPX/1/1 http://www.topografix.com/GPX/1/1/gpx.xsd">
    <metadata>
        <name>HWN Tour D8 (Platzhalter)</name>
        <desc>Bodetal, Blankenburg, Wernigerode, Rübeland · Stempel HWN072, HWN178, HWN071 · Luftlinie, geschätzt ca. 2,1 km / mind. 128 Hm</desc>
    </metadata>
    <wpt lat="51.7305833" lon="11.0168333">
        <ele>400</ele>
        <name>1. HWN072 La Viershöhe</name>
        <desc>La Viershöhe</desc>
        <sym>Flag</sym>
    </wpt>
    <wpt lat="51.7336333" lon="11.01775">
        <ele>272</ele>
        <name>2. HWN178 Hirschgrund</name>
        <desc>Hirschgrund (am Gasthaus Königsruh)</desc>
        <sym>Flag</sym>
    </wpt>
    <wpt lat="51.7372421" lon="11.0186548">
        <ele>394</ele>
        <name>3. HWN071 Rosstrappe</name>
        <desc>Rosstrappe (Abzweig Schurre)</desc>
        <sym>Flag</sym>
    </wpt>
    <trk>
        <name>HWN Tour D8 (Platzhalter)</name>
        <desc>Bodetal, Blankenburg, Wernigerode, Rübeland · Stempel HWN072, HWN178, HWN071 · Luftlinie, geschätzt ca. 2,1 km / mind. 128 Hm</desc>
        <trkseg>
            <trkpt lat="51.7305833" lon="11.0168333"><ele>400</ele></trkpt>
            <trkpt lat="51.7336333" lon="11.01775"><ele>272</ele></trkpt>
            <trkpt lat="51.7372421" lon="11.0186548"><ele>394</ele></trkpt>
            <trkpt lat="51.7305833" lon="11.0168333"><ele>400</ele></trkpt>
        </trkseg>
    </trk>
</gpx>
