<?xml version="1.0" encoding="UTF-8"?>
<gpx version="1.1" creator="HWN Route Compare"
     xmlns="http://www.topografix.com/GPX/1/1"
     xmlns:xsi="http://www.w3.org/2001/XMLSchema-instance"
     xsi:schemaLocation="http://www.topografix.com/GPX/1/1 http://www.topografix.com/GPX/1/1/gpx.xsd">
    <metadata>
        <name>HWN Tour E1 (Platzhalter)</name>
        <desc>Südwestharz: Walkenried, Zorge, Benneckenstein · Stempel HWN043, HWN220, HWN161, HWN159, HWN158 · Luftlinie, geschätzt ca. 18,3 km / mind. 275 Hm</desc>
    </metadata>
    <wpt lat="51.61864" lon="10.50431">
        <ele>430</ele>
        <name>1. HWN043 Hohe Tür - Wasserscheide Weser-Elbe</name>
        <desc>Wasserscheide Weser-Elbe
„Hohe Tür“</desc>
        <sym>Flag</sym>
    </wpt>
    <wpt lat="51.6095037" lon="10.531842">
        <ele>464</ele>
        <name>2. HWN220 Phillippsgruß</name>
        <desc>Phillippsgruß</desc>
        <sym>Flag</sym>
    </wpt>
    <wpt lat="51.6309197" lon="10.5427079">
        <ele>625</ele>
        <name>3. HWN161 Stefanshütte</name>
        <desc>Stefanshütte</desc>
        <sym>Flag</sym>
    </wpt>
    <wpt lat="51.6565319" lon="10.5540825">
        <ele>705</ele>
        <name>4. HWN159 Stöberhai</name>
        <desc>Stöberhai</desc>
        <sym>Flag</sym>
    </wpt>
    <wpt lat="51.6382863" lon="10.5249516">
        <ele>560</ele>
        <name>5. HWN158 Hassenstein</name>
        <desc>Hassenstein</desc>
        <sym>Flag</sym>
    </wpt>
    <trk>
        <name>HWN Tour E1 (Platzhalter)</name>
        <desc>Südwestharz: Walkenried, Zorge, Benneckenstein · Stempel HWN043, HWN220, HWN161, HWN159, HWN158 · Luftlinie, geschätzt ca. 18,3 km / mind. 275 Hm</desc>
        <trkseg>
            <trkpt lat="51.61864" lon="10.50431"><ele>430</ele></trkpt>
            <trkpt lat="51.6095037" lon="10.531842"><ele>464</ele></trkpt>
            <trkpt lat="51.6309197" lon="10.5427079"><ele>625</ele></trkpt>
            <trkpt lat="51.6565319" lon="10.5540825"><ele>705</ele></trkpt>
            <trkpt lat="51.6382863" lon="10.5249516"><ele>560</ele></trkpt>
            <trkpt lat="51.61864" lon="10.50431"><ele>430</ele></trkpt>
        </trkseg>
    </trk>
</gpx>
