<?xml version="1.0" encoding="UTF-8"?>
<gpx version="1.1" creator="HWN Route Compare"
     xmlns="http://www.topografix.com/GPX/1/1"
     xmlns:xsi="http://www.w3.org/2001/XMLSchema-instance"
     xsi:schemaLocation="http://www.topografix.com/GPX/1/1 http://www.topografix.com/GPX/1/1/gpx.xsd">
    <metadata>
        <name>HWN Tour E2 (Platzhalter)</name>
        <desc>Südwestharz: Walkenried, Zorge, Benneckenstein · Stempel HWN192, HWN166, HWN167 · Luftlinie, geschätzt ca. 13,9 km / mind. 54 Hm</desc>
    </metadata>
    <wpt lat="51.5768857" lon="10.575238">
        <ele>272</ele>
        <name>1. HWN192 Historischer Gipsbrennofen</name>
        <desc>Historischer Gipsbrennofen</desc>
        <sym>Flag</sym>
    </wpt>
    <wpt lat="51.58073" lon="10.58385">
        <ele>326</ele>
        <name>2. HWN166 Sachsensteinhütte</name>
        <desc>Sachsensteinhütte</desc>
        <sym>Flag</sym>
    </wpt>
    <wpt lat="51.58107" lon="10.64591">
        <ele>303</ele>
        <name>3. HWN167 Hexentanzplatz Walkenried</name>
        <desc>Hexentanzplatz Walkenried, Ellricher Blick</desc>
        <sym>Flag</sym>
    </wpt>
    <trk>
        <name>HWN Tour E2 (Platzhalter)</name>
        <desc>Südwestharz: Walkenried, Zorge, Benneckenstein · Stempel HWN192, HWN166, HWN167 · Luftlinie, geschätzt ca. 13,9 km / mind. 54 Hm</desc>
        <trkseg>
            <trkpt lat="51.5768857" lon="10.575238"><ele>272</ele></trkpt>
            <trkpt lat="51.58073" lon="10.58385"><ele>326</ele></trkpt>
            <trkpt lat="51.58107" lon="10.64591"><ele>303</ele></trkpt>
            <trkpt lat="51.5768857" lon="10.575238"><ele>272</ele></trkpt>
        </trkseg>
    </trk>
</gpx>
