<?xml version="1.0" encoding="UTF-8"?>
<gpx version="1.1" creator="HWN Route Compare"
     xmlns="http://www.topografix.com/GPX/1/1"
     xmlns:xsi="http://www.w3.org/2001/XMLSchema-instance"
     xsi:schemaLocation="http://www.topografix.com/GPX/1/1 http://www.topografix.com/GPX/1/1/gpx.xsd">
    <metadata>
        <name>HWN Tour E3b (Platzhalter)</name>
        <desc>Südwestharz: Walkenried, Zorge, Benneckenstein · Stempel HWN058, HWN165, HWN090, HWN164 · Luftlinie, geschätzt ca. 8,5 km / mind. 105 Hm</desc>
    </metadata>
    <wpt lat="51.6384098" lon="10.6305328">
        <ele>460</ele>
        <name>1. HWN058 Pferdchen</name>
        <desc>Pferdchen</desc>
        <sym>Flag</sym>
    </wpt>
    <wpt lat="51.6245435" lon="10.6570889">
        <ele>561</ele>
        <name>2. HWN165 Wendel-Eiche</name>
        <desc>Wendel-Eiche</desc>
        <sym>Flag</sym>
    </wpt>
    <wpt lat="51.6171399" lon="10.6516832">
        <ele>463</ele>
        <name>3. HWN090 Roter Schuss</name>
        <desc>Roter Schuss</desc>
        <sym>Flag</sym>
    </wpt>
    <wpt lat="51.623099" lon="10.6432576">
        <ele>456</ele>
        <name>4. HWN164 Stiefmutter</name>
        <desc>Stiefmutter</desc>
        <sym>Flag</sym>
    </wpt>
    <trk>
        <name>HWN Tour E3b (Platzhalter)</name>
        <desc>Südwestharz: Walkenried, Zorge, Benneckenstein · Stempel HWN058, HWN165, HWN090, HWN164 · Luftlinie, geschätzt ca. 8,5 km / mind. 105 Hm</desc>
        <trkseg>
            <trkpt lat="51.6384098" lon="10.6305328"><ele>460</ele></trkpt>
            <trkpt lat="51.6245435" lon="10.6570889"><ele>561</ele></trkpt>
            <trkpt lat="51.6171399" lon="10.6516832"><ele>463</ele></trkpt>
            <trkpt lat="51.623099" lon="10.6432576"><ele>456</ele></trkpt>
            <trkpt lat="51.6384098" lon="10.6305328"><ele>460</ele></trkpt>
        </trkseg>
    </trk>
</gpx>
