<?xml version="1.0" encoding="UTF-8"?>
<gpx version="1.1" creator="HWN Route Compare"
     xmlns="http://www.topografix.com/GPX/1/1"
     xmlns:xsi="http://www.w3.org/2001/XMLSchema-instance"
     xsi:schemaLocation="http://www.topografix.com/GPX/1/1 http://www.topografix.com/GPX/1/1/gpx.xsd">
    <metadata>
        <name>HWN Tour F6 (Platzhalter)</name>
        <desc>Selketal und Unterharz · Stempel HWN201, HWN207, HWN180, HWN199 · Luftlinie, geschätzt ca. 19,1 km / mind. 46 Hm</desc>
    </metadata>
    <wpt lat="51.7140166" lon="11.3477999">
        <ele>225</ele>
        <name>1. HWN201 Konradsburg</name>
        <desc>Konradsburg</desc>
        <sym>Flag</sym>
    </wpt>
    <wpt lat="51.7006999" lon="11.2833799">
        <ele>199</ele>
        <name>2. HWN207 Mausoleum</name>
        <desc>Mausoleum</desc>
        <sym>Flag</sym>
    </wpt>
    <wpt lat="51.70738" lon="11.25546">
        <ele>245</ele>
        <name>3. HWN180 Alter Kohlenschacht</name>
        <desc>Alter Kohlenschacht</desc>
        <sym>Flag</sym>
    </wpt>
    <wpt lat="51.7142489" lon="11.258793">
        <ele>245</ele>
        <name>4. HWN199 Bismarckturm</name>
        <desc>Bismarckturm</desc>
        <sym>Flag</sym>
    </wpt>
    <trk>
        <name>HWN Tour F6 (Platzhalter)</name>
        <desc>Selketal und Unterharz · Stempel HWN201, HWN207, HWN180, HWN199 · Luftlinie, geschätzt ca. 19,1 km / mind. 46 Hm</desc>
        <trkseg>
            <trkpt lat="51.7140166" lon="11.3477999"><ele>225</ele></trkpt>
            <trkpt lat="51.7006999" lon="11.2833799"><ele>199</ele></trkpt>
            <trkpt lat="51.70738" lon="11.25546"><ele>245</ele></trkpt>
            <trkpt lat="51.7142489" lon="11.258793"><ele>245</ele></trkpt>
            <trkpt lat="51.7140166" lon="11.3477999"><ele>225</ele></trkpt>
        </trkseg>
    </trk>
</gpx>
