<?xml version="1.0" encoding="UTF-8"?>
<gpx version="1.1" creator="HWN Route Compare"
     xmlns="http://www.topografix.com/GPX/1/1"
     xmlns:xsi="http://www.w3.org/2001/XMLSchema-instance"
     xsi:schemaLocation="http://www.topografix.com/GPX/1/1 http://www.topografix.com/GPX/1/1/gpx.xsd">
    <metadata>
        <name>HWN Tour F7 (Platzhalter)</name>
        <desc>Selketal und Unterharz · Stempel HWN086, HWN205, HWN200, HWN204, HWN202 · Luftlinie, geschätzt ca. 19,5 km / mind. 50 Hm</desc>
    </metadata>
    <wpt lat="51.662" lon="11.3416">
        <ele>261</ele>
        <name>1. HWN086 Bisonhehege Stangerode</name>
        <desc>Bisonhehege Stangerode</desc>
        <sym>Flag</sym>
    </wpt>
    <wpt lat="51.6634242" lon="11.3063072">
        <ele>260</ele>
        <name>2. HWN205 Cluesberg</name>
        <desc>Rastplatz unterhalb des Cluesberges</desc>
        <sym>Flag</sym>
    </wpt>
    <wpt lat="51.6817999" lon="11.2659499">
        <ele>296</ele>
        <name>3. HWN200 Burg Falkenstein</name>
        <desc>Burg Falkenstein</desc>
        <sym>Flag</sym>
    </wpt>
    <wpt lat="51.6854667" lon="11.2544334">
        <ele>297</ele>
        <name>4. HWN204 Selkesicht an der Ackeburg</name>
        <desc>Selkesicht an der Ackeburg</desc>
        <sym>Flag</sym>
    </wpt>
    <wpt lat="51.6854" lon="11.30768">
        <ele>310</ele>
        <name>5. HWN202 Landschaftspark Degenerhausen</name>
        <desc>Landschaftspark Degenerhausen</desc>
        <sym>Flag</sym>
    </wpt>
    <trk>
        <name>HWN Tour F7 (Platzhalter)</name>
        <desc>Selketal und Unterharz · Stempel HWN086, HWN205, HWN200, HWN204, HWN202 · Luftlinie, geschätzt ca. 19,5 km / mind. 50 Hm</desc>
        <trkseg>
            <trkpt lat="51.662" lon="11.3416"><ele>261</ele></trkpt>
            <trkpt lat="51.6634242" lon="11.3063072"><ele>260</ele></trkpt>
            <trkpt lat="51.6817999" lon="11.2659499"><ele>296</ele></trkpt>
            <trkpt lat="51.6854667" lon="11.2544334"><ele>297</ele></trkpt>
            <trkpt lat="51.6854" lon="11.30768"><ele>310</ele></trkpt>
            <trkpt lat="51.662" lon="11.3416"><ele>261</ele></trkpt>
        </trkseg>
    </trk>
</gpx>
