<?xml version="1.0" encoding="UTF-8"?>
<gpx version="1.1" creator="HWN Route Compare"
     xmlns="http://www.topografix.com/GPX/1/1"
     xmlns:xsi="http://www.w3.org/2001/XMLSchema-instance"
     xsi:schemaLocation="http://www.topografix.com/GPX/1/1 http://www.topografix.com/GPX/1/1/gpx.xsd">
    <metadata>
        <name>HWN Tour G1 (Platzhalter)</name>
        <desc>Südharz: Ilfeld, Neustadt, Stolberg · Stempel HWN096 · Einzelstempel ohne Runde</desc>
    </metadata>
    <wpt lat="51.6077" lon="10.72845">
        <ele>396</ele>
        <name>1. HWN096 ehemalige Steinmühle</name>
        <desc>ehemalige Steinmühle</desc>
        <sym>Flag</sym>
    </wpt>
</gpx>
