<?xml version="1.0" encoding="UTF-8"?>
<gpx version="1.1" creator="HWN Route Compare"
     xmlns="http://www.topografix.com/GPX/1/1"
     xmlns:xsi="http://www.w3.org/2001/XMLSchema-instance"
     xsi:schemaLocation="http://www.topografix.com/GPX/1/1 http://www.topografix.com/GPX/1/1/gpx.xsd">
    <metadata>
        <name>HWN Tour G2 (Platzhalter)</name>
        <desc>Südharz: Ilfeld, Neustadt, Stolberg · Stempel HWN099, HWN098, HWN218, HWN092, HWN093, HWN095 · Luftlinie, geschätzt ca. 20,9 km / mind. 345 Hm</desc>
    </metadata>
    <wpt lat="51.5566" lon="10.82546">
        <ele>275</ele>
        <name>1. HWN099 Harzer Holzdampflok</name>
        <desc>Harzer Holzdampflok</desc>
        <sym>Flag</sym>
    </wpt>
    <wpt lat="51.5697999" lon="10.8374832">
        <ele>352</ele>
        <name>2. HWN098 Ruine Hohnstein</name>
        <desc>Ruine Hohnstein</desc>
        <sym>Flag</sym>
    </wpt>
    <wpt lat="51.5788833" lon="10.8633333">
        <ele>460</ele>
        <name>3. HWN218 Neustädter Talsperre</name>
        <desc>Neustädter Talsperre</desc>
        <sym>Flag</sym>
    </wpt>
    <wpt lat="51.5881087" lon="10.8269626">
        <ele>590</ele>
        <name>4. HWN092 Poppenberg</name>
        <desc>Poppenberg mit Aussichtsturm</desc>
        <sym>Flag</sym>
    </wpt>
    <wpt lat="51.6012666" lon="10.7925667">
        <ele>430</ele>
        <name>5. HWN093 Dreitälerblick</name>
        <desc>Dreitälerblick</desc>
        <sym>Flag</sym>
    </wpt>
    <wpt lat="51.5874166" lon="10.7915833">
        <ele>460</ele>
        <name>6. HWN095 Ilfelder Wetterfahne</name>
        <desc>Ilfelder Wetterfahne</desc>
        <sym>Flag</sym>
    </wpt>
    <trk>
        <name>HWN Tour G2 (Platzhalter)</name>
        <desc>Südharz: Ilfeld, Neustadt, Stolberg · Stempel HWN099, HWN098, HWN218, HWN092, HWN093, HWN095 · Luftlinie, geschätzt ca. 20,9 km / mind. 345 Hm</desc>
        <trkseg>
            <trkpt lat="51.5566" lon="10.82546"><ele>275</ele></trkpt>
            <trkpt lat="51.5697999" lon="10.8374832"><ele>352</ele></trkpt>
            <trkpt lat="51.5788833" lon="10.8633333"><ele>460</ele></trkpt>
            <trkpt lat="51.5881087" lon="10.8269626"><ele>590</ele></trkpt>
            <trkpt lat="51.6012666" lon="10.7925667"><ele>430</ele></trkpt>
            <trkpt lat="51.5874166" lon="10.7915833"><ele>460</ele></trkpt>
            <trkpt lat="51.5566" lon="10.82546"><ele>275</ele></trkpt>
        </trkseg>
    </trk>
</gpx>
