<?xml version="1.0" encoding="UTF-8"?>
<gpx version="1.1" creator="HWN Route Compare"
     xmlns="http://www.topografix.com/GPX/1/1"
     xmlns:xsi="http://www.w3.org/2001/XMLSchema-instance"
     xsi:schemaLocation="http://www.topografix.com/GPX/1/1 http://www.topografix.com/GPX/1/1/gpx.xsd">
    <metadata>
        <name>HWN Tour G2b (Platzhalter)</name>
        <desc>Südharz: Ilfeld, Neustadt, Stolberg · Stempel HWN092, HWN093, HWN095 · Luftlinie, geschätzt ca. 9,5 km / mind. 160 Hm</desc>
    </metadata>
    <wpt lat="51.5881087" lon="10.8269626">
        <ele>590</ele>
        <name>1. HWN092 Poppenberg</name>
        <desc>Poppenberg mit Aussichtsturm</desc>
        <sym>Flag</sym>
    </wpt>
    <wpt lat="51.6012666" lon="10.7925667">
        <ele>430</ele>
        <name>2. HWN093 Dreitälerblick</name>
        <desc>Dreitälerblick</desc>
        <sym>Flag</sym>
    </wpt>
    <wpt lat="51.5874166" lon="10.7915833">
        <ele>460</ele>
        <name>3. HWN095 Ilfelder Wetterfahne</name>
        <desc>Ilfelder Wetterfahne</desc>
        <sym>Flag</sym>
    </wpt>
    <trk>
        <name>HWN Tour G2b (Platzhalter)</name>
        <desc>Südharz: Ilfeld, Neustadt, Stolberg · Stempel HWN092, HWN093, HWN095 · Luftlinie, geschätzt ca. 9,5 km / mind. 160 Hm</desc>
        <trkseg>
            <trkpt lat="51.5881087" lon="10.8269626"><ele>590</ele></trkpt>
            <trkpt lat="51.6012666" lon="10.7925667"><ele>430</ele></trkpt>
            <trkpt lat="51.5874166" lon="10.7915833"><ele>460</ele></trkpt>
            <trkpt lat="51.5881087" lon="10.8269626"><ele>590</ele></trkpt>
        </trkseg>
    </trk>
</gpx>
