<?xml version="1.0" encoding="UTF-8"?>
<gpx version="1.1" creator="HWN Route Compare"
     xmlns="http://www.topografix.com/GPX/1/1"
     xmlns:xsi="http://www.w3.org/2001/XMLSchema-instance"
     xsi:schemaLocation="http://www.topografix.com/GPX/1/1 http://www.topografix.com/GPX/1/1/gpx.xsd">
    <metadata>
        <name>HWN Tour G4 (Platzhalter)</name>
        <desc>Südharz: Ilfeld, Neustadt, Stolberg · Stempel HWN216, HWN100 · Luftlinie, geschätzt ca. 15,2 km / mind. 44 Hm</desc>
    </metadata>
    <wpt lat="51.5718" lon="10.95271">
        <ele>330</ele>
        <name>1. HWN216 Lutherbuche</name>
        <desc>Lutherbuche</desc>
        <sym>Flag</sym>
    </wpt>
    <wpt lat="51.5538166" lon="10.8797167">
        <ele>374</ele>
        <name>2. HWN100 Ebersburg</name>
        <desc>Ebersburg</desc>
        <sym>Flag</sym>
    </wpt>
    <trk>
        <name>HWN Tour G4 (Platzhalter)</name>
        <desc>Südharz: Ilfeld, Neustadt, Stolberg · Stempel HWN216, HWN100 · Luftlinie, geschätzt ca. 15,2 km / mind. 44 Hm</desc>
        <trkseg>
            <trkpt lat="51.5718" lon="10.95271"><ele>330</ele></trkpt>
            <trkpt lat="51.5538166" lon="10.8797167"><ele>374</ele></trkpt>
            <trkpt lat="51.5718" lon="10.95271"><ele>330</ele></trkpt>
        </trkseg>
    </trk>
</gpx>
