<?xml version="1.0" encoding="UTF-8"?>
<gpx version="1.1" creator="HWN Route Compare"
     xmlns="http://www.topografix.com/GPX/1/1"
     xmlns:xsi="http://www.w3.org/2001/XMLSchema-instance"
     xsi:schemaLocation="http://www.topografix.com/GPX/1/1 http://www.topografix.com/GPX/1/1/gpx.xsd">
    <metadata>
        <name>HWN Tour G5 (Platzhalter)</name>
        <desc>Südharz: Ilfeld, Neustadt, Stolberg · Stempel HWN172, HWN055, HWN094 · Luftlinie, geschätzt ca. 21,4 km / mind. 123 Hm</desc>
    </metadata>
    <wpt lat="51.6370333" lon="10.9683833">
        <ele>432</ele>
        <name>1. HWN172 Katzsohlteich</name>
        <desc>Katzsohlteich</desc>
        <sym>Flag</sym>
    </wpt>
    <wpt lat="51.6504421" lon="10.9188551">
        <ele>506</ele>
        <name>2. HWN055 Wüstung Sellkenfelde/Kirche</name>
        <desc>Wüstung Sellkenfelde/Kirche</desc>
        <sym>Flag</sym>
    </wpt>
    <wpt lat="51.6063832" lon="10.8919333">
        <ele>555</ele>
        <name>3. HWN094 Dreiherrenstein</name>
        <desc>Dreiherrenstein (am Brandhai 48A)</desc>
        <sym>Flag</sym>
    </wpt>
    <trk>
        <name>HWN Tour G5 (Platzhalter)</name>
        <desc>Südharz: Ilfeld, Neustadt, Stolberg · Stempel HWN172, HWN055, HWN094 · Luftlinie, geschätzt ca. 21,4 km / mind. 123 Hm</desc>
        <trkseg>
            <trkpt lat="51.6370333" lon="10.9683833"><ele>432</ele></trkpt>
            <trkpt lat="51.6504421" lon="10.9188551"><ele>506</ele></trkpt>
            <trkpt lat="51.6063832" lon="10.8919333"><ele>555</ele></trkpt>
            <trkpt lat="51.6370333" lon="10.9683833"><ele>432</ele></trkpt>
        </trkseg>
    </trk>
</gpx>
