<?xml version="1.0" encoding="UTF-8"?>
<gpx version="1.1" creator="HWN Route Compare"
     xmlns="http://www.topografix.com/GPX/1/1"
     xmlns:xsi="http://www.w3.org/2001/XMLSchema-instance"
     xsi:schemaLocation="http://www.topografix.com/GPX/1/1 http://www.topografix.com/GPX/1/1/gpx.xsd">
    <metadata>
        <name>HWN Tour H1 (Platzhalter)</name>
        <desc>Mansfelder Land und Sangerhausen · Stempel HWN210, HWN212, HWN213 · Luftlinie, geschätzt ca. 13 km / mind. 81 Hm</desc>
    </metadata>
    <wpt lat="51.50133" lon="11.14183">
        <ele>325</ele>
        <name>1. HWN210 Schöne Aussicht Hainrode</name>
        <desc>Schöne Aussicht Hainrode</desc>
        <sym>Flag</sym>
    </wpt>
    <wpt lat="51.4932666" lon="11.1172">
        <ele>244</ele>
        <name>2. HWN212 An der Queste</name>
        <desc>An der Queste</desc>
        <sym>Flag</sym>
    </wpt>
    <wpt lat="51.48897" lon="11.07794">
        <ele>258</ele>
        <name>3. HWN213 Bauerngraben</name>
        <desc>Bauerngraben
Schautafel RVH</desc>
        <sym>Flag</sym>
    </wpt>
    <trk>
        <name>HWN Tour H1 (Platzhalter)</name>
        <desc>Mansfelder Land und Sangerhausen · Stempel HWN210, HWN212, HWN213 · Luftlinie, geschätzt ca. 13 km / mind. 81 Hm</desc>
        <trkseg>
            <trkpt lat="51.50133" lon="11.14183"><ele>325</ele></trkpt>
            <trkpt lat="51.4932666" lon="11.1172"><ele>244</ele></trkpt>
            <trkpt lat="51.48897" lon="11.07794"><ele>258</ele></trkpt>
            <trkpt lat="51.50133" lon="11.14183"><ele>325</ele></trkpt>
        </trkseg>
    </trk>
</gpx>
