<?xml version="1.0" encoding="UTF-8"?>
<gpx version="1.1" creator="HWN Route Compare"
     xmlns="http://www.topografix.com/GPX/1/1"
     xmlns:xsi="http://www.w3.org/2001/XMLSchema-instance"
     xsi:schemaLocation="http://www.topografix.com/GPX/1/1 http://www.topografix.com/GPX/1/1/gpx.xsd">
    <metadata>
        <name>HWN Tour H3 (Platzhalter)</name>
        <desc>Mansfelder Land und Sangerhausen · Stempel HWN208, HWN222, HWN209 · Luftlinie, geschätzt ca. 16,2 km / mind. 49 Hm</desc>
    </metadata>
    <wpt lat="51.5345" lon="11.3144333">
        <ele>307</ele>
        <name>1. HWN208 Burgruine Grillenburg</name>
        <desc>Burgruine Grillenburg</desc>
        <sym>Flag</sym>
    </wpt>
    <wpt lat="51.52038" lon="11.27694">
        <ele>343</ele>
        <name>2. HWN222 Bergbaulehrpfad Wettelrode</name>
        <desc>Bergbaulehrpfad Wettelrode</desc>
        <sym>Flag</sym>
    </wpt>
    <wpt lat="51.4930834" lon="11.2709999">
        <ele>294</ele>
        <name>3. HWN209 Moltkewarte</name>
        <desc>Moltkewarte (Aussichtsturm)</desc>
        <sym>Flag</sym>
    </wpt>
    <trk>
        <name>HWN Tour H3 (Platzhalter)</name>
        <desc>Mansfelder Land und Sangerhausen · Stempel HWN208, HWN222, HWN209 · Luftlinie, geschätzt ca. 16,2 km / mind. 49 Hm</desc>
        <trkseg>
            <trkpt lat="51.5345" lon="11.3144333"><ele>307</ele></trkpt>
            <trkpt lat="51.52038" lon="11.27694"><ele>343</ele></trkpt>
            <trkpt lat="51.4930834" lon="11.2709999"><ele>294</ele></trkpt>
            <trkpt lat="51.5345" lon="11.3144333"><ele>307</ele></trkpt>
        </trkseg>
    </trk>
</gpx>
